{"type":"Feature","id":258,"geometry":{"type":"Polygon","coordinates":[[[-122.25626643,49.17665801],[-122.25861378,49.17665908],[-122.26065524,49.17665979],[-122.26688803,49.17666193],[-122.26761983,49.17666228],[-122.26965388,49.17666264],[-122.27040246,49.17663451],[-122.27090226,49.17665053],[-122.2727586,49.17670972],[-122.27303535,49.17671854],[-122.27380216,49.17672378],[-122.27527202,49.1767338],[-122.27527558,49.17673382],[-122.27559364,49.17673599],[-122.27596362,49.17673848],[-122.2774413,49.1767488],[-122.2774481,49.17674874],[-122.27781823,49.1767513],[-122.27836477,49.17674346],[-122.27887776,49.17673593],[-122.28212049,49.17668828],[-122.28219744,49.17671878],[-122.28227769,49.17675059],[-122.28231502,49.17674743],[-122.28277062,49.17670893],[-122.28277057,49.17669898],[-122.28276897,49.17635288],[-122.28277672,49.17543308],[-122.28278353,49.1746246],[-122.28280168,49.17276743],[-122.28280935,49.17189854],[-122.28281347,49.17143259],[-122.28281883,49.17079476],[-122.28282806,49.16969648],[-122.28283351,49.1690595],[-122.2833009,49.16906027],[-122.28390906,49.16906128],[-122.28857509,49.16907002],[-122.29314135,49.16907837],[-122.29385607,49.16907952],[-122.2944721,49.16908051],[-122.2957368,49.16908284],[-122.29640648,49.16908407],[-122.29913208,49.16908875],[-122.29925125,49.16908896],[-122.3021224,49.16908656],[-122.3027943,49.16908936],[-122.30580336,49.16910187],[-122.30758184,49.16910899],[-122.30829704,49.16911184],[-122.30859249,49.16911332],[-122.30921899,49.16911647],[-122.31134543,49.16912679],[-122.31194847,49.16912956],[-122.31212261,49.16913035],[-122.31285372,49.169134],[-122.31397903,49.16913961],[-122.31492139,49.16914418],[-122.31596485,49.16914922],[-122.31621478,49.169339],[-122.31628176,49.16938992],[-122.31732589,49.17000695],[-122.31736771,49.17003094],[-122.31746555,49.17008707],[-122.31788771,49.1703288],[-122.31912489,49.17103773],[-122.31996369,49.17154296],[-122.32167103,49.17257167],[-122.32171641,49.17259902],[-122.32172999,49.1726072],[-122.32282016,49.17326412],[-122.32330297,49.17369423],[-122.32349508,49.17391661],[-122.32360626,49.1740453],[-122.323687,49.17413909],[-122.32373407,49.17419377],[-122.32408852,49.17465737],[-122.32414429,49.1747307],[-122.32430156,49.17484592],[-122.32434793,49.17487989],[-122.32472956,49.17505793],[-122.32477531,49.17507928],[-122.32514002,49.17514906],[-122.32515866,49.17515265],[-122.32529169,49.17517826],[-122.32557416,49.17517847],[-122.32575823,49.17517861],[-122.32589559,49.17516014],[-122.32613673,49.1751277],[-122.32696226,49.17495751],[-122.32763606,49.17485176],[-122.32946225,49.17465344],[-122.32959782,49.17465169],[-122.33004341,49.17464596],[-122.33056796,49.17474494],[-122.33106704,49.17494229],[-122.33128472,49.17502836],[-122.33131206,49.17504122],[-122.33133717,49.17492617],[-122.33144987,49.17471966],[-122.33154951,49.17453167],[-122.33162017,49.17437073],[-122.33166202,49.17426249],[-122.33171959,49.17406453],[-122.33179024,49.17388508],[-122.33184736,49.17379535],[-122.33208207,49.17364438],[-122.33223371,49.17360878],[-122.33249477,49.17353899],[-122.33282686,49.17341509],[-122.33296391,49.17335242],[-122.33314283,49.17323706],[-122.33325639,49.17308467],[-122.33331198,49.17296788],[-122.3333689,49.17279698],[-122.33339817,49.17263604],[-122.33342695,49.1725278],[-122.33341634,49.1723569],[-122.33343187,49.17218599],[-122.33344758,49.17207775],[-122.33344872,49.17196097],[-122.33342305,49.17185273],[-122.33335665,49.17173594],[-122.33323427,49.17153655],[-122.33320945,49.17148243],[-122.33308575,49.17135568],[-122.33277385,49.17115629],[-122.33252968,49.17101957],[-122.33225567,49.17089281],[-122.33197011,49.1707746],[-122.33169762,49.17061936],[-122.33145193,49.17045558],[-122.33132976,49.1703744],[-122.33108493,49.17026474],[-122.33075781,49.17008386],[-122.33054112,49.16991153],[-122.33030985,49.16969363],[-122.33008009,49.1695213],[-122.32986275,49.16939454],[-122.32969902,49.16919515],[-122.32967203,49.16915955],[-122.32966146,49.16900716],[-122.32967519,49.16894307],[-122.32966261,49.16885334],[-122.32969275,49.16872801],[-122.32977802,49.16855711],[-122.32982039,49.16835914],[-122.32986561,49.16815263],[-122.32989541,49.16790197],[-122.32991097,49.16771255],[-122.32992738,49.16761428],[-122.32991547,49.16746047],[-122.32989117,49.16729811],[-122.32989015,49.16721835],[-122.32985278,49.16703748],[-122.32981256,49.16690218],[-122.32980182,49.16668712],[-122.32977752,49.16650625],[-122.32977936,49.16638092],[-122.32978053,49.16624562],[-122.3298395,49.16603056],[-122.32995074,49.16581551],[-122.33002212,49.16560899],[-122.33008059,49.16542812],[-122.33011058,49.16524012],[-122.3301523,49.16508773],[-122.33019686,49.16490828],[-122.3302545,49.1646918],[-122.33031214,49.16451235],[-122.33035588,49.1642973],[-122.33038469,49.16420757],[-122.33039961,49.16404521],[-122.3304291,49.16394694],[-122.33043028,49.16383016],[-122.33043297,49.1637034],[-122.33042108,49.16358662],[-122.33036765,49.16337014],[-122.33027517,49.16321632],[-122.33022123,49.16314511],[-122.32998937,49.16295427],[-122.32981331,49.16276485],[-122.32965183,49.16256546],[-122.32961298,49.16237604],[-122.32950729,49.16217807],[-122.32939942,49.16198011],[-122.32932772,49.16183477],[-122.32930613,49.16179069],[-122.32923965,49.16157421],[-122.32928289,49.16144888],[-122.32934004,49.16132213],[-122.32932749,49.1612324],[-122.32934107,49.16116119],[-122.32931629,49.16108855],[-122.3292912,49.16087207],[-122.32919791,49.16071968],[-122.32915908,49.16051175],[-122.32918896,49.16022406],[-122.32913841,49.16001755],[-122.3291252,49.15989934],[-122.32916845,49.15977401],[-122.32927988,49.15965865],[-122.32952785,49.15955183],[-122.32977731,49.15947208],[-122.33002325,49.15942793],[-122.33035328,49.1593852],[-122.33061513,49.15936953],[-122.33092924,49.15933535],[-122.33112292,49.15927269],[-122.33141209,49.15912172],[-122.33159254,49.15901491],[-122.33180182,49.15881837],[-122.3318712,49.15869303],[-122.33192835,49.15856628],[-122.33199975,49.15837828],[-122.33207048,49.15821735],[-122.33215496,49.15801084],[-122.33224027,49.15783993],[-122.3324343,49.15766191],[-122.33251773,49.15761633],[-122.33272416,49.15744685],[-122.33279369,49.15738419],[-122.33285151,49.1572674],[-122.3328395,49.15708795],[-122.33277455,49.15688002],[-122.33276051,49.15676323],[-122.33276389,49.15664645],[-122.33277749,49.15653821],[-122.33279243,49.15643139],[-122.33283719,49.15631461],[-122.33297544,49.15611664],[-122.33310212,49.15598276],[-122.33319846,49.15591155],[-122.33348779,49.15580474],[-122.33369436,49.15571644],[-122.33381901,49.15564523],[-122.33390363,49.15553841],[-122.33391994,49.15532193],[-122.33388181,49.15510545],[-122.33382926,49.15494309],[-122.33378894,49.15478216],[-122.33379598,49.15475642],[-122.33383154,49.15462834],[-122.33387411,49.15454859],[-122.33404014,49.15445886],[-122.33415089,49.15437056],[-122.33437203,49.1542908],[-122.33467713,49.15409426],[-122.33474666,49.1540316],[-122.33496697,49.15391624],[-122.33525682,49.15371969],[-122.3354242,49.15359437],[-122.33567266,49.15343485],[-122.33576983,49.15338073],[-122.3359647,49.15320128],[-122.33604851,49.15302183],[-122.33607789,49.15284238],[-122.33609488,49.15263587],[-122.33610847,49.15254615],[-122.33609866,49.15234818],[-122.33610055,49.15222285],[-122.33608856,49.15202489],[-122.33605128,49.1518255],[-122.33603944,49.15170871],[-122.33601167,49.15160047],[-122.33598676,49.15148369],[-122.33597628,49.15131278],[-122.33597735,49.15113333],[-122.33597973,49.15100562],[-122.33598129,49.15092682],[-122.33599491,49.15080007],[-122.33606649,49.15065622],[-122.33616336,49.1505138],[-122.33617984,49.1503785],[-122.33622311,49.15025317],[-122.33634897,49.15006517],[-122.33647349,49.14991278],[-122.33658563,49.14971482],[-122.33662823,49.14959803],[-122.33665843,49.1494727],[-122.33667394,49.14925765],[-122.33671723,49.14909529],[-122.33676132,49.14900556],[-122.336983,49.14881757],[-122.33717499,49.14872072],[-122.33749178,49.1485783],[-122.33771357,49.14849],[-122.33786584,49.14844585],[-122.33804357,49.14839173],[-122.33818263,49.14830343],[-122.33839056,49.14812398],[-122.33847899,49.14808138],[-122.33849996,49.14807128],[-122.33881811,49.14787474],[-122.33908114,49.14770526],[-122.33915134,49.14765256],[-122.33919257,49.1475899],[-122.33923722,49.14739193],[-122.33926471,49.14733781],[-122.33932051,49.14728369],[-122.33942922,49.14725806],[-122.33970614,49.14712418],[-122.3399561,49.1469547],[-122.34015014,49.14677667],[-122.34022036,49.14666843],[-122.34019261,49.1465602],[-122.34011315,49.14638074],[-122.34008814,49.14616426],[-122.34010599,49.14597484],[-122.34016301,49.14582245],[-122.34028682,49.14573415],[-122.34045147,49.14569855],[-122.34065681,49.14569],[-122.34091857,49.14569285],[-122.34124855,49.1456131],[-122.34148136,49.14558746],[-122.34181064,49.14555328],[-122.34190779,49.14553619],[-122.34218263,49.14550201],[-122.3425126,49.14544077],[-122.34281427,49.1453425],[-122.34313102,49.1452371],[-122.34328328,49.14519295],[-122.34340792,49.14512174],[-122.3435599,49.14495226],[-122.34369965,49.14479987],[-122.34400405,49.14461188],[-122.34415548,49.14453212],[-122.3443491,49.14450649],[-122.34462464,49.14440821],[-122.3449124,49.14432988],[-122.34518656,49.14432276],[-122.34550209,49.14431564],[-122.34578947,49.14433416],[-122.34596865,49.14436264],[-122.34616023,49.14439967],[-122.3464454,49.14447373],[-122.34673427,49.14453782],[-122.34691061,49.14457485],[-122.34723933,49.14464891],[-122.34747227,49.14468594],[-122.34777271,49.14472296],[-122.34802006,49.1447429],[-122.34819775,49.14474433],[-122.34831668,49.14474178],[-122.34852634,49.14473721],[-122.34885711,49.14473009],[-122.34910449,49.14469448],[-122.3493785,49.14464321],[-122.34959757,49.1446076],[-122.34985934,49.14459194],[-122.35006601,49.1445663],[-122.35028493,49.14448655],[-122.35053352,49.14435267],[-122.35068494,49.14427291],[-122.35098999,49.14407637],[-122.35128197,49.14386132],[-122.35136454,49.14383568],[-122.35155463,49.14382714],[-122.35170702,49.14384565],[-122.35187096,49.14389265],[-122.35213004,49.14391117],[-122.3523367,49.14390404],[-122.35264037,49.14378014],[-122.35275058,49.14374453],[-122.35280637,49.1436719],[-122.35290405,49.14354657],[-122.35294716,49.14335857],[-122.35296212,49.14321473],[-122.35303285,49.14303528],[-122.35306169,49.14294555],[-122.35320142,49.14279316],[-122.35344985,49.14257811],[-122.35365909,49.14240008],[-122.3537705,49.1422662],[-122.35385364,49.14207678],[-122.35391077,49.14200557],[-122.35402098,49.14196997],[-122.35432125,49.14196285],[-122.35447282,49.14194576],[-122.35461049,49.14189306],[-122.3548328,49.141678],[-122.35486179,49.14163243],[-122.35494422,49.14152561],[-122.35498816,49.14137322],[-122.35500313,49.14119235],[-122.35499263,49.14105847],[-122.35495318,49.14089611],[-122.35491386,49.14081493],[-122.3549128,49.14081311],[-122.35481931,49.1406426],[-122.35475373,49.14048024],[-122.35469835,49.14038197],[-122.35463156,49.14031788],[-122.35453713,49.14026377],[-122.35444189,49.14017404],[-122.35437633,49.13997465],[-122.35432231,49.13982226],[-122.35421674,49.13960578],[-122.3542724,49.13947048],[-122.35436804,49.13942633],[-122.35443826,49.13931809],[-122.35441064,49.13929103],[-122.35427485,49.13925542],[-122.3539746,49.13924403],[-122.35372645,49.139207],[-122.35350946,49.13914291],[-122.35324976,49.13909591],[-122.35297547,49.1390774],[-122.35276882,49.13908452],[-122.35259183,49.13907455],[-122.35245401,49.1390831],[-122.35237211,49.13910019],[-122.35226246,49.13904607],[-122.35222371,49.13885665],[-122.3522244,49.13881107],[-122.35228087,49.13874841],[-122.35236194,49.13869571],[-122.35249977,49.13866865],[-122.35254167,49.13861595],[-122.35251816,49.13842653],[-122.35243738,49.13824566],[-122.35243847,49.13808472],[-122.35241292,49.13795797],[-122.35238803,49.1378597],[-122.352443,49.13776997],[-122.35236359,49.13755349],[-122.35229738,49.13738117],[-122.35228542,49.13722023],[-122.35234246,49.13703081],[-122.35238574,49.13690548],[-122.35249799,49.13680721],[-122.35258777,49.13667503],[-122.3525957,49.13666336],[-122.3526055,49.1366259],[-122.35261719,49.13658119],[-122.35262373,49.13655655],[-122.3526802,49.13649388],[-122.35287218,49.13636001],[-122.35301204,49.1362888],[-122.35327367,49.13615492],[-122.35339626,49.13612786],[-122.35372546,49.13613071],[-122.35394531,49.13614922],[-122.35409616,49.13617771],[-122.35427382,49.13617913],[-122.35435519,49.13619622],[-122.35449367,49.13619765],[-122.35468385,49.13627028],[-122.35480654,49.13634292],[-122.35490106,49.13649673],[-122.35500729,49.13668615],[-122.35508862,49.1367773],[-122.35518521,49.13681291],[-122.35534914,49.13682288],[-122.35549919,49.13679724],[-122.35558259,49.13677018],[-122.35583115,49.13665482],[-122.35592748,49.13656509],[-122.35598313,49.13646682],[-122.35602642,49.13630446],[-122.35602847,49.1362418],[-122.35600221,49.13617913],[-122.35581191,49.13602532],[-122.35571601,49.13594414],[-122.35564992,49.13585299],[-122.35548826,49.1356949],[-122.35547735,49.1354656],[-122.35585687,49.13475777],[-122.35603504,49.13425644],[-122.35615589,49.1339944],[-122.3562966,49.13390325],[-122.35662029,49.13385625],[-122.35744149,49.13399582],[-122.35790533,49.1339474],[-122.35809729,49.13383204],[-122.35824658,49.13365971],[-122.35846526,49.13322888],[-122.35857978,49.13226842],[-122.35859003,49.13218227],[-122.35871347,49.13114633],[-122.35486567,49.13061403],[-122.35332851,49.13046236],[-122.35045252,49.12998667],[-122.34630061,49.12909974],[-122.34184922,49.12767945],[-122.33549195,49.12607579],[-122.32784334,49.1227645],[-122.32531369,49.12174691],[-122.32245066,49.12068231],[-122.32204822,49.12060828],[-122.31804576,49.11987193],[-122.31679532,49.11973307],[-122.31501495,49.11982957],[-122.3134641,49.12005993],[-122.31189771,49.120479],[-122.30713507,49.12243124],[-122.30548627,49.12328968],[-122.30548036,49.12329324],[-122.30541467,49.12332992],[-122.30211964,49.12147631],[-122.30176892,49.12127585],[-122.30113064,49.1209173],[-122.29432458,49.11708155],[-122.29042284,49.11489219],[-122.28997094,49.11457494],[-122.28966385,49.114299],[-122.28947993,49.11413415],[-122.28920447,49.11379911],[-122.28898223,49.11345409],[-122.28894923,49.11338929],[-122.28880308,49.11304071],[-122.2886954,49.11259565],[-122.2886693,49.11208614],[-122.28871269,49.11166991],[-122.28880558,49.11134306],[-122.28897199,49.11098843],[-122.29003522,49.10931107],[-122.2902769,49.10881331],[-122.29030239,49.10876737],[-122.29044122,49.10818772],[-122.2905032,49.10768391],[-122.29051167,49.10730756],[-122.28982277,49.10377801],[-122.28827502,49.0964793],[-122.28684472,49.08920123],[-122.28593741,49.08481645],[-122.2851372,49.08185729],[-122.28500672,49.08135348],[-122.28484849,49.08080374],[-122.28481011,49.07979575],[-122.28479112,49.07918619],[-122.28489066,49.0783808],[-122.28496308,49.07778584],[-122.28489152,49.07780115],[-122.28439882,49.07790725],[-122.28422062,49.07790618],[-122.28401521,49.07793182],[-122.28397319,49.07794036],[-122.28390492,49.07794001],[-122.28357613,49.07798309],[-122.2832753,49.07799911],[-122.28322061,49.07799876],[-122.28317893,49.07800766],[-122.28312445,49.07800694],[-122.28308222,49.07801585],[-122.28302754,49.07801549],[-122.28298585,49.07802439],[-122.28284964,49.07804148],[-122.28279441,49.07804113],[-122.28275293,49.07804967],[-122.28269803,49.07804967],[-122.28238304,49.0780924],[-122.28206676,49.07813548],[-122.28188832,49.07816147],[-122.28158762,49.07819565],[-122.28154615,49.0782042],[-122.28123173,49.07822022],[-122.28125678,49.07478574],[-122.28187761,49.07478645],[-122.28487088,49.07472663],[-122.28544247,49.07471595],[-122.28554254,49.0747131],[-122.28556748,49.07457994],[-122.28590635,49.07257608],[-122.2860357,49.0717803],[-122.28613384,49.06909495],[-122.28624611,49.06610874],[-122.28633799,49.06369115],[-122.28649956,49.05893215],[-122.28650415,49.05870036],[-122.28650488,49.05866974],[-122.2850939,49.0586466],[-122.28361118,49.05862808],[-122.28292828,49.05862702],[-122.28224541,49.05861669],[-122.28109073,49.05854334],[-122.28021396,49.05843653],[-122.27986793,49.05839416],[-122.27939072,49.05831547],[-122.27874941,49.05817162],[-122.27807194,49.05801176],[-122.27721841,49.05776751],[-122.27632231,49.05744741],[-122.27611704,49.05735911],[-122.27524639,49.05696211],[-122.27406729,49.05629416],[-122.27384244,49.05614996],[-122.27322106,49.05567249],[-122.27315213,49.05570632],[-122.27289585,49.0558345],[-122.27282101,49.05587188],[-122.27281003,49.05587758],[-122.27276506,49.05590215],[-122.271785,49.05644335],[-122.27119271,49.05684533],[-122.27071337,49.05723734],[-122.27005811,49.0577732],[-122.26856763,49.058935],[-122.26820297,49.05918103],[-122.26810986,49.05923551],[-122.26761479,49.05952284],[-122.26754205,49.05955667],[-122.26687487,49.05986394],[-122.26667238,49.05995723],[-122.26621457,49.06005407],[-122.26574354,49.06011175],[-122.26475176,49.06009822],[-122.26427392,49.06009217],[-122.26276237,49.06008007],[-122.26201456,49.06007294],[-122.26095993,49.06006369],[-122.26067429,49.06006155],[-122.26066372,49.05980234],[-122.26064789,49.05941532],[-122.26063282,49.05902793],[-122.26060743,49.05840021],[-122.26056424,49.05732742],[-122.26052931,49.05646364],[-122.26049085,49.05549304],[-122.26045734,49.05444447],[-122.26042759,49.05375551],[-122.26040241,49.05304696],[-122.26039898,49.05264925],[-122.26039574,49.05227326],[-122.26040755,49.0514134],[-122.26035927,49.05075513],[-122.26034848,49.05061085],[-122.26031256,49.04999025],[-122.26030008,49.04975277],[-122.26024095,49.04861304],[-122.25800339,49.04815552],[-122.25614266,49.04781477],[-122.2538277,49.04742383],[-122.25333197,49.04732627],[-122.25277846,49.04705094],[-122.25254019,49.04693249],[-122.25240301,49.04683421],[-122.25227863,49.04674529],[-122.25220728,49.04669428],[-122.2521848,49.04667813],[-122.25214138,49.04664692],[-122.25163334,49.04628338],[-122.25034073,49.04535837],[-122.24957066,49.04483885],[-122.24929892,49.04465552],[-122.24857232,49.04419481],[-122.2479097,49.04377465],[-122.24776609,49.04368347],[-122.24752217,49.04352862],[-122.24739338,49.04341861],[-122.24718035,49.04323665],[-122.24702258,49.04310139],[-122.24696356,49.04305079],[-122.24668647,49.04281366],[-122.24631886,49.04249927],[-122.24617581,49.04254161],[-122.24602173,49.04258721],[-122.24594677,49.04260906],[-122.24591667,49.04261783],[-122.24578576,49.04263262],[-122.24540902,49.04267516],[-122.24519376,49.04264946],[-122.24486015,49.04260964],[-122.24462145,49.04246652],[-122.24451395,49.04240207],[-122.24450396,49.04239601],[-122.24437242,49.04231695],[-122.24413196,49.04217241],[-122.2439245,49.04204779],[-122.24325906,49.0417658],[-122.24294587,49.04165827],[-122.24245763,49.04149057],[-122.24203794,49.04145639],[-122.24150515,49.04144713],[-122.24092518,49.04149271],[-122.24049741,49.04159027],[-122.24027623,49.04168569],[-122.23986224,49.04187725],[-122.23947837,49.04214072],[-122.23905194,49.04257119],[-122.23868002,49.04288029],[-122.23835211,49.04318696],[-122.23802301,49.04350839],[-122.23795087,49.04355722],[-122.23752417,49.04384607],[-122.23693396,49.04420274],[-122.23653801,49.04438222],[-122.2363279,49.04447746],[-122.23561404,49.0446966],[-122.23476402,49.04493315],[-122.23333671,49.0454715],[-122.23268133,49.0457397],[-122.23257476,49.04579428],[-122.23234347,49.04591274],[-122.23231643,49.04593268],[-122.23230958,49.0459378],[-122.2320402,49.04613919],[-122.23181965,49.04638095],[-122.23174791,49.04651533],[-122.2316731,49.04665547],[-122.23151765,49.04726285],[-122.23151538,49.04727172],[-122.23149294,49.04735938],[-122.23144344,49.04744561],[-122.23136254,49.04758654],[-122.23131899,49.04762933],[-122.23116465,49.04778095],[-122.23079267,49.04803624],[-122.23038459,49.04834138],[-122.23028468,49.04849625],[-122.23016868,49.04867606],[-122.23011854,49.04878715],[-122.22992401,49.04904458],[-122.22965972,49.04921904],[-122.22920944,49.0494195],[-122.22888009,49.04949946],[-122.22872837,49.04953629],[-122.22826791,49.04956157],[-122.22772788,49.04950211],[-122.2276886,49.04949785],[-122.22766081,49.04949427],[-122.22751169,49.04966874],[-122.22746171,49.0497136],[-122.22714923,49.04994183],[-122.22690146,49.05006004],[-122.22636011,49.05033705],[-122.22622947,49.05041075],[-122.22563982,49.0508049],[-122.22540549,49.05102957],[-122.22523637,49.0512991],[-122.22512511,49.05162311],[-122.22510917,49.05206212],[-122.22521437,49.05239859],[-122.22545926,49.05275785],[-122.22578228,49.05306049],[-122.22587068,49.05312672],[-122.22605687,49.05323781],[-122.22629744,49.05336349],[-122.2267441,49.05350627],[-122.22766081,49.05368002],[-122.2278955,49.05371029],[-122.22826544,49.053758],[-122.22864088,49.05390363],[-122.22931119,49.05448007],[-122.22982689,49.05480757],[-122.23120132,49.05516133],[-122.23164137,49.05538865],[-122.23179579,49.05553593],[-122.23247161,49.05578292],[-122.23410836,49.05627309],[-122.23460091,49.05644363],[-122.23483318,49.05653292],[-122.23501123,49.0566158],[-122.2352083,49.05671737],[-122.23709605,49.05940621],[-122.23748218,49.05995616],[-122.23748659,49.059962],[-122.23751902,49.06000494],[-122.23765075,49.0602823],[-122.23802745,49.06064868],[-122.23810661,49.06075523],[-122.23831571,49.06124135],[-122.23839886,49.06159849],[-122.23846752,49.06176492],[-122.23862244,49.06244853],[-122.238915,49.06300931],[-122.23915195,49.06334578],[-122.23940244,49.06360388],[-122.23962124,49.06383214],[-122.24121462,49.06503703],[-122.24140211,49.06523143],[-122.2417199,49.06587731],[-122.24165897,49.0658976],[-122.2413002,49.06600691],[-122.2412054,49.06603576],[-122.24049335,49.06625266],[-122.23938184,49.06659119],[-122.23931084,49.0666247],[-122.2389903,49.06677599],[-122.23894017,49.06681091],[-122.23859881,49.06704872],[-122.23829786,49.06739979],[-122.23815756,49.06768428],[-122.23814687,49.06774619],[-122.23802282,49.06847115],[-122.2379091,49.06868975],[-122.23783111,49.06883966],[-122.23776803,49.06890549],[-122.23755202,49.06913092],[-122.23663264,49.06979745],[-122.23661913,49.06980742],[-122.23648939,49.06990124],[-122.23642417,49.06994841],[-122.23614695,49.07014934],[-122.2360965,49.0701859],[-122.23551755,49.07060533],[-122.23543378,49.07066593],[-122.23540435,49.07068722],[-122.2352611,49.07075228],[-122.23482885,49.07094856],[-122.23473814,49.07096957],[-122.2342596,49.07108101],[-122.2339404,49.07113072],[-122.23389377,49.07113798],[-122.23377443,49.07115685],[-122.23299613,49.07115662],[-122.23275145,49.07115654],[-122.23260505,49.0711565],[-122.23169674,49.0711565],[-122.23060609,49.0711565],[-122.22992157,49.07115633],[-122.22920953,49.07115614],[-122.2284676,49.07115614],[-122.22825551,49.07115611],[-122.22815616,49.07115611],[-122.22784863,49.07115614],[-122.22724795,49.07115598],[-122.22679762,49.07115592],[-122.22618304,49.07115578],[-122.22588178,49.07115579],[-122.22546944,49.07115579],[-122.22532378,49.07115579],[-122.2250977,49.07116389],[-122.22507013,49.07116498],[-122.22488167,49.07117181],[-122.2244692,49.07121667],[-122.22420502,49.07124577],[-122.22358696,49.07140397],[-122.22302064,49.07164684],[-122.22252846,49.07199109],[-122.22211772,49.0723647],[-122.22188408,49.07267043],[-122.2217473,49.07295411],[-122.22159903,49.07361077],[-122.22147099,49.07414879],[-122.22144851,49.07422265],[-122.22101546,49.07508162],[-122.22094735,49.0752073],[-122.22059644,49.07573426],[-122.22008897,49.07620532],[-122.21995627,49.07632853],[-122.21993788,49.0763456],[-122.21970123,49.07651451],[-122.21969254,49.0765207],[-122.21932006,49.0767864],[-122.21901641,49.07694962],[-122.21864442,49.07714957],[-122.21813171,49.07736818],[-122.21793378,49.07745257],[-122.21750441,49.07760261],[-122.21523549,49.0783954],[-122.21476558,49.07855931],[-122.2138968,49.07886289],[-122.21339778,49.07900781],[-122.21273979,49.07919901],[-122.21190883,49.07938033],[-122.21170527,49.07942474],[-122.21081955,49.07957642],[-122.20986395,49.07968987],[-122.20970681,49.07970852],[-122.2096789,49.07971011],[-122.20930116,49.07973166],[-122.20861423,49.07977083],[-122.20711328,49.07979983],[-122.20542492,49.07983242],[-122.20511478,49.08049397],[-122.20537628,49.08126568],[-122.20556179,49.08181314],[-122.20554816,49.08249178],[-122.20554994,49.08452539],[-122.20554994,49.08453018],[-122.20554363,49.08477685],[-122.20551811,49.08577968],[-122.20549392,49.08672968],[-122.2054941,49.08673709],[-122.20550791,49.08729493],[-122.20550868,49.08733101],[-122.20553715,49.08847919],[-122.20553767,49.08850052],[-122.20555183,49.08908672],[-122.20555316,49.08914102],[-122.20556569,49.08966054],[-122.20556646,49.08975098],[-122.2055714,49.09036439],[-122.20557562,49.09088785],[-122.20551952,49.09204502],[-122.20549979,49.0920786],[-122.20545423,49.09215611],[-122.20543932,49.09218127],[-122.20540296,49.09224263],[-122.20535603,49.09255498],[-122.20522919,49.09276687],[-122.20474995,49.09310153],[-122.20336673,49.09382172],[-122.20334654,49.09385383],[-122.20330069,49.09392676],[-122.2034242,49.09508312],[-122.20297432,49.09626424],[-122.20292306,49.09651125],[-122.20283335,49.09694359],[-122.20263768,49.09788784],[-122.20249312,49.09811714],[-122.20218794,49.09836424],[-122.20150688,49.09887126],[-122.20079029,49.0993112],[-122.20045727,49.09951571],[-122.20020105,49.09980589],[-122.2001519,49.09993016],[-122.20012157,49.10000684],[-122.20007979,49.10011245],[-122.20005462,49.10021642],[-122.20000853,49.1004062],[-122.19999067,49.10048089],[-122.19993697,49.10070268],[-122.19992275,49.10076118],[-122.19989033,49.10089515],[-122.19972864,49.10156337],[-122.19968814,49.10186296],[-122.19960677,49.10246489],[-122.19905669,49.10359405],[-122.19889941,49.10391687],[-122.1988983,49.10393018],[-122.19889541,49.10396494],[-122.19887307,49.10423768],[-122.19898476,49.10451184],[-122.19918976,49.10482588],[-122.19919252,49.10493874],[-122.19901906,49.10563554],[-122.19899089,49.10589795],[-122.19879675,49.10627252],[-122.1987307,49.10639963],[-122.19826154,49.10692033],[-122.1981433,49.10705156],[-122.19741746,49.10774559],[-122.19737064,49.10779037],[-122.1972275,49.10812059],[-122.19718961,49.10820802],[-122.19709381,49.10842927],[-122.19708616,49.10844693],[-122.19703277,49.10857012],[-122.19677394,49.10896854],[-122.19639502,49.10933279],[-122.19587175,49.10974972],[-122.19549076,49.10999191],[-122.19526457,49.11013568],[-122.19501122,49.11042017],[-122.19499868,49.11043444],[-122.1949962,49.11043726],[-122.19498823,49.1104508],[-122.19491555,49.11057434],[-122.19480053,49.11076923],[-122.19476572,49.11082821],[-122.19470183,49.11098183],[-122.19446053,49.11156203],[-122.19447718,49.11197932],[-122.19479803,49.11277937],[-122.1949304,49.11333837],[-122.19500465,49.11388349],[-122.19503738,49.11412489],[-122.19502799,49.1142864],[-122.19502079,49.11441009],[-122.19499084,49.11446866],[-122.19493119,49.11458527],[-122.19473372,49.11475155],[-122.19441738,49.11485124],[-122.19406665,49.1148694],[-122.19390221,49.11482671],[-122.19343439,49.11470526],[-122.19324786,49.11469221],[-122.19318003,49.11468746],[-122.19307654,49.11471106],[-122.19292405,49.11474585],[-122.19267504,49.11486228],[-122.19251494,49.11502606],[-122.19213316,49.11541688],[-122.19142348,49.11614336],[-122.19101232,49.11637056],[-122.19060516,49.11659554],[-122.1903241,49.11671746],[-122.19011102,49.11680988],[-122.1899781,49.11683546],[-122.1898464,49.1168608],[-122.18970098,49.11685484],[-122.18955961,49.11684905],[-122.18884882,49.11667608],[-122.18868762,49.11663684],[-122.18801828,49.1165959],[-122.18784011,49.11686365],[-122.18776922,49.11724806],[-122.187726,49.11748247],[-122.18765014,49.11761575],[-122.18745881,49.11795103],[-122.18740475,49.11815897],[-122.18740916,49.1182438],[-122.18741551,49.11836583],[-122.18749916,49.11858047],[-122.18757788,49.11878242],[-122.18759297,49.11882122],[-122.18772602,49.11898657],[-122.18777348,49.11904554],[-122.18857442,49.1195155],[-122.18897255,49.1197491],[-122.18913423,49.11989012],[-122.18924482,49.11998658],[-122.18925846,49.12000407],[-122.18947433,49.12028068],[-122.18957317,49.12049503],[-122.18964633,49.12132229],[-122.18969921,49.1219203],[-122.18965774,49.12197656],[-122.18955376,49.12201893],[-122.18874884,49.12206166],[-122.18859575,49.12217595],[-122.1885714,49.12225248],[-122.18854524,49.12233475],[-122.18864323,49.12248073],[-122.18874452,49.12258931],[-122.1889797,49.12284141],[-122.18913734,49.12293035],[-122.18927823,49.12300982],[-122.18976428,49.12318037],[-122.18997125,49.12330036],[-122.19014767,49.1234541],[-122.19021027,49.12350865],[-122.19056067,49.12375397],[-122.19101178,49.12421791],[-122.19118244,49.12432757],[-122.19146437,49.1244294],[-122.1916863,49.1244838],[-122.19207159,49.12457824],[-122.19252835,49.12478176],[-122.19262695,49.12482569],[-122.19288556,49.1249026],[-122.19361835,49.12502223],[-122.19431939,49.12521664],[-122.19543841,49.12552485],[-122.19784595,49.12578596],[-122.19854861,49.12590578],[-122.19879188,49.12594726],[-122.20000519,49.12610356],[-122.20041003,49.1261559],[-122.20167109,49.1261203],[-122.20232302,49.12601847],[-122.2025236,49.12598713],[-122.20264794,49.12599817],[-122.20294905,49.12602488],[-122.20313807,49.12594181],[-122.20337847,49.12583617],[-122.20358132,49.12571413],[-122.20375782,49.12560794],[-122.2039816,49.12561282],[-122.20421494,49.12561791],[-122.2044282,49.12562254],[-122.20465743,49.12558994],[-122.20481376,49.1255677],[-122.20515421,49.12555531],[-122.20543826,49.12554492],[-122.2055131,49.12554225],[-122.20566835,49.12553673],[-122.20584279,49.12550573],[-122.20584468,49.1255054],[-122.20590193,49.12549507],[-122.20695712,49.12571228],[-122.20783229,49.12589242],[-122.2080307,49.12586608],[-122.20817946,49.12587213],[-122.20862229,49.12593507],[-122.20995816,49.12612493],[-122.21070259,49.12619186],[-122.21083489,49.12622966],[-122.21123597,49.12634425],[-122.21138298,49.12637036],[-122.21151269,49.12639339],[-122.21203764,49.12639886],[-122.21233847,49.1264019],[-122.21241258,49.12640265],[-122.21316834,49.12629227],[-122.21343598,49.12630616],[-122.21365618,49.12635885],[-122.21378452,49.12640594],[-122.21399685,49.12648383],[-122.21412533,49.12648739],[-122.21428076,49.12643434],[-122.21442433,49.1263204],[-122.21455153,49.12604375],[-122.21457406,49.12599461],[-122.21465559,49.12595153],[-122.21473379,49.12593693],[-122.21478526,49.12592732],[-122.21494324,49.12595367],[-122.21536667,49.12620824],[-122.21538285,49.12621797],[-122.21594946,49.1265586],[-122.21610611,49.12660452],[-122.21619847,49.12663159],[-122.2163819,49.12665722],[-122.21646527,49.12666897],[-122.21670184,49.12665497],[-122.21677983,49.12665046],[-122.21688809,49.12664405],[-122.21746827,49.12655361],[-122.21967251,49.12588922],[-122.21974152,49.12586821],[-122.22081029,49.1263325],[-122.22102203,49.12642437],[-122.22061887,49.13138668],[-122.22065529,49.13139236],[-122.22092224,49.13143509],[-122.22118964,49.13147889],[-122.2214562,49.1315241],[-122.22172226,49.1315711],[-122.22198726,49.13161988],[-122.22225133,49.13167115],[-122.22251339,49.13172492],[-122.22277376,49.13178153],[-122.22303149,49.1318417],[-122.22328732,49.13190508],[-122.22354029,49.13197237],[-122.2237904,49.13204358],[-122.22403862,49.132118],[-122.22428495,49.13219562],[-122.22452959,49.13227609],[-122.22477276,49.13235905],[-122.22501392,49.1324445],[-122.22525457,49.13253173],[-122.22549341,49.1326211],[-122.22573162,49.13271154],[-122.22596845,49.1328034],[-122.2262041,49.13289633],[-122.22643966,49.13299033],[-122.22667414,49.13308433],[-122.22690841,49.13317868],[-122.22714193,49.13327339],[-122.22737532,49.13336739],[-122.22760809,49.13346245],[-122.22784064,49.13355787],[-122.22807223,49.13365401],[-122.22830361,49.1337505],[-122.22853403,49.1338477],[-122.22876424,49.13394526],[-122.22899424,49.13404318],[-122.22922403,49.13414144],[-122.22945286,49.13424043],[-122.22968223,49.13433941],[-122.22991106,49.13443839],[-122.23013947,49.13453809],[-122.23036788,49.13463778],[-122.23059575,49.13473748],[-122.23082395,49.13483753],[-122.23105237,49.13493722],[-122.23128003,49.13503727],[-122.23150824,49.13513732],[-122.23173665,49.13523702],[-122.23196486,49.13533707],[-122.23219295,49.13543641],[-122.23242137,49.1355361],[-122.23265022,49.13563508],[-122.23286945,49.13574297],[-122.23308516,49.13585406],[-122.23330225,49.13596372],[-122.23352011,49.13607303],[-122.23373913,49.13618127],[-122.23395913,49.1362888],[-122.2341803,49.13639526],[-122.2344021,49.13650065],[-122.23462563,49.13660497],[-122.23485054,49.13670787],[-122.23507662,49.1368097],[-122.2353041,49.13691011],[-122.23553254,49.1370098],[-122.23576182,49.13710807],[-122.23599262,49.13720563],[-122.23622383,49.13730248],[-122.23645514,49.13739826],[-122.23668753,49.13749403],[-122.23692035,49.1375891],[-122.23715338,49.13768381],[-122.23738662,49.13777816],[-122.23762019,49.13787287],[-122.23785343,49.13796723],[-122.23808646,49.13806194],[-122.2383195,49.13815665],[-122.23855211,49.13825207],[-122.23878452,49.13834785],[-122.23901617,49.13844398],[-122.23924686,49.13854083],[-122.23947692,49.13863874],[-122.23970655,49.13873737],[-122.23993544,49.13883635],[-122.24016412,49.13893569],[-122.24039301,49.13903467],[-122.24062169,49.13913401],[-122.24085037,49.13923335],[-122.24107829,49.13933304],[-122.24130656,49.1394331],[-122.24153428,49.13953315],[-122.24176179,49.13963355],[-122.24198854,49.13973431],[-122.24221564,49.13983543],[-122.24244177,49.13993727],[-122.2426679,49.1400391],[-122.24289306,49.14014164],[-122.24311802,49.14024454],[-122.24334202,49.14034815],[-122.24356559,49.14045247],[-122.24378841,49.14055715],[-122.24401082,49.14066254],[-122.2442315,49.140769],[-122.24445059,49.14087724],[-122.24466809,49.14098726],[-122.24488408,49.141098],[-122.24509835,49.1412098],[-122.24531253,49.14132266],[-122.24552542,49.14143589],[-122.2457381,49.14154947],[-122.24595003,49.14166341],[-122.24616196,49.14177734],[-122.24637443,49.14189128],[-122.24658712,49.14200486],[-122.24680077,49.14211773],[-122.24701463,49.14223024],[-122.24722988,49.14234133],[-122.24744664,49.14245171],[-122.24766479,49.14256066],[-122.24788487,49.14266819],[-122.24810654,49.14277393],[-122.24833057,49.14287755],[-122.24855728,49.14297938],[-122.24878622,49.14307836],[-122.24901718,49.14317485],[-122.24925145,49.14326849],[-122.24948795,49.14335928],[-122.24972701,49.14344758],[-122.24996787,49.14353375],[-122.25021076,49.14361742],[-122.25045469,49.14369931],[-122.25070572,49.14379224],[-122.24822365,49.14483975],[-122.24729203,49.14523675],[-122.24692204,49.14536742],[-122.24668142,49.14545323],[-122.24645295,49.14555257],[-122.24622527,49.14565333],[-122.24598464,49.14573914],[-122.24571991,49.14578649],[-122.24544635,49.14579717],[-122.24517205,49.14579896],[-122.24489825,49.14578792],[-122.24462594,49.14576513],[-122.24435596,49.1457338],[-122.24408568,49.14570389],[-122.24381531,49.14567505],[-122.24355284,49.14562271],[-122.243296,49.14555898],[-122.24303604,49.14550236],[-122.24276725,49.14546533],[-122.24250418,49.14541584],[-122.242256,49.14533929],[-122.2420111,49.14525811],[-122.24177641,49.14516518],[-122.24155557,49.14505801],[-122.24134362,49.14494407],[-122.24113382,49.14482836],[-122.24092498,49.14471193],[-122.24071774,49.14459372],[-122.24051469,49.14447302],[-122.24031068,49.14435303],[-122.24010731,49.14423197],[-122.23991005,49.14410699],[-122.23969308,49.14399697],[-122.23946575,49.14389621],[-122.23923599,49.14379865],[-122.23898232,49.14372958],[-122.23872941,49.14366015],[-122.23847272,49.14359713],[-122.2382135,49.14353838],[-122.23794793,49.14349316],[-122.23767788,49.1434629],[-122.23740404,49.14347037],[-122.23714905,49.14353624],[-122.23694329,49.14365516],[-122.2366918,49.14372709],[-122.23641956,49.14374845],[-122.23614757,49.14377124],[-122.23588042,49.14381254],[-122.23585525,49.14381668],[-122.23561452,49.14385633],[-122.23534621,49.14389407],[-122.23507421,49.14391686],[-122.23480066,49.14392754],[-122.23452686,49.1439368],[-122.23425277,49.14394285],[-122.23397876,49.14395247],[-122.23370582,49.14396671],[-122.23343221,49.14398024],[-122.23315824,49.14399163],[-122.23288451,49.14398879],[-122.23261055,49.14397988],[-122.23233641,49.14397312],[-122.23206231,49.14396813],[-122.23178823,49.14397419],[-122.23151589,49.14399662],[-122.2312451,49.14402475],[-122.23097347,49.14404967],[-122.23070057,49.14406569],[-122.23042667,49.14407602],[-122.23015288,49.14408065],[-122.22987861,49.1440778],[-122.22960451,49.14407281],[-122.22933007,49.1440721],[-122.22905589,49.14407922],[-122.22878225,49.14409097],[-122.22850988,49.14411162],[-122.22824165,49.1441483],[-122.22798631,49.14421381],[-122.22775948,49.14431493],[-122.22756639,49.14444275],[-122.22737761,49.14457342],[-122.22718971,49.14470445],[-122.22699441,49.14483049],[-122.22680684,49.14496188],[-122.22660038,49.14508009],[-122.22639116,49.14519651],[-122.22617973,49.14531116],[-122.22595999,49.14541869],[-122.22573536,49.14552159],[-122.2255426,49.14564977],[-122.22538914,49.14579895],[-122.22525643,49.14595633],[-122.22513325,49.14611691],[-122.22502104,49.14628105],[-122.22493761,49.14645267],[-122.22490189,49.14663105],[-122.22491508,49.1468105],[-122.22496567,49.14698746],[-122.22502949,49.14716228],[-122.22510341,49.14733568],[-122.22518676,49.14750694],[-122.22527933,49.14767642],[-122.22538565,49.14784198],[-122.22550009,49.14800577],[-122.2256142,49.1481692],[-122.22572031,49.14833512],[-122.22581234,49.1485046],[-122.22589939,49.14867515],[-122.22598385,49.14884641],[-122.22606461,49.14901838],[-122.22614245,49.14919071],[-122.22621585,49.14936411],[-122.22628556,49.14953822],[-122.2263518,49.14971268],[-122.22641435,49.14988786],[-122.22647506,49.15006339],[-122.22653359,49.15023893],[-122.22659062,49.15041517],[-122.22664677,49.15059106],[-122.22670162,49.15076731],[-122.22675593,49.15094355],[-122.22681058,49.15112016],[-122.22682868,49.15117891],[-122.22686543,49.1512964],[-122.22692084,49.15147265],[-122.22697754,49.15164854],[-122.22724987,49.15162433],[-122.22752025,49.15159513],[-122.22777852,49.15153389],[-122.22803999,49.15148475],[-122.22831596,49.15147835],[-122.22858715,49.15150861],[-122.22882099,49.15160118],[-122.22903382,49.15170907],[-122.22930868,49.15172758],[-122.22958495,49.15170408],[-122.2298266,49.15162397],[-122.23004623,49.1515111],[-122.23023984,49.15138328],[-122.23043379,49.15125581],[-122.23062808,49.1511287],[-122.23083653,49.15101263],[-122.23106049,49.15090902],[-122.23128874,49.15080826],[-122.23150681,49.15069895],[-122.23172166,49.15058679],[-122.23196974,49.15051238],[-122.23223404,49.15046395],[-122.23250375,49.15042942],[-122.23277921,49.15042479],[-122.23305316,49.15043654],[-122.23331397,49.15049635],[-122.23348536,49.15063201],[-122.23362755,49.1507876],[-122.23377277,49.15094178],[-122.2339309,49.15108882],[-122.23409637,49.15123267],[-122.23426678,49.15137367],[-122.23445763,49.1515022],[-122.23466705,49.15161863],[-122.23488034,49.15173221],[-122.23508536,49.15185149],[-122.23526892,49.15198501],[-122.23544731,49.15212173],[-122.23563216,49.1522549],[-122.2357958,49.1523991],[-122.23593668,49.15255327],[-122.23607488,49.15270922],[-122.23617088,49.15287763],[-122.23621678,49.1530553],[-122.23619324,49.1532344],[-122.23608984,49.15340032],[-122.23593468,49.15354879],[-122.23574676,49.15368267],[-122.23549636,49.15374533],[-122.23522409,49.1537731],[-122.23495837,49.15381654],[-122.23468818,49.15385001],[-122.23442484,49.15391339],[-122.23426656,49.15404869],[-122.23425408,49.15423027],[-122.2343373,49.15440189],[-122.23436612,49.15445174],[-122.23443515,49.15456995],[-122.23454709,49.15473444],[-122.23462345,49.15490571],[-122.23470342,49.15507732],[-122.23482261,49.15523968],[-122.23493865,49.15540275],[-122.23504724,49.15556832],[-122.23518413,49.15572285],[-122.23535148,49.15586633],[-122.23549595,49.15601908],[-122.23561959,49.15618037],[-122.23573858,49.15634309],[-122.23586676,49.15650224],[-122.23601434,49.1566525],[-122.23618146,49.15679456],[-122.2363599,49.15693129],[-122.2365432,49.15706623],[-122.23672466,49.15720153],[-122.23690667,49.15733683],[-122.23709396,49.15746964],[-122.23727186,49.15760636],[-122.23742248,49.15775519],[-122.23753352,49.15792218],[-122.23763819,49.15809166],[-122.23777595,49.15824476],[-122.23795844,49.1583765],[-122.23814772,49.15850504],[-122.23834152,49.15863144],[-122.2385402,49.15875606],[-122.23874177,49.15887854],[-122.2389469,49.1589996],[-122.23915417,49.15911887],[-122.23936338,49.15923673],[-122.23957376,49.15935351],[-122.23978478,49.15946923],[-122.2399963,49.15958317],[-122.24022187,49.15968713],[-122.24045772,49.15978291],[-122.24069593,49.15987655],[-122.24092897,49.1599734],[-122.2411486,49.16007915],[-122.24134676,49.16019914],[-122.2415229,49.16033337],[-122.24168403,49.16047828],[-122.24183354,49.16062996],[-122.24197748,49.16078555],[-122.24211971,49.16094222],[-122.24226525,49.16109603],[-122.24240773,49.16124949],[-122.24254083,49.16140687],[-122.24267673,49.16156317],[-122.24281264,49.16171948],[-122.24294855,49.16187579],[-122.24308673,49.16203103],[-122.24322805,49.16218555],[-122.24337067,49.16233972],[-122.24351295,49.16249354],[-122.24365352,49.16264842],[-122.24379096,49.16280401],[-122.24392352,49.16296139],[-122.24405015,49.16312055],[-122.24417115,49.16328184],[-122.2442914,49.16344349],[-122.24441069,49.16360584],[-122.24452848,49.16376892],[-122.24464387,49.16393234],[-122.24475776,49.16409648],[-122.24486905,49.16426134],[-122.24497851,49.16442655],[-122.24508427,49.16459247],[-122.24518723,49.16475945],[-122.24528671,49.1649268],[-122.24538272,49.1650945],[-122.24546964,49.16526469],[-122.24554256,49.16543738],[-122.24560564,49.16561291],[-122.24566285,49.16578916],[-122.24571856,49.16596612],[-122.24577632,49.16614236],[-122.24584124,49.16631754],[-122.24592394,49.16648844],[-122.24603006,49.16665472],[-122.2461299,49.16682242],[-122.24632643,49.16715854],[-122.24642443,49.16732659],[-122.24652188,49.16749465],[-122.24661804,49.16766306],[-122.2467142,49.16783147],[-122.24680961,49.16800024],[-122.24690447,49.16816901],[-122.24699858,49.16833814],[-122.24709215,49.16850726],[-122.24718442,49.16867674],[-122.2472769,49.16884587],[-122.24736918,49.16901535],[-122.24746091,49.16918483],[-122.24755189,49.16935467],[-122.24764178,49.1695245],[-122.24773092,49.1696947],[-122.24782223,49.16986489],[-122.24791376,49.17003473],[-122.24800345,49.17020492],[-122.24809075,49.17037547],[-122.24817382,49.17054673],[-122.24825082,49.17071906],[-122.24831273,49.17089388],[-122.24834884,49.17107369],[-122.24837929,49.17125385],[-122.24842675,49.1714301],[-122.24850937,49.17160029],[-122.24861923,49.17176585],[-122.24874933,49.17192572],[-122.24889465,49.17207918],[-122.24905482,49.17222409],[-122.24922965,49.1723626],[-122.24941086,49.17249861],[-122.24958981,49.17263569],[-122.24975949,49.1727774],[-122.24994041,49.17291946],[-122.25012124,49.1730626],[-122.25028082,49.17321036],[-122.2503967,49.17336666],[-122.25045643,49.17353508],[-122.25047283,49.17371417],[-122.25045667,49.17389861],[-122.25042037,49.17408304],[-122.25037577,49.17426214],[-122.2503272,49.17443874],[-122.25027503,49.17461498],[-122.25022035,49.17479087],[-122.25016294,49.17496676],[-122.25010357,49.1751423],[-122.25004256,49.17531783],[-122.24998046,49.17549336],[-122.24991749,49.17566854],[-122.24985376,49.17584408],[-122.24979079,49.17601925],[-122.2497276,49.17619479],[-122.24966551,49.17637032],[-122.24956995,49.17664697],[-122.25313478,49.17665694],[-122.25362803,49.1766573],[-122.25507821,49.17665766],[-122.25626643,49.17665801]]]},"geometry_name":"SHAPE","properties":{"id":258,"slug":"abbotsford-mission","name":"Abbotsford-Mission","abbreviation":"ABM","gazetteDate":"2023-12-07Z","boundarySet":11},"bbox":[-122.35871347,49.04144713,-122.18740475,49.1767513]}
