{"type":"Feature","id":260,"geometry":{"type":"Polygon","coordinates":[[[-122.42589636,49.16876362],[-122.42854357,49.16151083],[-122.42853489,49.16128047],[-122.42853365,49.16124451],[-122.42852872,49.16110992],[-122.42836074,49.15656633],[-122.42829277,49.15473836],[-122.42816354,49.15271064],[-122.42799305,49.15248526],[-122.42782732,49.15226665],[-122.42782315,49.15205195],[-122.42789822,49.15194781],[-122.4280013,49.15180485],[-122.42815048,49.15159691],[-122.42854428,49.1512875],[-122.42861463,49.15103577],[-122.42852921,49.15069958],[-122.42851756,49.15065373],[-122.42850964,49.1506348],[-122.42838429,49.15033581],[-122.42838436,49.14997972],[-122.42848609,49.14993806],[-122.42859284,49.14995815],[-122.42919009,49.15007051],[-122.42928587,49.15002138],[-122.42926944,49.14998052],[-122.42913997,49.14965856],[-122.4291585,49.14947503],[-122.42916136,49.14944671],[-122.42926687,49.14936999],[-122.42934742,49.14931141],[-122.42959574,49.14920175],[-122.42977584,49.14908959],[-122.43002063,49.14879478],[-122.43045649,49.14847398],[-122.43047889,49.14841167],[-122.43044953,49.14834758],[-122.43044365,49.14834577],[-122.43037987,49.14832621],[-122.42959826,49.14836787],[-122.4289615,49.14829809],[-122.4280024,49.14825536],[-122.42791481,49.14822746],[-122.42785151,49.14820729],[-122.42785008,49.14820621],[-122.42784208,49.14820017],[-122.42778599,49.14815838],[-122.42770876,49.14810083],[-122.42763895,49.14781065],[-122.42753132,49.14712383],[-122.42746708,49.14671284],[-122.42746364,49.14669087],[-122.42743958,49.14653705],[-122.42749489,49.14613751],[-122.42753672,49.14583527],[-122.42753711,49.1458328],[-122.42753813,49.14582637],[-122.42747736,49.14244213],[-122.42737247,49.1366007],[-122.42736322,49.13607873],[-122.42733817,49.13468443],[-122.42732108,49.13373092],[-122.42731188,49.13320894],[-122.42730475,49.13280304],[-122.42729773,49.13103168],[-122.42729779,49.13098062],[-122.42729783,49.13093235],[-122.42725438,49.12990242],[-122.42721889,49.12906129],[-122.42721282,49.12891317],[-122.42720938,49.12875943],[-122.42719906,49.1282972],[-122.42716223,49.1267002],[-122.42715901,49.12656038],[-122.42715522,49.1263941],[-122.42713299,49.12541781],[-122.42707274,49.12278195],[-122.42706084,49.12227183],[-122.42704966,49.12179213],[-122.42700323,49.11975942],[-122.42696653,49.11814935],[-122.42696442,49.11805027],[-122.42690876,49.11544015],[-122.42690063,49.11504912],[-122.42689255,49.11466893],[-122.42689174,49.11462194],[-122.42687727,49.11394758],[-122.42686503,49.11336294],[-122.42681409,49.110966],[-122.42670829,49.10729403],[-122.42663457,49.10472582],[-122.42662315,49.10433207],[-122.4266003,49.10353495],[-122.42659883,49.10349317],[-122.42659243,49.10326815],[-122.42652977,49.10108697],[-122.4265276,49.10096969],[-122.42652584,49.10087441],[-122.42652285,49.10073519],[-122.42651466,49.10045378],[-122.42650153,49.10000279],[-122.4264747,49.09907377],[-122.42640408,49.09662813],[-122.42636749,49.09536984],[-122.42636746,49.09536885],[-122.42636135,49.09516297],[-122.42635591,49.09496877],[-122.42634849,49.09470402],[-122.42629747,49.09294831],[-122.4262962,49.09290489],[-122.42627082,49.09203185],[-122.42625192,49.09137252],[-122.42624942,49.0912852],[-122.42624717,49.09120809],[-122.42623628,49.09083515],[-122.42623152,49.09067315],[-122.42622711,49.09051495],[-122.42622576,49.09046664],[-122.42622502,49.09044278],[-122.42622214,49.09034986],[-122.42619461,49.08939742],[-122.42611433,49.08804762],[-122.42606173,49.08716568],[-122.42604692,49.08691359],[-122.42599246,49.08599755],[-122.42576136,49.08210974],[-122.42575713,49.08204209],[-122.42575695,49.08202267],[-122.42575038,49.08131538],[-122.4257487,49.08111777],[-122.42574851,49.08109962],[-122.42574708,49.08093761],[-122.42574458,49.08064992],[-122.42574181,49.08031865],[-122.42573795,49.07985842],[-122.42572794,49.07875687],[-122.42572454,49.07838294],[-122.42571887,49.07773492],[-122.42570998,49.07673406],[-122.42571012,49.07673283],[-122.42571446,49.07669596],[-122.42573435,49.07651583],[-122.4257535,49.0763424],[-122.42587967,49.07610954],[-122.42626252,49.07563635],[-122.42639839,49.07546829],[-122.41427036,49.07066693],[-122.40363025,49.06647177],[-122.39327259,49.06238622],[-122.38785008,49.06025137],[-122.38151093,49.05775504],[-122.37820083,49.05647041],[-122.37647942,49.05582061],[-122.37317434,49.05436044],[-122.36189206,49.04952955],[-122.3599965,49.04871562],[-122.35991567,49.04868099],[-122.35991668,49.04892766],[-122.35991729,49.04907627],[-122.35992409,49.05074366],[-122.3598828,49.05074366],[-122.3596106,49.05075933],[-122.35956861,49.05076787],[-122.35929565,49.05076645],[-122.35899296,49.05080063],[-122.35871994,49.05086187],[-122.35845833,49.0509516],[-122.35820914,49.0510755],[-122.35815559,49.05109259],[-122.35811353,49.05111965],[-122.35807154,49.0511282],[-122.35801645,49.05115526],[-122.35776873,49.05124356],[-122.35749569,49.0513048],[-122.35720668,49.0513931],[-122.35697192,49.05149992],[-122.35694508,49.05152698],[-122.35676689,49.05157113],[-122.35646343,49.05163237],[-122.35642425,49.05165088],[-122.35625846,49.05168506],[-122.35620336,49.05171212],[-122.35597015,49.05180897],[-122.35592809,49.05183603],[-122.35587369,49.05185454],[-122.35583248,49.05188018],[-122.35566719,49.05196136],[-122.35551437,49.05201406],[-122.35537754,49.05203969],[-122.35507688,49.0521109],[-122.35484072,49.05223481],[-122.35457918,49.05235017],[-122.35450395,49.05241082],[-122.35449235,49.05240429],[-122.35435348,49.05239911],[-122.35414841,49.05239147],[-122.35413904,49.05250576],[-122.35398614,49.05285113],[-122.35362395,49.05274503],[-122.35322961,49.05267774],[-122.35298457,49.05266029],[-122.35178446,49.0526667],[-122.35099036,49.05267097],[-122.34918344,49.05267916],[-122.34914762,49.05267935],[-122.34904665,49.05267987],[-122.34901198,49.05267998],[-122.34893018,49.05268023],[-122.34840208,49.05270693],[-122.34770106,49.05274218],[-122.34652219,49.05276782],[-122.34620749,49.05271655],[-122.34590978,49.0525866],[-122.34561745,49.05233771],[-122.34552226,49.0522585],[-122.34544116,49.05219101],[-122.3452061,49.05208954],[-122.3449725,49.05204546],[-122.34489474,49.05203079],[-122.34485515,49.05202331],[-122.34464376,49.05201512],[-122.34420753,49.05199946],[-122.34408564,49.05199518],[-122.34351868,49.05200124],[-122.34249896,49.05199661],[-122.34153748,49.05198628],[-122.34051091,49.05197026],[-122.34000415,49.05195993],[-122.33784679,49.05192682],[-122.33778277,49.05192575],[-122.33771115,49.05192469],[-122.33489817,49.05185276],[-122.33261936,49.05176411],[-122.33229472,49.05173791],[-122.33214011,49.05172625],[-122.33193708,49.05170988],[-122.33137033,49.05166121],[-122.33082111,49.05162347],[-122.33058679,49.05161817],[-122.32986942,49.0516021],[-122.32947429,49.0515932],[-122.32835591,49.05155973],[-122.32672855,49.0514903],[-122.32666266,49.05148781],[-122.32659405,49.05148532],[-122.32250317,49.05133036],[-122.3215375,49.05129376],[-122.31992568,49.05122932],[-122.31831794,49.05116167],[-122.31512472,49.05103099],[-122.31006607,49.05082662],[-122.30999935,49.05082417],[-122.30993048,49.05082164],[-122.30786403,49.05074793],[-122.30694059,49.05067886],[-122.30610029,49.05061619],[-122.3045476,49.05043995],[-122.30444614,49.05042962],[-122.304442,49.05042927],[-122.30434577,49.0504193],[-122.3026029,49.05021101],[-122.30010205,49.04991299],[-122.29910888,49.04979656],[-122.29547789,49.04935755],[-122.29342418,49.04910368],[-122.29339516,49.04909763],[-122.29298351,49.04899829],[-122.29296354,49.04901663],[-122.292949,49.04902998],[-122.29194806,49.04898779],[-122.29163984,49.04897479],[-122.29033247,49.04898725],[-122.28984167,49.04898304],[-122.28900717,49.04897586],[-122.28835843,49.04897052],[-122.28803037,49.04896767],[-122.28770013,49.04896482],[-122.28643981,49.04895379],[-122.28609957,49.04894422],[-122.28562974,49.048931],[-122.28464524,49.04851833],[-122.28375891,49.04791055],[-122.28326558,49.04757116],[-122.28263066,49.04713436],[-122.28229043,49.04703637],[-122.28204592,49.04696595],[-122.28149164,49.0468837],[-122.28096762,49.04683385],[-122.27950629,49.04673487],[-122.27946176,49.04673188],[-122.27925709,49.04671813],[-122.27809781,49.04661831],[-122.27764861,49.04657963],[-122.27642664,49.04647459],[-122.27535466,49.04638416],[-122.27412443,49.04627841],[-122.27338976,49.04622493],[-122.27232936,49.04614774],[-122.27204393,49.04613227],[-122.27181041,49.04611961],[-122.27172199,49.04611391],[-122.27149017,49.04616412],[-122.2713301,49.04619865],[-122.27104666,49.04625989],[-122.27094914,49.04628054],[-122.27093775,49.0462829],[-122.27091818,49.04628695],[-122.27085605,49.04630013],[-122.27053646,49.0463692],[-122.27051157,49.04637454],[-122.27019691,49.04644276],[-122.2700304,49.04647887],[-122.2697346,49.04656645],[-122.26965106,49.04659102],[-122.26962128,49.04659982],[-122.26925929,49.04670674],[-122.26922881,49.046716],[-122.26883436,49.0468399],[-122.26844903,49.04696064],[-122.26832073,49.04700084],[-122.26824046,49.04704233],[-122.26791983,49.04720806],[-122.2674826,49.04756247],[-122.26738263,49.04764351],[-122.26726691,49.04773031],[-122.26705509,49.04788919],[-122.26698202,49.04792792],[-122.26679377,49.04802769],[-122.26654074,49.04816228],[-122.26577987,49.04843609],[-122.26573316,49.04845304],[-122.26570236,49.04846421],[-122.26533236,49.04857585],[-122.26478422,49.04874122],[-122.26438924,49.04883664],[-122.264048,49.04886078],[-122.26381543,49.04887723],[-122.26314078,49.04888079],[-122.26301597,49.04887047],[-122.2606299,49.04867357],[-122.26024095,49.04861304],[-122.26030008,49.04975277],[-122.26031256,49.04999025],[-122.26034848,49.05061085],[-122.26035927,49.05075513],[-122.26040755,49.0514134],[-122.26039574,49.05227326],[-122.26039898,49.05264925],[-122.26040241,49.05304696],[-122.26042759,49.05375551],[-122.26045734,49.05444447],[-122.26049085,49.05549304],[-122.26052931,49.05646364],[-122.26056424,49.05732742],[-122.26060743,49.05840021],[-122.26063282,49.05902793],[-122.26064789,49.05941532],[-122.26066372,49.05980234],[-122.26067429,49.06006155],[-122.26095993,49.06006369],[-122.26201456,49.06007294],[-122.26276237,49.06008007],[-122.26427392,49.06009217],[-122.26475176,49.06009822],[-122.26574354,49.06011175],[-122.26621457,49.06005407],[-122.26667238,49.05995723],[-122.26687487,49.05986394],[-122.26754205,49.05955667],[-122.26761479,49.05952284],[-122.26810986,49.05923551],[-122.26820297,49.05918103],[-122.26856763,49.058935],[-122.27005811,49.0577732],[-122.27071337,49.05723734],[-122.27119271,49.05684533],[-122.271785,49.05644335],[-122.27276506,49.05590215],[-122.27281003,49.05587758],[-122.27282101,49.05587188],[-122.27289585,49.0558345],[-122.27315213,49.05570632],[-122.27322106,49.05567249],[-122.27384244,49.05614996],[-122.27406729,49.05629416],[-122.27524639,49.05696211],[-122.27611704,49.05735911],[-122.27632231,49.05744741],[-122.27721841,49.05776751],[-122.27807194,49.05801176],[-122.27874941,49.05817162],[-122.27939072,49.05831547],[-122.27986793,49.05839416],[-122.28021396,49.05843653],[-122.28109073,49.05854334],[-122.28224541,49.05861669],[-122.28292828,49.05862702],[-122.28361118,49.05862808],[-122.2850939,49.0586466],[-122.28650488,49.05866974],[-122.28650415,49.05870036],[-122.28649956,49.05893215],[-122.28633799,49.06369115],[-122.28624611,49.06610874],[-122.28613384,49.06909495],[-122.2860357,49.0717803],[-122.28590635,49.07257608],[-122.28556748,49.07457994],[-122.28554254,49.0747131],[-122.28544247,49.07471595],[-122.28487088,49.07472663],[-122.28187761,49.07478645],[-122.28125678,49.07478574],[-122.28123173,49.07822022],[-122.28154615,49.0782042],[-122.28158762,49.07819565],[-122.28188832,49.07816147],[-122.28206676,49.07813548],[-122.28238304,49.0780924],[-122.28269803,49.07804967],[-122.28275293,49.07804967],[-122.28279441,49.07804113],[-122.28284964,49.07804148],[-122.28298585,49.07802439],[-122.28302754,49.07801549],[-122.28308222,49.07801585],[-122.28312445,49.07800694],[-122.28317893,49.07800766],[-122.28322061,49.07799876],[-122.2832753,49.07799911],[-122.28357613,49.07798309],[-122.28390492,49.07794001],[-122.28397319,49.07794036],[-122.28401521,49.07793182],[-122.28422062,49.07790618],[-122.28439882,49.07790725],[-122.28489152,49.07780115],[-122.28496308,49.07778584],[-122.28489066,49.0783808],[-122.28479112,49.07918619],[-122.28481011,49.07979575],[-122.28484849,49.08080374],[-122.28500672,49.08135348],[-122.2851372,49.08185729],[-122.28593741,49.08481645],[-122.28684472,49.08920123],[-122.28827502,49.0964793],[-122.28982277,49.10377801],[-122.29051167,49.10730756],[-122.2905032,49.10768391],[-122.29044122,49.10818772],[-122.29030239,49.10876737],[-122.2902769,49.10881331],[-122.29003522,49.10931107],[-122.28897199,49.11098843],[-122.28880558,49.11134306],[-122.28871269,49.11166991],[-122.2886693,49.11208614],[-122.2886954,49.11259565],[-122.28880308,49.11304071],[-122.28894923,49.11338929],[-122.28898223,49.11345409],[-122.28920447,49.11379911],[-122.28947993,49.11413415],[-122.28966385,49.114299],[-122.28997094,49.11457494],[-122.29042284,49.11489219],[-122.29432458,49.11708155],[-122.30113064,49.1209173],[-122.30176892,49.12127585],[-122.30211964,49.12147631],[-122.30541467,49.12332992],[-122.30548036,49.12329324],[-122.30548627,49.12328968],[-122.30713507,49.12243124],[-122.31189771,49.120479],[-122.3134641,49.12005993],[-122.31501495,49.11982957],[-122.31679532,49.11973307],[-122.31804576,49.11987193],[-122.32204822,49.12060828],[-122.32245066,49.12068231],[-122.32531369,49.12174691],[-122.32784334,49.1227645],[-122.33549195,49.12607579],[-122.34184922,49.12767945],[-122.34630061,49.12909974],[-122.35045252,49.12998667],[-122.35332851,49.13046236],[-122.35486567,49.13061403],[-122.35871347,49.13114633],[-122.35932755,49.13122538],[-122.3640107,49.13204999],[-122.38156336,49.13541469],[-122.38293668,49.13599363],[-122.38412368,49.13669149],[-122.38522212,49.13755029],[-122.38539381,49.13769058],[-122.38556571,49.1378305],[-122.38573795,49.13797079],[-122.38590965,49.13811107],[-122.38608156,49.138251],[-122.3862538,49.13839129],[-122.38642571,49.13853121],[-122.38659742,49.1386715],[-122.38676912,49.13881178],[-122.38694104,49.13895171],[-122.3871133,49.139092],[-122.38728501,49.13923228],[-122.38745693,49.13937221],[-122.38762864,49.13951249],[-122.3878009,49.13965278],[-122.38797283,49.13979271],[-122.38814455,49.13993299],[-122.38831627,49.14007328],[-122.3884882,49.14021321],[-122.38866047,49.14035349],[-122.38873879,49.14046565],[-122.38885338,49.14062907],[-122.38896721,49.14079286],[-122.38908159,49.14095664],[-122.38919564,49.14112007],[-122.38931057,49.14128385],[-122.38942517,49.14144728],[-122.38954031,49.14161071],[-122.38965566,49.14177378],[-122.38977211,49.14193686],[-122.38988931,49.14209957],[-122.39000726,49.14226193],[-122.39012597,49.14242393],[-122.39024598,49.14258558],[-122.39036729,49.14274687],[-122.39048935,49.14290781],[-122.39061326,49.14306839],[-122.39073813,49.14322826],[-122.39086334,49.14338848],[-122.3909893,49.14354835],[-122.39111451,49.14370857],[-122.39124081,49.1438688],[-122.39136733,49.14402866],[-122.39149472,49.14418889],[-122.39162199,49.1443484],[-122.3917509,49.14450791],[-122.39188001,49.14466706],[-122.39201043,49.14482586],[-122.3921416,49.14498431],[-122.39227428,49.14514204],[-122.39240771,49.14529941],[-122.39254266,49.14545608],[-122.39267944,49.14561238],[-122.3928172,49.14576798],[-122.392957,49.14592286],[-122.39309852,49.14607668],[-122.39324155,49.14622978],[-122.39338664,49.14638217],[-122.39353344,49.14653349],[-122.39368305,49.14668375],[-122.39383437,49.14683293],[-122.39398926,49.14698069],[-122.39414812,49.14712632],[-122.39431088,49.14727087],[-122.39447612,49.14741401],[-122.39464382,49.14755572],[-122.39481487,49.14769636],[-122.39498743,49.14783629],[-122.39516171,49.14797515],[-122.39533804,49.1481133],[-122.39551513,49.14825109],[-122.39569297,49.14838852],[-122.39587136,49.14852596],[-122.3960505,49.14866304],[-122.3962291,49.14880012],[-122.39640695,49.14893756],[-122.39658459,49.14907535],[-122.39676094,49.1492135],[-122.39693557,49.14935271],[-122.3971089,49.14949229],[-122.39727998,49.14963293],[-122.3974488,49.14977464],[-122.39761569,49.14991777],[-122.39778054,49.15006161],[-122.39794442,49.15020617],[-122.3981068,49.15035144],[-122.39826897,49.15049707],[-122.3984306,49.15064269],[-122.39859278,49.15078832],[-122.39875483,49.15093323],[-122.39891851,49.15107814],[-122.39908283,49.15122199],[-122.39924919,49.15136512],[-122.39941749,49.15150683],[-122.39958859,49.15164747],[-122.39976237,49.15178633],[-122.39993883,49.15192341],[-122.40000005,49.15196934],[-122.40011927,49.15205836],[-122.40030176,49.15219259],[-122.40048563,49.15232539],[-122.40067135,49.15245785],[-122.40085824,49.15258923],[-122.40104664,49.1527199],[-122.401236,49.15284986],[-122.40142667,49.15297946],[-122.4016185,49.153108],[-122.40181164,49.15323618],[-122.40200519,49.15336364],[-122.40219984,49.15349111],[-122.40239511,49.15361751],[-122.40259093,49.15374391],[-122.40278696,49.15386995],[-122.40298375,49.15399564],[-122.40318129,49.15412097],[-122.40337849,49.15424594],[-122.40354318,49.15435026],[-122.40357624,49.15437091],[-122.40377345,49.15449589],[-122.40397142,49.15462051],[-122.4041698,49.15474441],[-122.40437087,49.15486654],[-122.40457419,49.1549876],[-122.40477924,49.15510759],[-122.40498545,49.15522651],[-122.40519209,49.15534472],[-122.40540002,49.15546257],[-122.40560817,49.15558007],[-122.40581611,49.15569792],[-122.4060235,49.15581578],[-122.40623069,49.15593399],[-122.40643616,49.15605326],[-122.40664067,49.15617325],[-122.40684272,49.15629467],[-122.40704305,49.15641715],[-122.40724125,49.15654141],[-122.40743622,49.15666745],[-122.40762832,49.15679563],[-122.40781966,49.15692417],[-122.40800983,49.15705377],[-122.40819904,49.15718408],[-122.40831494,49.15726491],[-122.41430247,49.16235396],[-122.41446672,49.16249817],[-122.41463064,49.16264201],[-122.41479564,49.16278586],[-122.41496086,49.16292935],[-122.41512737,49.16307248],[-122.41529786,49.16321347],[-122.41547083,49.16335305],[-122.41564337,49.16349333],[-122.41581517,49.16363397],[-122.41598642,49.16377461],[-122.41615801,49.16391561],[-122.41632927,49.16405625],[-122.41650182,49.16419654],[-122.4166748,49.16433611],[-122.41684907,49.16447532],[-122.41702473,49.16461312],[-122.41720189,49.1647502],[-122.41738153,49.16488585],[-122.41756363,49.16502008],[-122.41774842,49.16515254],[-122.41793835,49.16528178],[-122.41813431,49.16540818],[-122.41833433,49.16553138],[-122.41853874,49.16565172],[-122.41874713,49.16576993],[-122.41895732,49.165886],[-122.41917019,49.1660003],[-122.41938356,49.16611281],[-122.4195994,49.1662239],[-122.41981662,49.16633356],[-122.42003577,49.1664418],[-122.42025684,49.16654862],[-122.42047908,49.16665436],[-122.42070271,49.16675869],[-122.42092805,49.16686194],[-122.42115423,49.16696377],[-122.42138137,49.16706489],[-122.42160935,49.16716459],[-122.42183883,49.16726357],[-122.42206882,49.16736077],[-122.42230086,49.16745726],[-122.42253298,49.16755268],[-122.4227664,49.16764775],[-122.4229999,49.16774175],[-122.42323416,49.16783539],[-122.42346896,49.16792903],[-122.42370343,49.16802232],[-122.42393824,49.16811596],[-122.4241725,49.1682096],[-122.42440656,49.1683036],[-122.42463965,49.16839831],[-122.42489239,49.16846881],[-122.42514408,49.16854109],[-122.42539514,49.16861443],[-122.42564558,49.16868885],[-122.42589636,49.16876362]]]},"geometry_name":"SHAPE","properties":{"id":260,"slug":"abbotsford-west","name":"Abbotsford West","abbreviation":"ABW","gazetteDate":"2023-12-07Z","boundarySet":11},"bbox":[-122.43047889,49.04611391,-122.26024095,49.16876362]}
