{"type":"Feature","id":269,"geometry":{"type":"Polygon","coordinates":[[[-121.53092514,49.29481362],[-121.56093119,49.29483093],[-121.57894804,49.29483733],[-121.61911177,49.29484076],[-121.64551168,49.29478906],[-121.65392785,49.29482502],[-121.6549386,49.29483107],[-121.65505624,49.29469292],[-121.65642988,49.2936796],[-121.65663824,49.29352578],[-121.65668998,49.29348769],[-121.65671839,49.29346668],[-121.65725803,49.29306861],[-121.6573561,49.29309995],[-121.65760205,49.29317792],[-121.6578786,49.29326587],[-121.65874119,49.29354038],[-121.65897008,49.29361309],[-121.65899203,49.29362006],[-121.65899474,49.29362092],[-121.65915727,49.29367255],[-121.66036142,49.29310534],[-121.66328355,49.29211873],[-121.66539039,49.29139228],[-121.66641086,49.29099193],[-121.66726942,49.29045386],[-121.66797342,49.28981655],[-121.66848288,49.2891571],[-121.6687647,49.28859587],[-121.66887531,49.28811365],[-121.66892042,49.28751428],[-121.66899683,49.28693049],[-121.66908131,49.28485839],[-121.66929627,49.28419428],[-121.66952587,49.28372398],[-121.67085144,49.28180904],[-121.67117449,49.28115641],[-121.67134056,49.28054759],[-121.67136658,49.28036255],[-121.67147202,49.27829844],[-121.67158524,49.27673561],[-121.67181633,49.27601488],[-121.67217129,49.27537068],[-121.67297821,49.27432951],[-121.67496241,49.27225485],[-121.6755386,49.27146206],[-121.67597736,49.27062081],[-121.67603499,49.26988596],[-121.6759832,49.26915387],[-121.6756607,49.26699384],[-121.67575296,49.26623889],[-121.67599267,49.26413718],[-121.67583433,49.26314316],[-121.67573103,49.26214418],[-121.67598147,49.26098047],[-121.67652906,49.25990739],[-121.67703953,49.25907616],[-121.67792108,49.25773734],[-121.67843938,49.25668042],[-121.67848541,49.25636671],[-121.67943372,49.25493512],[-121.67977552,49.25376551],[-121.67939779,49.2525098],[-121.6789869,49.25098556],[-121.67813153,49.24829834],[-121.67806441,49.24652066],[-121.67793984,49.24244796],[-121.67822406,49.24127125],[-121.67859129,49.24049152],[-121.679091,49.23978867],[-121.68041523,49.23833872],[-121.68078156,49.23780229],[-121.68114142,49.23710098],[-121.68168271,49.23413807],[-121.6818633,49.23368247],[-121.68381995,49.22922309],[-121.68522177,49.22744218],[-121.68657625,49.22583033],[-121.68723145,49.22488315],[-121.68812531,49.22340156],[-121.69003774,49.22025248],[-121.69156509,49.21836675],[-121.6926359,49.21716895],[-121.69345366,49.21650403],[-121.69486698,49.21584478],[-121.6962196,49.21536918],[-121.70010524,49.21462252],[-121.70161251,49.2141244],[-121.70288471,49.21357394],[-121.70510761,49.2121822],[-121.70619852,49.2112332],[-121.70842369,49.20902196],[-121.7086443,49.20879611],[-121.70892255,49.20851125],[-121.70879098,49.20841005],[-121.70693753,49.20698258],[-121.70658811,49.20671346],[-121.70888439,49.20554169],[-121.70998599,49.20567307],[-121.71114681,49.2055367],[-121.71401397,49.20338188],[-121.71563351,49.20115655],[-121.71592244,49.20086921],[-121.71664226,49.20015141],[-121.71995302,49.20006525],[-121.72079527,49.19980747],[-121.72127817,49.19912848],[-121.72155755,49.19934317],[-121.72338056,49.20074037],[-121.72362247,49.20092583],[-121.72387484,49.2011193],[-121.72881326,49.19827732],[-121.72921397,49.19804608],[-121.73310635,49.1959412],[-121.73548416,49.19448238],[-121.73627257,49.19391165],[-121.73763465,49.19269985],[-121.73851571,49.19199091],[-121.7385448,49.19197201],[-121.74000307,49.19099993],[-121.74069321,49.19044959],[-121.74163416,49.18979493],[-121.74330505,49.18880528],[-121.74585711,49.18751835],[-121.74768288,49.18673221],[-121.75483334,49.18366687],[-121.75753862,49.18255376],[-121.76173199,49.18083211],[-121.76448949,49.1797034],[-121.76567043,49.17922228],[-121.76801575,49.17826672],[-121.76831246,49.17814582],[-121.77194979,49.17666448],[-121.77223626,49.176539],[-121.77227171,49.17652056],[-121.77282553,49.17623248],[-121.77325975,49.17600661],[-121.7732849,49.17598949],[-121.77423672,49.17534133],[-121.77448189,49.17516051],[-121.77451607,49.1751353],[-121.77463283,49.17502449],[-121.77498361,49.17469162],[-121.77596037,49.1737649],[-121.77632653,49.17337686],[-121.77650469,49.1732515],[-121.77703499,49.17287839],[-121.77768315,49.17255309],[-121.77769809,49.17254676],[-121.77793736,49.17244542],[-121.77804627,49.17239929],[-121.77824797,49.17231384],[-121.77837485,49.17227461],[-121.77939212,49.17196008],[-121.78069877,49.17155604],[-121.78125336,49.17134954],[-121.78163335,49.17120805],[-121.78163358,49.17120788],[-121.78208809,49.17094363],[-121.78242122,49.17074995],[-121.782444,49.1707367],[-121.78314163,49.17022704],[-121.78559769,49.16813223],[-121.78576505,49.16798948],[-121.78576521,49.16798934],[-121.78577852,49.16797798],[-121.78577878,49.1679892],[-121.78583531,49.16794718],[-121.78595778,49.16785617],[-121.78659429,49.16738313],[-121.78716192,49.16696126],[-121.79666721,49.16159682],[-121.79782478,49.16095969],[-121.79845898,49.16065045],[-121.79861528,49.16058754],[-121.7987986,49.16051375],[-121.79886961,49.16048516],[-121.79929647,49.16034914],[-121.799902,49.16019623],[-121.80042533,49.1601093],[-121.8004379,49.16010791],[-121.80095331,49.16005118],[-121.80140176,49.16002723],[-121.80162449,49.16001534],[-121.80232719,49.16004037],[-121.80235847,49.16004369],[-121.80278403,49.16008889],[-121.80317934,49.16013088],[-121.80364019,49.16021888],[-121.8045768,49.16039772],[-121.80521908,49.16051236],[-121.80554193,49.16056999],[-121.80561998,49.16058392],[-121.80567436,49.16058934],[-121.80621001,49.16064271],[-121.80699775,49.16068296],[-121.80780872,49.16066685],[-121.80823116,49.16064136],[-121.80838542,49.16063206],[-121.80843784,49.16062495],[-121.80926008,49.16051344],[-121.81055965,49.16019681],[-121.81059404,49.16018844],[-121.81074387,49.16013592],[-121.81116346,49.15998887],[-121.81116381,49.15998874],[-121.81116544,49.15998801],[-121.8117749,49.1597165],[-121.81412461,49.15854614],[-121.81435297,49.15843238],[-121.81540309,49.15790929],[-121.8173875,49.15690716],[-121.81751739,49.15684156],[-121.81753383,49.15683431],[-121.81873714,49.15630371],[-121.81877037,49.15628905],[-121.81921374,49.15613185],[-121.81950197,49.15602966],[-121.82014315,49.15580232],[-121.82026822,49.15575797],[-121.82139987,49.15544407],[-121.82243657,49.15521712],[-121.82385915,49.15496666],[-121.82402012,49.15495058],[-121.82453854,49.15489879],[-121.82456903,49.15489656],[-121.82628498,49.15477093],[-121.82696432,49.15476926],[-121.83012826,49.15477895],[-121.83445163,49.1547914],[-121.84103925,49.15483198],[-121.85222479,49.15489995],[-121.8522427,49.15490006],[-121.87442067,49.15503317],[-121.89653792,49.15515186],[-121.90910374,49.15522488],[-121.90961934,49.15522841],[-121.91369578,49.15525626],[-121.91820443,49.15525927],[-121.91827314,49.15525998],[-121.91931612,49.15521547],[-121.9203454,49.15509904],[-121.92166685,49.15484696],[-121.92498748,49.15401731],[-121.92968089,49.15284446],[-121.9338246,49.15180876],[-121.94000103,49.15026456],[-121.94741263,49.14843588],[-121.95355904,49.14689987],[-121.9619685,49.14481945],[-121.96206703,49.14479646],[-121.96203863,49.1447429],[-121.96181521,49.14437083],[-121.95996941,49.14084199],[-121.95884255,49.13844586],[-121.95875169,49.1380598],[-121.95886373,49.13710451],[-121.95896436,49.13642481],[-121.95898417,49.13628666],[-121.95908751,49.13591815],[-121.9597197,49.13471861],[-121.95987488,49.13438819],[-121.95990664,49.13351657],[-121.95992679,49.13312242],[-121.95995777,49.13256235],[-121.95999311,49.1319211],[-121.96007601,49.1317648],[-121.96012069,49.13168077],[-121.96033606,49.13141551],[-121.96040901,49.13120473],[-121.96108486,49.13132329],[-121.96124885,49.13135187],[-121.96133822,49.13136744],[-121.96161196,49.13138558],[-121.96200458,49.13141159],[-121.96252959,49.13140613],[-121.96351143,49.13139593],[-121.96456752,49.1313888],[-121.9647967,49.13138774],[-121.96487602,49.13138722],[-121.96508105,49.13138622],[-121.96509629,49.13138631],[-121.96517476,49.13134964],[-121.96521585,49.13133184],[-121.9653812,49.13126169],[-121.96556038,49.13119119],[-121.96677777,49.13068916],[-121.9677739,49.13023057],[-121.96792654,49.13016897],[-121.96943287,49.12951633],[-121.9711911,49.1287679],[-121.97247649,49.12816724],[-121.97305844,49.12793866],[-121.97413577,49.12747152],[-121.97589162,49.12672238],[-121.97673728,49.12631613],[-121.97737384,49.12605158],[-121.97740181,49.12603023],[-121.97742022,49.12510617],[-121.97745981,49.1231202],[-121.97746426,49.12288457],[-121.97746639,49.12277163],[-121.97747129,49.12132214],[-121.97751083,49.11837367],[-121.97873939,49.11837153],[-121.98208375,49.11836548],[-121.98221522,49.11836523],[-121.98301507,49.1183637],[-121.98467702,49.11836082],[-121.98730467,49.11835622],[-121.99208637,49.11834732],[-121.99301112,49.11835017],[-121.99517003,49.11835515],[-121.99710627,49.11835945],[-121.99741762,49.11836014],[-121.99999391,49.11836583],[-122.00677857,49.11838079],[-122.00679755,49.1155046],[-122.00679979,49.11520739],[-122.00680127,49.11501004],[-122.00680367,49.11465007],[-122.00680599,49.11429936],[-122.00680895,49.11383556],[-122.0068111,49.1134986],[-122.00681228,49.11330953],[-122.00683719,49.10960355],[-122.00684607,49.10828172],[-122.00686826,49.10495131],[-122.00687106,49.10453071],[-122.0068713,49.10449565],[-122.00687586,49.10383676],[-122.00686154,49.10059953],[-122.00685959,49.1002125],[-122.00685885,49.09999674],[-122.00685744,49.09969089],[-122.00685628,49.09938646],[-122.00680341,49.09818477],[-122.00682123,49.09818365],[-122.00730715,49.0981532],[-122.00865416,49.09806872],[-122.0086542,49.09806871],[-122.01085638,49.09836695],[-122.0108644,49.09836804],[-122.01102395,49.09838963],[-122.01130639,49.09842786],[-122.01134974,49.09843374],[-122.0118134,49.09849652],[-122.01372401,49.09875519],[-122.01373904,49.09875564],[-122.01689401,49.09884955],[-122.01689685,49.09884963],[-122.01770665,49.09887372],[-122.01846228,49.0988962],[-122.01872565,49.09889409],[-122.01932266,49.0988893],[-122.01998917,49.09888396],[-122.02062834,49.09887882],[-122.02074328,49.0988779],[-122.02097331,49.09886265],[-122.02178805,49.09880857],[-122.02236362,49.09877033],[-122.02333594,49.09870578],[-122.02383559,49.09867261],[-122.02386644,49.09866773],[-122.02491486,49.09850218],[-122.02492203,49.09850106],[-122.0255404,49.0984034],[-122.0256458,49.09837773],[-122.02597489,49.09829757],[-122.02598499,49.09829512],[-122.02759842,49.09790214],[-122.02808998,49.0977824],[-122.02836441,49.09766136],[-122.02891768,49.09741732],[-122.02893426,49.09741],[-122.02912457,49.09732607],[-122.02913136,49.09732305],[-122.02958107,49.09712468],[-122.02983071,49.09701457],[-122.03078664,49.09659289],[-122.03093761,49.09652629],[-122.03099441,49.09648978],[-122.03208914,49.09578605],[-122.03209739,49.09578073],[-122.03212412,49.09576355],[-122.03230179,49.09564934],[-122.03237077,49.095605],[-122.0324574,49.0955493],[-122.03256995,49.095325],[-122.03257415,49.09531665],[-122.03313426,49.09420032],[-122.03320978,49.09404983],[-122.03326848,49.0939328],[-122.03376844,49.09341755],[-122.03377319,49.09341266],[-122.03384516,49.0933385],[-122.03384541,49.09333825],[-122.03384566,49.09333796],[-122.03388578,49.09329664],[-122.03388787,49.09329449],[-122.03399726,49.09318175],[-122.03404649,49.093131],[-122.03404652,49.09313098],[-122.03417033,49.09306134],[-122.03417096,49.09306102],[-122.03417156,49.09306067],[-122.0343753,49.09294607],[-122.03438396,49.09294122],[-122.03577606,49.09215821],[-122.0357844,49.09215352],[-122.03688313,49.09153553],[-122.03688365,49.09153524],[-122.03688417,49.09153495],[-122.0370597,49.09143621],[-122.03774247,49.0914035],[-122.03949666,49.09131945],[-122.03951247,49.09131869],[-122.03985863,49.09130208],[-122.04020471,49.09128551],[-122.04063402,49.09126493],[-122.0406573,49.09126381],[-122.04069171,49.09125888],[-122.04116435,49.09119115],[-122.041249,49.09117901],[-122.04167488,49.09111798],[-122.04184388,49.09109378],[-122.04188458,49.09108794],[-122.04211179,49.09105537],[-122.04367041,49.090832],[-122.04421468,49.090754],[-122.04421473,49.09075398],[-122.04431272,49.09072598],[-122.04513479,49.09049106],[-122.04550485,49.09038531],[-122.04629569,49.09015931],[-122.04665833,49.09005567],[-122.04731478,49.08986804],[-122.04732284,49.08986575],[-122.04781503,49.08972509],[-122.04790975,49.08969799],[-122.0483558,49.08957051],[-122.04854427,49.08950262],[-122.04855987,49.08949698],[-122.04891286,49.08936981],[-122.0489293,49.08936389],[-122.04893244,49.08936327],[-122.04980062,49.08917833],[-122.05072771,49.08898083],[-122.05187634,49.08878857],[-122.05187648,49.08878859],[-122.0527173,49.08853052],[-122.0530338,49.08843338],[-122.0541795,49.08808169],[-122.05507505,49.08789911],[-122.05524419,49.08786463],[-122.05527179,49.08785901],[-122.05527276,49.0878588],[-122.05527379,49.0878586],[-122.0553164,49.0878584],[-122.05601385,49.08785515],[-122.05623997,49.08785408],[-122.05649288,49.0878529],[-122.05657198,49.0878766],[-122.05659849,49.08788454],[-122.05793048,49.08828365],[-122.05798592,49.08830025],[-122.05809461,49.0883328],[-122.05829581,49.08833681],[-122.05845218,49.08833992],[-122.05845967,49.08834005],[-122.05848752,49.08834062],[-122.05852688,49.08834138],[-122.05912503,49.08835326],[-122.0595991,49.08836271],[-122.05999325,49.08844329],[-122.0600009,49.08844487],[-122.06029136,49.08850425],[-122.06082439,49.08861326],[-122.06097649,49.08864437],[-122.0609767,49.08864441],[-122.06180038,49.08882559],[-122.06180043,49.08882561],[-122.06196178,49.08888606],[-122.06222388,49.08898426],[-122.06236312,49.08903643],[-122.06259722,49.08912414],[-122.06261545,49.08913096],[-122.06300883,49.08927834],[-122.06301614,49.0892811],[-122.0633901,49.0894212],[-122.06368814,49.08953281],[-122.06369529,49.08953549],[-122.0637012,49.0895377],[-122.06373731,49.08956314],[-122.06373752,49.0895633],[-122.06373773,49.08956346],[-122.06383802,49.08963415],[-122.06421509,49.0899],[-122.06471748,49.09028689],[-122.06521483,49.09066991],[-122.06538449,49.0908388],[-122.06538789,49.09084219],[-122.06553905,49.09099266],[-122.06578698,49.09123945],[-122.06621989,49.09167038],[-122.06623173,49.09168213],[-122.06641241,49.09186199],[-122.06798725,49.09312002],[-122.06799738,49.09312813],[-122.06816013,49.09325813],[-122.06826159,49.09333918],[-122.06826576,49.09334248],[-122.06827955,49.09335352],[-122.06837718,49.09343149],[-122.06911852,49.09430339],[-122.06926218,49.09447235],[-122.07058861,49.09603231],[-122.07077233,49.09623522],[-122.07085061,49.09632169],[-122.07095419,49.0964361],[-122.07343963,49.09903176],[-122.07519594,49.10086575],[-122.0759984,49.10170367],[-122.07732743,49.10309132],[-122.07733468,49.10309889],[-122.07939606,49.105251],[-122.08012303,49.10602546],[-122.08032825,49.10616178],[-122.08033234,49.10461285],[-122.08033405,49.10396565],[-122.08033455,49.10391231],[-122.08034435,49.10284658],[-122.0803754,49.101892],[-122.08037739,49.10135294],[-122.080379,49.10083097],[-122.08038099,49.10037237],[-122.08038195,49.1000124],[-122.08038209,49.1000003],[-122.08039018,49.09774542],[-122.08040034,49.09487599],[-122.08040961,49.09237864],[-122.08041674,49.08933439],[-122.08047233,49.08818043],[-122.08045361,49.08211116],[-122.0804365,49.07486407],[-122.08038339,49.0677327],[-122.08034961,49.06035779],[-122.07592648,49.06036704],[-122.07558536,49.06036776],[-122.07492923,49.06025061],[-122.07492931,49.06018118],[-122.07493258,49.06004624],[-122.07493638,49.05985753],[-122.0749907,49.05980377],[-122.07514592,49.05962539],[-122.07531239,49.05947371],[-122.07546615,49.05927681],[-122.07562042,49.05910733],[-122.07585738,49.05889299],[-122.07601082,49.05874131],[-122.07609347,49.0586701],[-122.07612134,49.05864339],[-122.0763576,49.05850133],[-122.07659133,49.05838632],[-122.07686831,49.05827168],[-122.07704792,49.05821008],[-122.07733565,49.05814029],[-122.07762463,49.0580438],[-122.0769111,49.05787717],[-122.07462799,49.05734843],[-122.07306546,49.05709848],[-122.07300153,49.05708816],[-122.07299756,49.05656618],[-122.07297015,49.05295047],[-122.0729428,49.04933547],[-122.0729154,49.04572047],[-122.07835107,49.04570908],[-122.08079762,49.04570374],[-122.0836368,49.04569769],[-122.08384289,49.04569733],[-122.08380377,49.04217526],[-122.08376459,49.03862221],[-122.08935792,49.03862293],[-122.0912779,49.03862308],[-122.09495037,49.03862328],[-122.09495145,49.03862328],[-122.09495098,49.03862043],[-122.0949428,49.03416095],[-122.0949394,49.03230355],[-122.0949377,49.0313794],[-122.09493611,49.03061531],[-122.09492481,49.02430393],[-122.09491798,49.02064015],[-122.09491305,49.01780383],[-122.09491234,49.01761121],[-122.09491155,49.01705114],[-122.10603557,49.01705114],[-122.11147347,49.01705078],[-122.11697564,49.01705007],[-122.1169602,49.01340694],[-122.11694092,49.00976382],[-122.11692241,49.0061093],[-122.11690443,49.00265488],[-122.11690346,49.00249002],[-122.11690227,49.0024238],[-122.10984284,49.0024238],[-122.09806121,49.00241169],[-122.06893423,49.00201256],[-122.05979923,49.0018858],[-122.02848158,49.0014418],[-122.01954802,49.00131434],[-122.00644312,49.00112705],[-122.00000018,49.00103412],[-121.97157999,49.0006211],[-121.97021313,49.00060259],[-121.96593757,49.00053743],[-121.93545657,49.00007314],[-121.87777659,48.99919476],[-121.85063709,48.99878174],[-121.85019886,48.99877497],[-121.81013318,48.99812909],[-121.78981046,48.99779974],[-121.75956501,48.99730234],[-121.75399901,48.99730092],[-121.75072076,48.99729985],[-121.74800094,48.99730056],[-121.74106197,48.9973027],[-121.73604358,48.99737035],[-121.7300458,48.99745117],[-121.72404823,48.99753164],[-121.66778241,48.9982708],[-121.61298353,48.99898041],[-121.56694794,48.99927914],[-121.52699993,48.99950025],[-121.5234984,48.99952695],[-121.49730604,48.99963769],[-121.47489213,48.99972136],[-121.44502974,48.99983209],[-121.41577853,48.99994247],[-121.40511345,48.99994282],[-121.37897454,49.00030529],[-121.33486216,49.00091556],[-121.3016964,49.00088885],[-121.29758418,49.00088886],[-121.27193367,49.00083011],[-121.27186635,49.00094511],[-121.27152242,49.00140478],[-121.27129174,49.00188509],[-121.27117405,49.00239531],[-121.2711803,49.00299811],[-121.27106167,49.00347629],[-121.27082955,49.00391032],[-121.27048113,49.00435787],[-121.27013141,49.0048624],[-121.26956192,49.00546769],[-121.26910468,49.00607049],[-121.26875995,49.00654831],[-121.26841654,49.00699302],[-121.26807391,49.00740461],[-121.26864019,49.00768483],[-121.26897878,49.00803803],[-121.26920235,49.00846814],[-121.26942563,49.00891819],[-121.26973675,49.00927994],[-121.27002336,49.00954805],[-121.26993057,49.00969047],[-121.26987882,49.00986066],[-121.26989351,49.0100597],[-121.26996695,49.01025766],[-121.27007486,49.01043925],[-121.27016957,49.01063971],[-121.270216,49.01083126],[-121.27027692,49.01122221],[-121.27043955,49.01162348],[-121.27077976,49.01218925],[-121.27111838,49.01268594],[-121.27111945,49.01344184],[-121.27122966,49.01394102],[-121.27145324,49.01447225],[-121.27190745,49.01500277],[-121.27236244,49.01546742],[-121.27292949,49.0158078],[-121.27338091,49.01611365],[-121.2738299,49.01640312],[-121.27416525,49.01671681],[-121.2746794,49.01697352],[-121.2750633,49.01725231],[-121.27595955,49.01704081],[-121.27607091,49.01698847],[-121.27615504,49.01692652],[-121.2762279,49.01679265],[-121.2763779,49.01681009],[-121.27669643,49.01682362],[-121.27700071,49.01677627],[-121.27717913,49.01663313],[-121.27725314,49.01641238],[-121.27786631,49.01640134],[-121.27851396,49.01634117],[-121.27916279,49.01635078],[-121.27968894,49.01642769],[-121.28009261,49.01657154],[-121.28055004,49.01657723],[-121.28106217,49.0166221],[-121.28126352,49.016469],[-121.28142878,49.01629773],[-121.28157601,49.01612398],[-121.28174144,49.0159666],[-121.28193839,49.01579855],[-121.28199477,49.0157544],[-121.28224005,49.01565007],[-121.28261724,49.01554753],[-121.28307279,49.01542256],[-121.28333879,49.01525343],[-121.28346815,49.01506543],[-121.28444712,49.01515196],[-121.28538006,49.01527373],[-121.2860556,49.01538588],[-121.2864743,49.01541401],[-121.28684816,49.01540369],[-121.28716432,49.01537235],[-121.28750659,49.01535954],[-121.28778,49.01535455],[-121.28805338,49.01535847],[-121.28831376,49.01535348],[-121.2886138,49.01537591],[-121.28880427,49.01540262],[-121.28892714,49.0154165],[-121.2892399,49.015466],[-121.28952553,49.01551549],[-121.28959322,49.01553436],[-121.28990961,49.01560806],[-121.29018961,49.0156871],[-121.29045933,49.01579],[-121.29072046,49.01589896],[-121.29095823,49.01601325],[-121.29117267,49.01608766],[-121.29135973,49.01613324],[-121.29160963,49.0161489],[-121.29187786,49.01617098],[-121.29213904,49.01622581],[-121.29237043,49.01629916],[-121.29257255,49.01639102],[-121.29276521,49.0164868],[-121.29297666,49.01658293],[-121.29328781,49.01666874],[-121.29357574,49.0167898],[-121.29385363,49.01692901],[-121.29406755,49.01707606],[-121.29425845,49.01721991],[-121.2944795,49.01734203],[-121.294711,49.01745419],[-121.29496715,49.01756599],[-121.29523747,49.01765999],[-121.29552255,49.01771838],[-121.29577499,49.01779992],[-121.29600906,49.01788751],[-121.29621577,49.01797723],[-121.29638727,49.01803669],[-121.29645557,49.01803776],[-121.29672815,49.01805984],[-121.29716682,49.01829732],[-121.29775908,49.0187139],[-121.29815891,49.01902545],[-121.2977618,49.01943349],[-121.29775883,49.0199284],[-121.29775012,49.02018013],[-121.297607,49.0205077],[-121.29745645,49.02076939],[-121.29734637,49.02092072],[-121.29728343,49.02102789],[-121.29726728,49.02109945],[-121.2971795,49.02127819],[-121.29707728,49.02145658],[-121.29701584,49.02165347],[-121.29695955,49.02187565],[-121.2969105,49.02210993],[-121.29686892,49.02235596],[-121.29692514,49.02261695],[-121.29698543,49.02285978],[-121.29704924,49.02308445],[-121.29706438,49.02344441],[-121.29711209,49.02364309],[-121.29717394,49.02383287],[-121.29723692,49.02400484],[-121.29728546,49.02417646],[-121.29729317,49.02434736],[-121.29734892,49.02454711],[-121.29741242,49.02472798],[-121.29748478,49.02488999],[-121.29747601,49.02504879],[-121.29745142,49.02520153],[-121.29740957,49.02534787],[-121.29734523,49.02536781],[-121.29729297,49.025376],[-121.29724463,49.02538134],[-121.29697062,49.02538633],[-121.29688197,49.02539985],[-121.29678406,49.02542763],[-121.29668816,49.02547427],[-121.2966097,49.02553587],[-121.29655273,49.02560494],[-121.29651822,49.02568256],[-121.29649273,49.02575697],[-121.29645855,49.02596349],[-121.29648157,49.02618388],[-121.29653536,49.02639039],[-121.29657784,49.02660118],[-121.29661993,49.02679843],[-121.29665839,49.02696791],[-121.29669269,49.02710962],[-121.29678202,49.02730865],[-121.29684389,49.02749843],[-121.29687806,49.02769711],[-121.29691688,49.02790148],[-121.29697376,49.0280941],[-121.29706427,49.02825753],[-121.29710228,49.02834797],[-121.29711479,49.02838429],[-121.29670838,49.02838998],[-121.29635609,49.02842701],[-121.29607024,49.02847081],[-121.29579738,49.02849075],[-121.29555137,49.02849609],[-121.29524542,49.02850356],[-121.29495221,49.0285381],[-121.29467207,49.02860005],[-121.29417337,49.02877238],[-121.29388668,49.02889736],[-121.29363168,49.02902554],[-121.29338035,49.02916546],[-121.29313074,49.02926979],[-121.29303332,49.02931358],[-121.2927698,49.02941755],[-121.29249354,49.02949446],[-121.29227305,49.02954502],[-121.29212616,49.02956674],[-121.29189563,49.02954858],[-121.29167444,49.02952935],[-121.29153091,49.02955712],[-121.29145654,49.02967676],[-121.29137405,49.03010046],[-121.29129091,49.03047823],[-121.29109454,49.03075097],[-121.29097802,49.03101124],[-121.29074447,49.03124979],[-121.29050856,49.03152502],[-121.29009217,49.0318768],[-121.28953375,49.03221042],[-121.28883276,49.03252589],[-121.28899094,49.03255401],[-121.28917281,49.03257894],[-121.28944584,49.03258891],[-121.28969546,49.03262558],[-121.29003011,49.03270961],[-121.29032338,49.0328887],[-121.29057559,49.03316322],[-121.29073444,49.03332772],[-121.2909199,49.03349221],[-121.29110648,49.03363891],[-121.2913078,49.0337589],[-121.29150799,49.03389669],[-121.2917629,49.03404445],[-121.29197674,49.03420076],[-121.29214917,49.03436525],[-121.29218884,49.03440157],[-121.29221496,49.03442899],[-121.29233708,49.03446103],[-121.29254097,49.03450589],[-121.2930442,49.03460025],[-121.29326858,49.03466042],[-121.29341868,49.03471062],[-121.29350398,49.03474516],[-121.29367687,49.03480961],[-121.29381971,49.03485483],[-121.29399213,49.03488723],[-121.29417864,49.03502787],[-121.29429822,49.03513148],[-121.29435064,49.03519841],[-121.29449644,49.0353355],[-121.29453586,49.03538997],[-121.29562219,49.03563102],[-121.29653587,49.03590126],[-121.29733031,49.03621993],[-121.29789658,49.03652008],[-121.29846183,49.03679531],[-121.29902659,49.03704561],[-121.29982292,49.03731515],[-121.30062167,49.03757008],[-121.30141926,49.03775772],[-121.30198893,49.03796103],[-121.30251626,49.03809775],[-121.30300473,49.03821988],[-121.30362575,49.03827898],[-121.30441963,49.03831565],[-121.30510588,49.03834271],[-121.30578523,49.03840146],[-121.30653947,49.03849048],[-121.30753395,49.03861296],[-121.30746075,49.03884795],[-121.30757093,49.0390096],[-121.3078645,49.0390979],[-121.30815879,49.03915309],[-121.30792024,49.03945858],[-121.30782641,49.03963412],[-121.30776836,49.03977689],[-121.30775296,49.03982781],[-121.30773653,49.03990258],[-121.30771165,49.04009414],[-121.30765127,49.04027002],[-121.30754508,49.04049149],[-121.30729301,49.0407037],[-121.30689507,49.04090665],[-121.30682021,49.04110354],[-121.30677227,49.0413097],[-121.30672437,49.04149805],[-121.30664895,49.04170385],[-121.30661517,49.0418922],[-121.30658058,49.04210761],[-121.30648472,49.04251992],[-121.30639598,49.04270756],[-121.30627687,49.04286493],[-121.30615401,49.04299204],[-121.30597971,49.04301946],[-121.30578192,49.04305863],[-121.30556142,49.04310919],[-121.30529927,49.04317719],[-121.30499607,49.04323594],[-121.30470588,49.04331249],[-121.30437519,49.04337979],[-121.30432019,49.04339688],[-121.30407095,49.04347129],[-121.30389562,49.04353146],[-121.30379375,49.04357811],[-121.3037099,49.0436308],[-121.3035147,49.04374474],[-121.30330538,49.04385868],[-121.30306671,49.0439833],[-121.30282773,49.04409154],[-121.30258373,49.04415384],[-121.30237749,49.04418375],[-121.302203,49.0442514],[-121.3019926,49.04435822],[-121.30171059,49.04447999],[-121.30139254,49.04457719],[-121.3012844,49.0446687],[-121.30120832,49.0447513],[-121.30117279,49.0448129],[-121.30115001,49.04486168],[-121.30113253,49.04497811],[-121.30109796,49.04518462],[-121.30107697,49.04539113],[-121.30108322,49.04561615],[-121.30105846,49.0459398],[-121.30096535,49.04613812],[-121.30085425,49.04630547],[-121.3005361,49.04659458],[-121.30017831,49.04687124],[-121.30015789,49.04706884],[-121.30016473,49.04726717],[-121.30011176,49.04743807],[-121.30003903,49.04760399],[-121.29987098,49.04785643],[-121.29965399,49.04820394],[-121.2995338,49.04855928],[-121.29938422,49.04888364],[-121.29952494,49.04921477],[-121.29958915,49.04956263],[-121.29955855,49.049887],[-121.29946403,49.05016223],[-121.29957952,49.05038013],[-121.2996691,49.05056136],[-121.29975787,49.05077855],[-121.29981859,49.05100429],[-121.29993326,49.0511987],[-121.30012734,49.05140449],[-121.30039974,49.05162169],[-121.30057584,49.05194391],[-121.30066489,49.05227611],[-121.30066091,49.05277992],[-121.299631,49.05289066],[-121.29961911,49.05323247],[-121.29989045,49.0534461],[-121.30008434,49.05364691],[-121.30021048,49.05381995],[-121.30033137,49.05392962],[-121.3004748,49.05400866],[-121.30064023,49.05405708],[-121.3008781,49.05412651],[-121.30108858,49.05420164],[-121.30126752,49.05430525],[-121.3013545,49.05442951],[-121.30143515,49.05456944],[-121.30154417,49.05471008],[-121.30168647,49.05482829],[-121.30167483,49.05516975],[-121.30201789,49.05541186],[-121.30235673,49.05564757],[-121.30260227,49.05585016],[-121.3027397,49.0560492],[-121.30282854,49.05625749],[-121.30287598,49.05647397],[-121.30286358,49.05683358],[-121.30288353,49.0570497],[-121.30290269,49.05729289],[-121.30289515,49.05750866],[-121.30290207,49.05771588],[-121.30292281,49.05791384],[-121.30293482,49.05795906],[-121.30298689,49.05804095],[-121.30314631,49.05821827],[-121.30332184,49.0583817],[-121.30354499,49.0585348],[-121.3043639,49.05865372],[-121.3050205,49.05883637],[-121.3054232,49.05906817],[-121.30570338,49.05924619],[-121.30593145,49.05938149],[-121.3062003,49.05948831],[-121.30643238,49.05963571],[-121.30662271,49.05980341],[-121.30676717,49.05998571],[-121.306871,49.06014914],[-121.30692252,49.06024883],[-121.30699619,49.06036384],[-121.30711366,49.06048454],[-121.30722603,49.06058602],[-121.30750824,49.06060524],[-121.30780003,49.06061236],[-121.30808759,49.06060774],[-121.30841054,49.06063942],[-121.30872804,49.06068891],[-121.30904041,49.06076547],[-121.30935333,49.06083312],[-121.30948154,49.06086516],[-121.30971755,49.06089863],[-121.31010964,49.06091323],[-121.31059718,49.06088724],[-121.31091989,49.06119487],[-121.31115297,49.06135224],[-121.31135761,49.06147437],[-121.31151933,49.06158937],[-121.31162824,49.0616912],[-121.3116663,49.06178449],[-121.3116948,49.06188988],[-121.3117499,49.06200773],[-121.31185398,49.06217437],[-121.3119848,49.06234705],[-121.31214366,49.06251119],[-121.3123426,49.0627031],[-121.31250147,49.06285834],[-121.31266035,49.06301358],[-121.31283257,49.06319588],[-121.31297731,49.06336002],[-121.31310847,49.06353306],[-121.31316025,49.0636146],[-121.3132364,49.06380473],[-121.31326046,49.06389517],[-121.31332348,49.06404898],[-121.31342736,49.06423021],[-121.31346501,49.06432065],[-121.31354118,49.06449298],[-121.31355397,49.06452894],[-121.31357726,49.06464644],[-121.3135874,49.06474542],[-121.31363684,49.06491704],[-121.31368629,49.06507085],[-121.31373464,49.06525137],[-121.31375659,49.06541373],[-121.3137908,49.06561205],[-121.31380149,49.06571103],[-121.31389139,49.06601831],[-121.31393407,49.06623479],[-121.31423313,49.06630208],[-121.31449958,49.06638718],[-121.31474744,49.06648046],[-121.31488098,49.06653672],[-121.31503931,49.06658087],[-121.315222,49.06661363],[-121.31549169,49.06673433],[-121.31570815,49.06681764],[-121.31590289,49.06686535],[-121.3160757,49.06687782],[-121.31618091,49.06686749],[-121.31624928,49.06686856],[-121.31629492,49.06687212],[-121.3165961,49.06686749],[-121.31691587,49.06686001],[-121.31715792,49.06686678],[-121.31728475,49.06688067],[-121.31747113,49.06690737],[-121.31775762,49.06694725],[-121.31810879,49.06694262],[-121.31849759,49.06691912],[-121.31907608,49.06681373],[-121.31914102,49.06714058],[-121.31923281,49.06745462],[-121.31924474,49.06750269],[-121.31925579,49.06757176],[-121.3192537,49.06763478],[-121.31926541,49.06769211],[-121.31927645,49.06777899],[-121.31927491,49.0678242],[-121.31931048,49.06798656],[-121.31930916,49.06802252],[-121.31931987,49.06812151],[-121.31931855,49.06815747],[-121.31931547,49.06824435],[-121.31929781,49.06835508],[-121.31928235,49.06840884],[-121.31924988,49.06857049],[-121.31920296,49.06874068],[-121.31918651,49.0688183],[-121.31916885,49.06893794],[-121.31905691,49.0691505],[-121.31884094,49.0693741],[-121.31852106,49.06960945],[-121.31834213,49.06989963],[-121.31828324,49.07011255],[-121.31834416,49.07024857],[-121.31850366,49.0703949],[-121.31864871,49.07054978],[-121.31882104,49.07072318],[-121.31901652,49.07088803],[-121.31917005,49.07106108],[-121.31932857,49.07123127],[-121.31944145,49.0714068],[-121.319481,49.07145238],[-121.31959888,49.07161616],[-121.31970208,49.07179775],[-121.31980551,49.07198788],[-121.31994111,49.07216092],[-121.32009976,49.07232827],[-121.32026754,49.07249846],[-121.32041108,49.07269856],[-121.32043726,49.07274378],[-121.32052843,49.07287125],[-121.32061557,49.07299551],[-121.3207262,49.07310802],[-121.32093162,49.07323086],[-121.32115269,49.07335299],[-121.32138942,49.0734744],[-121.32157852,49.07363996],[-121.32173187,49.07378132],[-121.32184936,49.07389774],[-121.32207728,49.07404515],[-121.32230597,49.0741744],[-121.32250585,49.07433035],[-121.32269312,49.07446779],[-121.32285322,49.07459632],[-121.32305323,49.07470314],[-121.32328933,49.07474551],[-121.32356099,49.07472343],[-121.32345789,49.07506666],[-121.32344688,49.07525466],[-121.3234648,49.07541488],[-121.32353316,49.07554769],[-121.32364989,49.07573213],[-121.32377946,49.07582613],[-121.3239311,49.07592226],[-121.32409318,49.07599952],[-121.32431287,49.07611061],[-121.32452332,49.0762306],[-121.32469681,49.07636839],[-121.32480367,49.07645064],[-121.3248478,49.07649052],[-121.32488281,49.07653289],[-121.324909,49.07657811],[-121.3250126,49.07674759],[-121.32510032,49.07686295],[-121.32518903,49.07694199],[-121.32526458,49.07699718],[-121.32545471,49.07712999],[-121.32563995,49.07733044],[-121.32581954,49.07759891],[-121.32607708,49.07767475],[-121.32626081,49.07777622],[-121.3264528,49.07789621],[-121.32649313,49.07793253],[-121.3267072,49.07807958],[-121.32690767,49.07822663],[-121.32740288,49.07856666],[-121.32762979,49.07874077],[-121.32781451,49.07894123],[-121.32795999,49.07909646],[-121.32814656,49.07925206],[-121.3282479,49.07936742],[-121.32833901,49.07945679],[-121.32846503,49.07955933],[-121.3287338,49.0797103],[-121.32888177,49.07979646],[-121.32906856,49.07985201],[-121.32941004,49.07987408],[-121.32990644,49.07986233],[-121.32992205,49.0802223],[-121.32984555,49.08040816],[-121.329842,49.08060898],[-121.32987662,49.0808372],[-121.32992167,49.08100206],[-121.32993321,49.08110424],[-121.33001054,49.08124916],[-121.33036946,49.08139229],[-121.33070567,49.08157708],[-121.3309271,49.08186798],[-121.33104561,49.08224468],[-121.33090913,49.08253771],[-121.33084733,49.08274671],[-121.3308602,49.08287169],[-121.33092546,49.08296248],[-121.33098702,49.08303262],[-121.33109774,49.08314514],[-121.33127501,49.08329468],[-121.33144293,49.08345597],[-121.3316252,49.08360444],[-121.33183248,49.08374046],[-121.3320639,49.08386365],[-121.33228914,49.08404595],[-121.33249819,49.08426278],[-121.33269691,49.0844547],[-121.33287018,49.08460994],[-121.33308303,49.08479295],[-121.33322858,49.08494819],[-121.33334554,49.08512977],[-121.33344489,49.08530815],[-121.33351291,49.08545592],[-121.33356148,49.08563643],[-121.33363682,49.08584437],[-121.33365971,49.08597077],[-121.33370884,49.08615129],[-121.33371578,49.08634035],[-121.33368163,49.08654686],[-121.33361712,49.0867078],[-121.3335676,49.08682102],[-121.33353305,49.08688653],[-121.33349067,49.08693104],[-121.33334853,49.08709091],[-121.3332218,49.08719701],[-121.33317909,49.08723226],[-121.33295667,49.08734014],[-121.332776,49.08741527],[-121.33273436,49.08743272],[-121.33266565,49.08744376],[-121.33261074,49.0874491],[-121.33241404,49.08745515],[-121.33231803,49.0874637],[-121.33224453,49.08747367],[-121.33219833,49.08748791],[-121.3320513,49.08765668],[-121.33193972,49.08784396],[-121.33183771,49.0880227],[-121.33179479,49.08808501],[-121.33172233,49.08820998],[-121.33163413,49.08838836],[-121.33155856,49.08859416],[-121.33149766,49.08878216],[-121.331436,49.08897941],[-121.33142134,49.08901501],[-121.331363,49.08911329],[-121.33127534,49.08928277],[-121.3312442,49.0893935],[-121.33122336,49.08946507],[-121.33121315,49.08949782],[-121.33128483,49.08972071],[-121.33130811,49.08994004],[-121.33122256,49.0901729],[-121.33116373,49.09034594],[-121.33113773,49.09052219],[-121.33110359,49.09071979],[-121.33108306,49.0909263],[-121.3310759,49.09114207],[-121.33104178,49.09134858],[-121.33102177,49.09152839],[-121.33098861,49.09170748],[-121.3309411,49.09189583],[-121.33092861,49.0922647],[-121.33091064,49.09239039],[-121.33089417,49.09247086],[-121.33085474,49.09270123],[-121.33084779,49.09303698],[-121.33123427,49.09319044],[-121.33145203,49.09327376],[-121.3314976,49.09328017],[-121.33167001,49.09334782],[-121.33185384,49.09340835],[-121.33199904,49.09344039],[-121.33272419,49.09332218],[-121.33341662,49.09322996],[-121.33382385,49.09320504],[-121.33413257,49.0931794],[-121.33434199,49.09315341],[-121.33445801,49.09313703],[-121.33454848,49.09312065],[-121.33459436,49.09310606],[-121.33464046,49.09309466],[-121.33469254,49.09309039],[-121.33476367,49.09309858],[-121.33485405,49.09311888],[-121.3350308,49.09316338],[-121.33526671,49.09321786],[-121.33551388,49.09320041],[-121.33569168,49.09319685],[-121.3359205,49.0932264],[-121.33613832,49.09322854],[-121.3363446,49.09320326],[-121.33656826,49.09316552],[-121.33681174,49.09316125],[-121.33707547,49.09318973],[-121.33728302,49.09326486],[-121.33740114,49.09329049],[-121.33749619,49.09330402],[-121.33777038,49.09322177],[-121.33803538,49.09320183],[-121.3382662,49.09327091],[-121.33846608,49.09339873],[-121.33853278,49.09344893],[-121.33860905,49.09348881],[-121.33869498,49.09351908],[-121.33896625,49.09358602],[-121.33910254,49.09361485],[-121.33919314,49.09363123],[-121.33929267,49.09365972],[-121.33943745,49.09370672],[-121.33960401,49.09377508],[-121.33964437,49.09379359],[-121.33979131,49.09382457],[-121.33994817,49.09386694],[-121.34014149,49.09395382],[-121.34035995,49.09405565],[-121.34054274,49.09415534],[-121.34067332,49.09425326],[-121.34074469,49.09439924],[-121.34081977,49.09456409],[-121.34091401,49.09474746],[-121.34105987,49.09489344],[-121.34121838,49.09506684],[-121.34132536,49.09514908],[-121.34143949,49.0952],[-121.34153262,49.09523632],[-121.34159593,49.09525199],[-121.34167698,49.09528937],[-121.3418479,49.09535773],[-121.34196061,49.09540117],[-121.34201489,49.09542004],[-121.34218157,49.09549446],[-121.34232583,49.09555036],[-121.34243386,49.0955881],[-121.34262742,49.09567462],[-121.34274428,49.09573622],[-121.34298533,49.09589288],[-121.34314702,49.09597904],[-121.34325485,49.09603138],[-121.34339539,49.09605951],[-121.3436047,49.09612645],[-121.34388311,49.09623255],[-121.34412746,49.09642304],[-121.34431267,49.09662848],[-121.34440831,49.0967677],[-121.3444472,49.09683143],[-121.34469601,49.09700483],[-121.34493298,49.09719496],[-121.34512544,49.09745274],[-121.3453386,49.09735376],[-121.34547295,49.09729572],[-121.34557067,49.09725229],[-121.34567783,49.09718179],[-121.34576704,49.09711129],[-121.34587981,49.09701373],[-121.34601575,49.09690763],[-121.34616019,49.0968268],[-121.34634573,49.09673565],[-121.34653458,49.09668545],[-121.34669844,49.09665661],[-121.34683742,49.09664985],[-121.34697444,49.09664272],[-121.34722246,49.09660427],[-121.34737152,49.09656048],[-121.34746859,49.09652167],[-121.34751379,49.09648855],[-121.34766526,49.09636856],[-121.3478172,49.09628703],[-121.34796952,49.09624323],[-121.3480564,49.0962354],[-121.34834616,49.09617665],[-121.34865078,49.09608194],[-121.3490417,49.09585371],[-121.34912538,49.09580386],[-121.34919993,49.09576007],[-121.34926558,49.09572197],[-121.3494782,49.09564079],[-121.3497365,49.09555783],[-121.34995041,49.09517401],[-121.35007478,49.09485499],[-121.35011092,49.09460041],[-121.35009445,49.09425824],[-121.35006872,49.09380819],[-121.35053893,49.09339197],[-121.35070892,49.09321572],[-121.3508046,49.09309894],[-121.35086541,49.09291094],[-121.35092421,49.09278597],[-121.35105705,49.092635],[-121.3512793,49.09241318],[-121.35135002,49.09234802],[-121.35140673,49.09228892],[-121.35157682,49.0921027],[-121.35163946,49.09200443],[-121.35173683,49.09183495],[-121.35189429,49.09163022],[-121.35199377,49.09151165],[-121.35206514,49.09143475],[-121.35216908,49.09132223],[-121.35231976,49.09117768],[-121.35236786,49.09111216],[-121.35240683,49.0910438],[-121.35246233,49.09087076],[-121.35250021,49.09069451],[-121.3525006,49.09055031],[-121.35250875,49.09044243],[-121.35252867,49.09024482],[-121.35249518,49.0900287],[-121.35247495,49.08980332],[-121.35246716,49.08962351],[-121.35241943,49.08941557],[-121.35237075,49.08922615],[-121.3523087,49.08903638],[-121.35226024,49.0888466],[-121.35223981,49.08863048],[-121.35224689,49.08841471],[-121.35227566,49.0883702],[-121.35239077,49.08820998],[-121.35254645,49.08805902],[-121.35271529,49.08791766],[-121.35277657,49.08787066],[-121.35283055,49.08780444],[-121.35288615,49.08772219],[-121.35290101,49.08768623],[-121.35293541,49.08748897],[-121.35295588,49.08728246],[-121.35300332,49.08707631],[-121.35300608,49.08700403],[-121.35303993,49.08679788],[-121.35304575,49.08662697],[-121.35309321,49.08642972],[-121.35314969,49.08624172],[-121.35317741,49.08610714],[-121.35317527,49.08602596],[-121.35316134,49.08589101],[-121.35317525,49.08575322],[-121.35321623,49.08561293],[-121.3532311,49.08557697],[-121.35328749,49.08552998],[-121.35333007,49.08548867],[-121.35349712,49.08540999],[-121.35370506,49.08533201],[-121.35375125,49.08531777],[-121.35381082,49.08530032],[-121.35388496,49.08528038],[-121.35405126,49.08521095],[-121.35423222,49.08513262],[-121.3544154,49.08497311],[-121.35456247,49.08480149],[-121.35478664,49.0845106],[-121.35478217,49.08423181],[-121.35488624,49.08399254],[-121.35510052,49.08371162],[-121.35543046,49.08340149],[-121.35576037,49.08304331],[-121.3560862,49.08262494],[-121.35646959,49.08225572],[-121.35681433,49.08194987],[-121.35714066,49.08175262],[-121.35738886,49.08160592],[-121.35759934,49.08145602],[-121.35776818,49.08131467],[-121.35796453,49.08118258],[-121.35821482,49.08106009],[-121.35846436,49.08096467],[-121.35874269,49.08083364],[-121.35880758,49.08081371],[-121.35895508,49.08077062],[-121.35918529,49.08070511],[-121.35944769,49.08064565],[-121.35973812,49.08055984],[-121.35990069,49.0804662],[-121.36000305,49.08040175],[-121.36017264,49.08025114],[-121.36038236,49.0801194],[-121.36063318,49.07998802],[-121.36084183,49.07988299],[-121.36089758,49.07985664],[-121.36114765,49.07974341],[-121.36159226,49.07955186],[-121.36185593,49.07945643],[-121.36214687,49.07934392],[-121.36235956,49.07925989],[-121.3624689,49.07922322],[-121.36255335,49.07919972],[-121.36261313,49.07918548],[-121.36270042,49.07917159],[-121.36280162,49.07914916],[-121.36292118,49.07912068],[-121.36321085,49.07905303],[-121.36337151,49.07902846],[-121.36351936,49.07902134],[-121.36363188,49.07902312],[-121.36373159,49.07904234],[-121.36388122,49.07908044],[-121.36408237,49.07912317],[-121.36432682,49.07918583],[-121.36461444,49.07926773],[-121.36492982,49.07939235],[-121.36527803,49.07950592],[-121.36565787,49.07960954],[-121.36595933,49.07959565],[-121.36627525,49.07958212],[-121.36653635,49.07954082],[-121.36683941,49.07949133],[-121.36710104,49.07944112],[-121.3673493,49.07939056],[-121.36762506,49.07933146],[-121.36787332,49.0792809],[-121.36813549,49.0792218],[-121.36839767,49.07917159],[-121.3686729,49.07913029],[-121.36894664,49.07912531],[-121.36942618,49.0791189],[-121.36976948,49.07909789],[-121.36989816,49.07905979],[-121.37001369,49.07901742],[-121.37011551,49.07897078],[-121.37033969,49.07886788],[-121.37059279,49.07876747],[-121.37087852,49.07868487],[-121.37115374,49.07863467],[-121.37142949,49.07857556],[-121.37167775,49.078525],[-121.37198101,49.07846625],[-121.37225618,49.07837332],[-121.37261776,49.07825547],[-121.37306519,49.07811269],[-121.37361709,49.07807851],[-121.37417183,49.07805038],[-121.37478588,49.07798202],[-121.37539778,49.0778307],[-121.37608485,49.07761849],[-121.37672866,49.07742373],[-121.37727507,49.07723538],[-121.37781517,49.077151],[-121.37822899,49.07700715],[-121.37875995,49.0769217],[-121.37922347,49.07669097],[-121.37971619,49.07642216],[-121.3800544,49.07612414],[-121.38108534,49.07586849],[-121.38210714,49.07561],[-121.38312002,49.0753483],[-121.38411659,49.07530237],[-121.38492129,49.07524754],[-121.38543124,49.07515283],[-121.3855797,49.07511794],[-121.38573227,49.07506916],[-121.3858685,49.07499011],[-121.38604656,49.07489861],[-121.3862092,49.0748128],[-121.38633928,49.07477862],[-121.38644807,49.07475441],[-121.38653545,49.07473945],[-121.38710932,49.07436061],[-121.38753171,49.07442648],[-121.38776271,49.0744247],[-121.38798843,49.07436916],[-121.38820767,49.07425914],[-121.3884805,49.07443396],[-121.3887322,49.07456321],[-121.38894809,49.07465934],[-121.38914976,49.07476722],[-121.38935133,49.07488686],[-121.38955344,49.07499759],[-121.38976892,49.07510868],[-121.38997049,49.07521941],[-121.3902258,49.07536682],[-121.39046701,49.07553202],[-121.39066839,49.07566092],[-121.39086925,49.07580761],[-121.39106937,49.07597246],[-121.39126969,49.07611916],[-121.39144306,49.07627439],[-121.39158891,49.07642038],[-121.39176049,49.07661158],[-121.3919324,49.07681203],[-121.39204897,49.07700252],[-121.39213913,49.07719265],[-121.39217425,49.07736427],[-121.39223586,49.07758075],[-121.39229776,49.07777978],[-121.39224006,49.07811981],[-121.39238555,49.07845557],[-121.3925258,49.07877851],[-121.39269534,49.07904448],[-121.39272977,49.07925206],[-121.39277832,49.07945074],[-121.39279957,49.0796398],[-121.39280723,49.07982886],[-121.39277274,49.08003538],[-121.39274202,49.0801429],[-121.392676,49.08034585],[-121.39258233,49.08052637],[-121.39247787,49.08068802],[-121.39246323,49.08071472],[-121.39237804,49.08082154],[-121.39233413,49.08090165],[-121.39223179,49.08109819],[-121.3921632,49.08125628],[-121.39211408,49.0813485],[-121.39224982,49.08152723],[-121.3924003,49.08182632],[-121.39242008,49.08225429],[-121.39229452,49.08269153],[-121.39196572,49.08317148],[-121.39167621,49.08360836],[-121.39142621,49.0840018],[-121.39133509,49.08427631],[-121.39131071,49.08460281],[-121.3913325,49.08477408],[-121.39136718,49.0849724],[-121.391389,49.08515256],[-121.39141008,49.08535088],[-121.39141777,49.08553104],[-121.3918518,49.08565388],[-121.39147224,49.08586644],[-121.39115461,49.08604518],[-121.39089878,49.08618938],[-121.39074253,49.08632005],[-121.39059325,49.08645892],[-121.39045149,49.08660597],[-121.39025453,49.08677402],[-121.39014129,49.08688048],[-121.39000503,49.08700154],[-121.38992948,49.0870756],[-121.3898527,49.08720342],[-121.38969932,49.08742311],[-121.39009824,49.08779732],[-121.39056607,49.08796288],[-121.39090207,49.08815657],[-121.39113618,49.08834884],[-121.39133471,49.08852544],[-121.39154978,49.08864543],[-121.39170144,49.08875261],[-121.39185705,49.08888363],[-121.39204288,49.08906593],[-121.39244289,49.08941344],[-121.39262871,49.08958684],[-121.39276037,49.08975988],[-121.39287833,49.08992331],[-121.39300894,49.09011415],[-121.39307488,49.09019604],[-121.39312742,49.09026868],[-121.39313959,49.0903228],[-121.39315122,49.09037692],[-121.3931528,49.09046985],[-121.3931549,49.09054497],[-121.39315772,49.09060194],[-121.39316495,49.09080881],[-121.39318041,49.09116913],[-121.39314676,49.09137529],[-121.39314045,49.09142941],[-121.39313308,49.09150133],[-121.39313135,49.09156399],[-121.39313864,49.09162702],[-121.39315977,49.09181643],[-121.39322844,49.09195814],[-121.3932709,49.09204288],[-121.39329049,49.09210804],[-121.39332199,49.09220453],[-121.3933779,49.09232523],[-121.39345477,49.09243205],[-121.39366136,49.09253388],[-121.39380547,49.09259904],[-121.39388675,49.09262717],[-121.39400967,49.09264675],[-121.39408702,49.09265992],[-121.39415936,49.09267594],[-121.39441804,49.09271547],[-121.39473228,49.0927557],[-121.39501825,49.09279593],[-121.39535946,49.09283652],[-121.3956601,49.09286786],[-121.39600026,49.09292625],[-121.39628556,49.09301135],[-121.39656929,49.09312315],[-121.39678496,49.09324314],[-121.3970142,49.09335422],[-121.39704099,49.09337274],[-121.39739753,49.09335067],[-121.39766731,49.09334248],[-121.39789161,49.09332147],[-121.39797464,49.09329583],[-121.39812772,49.09322569],[-121.39836364,49.09313917],[-121.39857515,49.09308825],[-121.39893951,49.09306404],[-121.39931504,49.09308042],[-121.39961446,49.0931495],[-121.39984369,49.09320077],[-121.40003381,49.09321715],[-121.40023405,49.09318296],[-121.40045604,49.09309431],[-121.40067408,49.09299426],[-121.40083629,49.09292162],[-121.401179,49.09247656],[-121.40144058,49.09286679],[-121.40159769,49.09295616],[-121.4018035,49.0930879],[-121.40197702,49.09322533],[-121.40212377,49.09335316],[-121.40218922,49.09344395],[-121.40224159,49.09352584],[-121.402367,49.09358958],[-121.40256075,49.09367503],[-121.40282209,49.09378256],[-121.40305388,49.09390468],[-121.40329624,49.09403713],[-121.40354884,49.09417955],[-121.4038639,49.09428281],[-121.4041632,49.09434405],[-121.40443541,49.09434975],[-121.40470408,49.09432732],[-121.40496637,49.09427426],[-121.40521899,49.09422371],[-121.40530273,49.09427462],[-121.4054294,49.09435865],[-121.40559461,49.09446867],[-121.40575569,49.09457299],[-121.40598689,49.09462106],[-121.4060278,49.09463067],[-121.40623568,49.09470544],[-121.40636263,49.09477025],[-121.40647348,49.09483469],[-121.40666997,49.09496928],[-121.40680871,49.09505224],[-121.40693042,49.09510778],[-121.40705181,49.09516653],[-121.40725276,49.09529827],[-121.40735792,49.09539263],[-121.40743881,49.09547772],[-121.40749923,49.09559558],[-121.40754257,49.09566821],[-121.4076197,49.09582202],[-121.40773686,49.09602177],[-121.40774923,49.09605773],[-121.40783958,49.09623006],[-121.40795765,49.09640239],[-121.40797033,49.0964298],[-121.40808789,49.09661104],[-121.40817132,49.09666338],[-121.40831067,49.09677126],[-121.40850649,49.09693469],[-121.40876838,49.09716648],[-121.40892705,49.0973445],[-121.40906045,49.09746129],[-121.40926226,49.09758092],[-121.40942245,49.0977091],[-121.40958213,49.09785508],[-121.40963058,49.09792202],[-121.40971393,49.09802812],[-121.40977636,49.09811678],[-121.40982266,49.0981944],[-121.40984369,49.09825457],[-121.40985466,49.09833575],[-121.40985344,49.09837171],[-121.40986079,49.09856968],[-121.40987024,49.09869893],[-121.40987606,49.09881001],[-121.40988317,49.09886983],[-121.40996197,49.09893606],[-121.41005332,49.09902009],[-121.41015842,49.09912263],[-121.41024444,49.09942278],[-121.41028858,49.09976317],[-121.41014155,49.10007008],[-121.41006722,49.10026378],[-121.41003608,49.10038021],[-121.41001882,49.10047919],[-121.41002618,49.10067715],[-121.40998879,49.1008566],[-121.40992265,49.10102252],[-121.40984604,49.10117527],[-121.40979318,49.10125859],[-121.40972702,49.1013298],[-121.40966033,49.10140991],[-121.40958899,49.10149857],[-121.4095551,49.10155518],[-121.40951658,49.1016328],[-121.40942037,49.10177842],[-121.40931685,49.10187171],[-121.40919981,49.10195503],[-121.40903702,49.10205187],[-121.40884093,49.10218112],[-121.40880369,49.10220747],[-121.40877113,49.10223417],[-121.40867205,49.10232283],[-121.40863199,49.10243605],[-121.40859498,49.10259165],[-121.40857604,49.10275329],[-121.40854251,49.10295055],[-121.40852096,49.10319338],[-121.40845423,49.10337817],[-121.40836821,49.10355085],[-121.40824461,49.10370217],[-121.40815965,49.10378193],[-121.40799078,49.10392364],[-121.40780749,49.10408279],[-121.4077932,49.10410985],[-121.40775038,49.10416326],[-121.40772154,49.10420172],[-121.40769271,49.10424017],[-121.40765936,49.10429678],[-121.40762037,49.10435909],[-121.4074905,49.10456453],[-121.40738957,49.10473401],[-121.4072876,49.1049213],[-121.40721225,49.10513635],[-121.40715171,49.10531545],[-121.40707727,49.10550309],[-121.40703013,49.10569144],[-121.40699519,49.10592501],[-121.40696165,49.10611336],[-121.40690042,49.10631952],[-121.40688529,49.10635512],[-121.40687477,49.10668803],[-121.40740095,49.10693798],[-121.40737276,49.10697358],[-121.40724378,49.10714271],[-121.40717206,49.10724988],[-121.40707011,49.10743716],[-121.40701969,49.1075746],[-121.40698033,49.10766076],[-121.4069363,49.10775013],[-121.40683468,49.10793777],[-121.40671962,49.10810725],[-121.40666101,49.10823223],[-121.40654494,49.10842841],[-121.40644329,49.10860715],[-121.40632725,49.10881224],[-121.40621744,49.10894896],[-121.40612289,49.10906147],[-121.4060752,49.10912378],[-121.40600395,49.10920069],[-121.40594256,49.10926585],[-121.40587153,49.10934596],[-121.40580018,49.10942572],[-121.40568805,49.10951437],[-121.40564594,49.10954962],[-121.40540862,49.10968136],[-121.40533828,49.10973441],[-121.40518251,49.10989392],[-121.4050651,49.10999754],[-121.40494261,49.11011575],[-121.40481484,49.11024891],[-121.40465886,49.11040878],[-121.40453043,49.1105779],[-121.40446889,49.1107837],[-121.40445718,49.11114367],[-121.4044641,49.11135944],[-121.4044708,49.11157556],[-121.40449234,49.11176462],[-121.40455407,49.11197256],[-121.40460188,49.11218014],[-121.40460931,49.1123781],[-121.40461624,49.11259387],[-121.40462298,49.11281889],[-121.40462899,49.11305318],[-121.40463713,49.11323298],[-121.40467203,49.1134135],[-121.40469515,49.1138397],[-121.40471328,49.11426874],[-121.40478925,49.11461162],[-121.40492095,49.11481635],[-121.40503194,49.1149666],[-121.40509732,49.11511045],[-121.40513087,49.11534509],[-121.40514311,49.11539921],[-121.40517754,49.11559753],[-121.405189,49.11568156],[-121.40519843,49.11581365],[-121.40519555,49.11590338],[-121.4052014,49.11600556],[-121.40520726,49.11610775],[-121.40521279,49.11620958],[-121.40520249,49.11639829],[-121.40518965,49.11650617],[-121.40518087,49.11655103],[-121.40517804,49.116587],[-121.40518093,49.11664397],[-121.40516142,49.11677357],[-121.40512082,49.1169459],[-121.40503262,49.11713389],[-121.40495823,49.11732153],[-121.40488311,49.11751843],[-121.404754,49.11770571],[-121.40461112,49.11787448],[-121.40452311,49.11805322],[-121.40447606,49.11825047],[-121.40442796,49.11845663],[-121.4043532,49.11866278],[-121.40429616,49.11886573],[-121.40428506,49.11907367],[-121.40430115,49.11927982],[-121.40436845,49.11947244],[-121.40445727,49.11968964],[-121.40450636,49.11987015],[-121.40452793,49.12005032],[-121.4045359,49.12023048],[-121.40454287,49.12043735],[-121.40455081,49.12060861],[-121.40452342,49.1207521],[-121.40448799,49.12086853],[-121.40440831,49.12102733],[-121.40432279,49.12116619],[-121.40425645,49.12124309],[-121.40415671,49.12135881],[-121.40408382,49.1214966],[-121.40393167,49.12168958],[-121.40369962,49.12193704],[-121.40329157,49.12227351],[-121.40274509,49.12263455],[-121.40294443,49.12283643],[-121.40305174,49.12304472],[-121.40308167,49.12321384],[-121.40307893,49.12334095],[-121.40307299,49.12352076],[-121.40303957,49.12371801],[-121.40299788,49.12387966],[-121.40295628,49.1240349],[-121.40295837,49.12420687],[-121.40300395,49.12440128],[-121.40307352,49.12474416],[-121.40302731,49.12504929],[-121.40286454,49.12531704],[-121.40291175,49.12550967],[-121.40299886,49.1256877],[-121.40316107,49.12590595],[-121.40335786,49.12617833],[-121.403892,49.12619471],[-121.40409757,49.12619756],[-121.40419352,49.12619008],[-121.40432997,49.12621892],[-121.4045607,49.12629405],[-121.40473707,49.12635031],[-121.40518658,49.12653546],[-121.4055446,49.12666435],[-121.40582154,49.12672523],[-121.40611705,49.12677437],[-121.40628124,49.12683276],[-121.40638141,49.12688189],[-121.40641823,49.12692248],[-121.40642998,49.1269855],[-121.40646736,49.1270941],[-121.40657324,49.12722157],[-121.40665294,49.12729456],[-121.40671684,49.12730132],[-121.40696247,49.12733764],[-121.40718274,49.12740494],[-121.40732727,49.12750463],[-121.40739597,49.12763779],[-121.40743054,49.12784502],[-121.40746493,49.1280615],[-121.40752697,49.12825127],[-121.40758838,49.12847701],[-121.40762599,49.12858525],[-121.40768788,49.12879318],[-121.40758009,49.12902248],[-121.40744378,49.12918769],[-121.40729971,49.12931551],[-121.40714768,49.12940631],[-121.40738085,49.12948464],[-121.40765699,49.12962029],[-121.40792731,49.12983179],[-121.40813235,49.13004684],[-121.40816716,49.13010417],[-121.40820643,49.13015864],[-121.40828261,49.13033952],[-121.40833162,49.13052929],[-121.40834307,49.13059552],[-121.40835324,49.13070055],[-121.40836549,49.13074577],[-121.40845799,49.13086398],[-121.40858622,49.13099145],[-121.40867041,49.13107049],[-121.40871057,49.13110111],[-121.40877758,49.13115025],[-121.40887102,49.13122929],[-121.40900276,49.13139308],[-121.40907932,49.13158321],[-121.40908219,49.13177192],[-121.40906692,49.13196988],[-121.40901962,49.13215788],[-121.40894512,49.13234587],[-121.40890185,49.13241708],[-121.40882782,49.13258728],[-121.40878452,49.13264959],[-121.40873083,49.13275676],[-121.40866675,49.13290879],[-121.40857765,49.13312349],[-121.40853083,49.13329369],[-121.40846927,49.13350874],[-121.40834503,49.13380996],[-121.40818778,49.13401861],[-121.40802174,49.13420411],[-121.40791002,49.13427781],[-121.40775623,49.13436255],[-121.40766918,49.13442522],[-121.40757838,49.13450391],[-121.40747312,49.13464668],[-121.40746727,49.13468229],[-121.40746185,49.1347154],[-121.40745619,49.13474531],[-121.40718865,49.13497247],[-121.40672519,49.13531072],[-121.40711139,49.13552328],[-121.40775261,49.13576576],[-121.40784577,49.13613285],[-121.40793653,49.13644297],[-121.40802436,49.13669612],[-121.40807805,49.13687379],[-121.40815031,49.13703971],[-121.40825459,49.13721204],[-121.40832881,49.13732099],[-121.40837676,49.13739078],[-121.40841974,49.13747231],[-121.40848882,49.13760227],[-121.40853803,49.13777389],[-121.40854635,49.1379537],[-121.40850763,49.13829515],[-121.40844662,49.13850131],[-121.40868412,49.13883421],[-121.40898228,49.13917033],[-121.40945453,49.13946265],[-121.40990669,49.13976387],[-121.41036175,49.14005405],[-121.41070375,49.14037628],[-121.41121068,49.14067429],[-121.41176951,49.14091285],[-121.41238057,49.1410923],[-121.41292516,49.14141168],[-121.41339069,49.1416659],[-121.41387908,49.14178838],[-121.41440312,49.14197673],[-121.41516988,49.14220995],[-121.41601268,49.14258238],[-121.41690928,49.14298365],[-121.4176882,49.14345506],[-121.41837781,49.14386025],[-121.41888194,49.14418817],[-121.41928617,49.14442246],[-121.41959238,49.14466671],[-121.41989891,49.14498573],[-121.42031729,49.14533929],[-121.42074909,49.14569499],[-121.42129572,49.14604534],[-121.42184577,49.14642774],[-121.42241627,49.14675318],[-121.42298537,49.14710602],[-121.42355576,49.1474254],[-121.42426441,49.14786406],[-121.42506952,49.14827387],[-121.42598362,49.14856513],[-121.42682914,49.14885638],[-121.4275781,49.14916863],[-121.42807102,49.14948303],[-121.42855526,49.14977855],[-121.4289437,49.15011894],[-121.42943837,49.15043048],[-121.4299411,49.15076019],[-121.43064043,49.15115256],[-121.43131194,49.15155134],[-121.43195596,49.15195688],[-121.43254873,49.15229976],[-121.43317537,49.15257606],[-121.43382206,49.15269996],[-121.4344821,49.15274981],[-121.43523857,49.15263801],[-121.43608166,49.1525198],[-121.43690928,49.1524639],[-121.43761559,49.1525344],[-121.43808329,49.15278648],[-121.43845326,49.15308842],[-121.43865287,49.15341812],[-121.43877632,49.15371364],[-121.43905603,49.1536905],[-121.43927384,49.15370118],[-121.43947663,49.15373394],[-121.43966571,49.15378841],[-121.43986798,49.15389024],[-121.43999092,49.15395683],[-121.44011579,49.15401664],[-121.44020588,49.15404762],[-121.44032825,49.15408821],[-121.44053175,49.15415123],[-121.44061354,49.15417615],[-121.44076482,49.15424808],[-121.44096003,49.15435169],[-121.44122029,49.15450515],[-121.44150307,49.15467712],[-121.44182311,49.15451654],[-121.44201863,49.1544051],[-121.44217686,49.15432641],[-121.44227,49.15427336],[-121.44237304,49.15419681],[-121.44246673,49.1541231],[-121.44253234,49.15407326],[-121.44260657,49.15402626],[-121.44278353,49.15392656],[-121.44296517,49.15382722],[-121.44309593,49.15374177],[-121.44323613,49.15362997],[-121.44337811,49.1534847],[-121.44350768,49.15337967],[-121.44361205,49.1533081],[-121.44372807,49.15325861],[-121.44400516,49.15317244],[-121.44418441,49.15313897],[-121.44423946,49.15313079],[-121.4445297,49.15306242],[-121.44481906,49.15301258],[-121.44501166,49.15299121],[-121.44521352,49.15296985],[-121.44542441,49.15294884],[-121.44568581,49.15292534],[-121.44598771,49.15292036],[-121.44624866,49.15291466],[-121.44650889,49.15291822],[-121.44675556,49.15293068],[-121.44679672,49.15293104],[-121.44707152,49.1529079],[-121.44733341,49.1528755],[-121.44754048,49.15283028],[-121.44768284,49.1527993],[-121.44774745,49.15278791],[-121.44781644,49.15278007],[-121.44787139,49.15277473],[-121.44813291,49.15273307],[-121.44833996,49.15270495],[-121.44855075,49.15268501],[-121.4487788,49.15269676],[-121.44916114,49.15275301],[-121.44963818,49.15284345],[-121.44965273,49.15281675],[-121.44988953,49.15271171],[-121.45013856,49.15263409],[-121.45030437,49.15259137],[-121.45055389,49.15250485],[-121.450702,49.15245001],[-121.45090123,49.15236563],[-121.45099869,49.15232789],[-121.45106771,49.15230474],[-121.45131728,49.15222713],[-121.45150889,49.15214274],[-121.45164187,49.15206975],[-121.45170805,49.15200459],[-121.45177908,49.15193053],[-121.45182846,49.15190027],[-121.45188886,49.15187606],[-121.45197572,49.15187107],[-121.45208194,49.15188353],[-121.45228624,49.15193445],[-121.45245876,49.15196685],[-121.45269554,49.15200281],[-121.45287777,49.15201741],[-121.45312689,49.15200068],[-121.45339152,49.15197005],[-121.45367253,49.15188994],[-121.45376509,49.1518522],[-121.45387143,49.15182585],[-121.45400478,49.15180164],[-121.45423853,49.15178063],[-121.45450887,49.15176034],[-121.45471425,49.15172687],[-121.45485823,49.15169589],[-121.45498328,49.15164676],[-121.45512154,49.15160368],[-121.45521841,49.15157769],[-121.45552185,49.15151894],[-121.45579846,49.15145057],[-121.45608785,49.15140963],[-121.45612896,49.15140108],[-121.45623972,49.15136655],[-121.45640668,49.15129676],[-121.45651789,49.15124442],[-121.45666206,49.15116822],[-121.45683877,49.15106889],[-121.45692315,49.15100693],[-121.45707946,49.15082],[-121.45717671,49.15064162],[-121.45724173,49.15046253],[-121.45723213,49.15033649],[-121.45723787,49.15014742],[-121.45723045,49.14994056],[-121.45722208,49.14976039],[-121.45716861,49.14957382],[-121.45709654,49.1493901],[-121.45706193,49.14932957],[-121.45700574,49.14922382],[-121.45692851,49.14907286],[-121.45689359,49.14901553],[-121.4568506,49.14891584],[-121.45682307,49.14877448],[-121.45680646,49.14857652],[-121.45679865,49.14839636],[-121.45680935,49.14819554],[-121.45683794,49.14800114],[-121.45689907,49.14780424],[-121.45694531,49.14763369],[-121.45702838,49.14746706],[-121.4571617,49.14729473],[-121.45734443,49.14715943],[-121.45751892,49.14707184],[-121.45767939,49.14701096],[-121.45782531,49.14697678],[-121.45803644,49.14694366],[-121.45824777,49.14690663],[-121.45838142,49.14687922],[-121.4584504,49.14687138],[-121.45865735,49.14682901],[-121.45874006,49.14680302],[-121.45894992,49.14667413],[-121.4592081,49.14649967],[-121.4595384,49.14631487],[-121.45998564,49.14619489],[-121.46043286,49.14617815],[-121.46085617,49.14622871],[-121.46103321,49.14627607],[-121.46109675,49.14628888],[-121.46115529,49.14630455],[-121.46140037,49.14637078],[-121.46148362,49.14638609],[-121.4616339,49.14639677],[-121.46185167,49.14640389],[-121.4620814,49.14636793],[-121.46227899,49.1463284],[-121.46241257,49.14630918],[-121.46251192,49.14630063],[-121.46258179,49.14629672],[-121.4627272,49.14633161],[-121.46283153,49.14635974],[-121.4628949,49.14638181],[-121.4630895,49.14643522],[-121.46327616,49.14646762],[-121.46333605,49.14645053],[-121.4634144,49.14642454],[-121.4635672,49.14635475],[-121.46372494,49.14629387],[-121.46387244,49.14625079],[-121.46398269,49.14622515],[-121.46406573,49.14619951],[-121.46427378,49.14612118],[-121.46446939,49.14601579],[-121.4646649,49.1458926],[-121.46481997,49.14575979],[-121.4648949,49.14570353],[-121.46495541,49.14565938],[-121.46506256,49.14560384],[-121.4652252,49.1455223],[-121.46543386,49.14541691],[-121.46558666,49.14534712],[-121.46574066,49.14525918],[-121.46595045,49.14511783],[-121.46618694,49.14500425],[-121.4663966,49.14488105],[-121.46664724,49.14476747],[-121.46686996,49.14464428],[-121.46706646,49.14450328],[-121.46724969,49.14434377],[-121.46758816,49.14404219],[-121.46781233,49.14388339],[-121.46805059,49.14371569],[-121.46827497,49.14355654],[-121.46875039,49.1432571],[-121.46919892,49.14293914],[-121.4694092,49.14278889],[-121.46960536,49.14264754],[-121.46983392,49.14249764],[-121.47008082,49.142357],[-121.47019151,49.14231356],[-121.47037291,49.14221992],[-121.47048895,49.14215868],[-121.47058275,49.14209103],[-121.47072262,49.14198777],[-121.47087835,49.1418368],[-121.4709204,49.14180155],[-121.47106269,49.14164133],[-121.4712182,49.14149072],[-121.4713454,49.1413572],[-121.47123016,49.14119983],[-121.47119374,49.14104352],[-121.47123635,49.14088793],[-121.471339,49.14082633],[-121.47144583,49.14077399],[-121.47152969,49.14072094],[-121.47161338,49.14067714],[-121.47183157,49.1405632],[-121.47205851,49.14045817],[-121.47233552,49.14037201],[-121.47262551,49.1403129],[-121.47288763,49.14025308],[-121.47317873,49.14015802],[-121.47330335,49.14011494],[-121.47344199,49.1400658],[-121.47365011,49.13998462],[-121.47389089,49.13988279],[-121.47420877,49.13974713],[-121.47460397,49.1395773],[-121.47521236,49.13942028],[-121.47607313,49.1392159],[-121.4769312,49.13899622],[-121.47778856,49.13872562],[-121.47864842,49.1383952],[-121.47950164,49.13814846],[-121.48041817,49.13791489],[-121.4811167,49.137786],[-121.48156333,49.13767794],[-121.48164025,49.13784973],[-121.48164818,49.13788605],[-121.48165147,49.13793091],[-121.48165984,49.13811107],[-121.48163923,49.13832648],[-121.48162875,49.1383806],[-121.48161843,49.13842547],[-121.48160338,49.13846107],[-121.48159787,49.13848813],[-121.48159201,49.13853193],[-121.48158995,49.13859281],[-121.48159999,49.13872194],[-121.48170919,49.13874449],[-121.48183135,49.13877013],[-121.48190417,49.13879184],[-121.48204476,49.13882389],[-121.48219926,49.13885273],[-121.48243118,49.13888584],[-121.48249578,49.13891753],[-121.48256152,49.13895634],[-121.48263253,49.13902328],[-121.48262409,49.13915217],[-121.48261301,49.13921804],[-121.48259785,49.1392718],[-121.48258295,49.13931346],[-121.48256783,49.13935548],[-121.4824802,49.13953422],[-121.48245096,49.13958157],[-121.48242179,49.13964139],[-121.48237692,49.13977562],[-121.4823465,49.13986534],[-121.48235204,49.13994332],[-121.48236884,49.14003055],[-121.48240924,49.14011209],[-121.48245129,49.14017831],[-121.4824945,49.140257],[-121.48254237,49.14033248],[-121.4826424,49.14041081],[-121.48279349,49.140492],[-121.48296586,49.14058208],[-121.48311354,49.14069494],[-121.48323576,49.14083048],[-121.48408799,49.14076071],[-121.4842673,49.14088009],[-121.4843698,49.14095344],[-121.48454969,49.14106346],[-121.48469293,49.14115853],[-121.48479993,49.14123793],[-121.48497542,49.14133904],[-121.48510813,49.14142094],[-121.48524003,49.1414925],[-121.48540728,49.14156051],[-121.48566054,49.14165094],[-121.48585528,49.14171041],[-121.48603677,49.14175491],[-121.48614688,49.14178518],[-121.48624803,49.14182755],[-121.48633879,49.14188167],[-121.48647764,49.14198848],[-121.48658323,49.14216366],[-121.48675072,49.14236875],[-121.48687624,49.14265929],[-121.4870859,49.14287114],[-121.48721675,49.1430837],[-121.4875216,49.14322648],[-121.48780894,49.14344937],[-121.48826672,49.14362632],[-121.48874489,49.14377231],[-121.48925572,49.14385989],[-121.48969844,49.14399163],[-121.49007251,49.14416752],[-121.49031657,49.14424265],[-121.49050258,49.14429321],[-121.4906161,49.14432775],[-121.49081888,49.14441712],[-121.49096716,49.14449402],[-121.49104354,49.14454316],[-121.49114247,49.1445955],[-121.49137204,49.14470623],[-121.49163015,49.14479952],[-121.49173847,49.14483726],[-121.49205212,49.14489814],[-121.49236612,49.14494407],[-121.49266731,49.14495725],[-121.49295636,49.14492485],[-121.49325973,49.1448661],[-121.49352168,49.14481554],[-121.49381877,49.14481839],[-121.49410612,49.14484901],[-121.49437793,49.14492057],[-121.4946401,49.14501885],[-121.49488363,49.14512993],[-121.4951271,49.14523212],[-121.49534407,49.14532505],[-121.49558132,49.14547886],[-121.49590578,49.14563517],[-121.49633035,49.14580145],[-121.49667961,49.14595099],[-121.49695266,49.14608344],[-121.49730082,49.14635796],[-121.49750228,49.14649539],[-121.49763638,49.14659936],[-121.49771659,49.14666915],[-121.49789066,49.14681228],[-121.49809265,49.14692907],[-121.49830915,49.1470309],[-121.49855355,49.14710282],[-121.49875729,49.14716548],[-121.49892453,49.14724168],[-121.49912264,49.14734422],[-121.49930996,49.14748166],[-121.49951149,49.147628],[-121.49972582,49.14780175],[-121.49991255,49.14796625],[-121.5000584,49.14813893],[-121.50023299,49.14841701],[-121.50035649,49.14870961],[-121.50019058,49.14876131],[-121.50009325,49.1487962],[-121.49982978,49.14890053],[-121.49953849,49.14899595],[-121.49944251,49.14900343],[-121.49930517,49.1490109],[-121.49924964,49.14902799],[-121.49918099,49.14903618],[-121.49894669,49.14906894],[-121.49862612,49.14909493],[-121.4983652,49.14910063],[-121.49820165,49.14907855],[-121.49807442,49.14904864],[-121.49799271,49.14902087],[-121.49789134,49.14900129],[-121.49776112,49.14898171],[-121.49763773,49.14897423],[-121.49749174,49.1489753],[-121.49739081,49.14897387],[-121.49716258,49.14896782],[-121.4969935,49.14896568],[-121.49682401,49.1489696],[-121.49674449,49.14897957],[-121.49668035,49.14899381],[-121.49663125,49.14901197],[-121.49649123,49.14910027],[-121.49628566,49.14923842],[-121.49609852,49.14938298],[-121.49591061,49.14956029],[-121.49571823,49.1497198],[-121.49561008,49.14982021],[-121.49547789,49.14995943],[-121.49530816,49.15011929],[-121.49516667,49.15027026],[-121.49506114,49.15042479],[-121.49499422,49.15053801],[-121.4948248,49.15069467],[-121.49464202,49.15083923],[-121.49449938,49.15087341],[-121.49432436,49.15091614],[-121.49416892,49.15095709],[-121.49406601,49.15098771],[-121.49400578,49.15101975],[-121.49393599,49.151055],[-121.49379668,49.15113404],[-121.49348714,49.15138186],[-121.49336058,49.15153425],[-121.49321968,49.15170942],[-121.49306466,49.15190703],[-121.49285651,49.15212316],[-121.49267064,49.15233394],[-121.49250586,49.15253867],[-121.4923487,49.1527434],[-121.49216454,49.15294777],[-121.49200782,49.1531347],[-121.4918793,49.15330383],[-121.49170896,49.15349075],[-121.49155333,49.15364172],[-121.49142564,49.15378699],[-121.4913356,49.15389345],[-121.49128332,49.15396181],[-121.49056958,49.15397356],[-121.48974866,49.15406792],[-121.4888322,49.15418968],[-121.48792804,49.15425698],[-121.48699297,49.15432855],[-121.48612437,49.15447915],[-121.4853132,49.1545493],[-121.48465196,49.15463973],[-121.48462333,49.15467534],[-121.48440392,49.15512219],[-121.48435618,49.15554446],[-121.48424481,49.15599273],[-121.48406047,49.15635021],[-121.48384646,49.15660835],[-121.48380818,49.15667066],[-121.4837655,49.15672407],[-121.48370872,49.15678637],[-121.48356667,49.15693734],[-121.48340999,49.15713317],[-121.48325281,49.1573379],[-121.48316414,49.1575437],[-121.48309787,49.15772778],[-121.48305297,49.15789904],[-121.48307459,49.15803327],[-121.48309671,49.1581586],[-121.48311931,49.15827503],[-121.48308085,49.15837722],[-121.48301086,49.15852249],[-121.48288183,49.15870051],[-121.48278085,49.15886999],[-121.48270671,49.15904909],[-121.48269218,49.15907579],[-121.48259098,49.15924563],[-121.48254678,49.1593528],[-121.48248843,49.15945997],[-121.48239976,49.15966577],[-121.48238414,49.15972843],[-121.48235422,49.15982101],[-121.48229547,49.15993423],[-121.48223849,49.16001755],[-121.48219498,49.16009481],[-121.48214459,49.1602383],[-121.48205261,49.16040785],[-121.48191859,49.160604],[-121.48212838,49.16062175],[-121.48225244,49.16065137],[-121.48233347,49.16073749],[-121.48237193,49.16087991],[-121.48235683,49.16107752],[-121.48233689,49.16128403],[-121.48234753,49.16138337],[-121.48242364,49.1615913],[-121.48252677,49.16179959],[-121.48256572,49.16186297],[-121.4826057,49.16191744],[-121.48267112,49.16201714],[-121.48276388,49.16211755],[-121.48288435,49.16220905],[-121.48364609,49.1619851],[-121.48437197,49.16216846],[-121.48477849,49.16232878],[-121.4850659,49.16244867],[-121.48523422,49.16252772],[-121.48542425,49.16259608],[-121.48557804,49.16264913],[-121.48567454,49.16268338],[-121.48574963,49.16271429],[-121.48587103,49.16277909],[-121.48591596,49.16280651],[-121.48596509,49.16284318],[-121.48600592,49.16285849],[-121.48604662,49.16287131],[-121.48618791,49.16289695],[-121.48637461,49.16292044],[-121.48655229,49.16289588],[-121.48682775,49.16285457],[-121.48720123,49.16279618],[-121.48763681,49.16276022],[-121.48802079,49.16275915],[-121.48819719,49.16277446],[-121.48833472,49.16280722],[-121.48842186,49.16286027],[-121.48852196,49.16293148],[-121.48864437,49.16301622],[-121.48886493,49.16312411],[-121.48890545,49.16314262],[-121.48901396,49.16318286],[-121.4891133,49.16322024],[-121.48925381,49.16325798],[-121.48946297,49.16330284],[-121.48954466,49.16332172],[-121.48964924,49.16334415],[-121.48980394,49.16337014],[-121.48994484,49.16340183],[-121.49013081,49.16344633],[-121.49036205,49.1635033],[-121.4905626,49.16353001],[-121.49075904,49.1635446],[-121.49079044,49.16385081],[-121.49079779,49.16392594],[-121.49079854,49.16403987],[-121.49080615,49.16423784],[-121.49073079,49.16442085],[-121.49057343,49.16463769],[-121.49033407,49.16488835],[-121.49010282,49.16526327],[-121.48993298,49.16573468],[-121.48959291,49.16625523],[-121.48950472,49.16643967],[-121.48942991,49.16663977],[-121.489396,49.16686408],[-121.48936304,49.16703463],[-121.48935492,49.16730452],[-121.48936255,49.16750248],[-121.48937393,49.16759256],[-121.4894372,49.16775528],[-121.48951447,49.16792725],[-121.4895778,49.16809887],[-121.48951107,49.16813626],[-121.48944455,49.16817329],[-121.48932842,49.16823381],[-121.48932035,49.16839653],[-121.48926268,49.16868173],[-121.48936611,49.16904989],[-121.48955049,49.16943905],[-121.48989234,49.16979119],[-121.49022982,49.17012267],[-121.49060361,49.17050934],[-121.49116076,49.17078742],[-121.49180892,49.17097898],[-121.49248265,49.17106977],[-121.49309254,49.17107974],[-121.49372929,49.17098681],[-121.49464246,49.17117872],[-121.4953336,49.17131367],[-121.49570772,49.17134251],[-121.49601011,49.17133147],[-121.49634235,49.17122786],[-121.49649476,49.17118477],[-121.4966471,49.17113279],[-121.49675301,49.17110716],[-121.49686343,49.17108757],[-121.49697812,49.17112033],[-121.49718136,49.17121468],[-121.49747196,49.1713717],[-121.49811481,49.17159281],[-121.49902187,49.17138879],[-121.49982705,49.17122537],[-121.50031193,49.17117552],[-121.50062618,49.17116377],[-121.50077024,49.1711894],[-121.50082917,49.17120543],[-121.50099791,49.17122536],[-121.50121397,49.17124793],[-121.50129435,49.17125629],[-121.50129449,49.17125634],[-121.50139841,49.17129363],[-121.50152642,49.17134627],[-121.50157909,49.17136794],[-121.5016363,49.17139167],[-121.50165423,49.17140025],[-121.50169641,49.17142044],[-121.5017544,49.17146917],[-121.50182555,49.17153606],[-121.50191462,49.17161518],[-121.50195658,49.17164381],[-121.50196839,49.17165186],[-121.50222409,49.1718171],[-121.5023636,49.17190013],[-121.50243525,49.17194278],[-121.50262739,49.17209221],[-121.50278136,49.17224621],[-121.50280052,49.17226537],[-121.50280055,49.1722654],[-121.5028403,49.17231086],[-121.50286176,49.17232695],[-121.50294615,49.1723902],[-121.50302015,49.17245505],[-121.50304115,49.17247345],[-121.50304269,49.18802834],[-121.50304281,49.18918843],[-121.50305328,49.29479007],[-121.53092514,49.29481362]]]},"geometry_name":"SHAPE","properties":{"id":269,"slug":"chilliwack-cultus-lake","name":"Chilliwack-Cultus Lake","abbreviation":"CHC","gazetteDate":"2023-12-07Z","boundarySet":11},"bbox":[-122.11697564,48.99729985,-121.26807391,49.29484076]}
