{"type":"Feature","id":270,"geometry":{"type":"Polygon","coordinates":[[[-121.66744303,49.29482573],[-121.6674561,49.29473636],[-121.66747027,49.29464699],[-121.66748662,49.29455762],[-121.66750461,49.29446825],[-121.66752457,49.29437924],[-121.66754595,49.29429059],[-121.66756897,49.29420193],[-121.66759418,49.29411327],[-121.66760738,49.29406841],[-121.66762027,49.29402497],[-121.66764887,49.29393703],[-121.66767856,49.29384908],[-121.66770968,49.29376149],[-121.66772877,49.29367942],[-121.66777608,49.29358667],[-121.66781256,49.29350015],[-121.66785266,49.29341398],[-121.66789593,49.29332889],[-121.66794228,49.29324415],[-121.66799113,49.29315976],[-121.66804317,49.29307645],[-121.66809751,49.29299384],[-121.66815504,49.29291231],[-121.66821575,49.29283184],[-121.66827897,49.29275173],[-121.6683445,49.29267233],[-121.66841069,49.29259364],[-121.66847776,49.29251531],[-121.66854769,49.29243769],[-121.66861849,49.29236043],[-121.66868995,49.29228387],[-121.66876218,49.29220697],[-121.66883419,49.29213042],[-121.66890654,49.29205422],[-121.66897997,49.29197803],[-121.66905374,49.29190219],[-121.66912806,49.29182635],[-121.66920271,49.29175086],[-121.6692779,49.29167538],[-121.66935343,49.29160025],[-121.66942984,49.29152548],[-121.66950745,49.29145142],[-121.6695865,49.29137772],[-121.66966675,49.29130473],[-121.66974755,49.29123174],[-121.66982901,49.29115946],[-121.66991102,49.29108718],[-121.66999392,49.29101526],[-121.67007692,49.29094405],[-121.67016103,49.29087284],[-121.67024513,49.29080163],[-121.67032977,49.29073042],[-121.67041421,49.29065956],[-121.67049952,49.29058907],[-121.6705845,49.29051821],[-121.67066981,49.29044771],[-121.67075513,49.29037721],[-121.67083989,49.29030671],[-121.67092487,49.29023586],[-121.67101019,49.29016536],[-121.67109604,49.29009486],[-121.67118169,49.29002472],[-121.67126876,49.28995494],[-121.67135616,49.28988551],[-121.67144356,49.28981608],[-121.67153185,49.289747],[-121.67161958,49.28967793],[-121.6717082,49.28960921],[-121.67179681,49.28954049],[-121.67188597,49.28947177],[-121.67197458,49.28940305],[-121.6720632,49.28933434],[-121.67215236,49.28926562],[-121.67224097,49.2891969],[-121.67232958,49.28912818],[-121.67241765,49.28905946],[-121.6725056,49.28899003],[-121.672593,49.2889206],[-121.6726804,49.28885117],[-121.6727678,49.28878174],[-121.67285399,49.2887116],[-121.67293964,49.28864146],[-121.67302407,49.2885706],[-121.67310871,49.28849939],[-121.67319193,49.28842783],[-121.67327482,49.2883559],[-121.67335541,49.28828327],[-121.67343445,49.28820957],[-121.67351206,49.28813551],[-121.67358847,49.28806074],[-121.67366399,49.28798561],[-121.67373973,49.28791013],[-121.67381471,49.287835],[-121.67388848,49.28775916],[-121.67396191,49.28768297],[-121.67403623,49.28760713],[-121.6741112,49.287532],[-121.67418673,49.28745687],[-121.6742628,49.28738175],[-121.6743392,49.28730697],[-121.67441737,49.28723292],[-121.6744964,49.28715921],[-121.67457699,49.28708658],[-121.674659,49.2870143],[-121.67474222,49.28694273],[-121.67482632,49.28687152],[-121.67491041,49.28680031],[-121.67499484,49.28672946],[-121.67508049,49.28665931],[-121.67516668,49.28658917],[-121.67525287,49.28651903],[-121.67533872,49.28644853],[-121.67542403,49.28637803],[-121.67550967,49.28630789],[-121.67559498,49.28623739],[-121.67567962,49.28616618],[-121.67576318,49.28609497],[-121.67584606,49.28602305],[-121.67592895,49.28595113],[-121.67601008,49.28587849],[-121.67608945,49.28580515],[-121.67616497,49.28573002],[-121.67623698,49.28565347],[-121.67630603,49.28557549],[-121.67637222,49.2854968],[-121.67643599,49.28541669],[-121.67649757,49.28533658],[-121.67655619,49.28525504],[-121.67661141,49.2851728],[-121.67666488,49.28508984],[-121.67671746,49.28500652],[-121.67677038,49.28492356],[-121.67682473,49.28484096],[-121.67687853,49.28475835],[-121.67693254,49.28467539],[-121.67698579,49.28459279],[-121.67703892,49.28450947],[-121.6770913,49.28442651],[-121.67714334,49.28434319],[-121.67719484,49.28425988],[-121.67724545,49.28417621],[-121.67729465,49.28409218],[-121.67734275,49.28400815],[-121.67738964,49.28392341],[-121.67743544,49.28383867],[-121.67748036,49.28375357],[-121.67752276,49.28366812],[-121.67756374,49.28358231],[-121.6776033,49.28349615],[-121.67764143,49.28340963],[-121.67767813,49.28332275],[-121.67771463,49.28323623],[-121.6777497,49.28314935],[-121.67778389,49.28306212],[-121.67781753,49.28297489],[-121.67785063,49.28288765],[-121.67788286,49.28280006],[-121.67791487,49.28271283],[-121.677946,49.28262524],[-121.67797625,49.2825373],[-121.67800683,49.28244971],[-121.67803709,49.28236176],[-121.67806713,49.28227417],[-121.67809683,49.28218623],[-121.67812599,49.28209828],[-121.67815549,49.2820107],[-121.67818519,49.28192275],[-121.67821523,49.28183516],[-121.67824549,49.28174722],[-121.67827608,49.28165963],[-121.67830578,49.28157168],[-121.67833582,49.28148409],[-121.67836553,49.28139615],[-121.6783947,49.2813082],[-121.67842331,49.28122026],[-121.67845193,49.28113231],[-121.67848055,49.28104437],[-121.67850808,49.28095642],[-121.67853582,49.28086812],[-121.67856246,49.28077982],[-121.67858999,49.28069188],[-121.67861773,49.28060358],[-121.67864526,49.28051563],[-121.678673,49.28042733],[-121.67870107,49.28033939],[-121.67872969,49.28025144],[-121.67875886,49.2801635],[-121.6787889,49.28007591],[-121.67881916,49.27998796],[-121.67884975,49.27990037],[-121.67888197,49.27981278],[-121.67891596,49.27972591],[-121.67895158,49.27963903],[-121.67898884,49.27955215],[-121.67902731,49.27946599],[-121.67906742,49.27937983],[-121.67910841,49.27929402],[-121.67915191,49.27920856],[-121.67919717,49.27912382],[-121.67924352,49.27903908],[-121.67928988,49.27895434],[-121.67933568,49.2788696],[-121.67938204,49.27878486],[-121.67942839,49.27870012],[-121.67947507,49.27861574],[-121.67952,49.27853064],[-121.67956296,49.27844519],[-121.67960449,49.27835938],[-121.67964548,49.27827357],[-121.67968417,49.27818705],[-121.67972034,49.27810017],[-121.6797529,49.27801294],[-121.67978152,49.277925],[-121.67980709,49.27783669],[-121.67982926,49.27774768],[-121.67984836,49.27765831],[-121.67986344,49.2775693],[-121.67987457,49.27747957],[-121.6798808,49.27738985],[-121.6798845,49.27729977],[-121.67988548,49.27720969],[-121.67988591,49.2771196],[-121.6798845,49.27702988],[-121.67988111,49.2769398],[-121.67987588,49.27685007],[-121.67987085,49.27675999],[-121.67986671,49.27667027],[-121.67986387,49.27658019],[-121.67986027,49.27649046],[-121.67985743,49.27640038],[-121.67985514,49.2763103],[-121.67985373,49.27622057],[-121.67985362,49.27613049],[-121.67985384,49.27604077],[-121.67985482,49.27595068],[-121.67985581,49.2758606],[-121.67985658,49.27577088],[-121.67985756,49.2756808],[-121.67985833,49.27559107],[-121.67985932,49.27550099],[-121.67985976,49.27541091],[-121.67985944,49.27532118],[-121.67985879,49.2752311],[-121.67985847,49.27514138],[-121.67985673,49.2750513],[-121.67985498,49.27496122],[-121.67985194,49.27487149],[-121.67984801,49.27478141],[-121.67984388,49.27469168],[-121.67983831,49.2746016],[-121.67983145,49.27451188],[-121.67982349,49.27442215],[-121.6798139,49.27433243],[-121.67980321,49.2742427],[-121.67979089,49.27415298],[-121.67977672,49.27406361],[-121.67975982,49.27397424],[-121.67974053,49.27388522],[-121.67971775,49.27379657],[-121.67969333,49.27370791],[-121.67966815,49.27361961],[-121.67964188,49.27353131],[-121.67961452,49.27344301],[-121.67958586,49.27335506],[-121.67955643,49.27326747],[-121.67952668,49.27317953],[-121.67949856,49.27309158],[-121.67947066,49.27300328],[-121.67944254,49.27291534],[-121.67941519,49.27282704],[-121.67938892,49.27273874],[-121.67936614,49.27265008],[-121.67934446,49.27256142],[-121.67932374,49.27247205],[-121.67930555,49.27238304],[-121.67929105,49.27229331],[-121.67928125,49.27220395],[-121.67927658,49.27211422],[-121.67927506,49.27202378],[-121.67927824,49.2719337],[-121.67928579,49.27184362],[-121.67929891,49.27175425],[-121.67931925,49.27166559],[-121.67934592,49.27157729],[-121.67937653,49.2714897],[-121.67941042,49.27140212],[-121.67944463,49.27131488],[-121.67948028,49.27122801],[-121.67951931,49.27114184],[-121.67955944,49.27105568],[-121.6795999,49.27096987],[-121.67963915,49.27088335],[-121.67967655,49.27079718],[-121.67971383,49.27071031],[-121.6797509,49.27062379],[-121.67978796,49.27053726],[-121.67982612,49.27045074],[-121.67986461,49.27036458],[-121.6799042,49.27027841],[-121.67994378,49.27019225],[-121.67998391,49.27010609],[-121.68002437,49.27002028],[-121.68006538,49.26993447],[-121.68010693,49.26984866],[-121.68014849,49.26976285],[-121.68019037,49.2696774],[-121.68023247,49.26959159],[-121.6802749,49.26950614],[-121.68031734,49.26942069],[-121.68035998,49.26933488],[-121.68040241,49.26924942],[-121.68044485,49.26916397],[-121.68048695,49.26907816],[-121.68052883,49.26899271],[-121.68057094,49.2689069],[-121.68061249,49.26882109],[-121.68065383,49.26873564],[-121.68069451,49.26864948],[-121.68073497,49.26856367],[-121.6807751,49.2684775],[-121.68081557,49.26839169],[-121.68085515,49.26830553],[-121.68089529,49.26821936],[-121.68093487,49.2681332],[-121.68097425,49.26804739],[-121.68101383,49.26796123],[-121.68105396,49.26787506],[-121.6810941,49.2677889],[-121.68113402,49.26770309],[-121.68117415,49.26761692],[-121.68121462,49.26753111],[-121.68125475,49.26744495],[-121.68133756,49.26727476],[-121.68137857,49.26718895],[-121.68142067,49.26710314],[-121.68146365,49.26701769],[-121.68150697,49.26693259],[-121.68155104,49.26684714],[-121.68159545,49.26676204],[-121.68164073,49.2666773],[-121.68168656,49.26659256],[-121.68173348,49.26650782],[-121.68178073,49.26642344],[-121.68182941,49.26633941],[-121.68187863,49.26625538],[-121.68192928,49.26617171],[-121.6819808,49.26608839],[-121.6820343,49.26600543],[-121.68208813,49.26592283],[-121.68214359,49.26584022],[-121.68219972,49.26575833],[-121.68225727,49.26567679],[-121.68231591,49.26559526],[-121.68237577,49.26551443],[-121.68243617,49.26543361],[-121.68249745,49.26535314],[-121.68255982,49.26527267],[-121.6826223,49.26519292],[-121.68268588,49.26511316],[-121.68275001,49.26503341],[-121.68281501,49.26495401],[-121.6828798,49.26487496],[-121.68294514,49.26479592],[-121.68301157,49.26471688],[-121.68307778,49.26463819],[-121.683144,49.2645595],[-121.68321075,49.26448082],[-121.68327751,49.26440213],[-121.68334428,49.26432344],[-121.68341137,49.26424511],[-121.683479,49.26416678],[-121.68354631,49.26408809],[-121.6836134,49.26400976],[-121.68368104,49.26393143],[-121.68374868,49.26385309],[-121.68381665,49.26377512],[-121.68388516,49.26369714],[-121.68395368,49.26361917],[-121.6840222,49.26354119],[-121.68409126,49.26346322],[-121.68416011,49.2633856],[-121.68423005,49.26330798],[-121.68429977,49.26323072],[-121.68436971,49.2631531],[-121.68444053,49.26307583],[-121.68451113,49.26299892],[-121.68458229,49.26292202],[-121.68465398,49.26284511],[-121.68472601,49.26276856],[-121.68479804,49.26269201],[-121.68487094,49.26261581],[-121.6849444,49.26253962],[-121.68501818,49.26246378],[-121.68509196,49.26238794],[-121.68516662,49.26231246],[-121.68524217,49.26223733],[-121.6853177,49.2621622],[-121.68539358,49.26208743],[-121.68547054,49.26201266],[-121.68554784,49.26193825],[-121.68562546,49.26186419],[-121.68570452,49.26179048],[-121.68578357,49.26171678],[-121.68586328,49.26164379],[-121.68594354,49.2615708],[-121.68602435,49.26149781],[-121.68610549,49.26142517],[-121.68618696,49.26135289],[-121.68626931,49.26128097],[-121.68635221,49.26120905],[-121.68643489,49.26113748],[-121.68651812,49.26106592],[-121.68660189,49.26099435],[-121.68668545,49.26092314],[-121.68676956,49.26085193],[-121.686854,49.26078107],[-121.68693843,49.26071022],[-121.68702342,49.26063937],[-121.6871084,49.26056851],[-121.68719317,49.26049801],[-121.68727815,49.26042716],[-121.68736347,49.26035666],[-121.68744845,49.26028581],[-121.68753377,49.26021531],[-121.68761908,49.26014481],[-121.68770385,49.26007431],[-121.68778884,49.26000346],[-121.68787415,49.25993296],[-121.68795913,49.2598621],[-121.68804357,49.25979125],[-121.68812801,49.2597204],[-121.68821123,49.25964883],[-121.68829446,49.25957726],[-121.68837769,49.25950569],[-121.68846058,49.25943377],[-121.68854293,49.25936185],[-121.68862528,49.25928993],[-121.6887073,49.25921765],[-121.68878931,49.25914537],[-121.68887111,49.25907345],[-121.68895401,49.25900153],[-121.6890369,49.2589296],[-121.68912013,49.25885804],[-121.68920369,49.25878683],[-121.68928779,49.25871561],[-121.68937344,49.25864547],[-121.68945963,49.25857533],[-121.68954703,49.2585059],[-121.68963477,49.25843683],[-121.68972426,49.25836846],[-121.68981496,49.25830081],[-121.68990774,49.25823423],[-121.69000153,49.25816872],[-121.69009674,49.25810356],[-121.69019294,49.25803947],[-121.69029003,49.25797574],[-121.69038811,49.25791307],[-121.69048761,49.25785076],[-121.69058811,49.25778952],[-121.69068894,49.25772864],[-121.69079065,49.25766811],[-121.6908927,49.25760794],[-121.69099562,49.25754812],[-121.6910992,49.25748901],[-121.69120279,49.25742991],[-121.69130725,49.25737116],[-121.6914115,49.25731277],[-121.69151663,49.25725473],[-121.69162208,49.25719705],[-121.69172733,49.25713973],[-121.69183333,49.25708205],[-121.69193913,49.25702472],[-121.69204492,49.2569674],[-121.69215104,49.25691043],[-121.69225771,49.25685346],[-121.6923635,49.25679614],[-121.69246929,49.25673881],[-121.69257541,49.25668184],[-121.69268175,49.25662452],[-121.69278754,49.2565672],[-121.692893,49.25650951],[-121.69299812,49.25645148],[-121.6931027,49.25639344],[-121.69320749,49.25633505],[-121.69331141,49.2562763],[-121.69341532,49.25621755],[-121.69351891,49.25615845],[-121.69362182,49.25609863],[-121.69372474,49.25603881],[-121.69382711,49.255979],[-121.69392948,49.25591918],[-121.69403207,49.25585901],[-121.69413444,49.25579919],[-121.69423648,49.25573902],[-121.69433852,49.25567884],[-121.69444022,49.25561832],[-121.69454226,49.25555814],[-121.69464397,49.25549761],[-121.69474513,49.25543708],[-121.6948465,49.2553762],[-121.69494787,49.25531532],[-121.6950487,49.25525443],[-121.69514974,49.25519319],[-121.69525024,49.25513195],[-121.69535073,49.25507071],[-121.6954509,49.25500911],[-121.69555106,49.25494751],[-121.69565089,49.25488556],[-121.69575072,49.25482361],[-121.69584967,49.2547613],[-121.69594862,49.25469899],[-121.69604757,49.25463668],[-121.69614586,49.25457366],[-121.69624415,49.25451064],[-121.69634189,49.25444762],[-121.6964393,49.25438424],[-121.69653671,49.25432086],[-121.69663379,49.25425713],[-121.69672998,49.25419304],[-121.69682673,49.25412895],[-121.69692293,49.25406486],[-121.69701879,49.25400041],[-121.69711466,49.25393597],[-121.69721052,49.25387152],[-121.69730606,49.25380672],[-121.69740138,49.25374228],[-121.69749691,49.25367747],[-121.69759211,49.25361232],[-121.6976871,49.25354752],[-121.69778175,49.25348236],[-121.69787674,49.25341756],[-121.69797227,49.25335275],[-121.69806693,49.2532876],[-121.69816192,49.2532228],[-121.69825712,49.25315764],[-121.6983521,49.25309284],[-121.69844797,49.25302839],[-121.6985435,49.25296359],[-121.69863936,49.25289914],[-121.69873523,49.2528347],[-121.69883076,49.2527699],[-121.69892608,49.25270545],[-121.69902161,49.25264065],[-121.6991166,49.25257585],[-121.6992118,49.25251069],[-121.6993059,49.25244553],[-121.69940023,49.25238002],[-121.69949422,49.25231415],[-121.69958766,49.25224828],[-121.69968022,49.25218205],[-121.69977267,49.25211512],[-121.69986402,49.25204818],[-121.69995505,49.25198088],[-121.70004541,49.25191288],[-121.70013489,49.25184452],[-121.70022261,49.25177544],[-121.70030913,49.25170566],[-121.70039443,49.25163516],[-121.70047853,49.25156395],[-121.70056141,49.25149202],[-121.7006432,49.2514201],[-121.700724,49.25134711],[-121.70080337,49.25127377],[-121.70088154,49.25119971],[-121.70095915,49.25112565],[-121.70103732,49.25105159],[-121.70111548,49.25097753],[-121.70119277,49.25090311],[-121.70127038,49.25082906],[-121.701348,49.250755],[-121.70142704,49.25068129],[-121.70150696,49.25060795],[-121.70158754,49.25053531],[-121.70166867,49.25046268],[-121.70175101,49.25039076],[-121.70183423,49.25031919],[-121.7019192,49.25024833],[-121.70200571,49.25017855],[-121.70209277,49.25010876],[-121.70218049,49.25003969],[-121.70226822,49.24997061],[-121.70235648,49.24990154],[-121.70244542,49.24983318],[-121.7025349,49.24976482],[-121.70262471,49.24969681],[-121.70271506,49.2496288],[-121.70280575,49.24956115],[-121.70289677,49.24949386],[-121.70298779,49.24942657],[-121.70307969,49.24935963],[-121.70317159,49.24929269],[-121.70326382,49.24922611],[-121.70335605,49.24915953],[-121.70344916,49.2490933],[-121.70354226,49.24902707],[-121.70363516,49.2489612],[-121.70372881,49.24889498],[-121.70382225,49.24882911],[-121.70391602,49.2487636],[-121.70401067,49.24869844],[-121.7041062,49.24863364],[-121.70420239,49.24856955],[-121.70429979,49.24850617],[-121.70439807,49.24844315],[-121.70449635,49.24838013],[-121.70459529,49.24831782],[-121.70469423,49.24825551],[-121.70479405,49.24819356],[-121.70489388,49.2481316],[-121.70499348,49.24807001],[-121.7050933,49.24800805],[-121.70519279,49.24794574],[-121.70529207,49.24788379],[-121.70539101,49.24782148],[-121.70548962,49.24775882],[-121.70558735,49.2476958],[-121.70568442,49.24763206],[-121.70578115,49.24756797],[-121.70587701,49.24750353],[-121.70597132,49.24743801],[-121.70606443,49.24737179],[-121.70615578,49.24730485],[-121.70624646,49.2472372],[-121.70633561,49.24716848],[-121.706423,49.24709905],[-121.70650775,49.24702855],[-121.70659096,49.24695699],[-121.70667121,49.246884],[-121.70675025,49.24681029],[-121.70682753,49.24673588],[-121.7069036,49.24666075],[-121.7069777,49.24658527],[-121.70705026,49.24650872],[-121.70712086,49.24643181],[-121.70719112,49.24635455],[-121.70726105,49.24627693],[-121.70732988,49.24619931],[-121.70739806,49.24612098],[-121.70746514,49.24604264],[-121.70753243,49.24596396],[-121.70759952,49.24588563],[-121.70766714,49.24580729],[-121.70773477,49.24572896],[-121.7078024,49.24565063],[-121.70787003,49.2455723],[-121.70793799,49.24549432],[-121.70800649,49.24541635],[-121.708075,49.24533837],[-121.7081435,49.2452604],[-121.70821201,49.24518242],[-121.70827997,49.24510445],[-121.7083476,49.24502611],[-121.70841522,49.24494778],[-121.70848197,49.2448691],[-121.70854785,49.24479005],[-121.70861317,49.24471101],[-121.70867675,49.24463125],[-121.70874032,49.2445515],[-121.70880214,49.24447103],[-121.70886286,49.24439056],[-121.7089215,49.24430902],[-121.70897905,49.24422749],[-121.70903484,49.24414524],[-121.70908888,49.24406228],[-121.70914095,49.24397896],[-121.70918996,49.24389529],[-121.70923579,49.24381055],[-121.70927933,49.2437251],[-121.70932034,49.24363929],[-121.70935906,49.24355277],[-121.70939669,49.24346625],[-121.7094318,49.24337937],[-121.70946495,49.24329214],[-121.70949613,49.24320455],[-121.70952643,49.24311661],[-121.70955651,49.24302902],[-121.70958627,49.24294107],[-121.70961493,49.24285313],[-121.7096436,49.24276518],[-121.70967172,49.24267724],[-121.70970038,49.24258929],[-121.70973014,49.24250135],[-121.70976077,49.24241376],[-121.70979141,49.24232617],[-121.70982171,49.24223822],[-121.70985092,49.24215028],[-121.70987904,49.24206233],[-121.70990607,49.24197439],[-121.70993331,49.24188609],[-121.70996001,49.24179779],[-121.70998671,49.24170949],[-121.71001374,49.24162154],[-121.7100399,49.24153324],[-121.71006659,49.24144494],[-121.71009329,49.24135664],[-121.71012054,49.24126834],[-121.71014866,49.24118039],[-121.71017679,49.24109245],[-121.71020545,49.2410045],[-121.71023467,49.24091656],[-121.71026334,49.24082861],[-121.71029255,49.24074067],[-121.71032177,49.24065272],[-121.71035098,49.24056478],[-121.71037998,49.24047719],[-121.7104092,49.24038924],[-121.71043841,49.2403013],[-121.71046763,49.24021336],[-121.71049739,49.24012541],[-121.71052639,49.24003782],[-121.71055615,49.23994988],[-121.71058537,49.23986193],[-121.71061513,49.23977399],[-121.71064413,49.2396864],[-121.7106739,49.23959845],[-121.71070311,49.23951051],[-121.71073233,49.23942256],[-121.71076188,49.23933497],[-121.7107911,49.23924703],[-121.71082031,49.23915908],[-121.71084953,49.23907114],[-121.71086395,49.2389305],[-121.71087243,49.23884077],[-121.71088144,49.23875105],[-121.71089046,49.23866132],[-121.71089948,49.2385716],[-121.71090849,49.23848187],[-121.71091751,49.23839215],[-121.7109262,49.23830207],[-121.71093576,49.23821234],[-121.71094533,49.23812262],[-121.71095489,49.23803289],[-121.71096391,49.23794316],[-121.71097238,49.23785344],[-121.71098031,49.23776371],[-121.71098824,49.23767399],[-121.71099508,49.23758426],[-121.71100159,49.23749418],[-121.71100734,49.23740446],[-121.71101166,49.23731438],[-121.71101578,49.23722465],[-121.71101901,49.23713457],[-121.71102095,49.23704485],[-121.71102146,49.23695476],[-121.71101979,49.23686468],[-121.71101681,49.23677496],[-121.71101296,49.23668488],[-121.71100781,49.23659515],[-121.71100123,49.23650507],[-121.71099389,49.23641535],[-121.71098492,49.23632562],[-121.71097486,49.23623589],[-121.7109648,49.23614617],[-121.71095419,49.23605644],[-121.71094338,49.23596707],[-121.71093223,49.23587735],[-121.71092107,49.23578762],[-121.71090992,49.2356979],[-121.71089932,49.23560817],[-121.71088981,49.23551845],[-121.7108803,49.23542872],[-121.71087133,49.235339],[-121.71086345,49.23524927],[-121.71085667,49.23515955],[-121.71085228,49.23506947],[-121.71084876,49.23497974],[-121.7108471,49.23488966],[-121.71084577,49.23479994],[-121.71084465,49.23470985],[-121.71084408,49.23461977],[-121.71084384,49.23453005],[-121.7108449,49.23443997],[-121.71084597,49.23434989],[-121.71084736,49.23426016],[-121.71084897,49.23417008],[-121.71085092,49.23408035],[-121.71085362,49.23399027],[-121.71085665,49.23390055],[-121.71086045,49.23381047],[-121.71086512,49.23372074],[-121.71087,49.23363066],[-121.71087631,49.23354093],[-121.71088283,49.23345085],[-121.71089077,49.23336113],[-121.7108998,49.2332714],[-121.71090993,49.23318168],[-121.71092114,49.23309195],[-121.71093324,49.23300258],[-121.71094718,49.23291286],[-121.710962,49.23282349],[-121.71097846,49.23273412],[-121.71099633,49.23264511],[-121.71101585,49.23255609],[-121.71103646,49.23246708],[-121.71105903,49.23237842],[-121.71108378,49.23228977],[-121.71110942,49.23220147],[-121.71113647,49.23211352],[-121.71116483,49.23202522],[-121.7111944,49.23193763],[-121.71122527,49.23184969],[-121.71125735,49.23176245],[-121.71129052,49.23167522],[-121.7113237,49.23158799],[-121.7113585,49.23150075],[-121.71139364,49.23141388],[-121.71142987,49.231327],[-121.71146644,49.23124048],[-121.71150321,49.2311536],[-121.71154032,49.23106708],[-121.71157798,49.23098056],[-121.71161651,49.2308944],[-121.71165471,49.23080788],[-121.71169236,49.23072136],[-121.71173056,49.23063483],[-121.71176855,49.23054867],[-121.71180675,49.23046215],[-121.71184441,49.23037563],[-121.71188206,49.23028911],[-121.71191863,49.23020259],[-121.71195486,49.23011571],[-121.71199109,49.23002883],[-121.71202657,49.22994231],[-121.7120628,49.22985544],[-121.71209849,49.22976856],[-121.71213363,49.22968168],[-121.71216899,49.22959445],[-121.71220414,49.22950757],[-121.71224016,49.22942105],[-121.71227639,49.22933418],[-121.71231263,49.2292473],[-121.71234974,49.22916078],[-121.71238685,49.22907426],[-121.71242505,49.22898774],[-121.71246413,49.22890157],[-121.7125043,49.22881541],[-121.71254481,49.2287296],[-121.71258585,49.22864379],[-121.71262887,49.22855834],[-121.71267331,49.22847324],[-121.71271829,49.22838814],[-121.71276415,49.2283034],[-121.71281253,49.22821902],[-121.71286265,49.22813535],[-121.7129142,49.22805203],[-121.71296772,49.22796907],[-121.71302299,49.22788682],[-121.71308111,49.22780529],[-121.71314241,49.22772482],[-121.71320688,49.22764542],[-121.71327485,49.22756744],[-121.71334568,49.22749018],[-121.71341826,49.22741363],[-121.71349171,49.22733743],[-121.71356583,49.22726195],[-121.71364258,49.22718754],[-121.71372042,49.22711312],[-121.71379859,49.22703906],[-121.71387567,49.226965],[-121.71395297,49.22689059],[-121.71403081,49.22681617],[-121.7141081,49.22674176],[-121.71418397,49.22666699],[-121.7142583,49.22659115],[-121.71433034,49.2265146],[-121.71440149,49.22643769],[-121.71447056,49.22635971],[-121.71453712,49.22628138],[-121.71460126,49.22620163],[-121.71466113,49.2261208],[-121.71471782,49.22603891],[-121.71477167,49.22595631],[-121.71482432,49.22587299],[-121.71487587,49.22578967],[-121.71492654,49.225706],[-121.71497437,49.22562162],[-121.71502166,49.22553723],[-121.71506894,49.22545285],[-121.71511732,49.22536847],[-121.71516657,49.22528444],[-121.71521528,49.22520041],[-121.71526508,49.22511638],[-121.71531696,49.22503342],[-121.71537224,49.22495117],[-121.71543002,49.22486928],[-121.71548978,49.22478774],[-121.71555195,49.22470763],[-121.71561872,49.22462894],[-121.71569109,49.22455275],[-121.71576926,49.22447869],[-121.71585181,49.22440641],[-121.71593909,49.22433627],[-121.71603153,49.22426933],[-121.71612838,49.22420595],[-121.71623085,49.22414685],[-121.71633881,49.2240913],[-121.7164514,49.22403897],[-121.71656565,49.22398841],[-121.71668123,49.22393927],[-121.71679704,49.22389156],[-121.71691572,49.22384634],[-121.71703594,49.22380219],[-121.71715594,49.2237584],[-121.71727529,49.22371389],[-121.71739397,49.22366867],[-121.71751298,49.22362381],[-121.7176322,49.22357859],[-121.71774934,49.2235323],[-121.71786503,49.22348388],[-121.71797873,49.22343332],[-121.71809023,49.22338098],[-121.71820073,49.22332757],[-121.71831024,49.2232731],[-121.71841974,49.22321862],[-121.71852837,49.22316379],[-121.71863567,49.22310753],[-121.71874297,49.22305128],[-121.71885027,49.22299502],[-121.7189589,49.22294019],[-121.7190684,49.22288571],[-121.71917791,49.22283124],[-121.7192884,49.22277783],[-121.71940023,49.22272584],[-121.72293925,49.22020357],[-121.72727162,49.21796186],[-121.7312179,49.21481294],[-121.73575753,49.21311172],[-121.7408169,49.21296574],[-121.74505411,49.21286106],[-121.7522017,49.21033059],[-121.75433703,49.20907266],[-121.75441077,49.20899682],[-121.75448628,49.20892169],[-121.75456441,49.20884764],[-121.75464517,49.20877464],[-121.75472835,49.20870308],[-121.75481449,49.20863294],[-121.75490184,49.20856351],[-121.7549927,49.2084955],[-121.75508664,49.20842963],[-121.75518411,49.20836697],[-121.75528608,49.20830679],[-121.75539135,49.2082484],[-121.75550057,49.2081925],[-121.7556129,49.20814052],[-121.75572867,49.20809281],[-121.75584886,49.20805043],[-121.75597316,49.20801305],[-121.75610066,49.20797851],[-121.7562296,49.20794611],[-121.75635833,49.20791407],[-121.75648685,49.20788238],[-121.75661626,49.20785283],[-121.75674634,49.20782399],[-121.75687676,49.2077955],[-121.7570065,49.20776631],[-121.75713613,49.2077364],[-121.75726543,49.20770613],[-121.75739473,49.20767587],[-121.75752415,49.20764631],[-121.75765434,49.20761819],[-121.75778554,49.20759113],[-121.75791697,49.20756549],[-121.75804906,49.20754057],[-121.75818116,49.20751564],[-121.75831292,49.20749036],[-121.75844402,49.20746437],[-121.75857533,49.20743802],[-121.75870664,49.20741168],[-121.75883795,49.20738533],[-121.7589696,49.20735934],[-121.75910069,49.20733335],[-121.75923234,49.20730735],[-121.75936377,49.20728172],[-121.75949541,49.20725573],[-121.75962651,49.20722973],[-121.75975815,49.20720374],[-121.75988925,49.20717775],[-121.76002089,49.20715176],[-121.76015187,49.20712506],[-121.76028285,49.20709835],[-121.76041404,49.20707129],[-121.76054468,49.20704423],[-121.76067575,49.20701646],[-121.76080628,49.20698869],[-121.76093648,49.20696056],[-121.76106634,49.20693207],[-121.76119642,49.20690323],[-121.76132671,49.20687404],[-121.76145612,49.20684449],[-121.76158586,49.20681529],[-121.76171528,49.20678574],[-121.7618449,49.20675583],[-121.76197453,49.20672592],[-121.76210415,49.20669601],[-121.76223323,49.2066661],[-121.76236286,49.20663619],[-121.76249281,49.20660664],[-121.76262223,49.20657709],[-121.76275185,49.20654718],[-121.76288126,49.20651763],[-121.763011,49.20648843],[-121.76314129,49.20645924],[-121.76327103,49.20643004],[-121.76340078,49.20640084],[-121.76353073,49.20637129],[-121.76365993,49.2063421],[-121.76378988,49.20631254],[-121.76391951,49.20628263],[-121.76404859,49.20625273],[-121.76417809,49.20622211],[-121.76430705,49.20619149],[-121.76443568,49.20616051],[-121.76456419,49.20612882],[-121.76469269,49.20609713],[-121.76482054,49.20606473],[-121.76494826,49.20603162],[-121.7650762,49.20599815],[-121.76520327,49.20596432],[-121.76532999,49.20593014],[-121.76545727,49.20589596],[-121.765584,49.20586178],[-121.76571061,49.20582689],[-121.76583722,49.20579199],[-121.76596383,49.2057571],[-121.76609023,49.20572256],[-121.76621717,49.20568803],[-121.76634423,49.2056542],[-121.7664715,49.20562002],[-121.76659823,49.20558584],[-121.76672517,49.2055513],[-121.76685157,49.20551677],[-121.76697818,49.20548187],[-121.76710446,49.20544662],[-121.76723074,49.20541137],[-121.76735701,49.20537613],[-121.76748296,49.20534052],[-121.76760912,49.20530456],[-121.76773473,49.2052686],[-121.76786101,49.20523335],[-121.76798761,49.20519846],[-121.76811467,49.20516463],[-121.76824228,49.20513081],[-121.76837,49.20509769],[-121.76849817,49.20506565],[-121.76862746,49.20503538],[-121.76875753,49.20500654],[-121.76888805,49.20497877],[-121.76901935,49.20495242],[-121.76915143,49.2049275],[-121.76928375,49.204904],[-121.76941686,49.20488192],[-121.7695502,49.20486127],[-121.76968466,49.2048424],[-121.76981923,49.20482424],[-121.76995371,49.20480715],[-121.77008918,49.20479113],[-121.77022456,49.20477618],[-121.77035985,49.20476229],[-121.7704958,49.20474912],[-121.77063166,49.20473701],[-121.77076784,49.20472526],[-121.77090448,49.20471458],[-121.77104091,49.20470425],[-121.77117724,49.204695],[-121.7713139,49.2046861],[-121.77145035,49.20467755],[-121.77158725,49.20467007],[-121.77172415,49.2046626],[-121.77186095,49.20465619],[-121.77199809,49.20465014],[-121.7721348,49.20464479],[-121.77227184,49.20463981],[-121.772409,49.20463554],[-121.77254628,49.20463198],[-121.77268335,49.20462877],[-121.77282054,49.20462628],[-121.77295784,49.2046245],[-121.77309548,49.20462307],[-121.77323235,49.20462201],[-121.7733699,49.20462165],[-121.77350701,49.20462201],[-121.77364446,49.20462272],[-121.77378169,49.20462379],[-121.77391905,49.20462557],[-121.77405619,49.2046277],[-121.77419323,49.20463091],[-121.77433028,49.20463411],[-121.77446745,49.20463803],[-121.77460473,49.20464266],[-121.7747418,49.20464764],[-121.77487899,49.20465334],[-121.77501575,49.20465975],[-121.7751523,49.20466651],[-121.77528919,49.20467363],[-121.7754264,49.20468111],[-121.77556307,49.20468859],[-121.77569965,49.20469713],[-121.77583622,49.20470568],[-121.7759728,49.20471422],[-121.7761097,49.20472313],[-121.77624607,49.20473203],[-121.77638276,49.20474128],[-121.77651946,49.20475054],[-121.7766556,49.2047598],[-121.7767923,49.20476906],[-121.77692878,49.20477867],[-121.77699169,49.20478828],[-121.77706547,49.20478793],[-121.77720162,49.20479718],[-121.77733853,49.20480609],[-121.77747511,49.20481463],[-121.7776119,49.20482282],[-121.77774835,49.20483065],[-121.77788557,49.20483813],[-121.77802224,49.20484561],[-121.77815912,49.20485273],[-121.77829567,49.20485949],[-121.77843265,49.20486555],[-121.77856996,49.20487196],[-121.77870694,49.20487801],[-121.77884349,49.20488477],[-121.77898037,49.20489189],[-121.77911726,49.20489901],[-121.77925393,49.20490649],[-121.77939093,49.20491433],[-121.77952729,49.20492323],[-121.77966411,49.2049332],[-121.77980038,49.20494317],[-121.77993655,49.2049542],[-121.78007264,49.20496631],[-121.7802082,49.2049802],[-121.78034388,49.20499479],[-121.78047871,49.20501082],[-121.78061377,49.20502826],[-121.7807482,49.20504678],[-121.78088156,49.20506707],[-121.7810144,49.20508915],[-121.78114727,49.205113],[-121.78127895,49.20513793],[-121.78141033,49.20516427],[-121.78154128,49.20519133],[-121.78167159,49.20521946],[-121.78180126,49.20524866],[-121.78193084,49.20527892],[-121.78205999,49.2053099],[-121.7821886,49.20534088],[-121.782317,49.20537221],[-121.7824453,49.20540461],[-121.78257339,49.20543737],[-121.78270114,49.20546977],[-121.78282945,49.20550217],[-121.78295742,49.20553421],[-121.78308593,49.20556626],[-121.7832139,49.2055983],[-121.78334242,49.20563035],[-121.78347039,49.20566239],[-121.78359912,49.20569408],[-121.78372785,49.20572577],[-121.78385603,49.20575746],[-121.78398476,49.20578915],[-121.78411252,49.20582155],[-121.78424061,49.2058543],[-121.78436794,49.20588742],[-121.7844954,49.20592124],[-121.78462252,49.20595471],[-121.78475018,49.20598818],[-121.78487731,49.20602165],[-121.78500497,49.20605512],[-121.78513264,49.20608859],[-121.78525976,49.20612206],[-121.7853871,49.20615517],[-121.78546597,49.20618365],[-121.78798645,49.20679962],[-121.78842767,49.20690751],[-121.79152291,49.20766341],[-121.79787925,49.21087571],[-121.79788418,49.21087749],[-121.80000035,49.21170567],[-121.81938261,49.21664483],[-121.82322945,49.2175492],[-121.82607196,49.21777957],[-121.82840599,49.21846817],[-121.82986873,49.21964029],[-121.83483849,49.22459797],[-121.83839791,49.22560773],[-121.83981274,49.22575656],[-121.84019348,49.22579644],[-121.84406323,49.22557711],[-121.84782638,49.22508398],[-121.85262944,49.22423835],[-121.85944932,49.22315524],[-121.8650412,49.22250296],[-121.86506694,49.22250367],[-121.87953386,49.22292879],[-121.89047263,49.22433164],[-121.8945631,49.22397274],[-121.90594686,49.22297259],[-121.92813783,49.21868287],[-121.93817757,49.21726284],[-121.94480021,49.21632556],[-121.94517325,49.21627275],[-121.94601179,49.21615419],[-121.94815792,49.21570048],[-121.9486649,49.2155933],[-121.95959258,49.21328227],[-121.96965035,49.20779985],[-121.96965756,49.20779593],[-121.97010676,49.20755102],[-121.97033947,49.20742414],[-121.97920159,49.20259144],[-121.979753,49.2022527],[-121.98341947,49.20000009],[-121.98895536,49.19659801],[-122.00000026,49.18980809],[-122.00287092,49.18804207],[-122.00664807,49.18571848],[-122.00802368,49.18487218],[-122.01107867,49.18299254],[-122.02152592,49.17778527],[-122.02193756,49.17758005],[-122.03023356,49.1734433],[-122.03355608,49.17178615],[-122.03590632,49.16851393],[-122.04370742,49.15764873],[-122.05008025,49.15474619],[-122.05841587,49.1509482],[-122.06087224,49.14982876],[-122.06288339,49.15028745],[-122.0727663,49.15254081],[-122.0841249,49.15125937],[-122.09229618,49.15070749],[-122.09432383,49.14992977],[-122.1021493,49.14692764],[-122.11401964,49.14829315],[-122.11896269,49.14886136],[-122.1261537,49.14577189],[-122.12613157,49.1457558],[-122.12531504,49.14516187],[-122.12724353,49.14512605],[-122.12766244,49.14511826],[-122.12772166,49.14511716],[-122.13384289,49.14500315],[-122.13426232,49.14499533],[-122.1353518,49.144975],[-122.14206125,49.14382862],[-122.15050703,49.1428722],[-122.1505346,49.14286793],[-122.15080215,49.14282699],[-122.1510697,49.14278604],[-122.151337,49.14274367],[-122.15160297,49.14269988],[-122.15186872,49.14265644],[-122.15213536,49.14261335],[-122.15240178,49.14257063],[-122.15266775,49.14252683],[-122.15293359,49.14248233],[-122.15319843,49.14243675],[-122.15346324,49.1423894],[-122.1537266,49.14233991],[-122.15398937,49.14228863],[-122.15425169,49.1422363],[-122.15451322,49.14218253],[-122.15477517,49.14212806],[-122.15503603,49.14207358],[-122.15529764,49.14201875],[-122.15555904,49.14196427],[-122.15582166,49.14191051],[-122.15607645,49.14184606],[-122.1562991,49.14174031],[-122.15651932,49.14163314],[-122.15673601,49.14152277],[-122.15695723,49.14141666],[-122.15719055,49.14132231],[-122.1574389,49.14124576],[-122.15769444,49.14118096],[-122.15795492,49.14112434],[-122.15821678,49.14107094],[-122.15847863,49.14101753],[-122.15873799,49.14095914],[-122.15898546,49.14088223],[-122.15925625,49.14085232],[-122.15952683,49.14082277],[-122.15979687,49.14079322],[-122.16006779,49.14076402],[-122.16033816,49.14073482],[-122.16060886,49.14070598],[-122.16087956,49.14067714],[-122.16115005,49.14064866],[-122.16142109,49.14062017],[-122.16169191,49.14059205],[-122.16196273,49.14056392],[-122.16223356,49.14053579],[-122.16250438,49.14050766],[-122.16277499,49.14047989],[-122.16304582,49.14045176],[-122.16331697,49.14042399],[-122.16358779,49.14039586],[-122.1638584,49.14036809],[-122.16412977,49.14033996],[-122.16440038,49.14031219],[-122.1646712,49.14028406],[-122.16494202,49.14025593],[-122.16521305,49.14022745],[-122.16548354,49.14019896],[-122.16575403,49.14017048],[-122.16602506,49.14014199],[-122.16629575,49.14011315],[-122.16634919,49.14010738],[-122.16656612,49.14008396],[-122.16683702,49.14005476],[-122.16710705,49.14002521],[-122.16737784,49.1399953],[-122.16764808,49.13996539],[-122.16791853,49.13993513],[-122.16818843,49.13990486],[-122.16845855,49.13987424],[-122.16872921,49.13984362],[-122.16899932,49.139813],[-122.16926944,49.13978238],[-122.16953988,49.13975212],[-122.16981,49.1397215],[-122.1700799,49.13969123],[-122.17035035,49.13966097],[-122.17062046,49.13963035],[-122.17089091,49.13960008],[-122.17116102,49.13956946],[-122.17143113,49.13953884],[-122.17170158,49.13950858],[-122.17197169,49.13947796],[-122.17224201,49.13944698],[-122.17251212,49.13941636],[-122.17278224,49.13938574],[-122.17305256,49.13935476],[-122.17332233,49.13932379],[-122.17359265,49.13929281],[-122.17386264,49.13926148],[-122.17413263,49.13923015],[-122.17440262,49.13919881],[-122.17467227,49.13916712],[-122.17494246,49.13913544],[-122.17521212,49.13910375],[-122.17548198,49.1390717],[-122.17575184,49.13903966],[-122.17602137,49.13900726],[-122.17629144,49.13897486],[-122.17656064,49.1389421],[-122.17683059,49.13890899],[-122.17709999,49.13887587],[-122.1773694,49.13884276],[-122.17763868,49.13880894],[-122.17790829,49.13877547],[-122.17817724,49.13874129],[-122.17844673,49.1387071],[-122.17871534,49.13867257],[-122.17898471,49.13863767],[-122.17925353,49.13860278],[-122.17952223,49.13856718],[-122.17979093,49.13853157],[-122.18005984,49.13849561],[-122.18032796,49.13845822],[-122.18059252,49.13841122],[-122.18085276,49.13835497],[-122.18110926,49.13829124],[-122.18117464,49.13827351],[-122.18136273,49.13822252],[-122.18148796,49.13818656],[-122.18161428,49.13815059],[-122.18186228,49.13807835],[-122.18186484,49.1380776],[-122.18211493,49.13800355],[-122.18235978,49.13792272],[-122.1825995,49.13783584],[-122.18283697,49.13774541],[-122.18307357,49.13765461],[-122.1833095,49.13756311],[-122.18354109,49.13746697],[-122.18377223,49.13736977],[-122.18400515,49.13727506],[-122.18423207,49.13717394],[-122.18444915,49.13706464],[-122.18466067,49.13694999],[-122.18486845,49.13683249],[-122.18507534,49.13671464],[-122.18525395,49.13661482],[-122.18528432,49.13659785],[-122.18549785,49.13648534],[-122.18571567,49.13637567],[-122.18593362,49.13626672],[-122.18615212,49.13615777],[-122.1863704,49.13604917],[-122.18658955,49.13594093],[-122.18680871,49.13583269],[-122.18702799,49.13572517],[-122.18724803,49.13561728],[-122.18746764,49.13551011],[-122.1876878,49.13540294],[-122.1879085,49.13529577],[-122.18812865,49.13518859],[-122.18834847,49.13508107],[-122.18856829,49.13497354],[-122.18878811,49.13486601],[-122.1890076,49.13475813],[-122.18922687,49.1346506],[-122.1894469,49.13454272],[-122.18966618,49.13443519],[-122.189886,49.13432766],[-122.19010581,49.13422013],[-122.19032596,49.13411296],[-122.19054645,49.13400615],[-122.19076747,49.13389933],[-122.19098829,49.13379287],[-122.19120977,49.13368712],[-122.1914318,49.13358137],[-122.19165449,49.13347634],[-122.19187751,49.13337166],[-122.19210087,49.13326734],[-122.19232489,49.13316372],[-122.19254892,49.13306011],[-122.19277327,49.13295686],[-122.19300351,49.1328593],[-122.19323262,49.13275996],[-122.19345898,49.13265884],[-122.19368521,49.13255701],[-122.19391177,49.13245554],[-122.194139,49.13235477],[-122.19436802,49.1322565],[-122.1946008,49.13216108],[-122.1948367,49.13206958],[-122.1950776,49.13198341],[-122.19532375,49.13190401],[-122.19557472,49.13183209],[-122.19583052,49.13176764],[-122.19609015,49.13170961],[-122.19635259,49.13165691],[-122.19661599,49.13160813],[-122.19688151,49.1315622],[-122.19714739,49.13151841],[-122.19741307,49.13147497],[-122.19767929,49.13143153],[-122.19794459,49.13138596],[-122.19820865,49.13133789],[-122.19847101,49.13128626],[-122.1987313,49.13122894],[-122.19898755,49.13116556],[-122.19924143,49.13109791],[-122.19949406,49.13102777],[-122.19974669,49.13095762],[-122.20000045,49.13088926],[-122.20049991,49.13083051],[-122.20077091,49.13080381],[-122.20104246,49.13077711],[-122.20131392,49.13075147],[-122.20158529,49.1307269],[-122.20185745,49.13070376],[-122.2021291,49.1306824],[-122.20240188,49.13066281],[-122.20267436,49.13064466],[-122.20294762,49.13062792],[-122.2032208,49.13061225],[-122.20349422,49.13059801],[-122.20376777,49.13058448],[-122.20404123,49.13057202],[-122.20431469,49.13055956],[-122.20458814,49.1305471],[-122.20486194,49.13053499],[-122.20513585,49.1305236],[-122.20540968,49.13051327],[-122.20568353,49.13050473],[-122.20595743,49.13049796],[-122.20623115,49.13049333],[-122.20650503,49.1304912],[-122.20677937,49.13049013],[-122.20705337,49.1304887],[-122.20732803,49.13048799],[-122.20760249,49.13048764],[-122.20787686,49.13048835],[-122.20815157,49.13048942],[-122.20842564,49.13049155],[-122.20870016,49.13049476],[-122.2089744,49.13049939],[-122.20924854,49.13050508],[-122.20952217,49.13051256],[-122.20979584,49.13052182],[-122.210069,49.13053285],[-122.21034219,49.13054567],[-122.2106147,49.13056241],[-122.21088653,49.13058306],[-122.21115831,49.13060656],[-122.2114297,49.13063255],[-122.21170112,49.13066032],[-122.21197225,49.13068952],[-122.21224338,49.13071871],[-122.21248114,49.13074432],[-122.2125145,49.13074791],[-122.21278572,49.13077604],[-122.21305669,49.13080274],[-122.21332859,49.13082695],[-122.21360054,49.13084832],[-122.21387264,49.13086576],[-122.21414592,49.13087751],[-122.21442003,49.13088143],[-122.21469458,49.13088001],[-122.21470258,49.13087987],[-122.21496939,49.13087538],[-122.21524483,49.13086968],[-122.21551985,49.1308647],[-122.2157944,49.13086327],[-122.21606817,49.13086683],[-122.21634079,49.13087787],[-122.21661259,49.13089674],[-122.21667025,49.13090137],[-122.21688433,49.13091846],[-122.2169653,49.13092547],[-122.21715557,49.13094196],[-122.21742739,49.13096724],[-122.21769815,49.1309943],[-122.21796949,49.13102314],[-122.21824033,49.13105376],[-122.21851032,49.1310858],[-122.21878035,49.13111963],[-122.21905008,49.13115488],[-122.21931897,49.13119155],[-122.21958702,49.13122965],[-122.21985444,49.13126882],[-122.22012156,49.1313094],[-122.22038826,49.13135071],[-122.22061887,49.13138668],[-122.22102203,49.12642437],[-122.22081029,49.1263325],[-122.21974152,49.12586821],[-122.21967251,49.12588922],[-122.21746827,49.12655361],[-122.21688809,49.12664405],[-122.21677983,49.12665046],[-122.21670184,49.12665497],[-122.21646527,49.12666897],[-122.2163819,49.12665722],[-122.21619847,49.12663159],[-122.21610611,49.12660452],[-122.21594946,49.1265586],[-122.21538285,49.12621797],[-122.21536667,49.12620824],[-122.21494324,49.12595367],[-122.21478526,49.12592732],[-122.21473379,49.12593693],[-122.21465559,49.12595153],[-122.21457406,49.12599461],[-122.21455153,49.12604375],[-122.21442433,49.1263204],[-122.21428076,49.12643434],[-122.21412533,49.12648739],[-122.21399685,49.12648383],[-122.21378452,49.12640594],[-122.21365618,49.12635885],[-122.21343598,49.12630616],[-122.21316834,49.12629227],[-122.21241258,49.12640265],[-122.21233847,49.1264019],[-122.21203764,49.12639886],[-122.21151269,49.12639339],[-122.21138298,49.12637036],[-122.21123597,49.12634425],[-122.21083489,49.12622966],[-122.21070259,49.12619186],[-122.20995816,49.12612493],[-122.20862229,49.12593507],[-122.20817946,49.12587213],[-122.2080307,49.12586608],[-122.20783229,49.12589242],[-122.20695712,49.12571228],[-122.20590193,49.12549507],[-122.20584468,49.1255054],[-122.20584279,49.12550573],[-122.20566835,49.12553673],[-122.2055131,49.12554225],[-122.20543826,49.12554492],[-122.20515421,49.12555531],[-122.20481376,49.1255677],[-122.20465743,49.12558994],[-122.2044282,49.12562254],[-122.20421494,49.12561791],[-122.2039816,49.12561282],[-122.20375782,49.12560794],[-122.20358132,49.12571413],[-122.20337847,49.12583617],[-122.20313807,49.12594181],[-122.20294905,49.12602488],[-122.20264794,49.12599817],[-122.2025236,49.12598713],[-122.20232302,49.12601847],[-122.20167109,49.1261203],[-122.20041003,49.1261559],[-122.20000519,49.12610356],[-122.19879188,49.12594726],[-122.19854861,49.12590578],[-122.19784595,49.12578596],[-122.19543841,49.12552485],[-122.19431939,49.12521664],[-122.19361835,49.12502223],[-122.19288556,49.1249026],[-122.19262695,49.12482569],[-122.19252835,49.12478176],[-122.19207159,49.12457824],[-122.1916863,49.1244838],[-122.19146437,49.1244294],[-122.19118244,49.12432757],[-122.19101178,49.12421791],[-122.19056067,49.12375397],[-122.19021027,49.12350865],[-122.19014767,49.1234541],[-122.18997125,49.12330036],[-122.18976428,49.12318037],[-122.18927823,49.12300982],[-122.18913734,49.12293035],[-122.1889797,49.12284141],[-122.18874452,49.12258931],[-122.18864323,49.12248073],[-122.18854524,49.12233475],[-122.1885714,49.12225248],[-122.18859575,49.12217595],[-122.18874884,49.12206166],[-122.18955376,49.12201893],[-122.18965774,49.12197656],[-122.18969921,49.1219203],[-122.18964633,49.12132229],[-122.18957317,49.12049503],[-122.18947433,49.12028068],[-122.18925846,49.12000407],[-122.18924482,49.11998658],[-122.18913423,49.11989012],[-122.18897255,49.1197491],[-122.18857442,49.1195155],[-122.18777348,49.11904554],[-122.18772602,49.11898657],[-122.18759297,49.11882122],[-122.18757788,49.11878242],[-122.18749916,49.11858047],[-122.18741551,49.11836583],[-122.18740916,49.1182438],[-122.18740475,49.11815897],[-122.18745881,49.11795103],[-122.18765014,49.11761575],[-122.187726,49.11748247],[-122.18776922,49.11724806],[-122.18784011,49.11686365],[-122.18801828,49.1165959],[-122.18868762,49.11663684],[-122.18884882,49.11667608],[-122.18955961,49.11684905],[-122.18970098,49.11685484],[-122.1898464,49.1168608],[-122.1899781,49.11683546],[-122.19011102,49.11680988],[-122.1903241,49.11671746],[-122.19060516,49.11659554],[-122.19101232,49.11637056],[-122.19142348,49.11614336],[-122.19213316,49.11541688],[-122.19251494,49.11502606],[-122.19267504,49.11486228],[-122.19292405,49.11474585],[-122.19307654,49.11471106],[-122.19318003,49.11468746],[-122.19324786,49.11469221],[-122.19343439,49.11470526],[-122.19390221,49.11482671],[-122.19406665,49.1148694],[-122.19441738,49.11485124],[-122.19473372,49.11475155],[-122.19493119,49.11458527],[-122.19499084,49.11446866],[-122.19502079,49.11441009],[-122.19502799,49.1142864],[-122.19503738,49.11412489],[-122.19500465,49.11388349],[-122.1949304,49.11333837],[-122.19479803,49.11277937],[-122.19447718,49.11197932],[-122.19446053,49.11156203],[-122.19470183,49.11098183],[-122.19476572,49.11082821],[-122.19480053,49.11076923],[-122.19491555,49.11057434],[-122.19498823,49.1104508],[-122.1949962,49.11043726],[-122.19499868,49.11043444],[-122.19501122,49.11042017],[-122.19526457,49.11013568],[-122.19549076,49.10999191],[-122.19587175,49.10974972],[-122.19639502,49.10933279],[-122.19677394,49.10896854],[-122.19703277,49.10857012],[-122.19708616,49.10844693],[-122.19709381,49.10842927],[-122.19718961,49.10820802],[-122.1972275,49.10812059],[-122.19737064,49.10779037],[-122.19741746,49.10774559],[-122.1981433,49.10705156],[-122.19826154,49.10692033],[-122.1987307,49.10639963],[-122.19879675,49.10627252],[-122.19899089,49.10589795],[-122.19901906,49.10563554],[-122.19919252,49.10493874],[-122.19918976,49.10482588],[-122.19898476,49.10451184],[-122.19887307,49.10423768],[-122.19889541,49.10396494],[-122.1988983,49.10393018],[-122.19889941,49.10391687],[-122.19905669,49.10359405],[-122.19960677,49.10246489],[-122.19968814,49.10186296],[-122.19972864,49.10156337],[-122.19989033,49.10089515],[-122.19992275,49.10076118],[-122.19993697,49.10070268],[-122.19999067,49.10048089],[-122.20000853,49.1004062],[-122.20005462,49.10021642],[-122.20007979,49.10011245],[-122.20012157,49.10000684],[-122.2001519,49.09993016],[-122.20020105,49.09980589],[-122.20045727,49.09951571],[-122.20079029,49.0993112],[-122.20150688,49.09887126],[-122.20218794,49.09836424],[-122.20249312,49.09811714],[-122.20263768,49.09788784],[-122.20283335,49.09694359],[-122.20292306,49.09651125],[-122.20297432,49.09626424],[-122.2034242,49.09508312],[-122.20330069,49.09392676],[-122.20334654,49.09385383],[-122.20336673,49.09382172],[-122.20474995,49.09310153],[-122.20522919,49.09276687],[-122.20535603,49.09255498],[-122.20540296,49.09224263],[-122.20543932,49.09218127],[-122.20545423,49.09215611],[-122.20549979,49.0920786],[-122.20551952,49.09204502],[-122.20557562,49.09088785],[-122.2055714,49.09036439],[-122.20556646,49.08975098],[-122.20556569,49.08966054],[-122.20555316,49.08914102],[-122.20555183,49.08908672],[-122.20553767,49.08850052],[-122.20553715,49.08847919],[-122.20550868,49.08733101],[-122.20550791,49.08729493],[-122.2054941,49.08673709],[-122.20549392,49.08672968],[-122.20551811,49.08577968],[-122.20554363,49.08477685],[-122.20554994,49.08453018],[-122.20554994,49.08452539],[-122.20554816,49.08249178],[-122.20556179,49.08181314],[-122.20537628,49.08126568],[-122.20511478,49.08049397],[-122.20542492,49.07983242],[-122.2055375,49.07958141],[-122.20557183,49.07950486],[-122.20558597,49.07855905],[-122.20559508,49.07794926],[-122.20559954,49.07765481],[-122.20558787,49.07752603],[-122.20556833,49.07731051],[-122.20546647,49.07718161],[-122.20542944,49.07713497],[-122.20528901,49.07703547],[-122.2050842,49.07689036],[-122.20415932,49.07650332],[-122.20381563,49.07635949],[-122.20268534,49.07581366],[-122.20200032,49.07536575],[-122.20100234,49.07479856],[-122.2006052,49.07462148],[-122.2005871,49.07461341],[-122.20053977,49.07458749],[-122.20021458,49.07440939],[-122.20008179,49.07433696],[-122.20002526,49.07430614],[-122.19983141,49.07419999],[-122.19958504,49.07406509],[-122.19851054,49.07384327],[-122.19820379,49.07377999],[-122.19797204,49.07373218],[-122.19745624,49.07353884],[-122.19731821,49.07343759],[-122.19719947,49.07335049],[-122.19709837,49.07326305],[-122.19646381,49.07271423],[-122.1964221,49.07267826],[-122.19472572,49.07149119],[-122.19336851,49.07053875],[-122.19318216,49.07030874],[-122.19306086,49.07009368],[-122.19299438,49.06997583],[-122.19286846,49.06947273],[-122.19271267,49.06884811],[-122.19263037,49.06851851],[-122.1926143,49.06826535],[-122.19263984,49.06803641],[-122.1928738,49.06738483],[-122.19290877,49.06722434],[-122.19292803,49.06713595],[-122.19284477,49.06624333],[-122.19279225,49.06603148],[-122.19225385,49.06496546],[-122.19149771,49.06231985],[-122.1914771,49.06224771],[-122.19147634,49.0622395],[-122.19145527,49.06200987],[-122.1914936,49.06181986],[-122.19151344,49.06172147],[-122.19157345,49.06160846],[-122.19164259,49.06147828],[-122.19166306,49.06145798],[-122.19186193,49.06126074],[-122.19218358,49.0610585],[-122.19237681,49.06097264],[-122.19251053,49.06091323],[-122.19253431,49.0609028],[-122.19254138,49.0608997],[-122.1929188,49.06080214],[-122.19279245,49.06080252],[-122.1925628,49.06080321],[-122.19164938,49.0607968],[-122.19165067,49.06049807],[-122.19167372,49.05724589],[-122.18341159,49.05719212],[-122.18341608,49.05693755],[-122.18341216,49.05605952],[-122.18340172,49.05561054],[-122.18339718,49.05540688],[-122.18042964,49.05670291],[-122.17305869,49.06000209],[-122.15920191,49.06844552],[-122.14812945,49.07519627],[-122.13566136,49.08279407],[-122.12552772,49.08908195],[-122.12499671,49.08951349],[-122.12405933,49.09044314],[-122.11890874,49.09719852],[-122.11431299,49.10320085],[-122.10482863,49.11559895],[-122.10210049,49.11918262],[-122.10143522,49.1200407],[-122.10080668,49.12074355],[-122.10027176,49.12118434],[-122.09998655,49.12138516],[-122.0996921,49.12159238],[-122.09905801,49.12193633],[-122.09857858,49.12213714],[-122.09792925,49.12238673],[-122.09718157,49.12263063],[-122.09619963,49.12295108],[-122.09614225,49.12287915],[-122.09607307,49.12279228],[-122.09591345,49.12264701],[-122.09573222,49.12251064],[-122.09556072,49.12237071],[-122.09538889,49.12223043],[-122.09521782,49.12208979],[-122.09506317,49.12194167],[-122.09492828,49.121785],[-122.09478982,49.12162977],[-122.09464197,49.12147844],[-122.09449433,49.12132676],[-122.09435307,49.12117259],[-122.0942103,49.12101914],[-122.09406774,49.12086532],[-122.09394012,49.12070652],[-122.09381606,49.1205463],[-122.09366671,49.12039569],[-122.09351304,49.12024686],[-122.09335904,49.12009767],[-122.09320936,49.11994671],[-122.09306434,49.11979432],[-122.09292104,49.11964086],[-122.0927785,49.11948704],[-122.09263499,49.11933394],[-122.09249094,49.11918084],[-122.09234387,49.11902916],[-122.0921927,49.11887891],[-122.09205969,49.11872189],[-122.09192613,49.11856487],[-122.09178566,49.11841034],[-122.09164313,49.11825653],[-122.09149834,49.11810378],[-122.09134319,49.11795566],[-122.09119936,49.1178022],[-122.09106377,49.1176459],[-122.09093098,49.11748852],[-122.09079593,49.11733221],[-122.09065925,49.11717591],[-122.09051447,49.11702316],[-122.09035803,49.1168754],[-122.09022071,49.11672016],[-122.09007422,49.11656848],[-122.08992307,49.11641823],[-122.08977095,49.11626869],[-122.08961981,49.11611843],[-122.08947278,49.11596675],[-122.08933158,49.11581258],[-122.08919395,49.11565699],[-122.08905556,49.11550175],[-122.08891101,49.11534865],[-122.08876399,49.11519697],[-122.08861491,49.115046],[-122.08847037,49.1148929],[-122.08833967,49.11473481],[-122.08818682,49.11458563],[-122.08803397,49.11443644],[-122.08788868,49.11428369],[-122.08774804,49.11412952],[-122.08761681,49.11397144],[-122.08747336,49.11381833],[-122.08732808,49.11366559],[-122.08718485,49.11351213],[-122.08704779,49.11335653],[-122.08691657,49.11319845],[-122.08678253,49.11304143],[-122.08663683,49.11288939],[-122.08648379,49.11274056],[-122.08634414,49.11258568],[-122.08619077,49.11243649],[-122.08605502,49.11228054],[-122.08590262,49.11213065],[-122.08576579,49.11197469],[-122.08562421,49.11182124],[-122.08545994,49.11167668],[-122.08530767,49.11152749],[-122.0851609,49.11137546],[-122.08501489,49.11122307],[-122.08487169,49.11106961],[-122.08472958,49.11091615],[-122.08458995,49.11076127],[-122.08444092,49.1106103],[-122.08429265,49.11045898],[-122.08414925,49.11030588],[-122.0840106,49.11015028],[-122.08388612,49.10999006],[-122.08375883,49.1098309],[-122.08361543,49.1096778],[-122.08346663,49.10952648],[-122.08331762,49.10937551],[-122.08316634,49.10922561],[-122.08301938,49.10907394],[-122.08287923,49.10891905],[-122.08273887,49.10876453],[-122.08258533,49.1086157],[-122.08244271,49.10846224],[-122.08231099,49.10830415],[-122.08214894,49.10815959],[-122.08199411,49.10801112],[-122.08184792,49.10785909],[-122.08171265,49.10770242],[-122.08158676,49.10756748],[-122.08156949,49.10754896],[-122.08143325,49.10739301],[-122.08130037,49.10723599],[-122.08114954,49.10708538],[-122.08100403,49.10693406],[-122.08088718,49.10677206],[-122.08074533,49.10661824],[-122.08060239,49.10646443],[-122.0804613,49.10631026],[-122.08032825,49.10616178],[-122.08012303,49.10602546],[-122.07939606,49.105251],[-122.07733468,49.10309889],[-122.07732743,49.10309132],[-122.0759984,49.10170367],[-122.07519594,49.10086575],[-122.07343963,49.09903176],[-122.07095419,49.0964361],[-122.07085061,49.09632169],[-122.07077233,49.09623522],[-122.07058861,49.09603231],[-122.06926218,49.09447235],[-122.06911852,49.09430339],[-122.06837718,49.09343149],[-122.06827955,49.09335352],[-122.06826576,49.09334248],[-122.06826159,49.09333918],[-122.06816013,49.09325813],[-122.06799738,49.09312813],[-122.06798725,49.09312002],[-122.06641241,49.09186199],[-122.06623173,49.09168213],[-122.06621989,49.09167038],[-122.06578698,49.09123945],[-122.06553905,49.09099266],[-122.06538789,49.09084219],[-122.06538449,49.0908388],[-122.06521483,49.09066991],[-122.06471748,49.09028689],[-122.06421509,49.0899],[-122.06383802,49.08963415],[-122.06373773,49.08956346],[-122.06373752,49.0895633],[-122.06373731,49.08956314],[-122.0637012,49.0895377],[-122.06369529,49.08953549],[-122.06368814,49.08953281],[-122.0633901,49.0894212],[-122.06301614,49.0892811],[-122.06300883,49.08927834],[-122.06261545,49.08913096],[-122.06259722,49.08912414],[-122.06236312,49.08903643],[-122.06222388,49.08898426],[-122.06196178,49.08888606],[-122.06180043,49.08882561],[-122.06180038,49.08882559],[-122.0609767,49.08864441],[-122.06097649,49.08864437],[-122.06082439,49.08861326],[-122.06029136,49.08850425],[-122.0600009,49.08844487],[-122.05999325,49.08844329],[-122.0595991,49.08836271],[-122.05912503,49.08835326],[-122.05852688,49.08834138],[-122.05848752,49.08834062],[-122.05845967,49.08834005],[-122.05845218,49.08833992],[-122.05829581,49.08833681],[-122.05809461,49.0883328],[-122.05798592,49.08830025],[-122.05793048,49.08828365],[-122.05659849,49.08788454],[-122.05657198,49.0878766],[-122.05649288,49.0878529],[-122.05623997,49.08785408],[-122.05601385,49.08785515],[-122.0553164,49.0878584],[-122.05527379,49.0878586],[-122.05527276,49.0878588],[-122.05527179,49.08785901],[-122.05524419,49.08786463],[-122.05507505,49.08789911],[-122.0541795,49.08808169],[-122.0530338,49.08843338],[-122.0527173,49.08853052],[-122.05187648,49.08878859],[-122.05187634,49.08878857],[-122.05072771,49.08898083],[-122.04980062,49.08917833],[-122.04893244,49.08936327],[-122.0489293,49.08936389],[-122.04891286,49.08936981],[-122.04855987,49.08949698],[-122.04854427,49.08950262],[-122.0483558,49.08957051],[-122.04790975,49.08969799],[-122.04781503,49.08972509],[-122.04732284,49.08986575],[-122.04731478,49.08986804],[-122.04665833,49.09005567],[-122.04629569,49.09015931],[-122.04550485,49.09038531],[-122.04513479,49.09049106],[-122.04431272,49.09072598],[-122.04421473,49.09075398],[-122.04421468,49.090754],[-122.04367041,49.090832],[-122.04211179,49.09105537],[-122.04188458,49.09108794],[-122.04184388,49.09109378],[-122.04167488,49.09111798],[-122.041249,49.09117901],[-122.04116435,49.09119115],[-122.04069171,49.09125888],[-122.0406573,49.09126381],[-122.04063402,49.09126493],[-122.04020471,49.09128551],[-122.03985863,49.09130208],[-122.03951247,49.09131869],[-122.03949666,49.09131945],[-122.03774247,49.0914035],[-122.0370597,49.09143621],[-122.03688417,49.09153495],[-122.03688365,49.09153524],[-122.03688313,49.09153553],[-122.0357844,49.09215352],[-122.03577606,49.09215821],[-122.03438396,49.09294122],[-122.0343753,49.09294607],[-122.03417156,49.09306067],[-122.03417096,49.09306102],[-122.03417033,49.09306134],[-122.03404652,49.09313098],[-122.03404649,49.093131],[-122.03399726,49.09318175],[-122.03388787,49.09329449],[-122.03388578,49.09329664],[-122.03384566,49.09333796],[-122.03384541,49.09333825],[-122.03384516,49.0933385],[-122.03377319,49.09341266],[-122.03376844,49.09341755],[-122.03326848,49.0939328],[-122.03320978,49.09404983],[-122.03313426,49.09420032],[-122.03257415,49.09531665],[-122.03256995,49.095325],[-122.0324574,49.0955493],[-122.03237077,49.095605],[-122.03230179,49.09564934],[-122.03212412,49.09576355],[-122.03209739,49.09578073],[-122.03208914,49.09578605],[-122.03099441,49.09648978],[-122.03093761,49.09652629],[-122.03078664,49.09659289],[-122.02983071,49.09701457],[-122.02958107,49.09712468],[-122.02913136,49.09732305],[-122.02912457,49.09732607],[-122.02893426,49.09741],[-122.02891768,49.09741732],[-122.02836441,49.09766136],[-122.02808998,49.0977824],[-122.02759842,49.09790214],[-122.02598499,49.09829512],[-122.02597489,49.09829757],[-122.0256458,49.09837773],[-122.0255404,49.0984034],[-122.02492203,49.09850106],[-122.02491486,49.09850218],[-122.02386644,49.09866773],[-122.02383559,49.09867261],[-122.02333594,49.09870578],[-122.02236362,49.09877033],[-122.02178805,49.09880857],[-122.02097331,49.09886265],[-122.02074328,49.0988779],[-122.02062834,49.09887882],[-122.01998917,49.09888396],[-122.01932266,49.0988893],[-122.01872565,49.09889409],[-122.01846228,49.0988962],[-122.01770665,49.09887372],[-122.01689685,49.09884963],[-122.01689401,49.09884955],[-122.01373904,49.09875564],[-122.01372401,49.09875519],[-122.0118134,49.09849652],[-122.01134974,49.09843374],[-122.01130639,49.09842786],[-122.01102395,49.09838963],[-122.0108644,49.09836804],[-122.01085638,49.09836695],[-122.0086542,49.09806871],[-122.00865416,49.09806872],[-122.00730715,49.0981532],[-122.00682123,49.09818365],[-122.00680341,49.09818477],[-122.00685628,49.09938646],[-122.00685744,49.09969089],[-122.00685885,49.09999674],[-122.00685959,49.1002125],[-122.00686154,49.10059953],[-122.00687586,49.10383676],[-122.0068713,49.10449565],[-122.00687106,49.10453071],[-122.00686826,49.10495131],[-122.00684607,49.10828172],[-122.00683719,49.10960355],[-122.00681228,49.11330953],[-122.0068111,49.1134986],[-122.00680895,49.11383556],[-122.00680599,49.11429936],[-122.00680367,49.11465007],[-122.00680127,49.11501004],[-122.00679979,49.11520739],[-122.00679755,49.1155046],[-122.00677857,49.11838079],[-121.99999391,49.11836583],[-121.99741762,49.11836014],[-121.99710627,49.11835945],[-121.99517003,49.11835515],[-121.99301112,49.11835017],[-121.99208637,49.11834732],[-121.98730467,49.11835622],[-121.98467702,49.11836082],[-121.98301507,49.1183637],[-121.98221522,49.11836523],[-121.98208375,49.11836548],[-121.97873939,49.11837153],[-121.97751083,49.11837367],[-121.97747129,49.12132214],[-121.97746639,49.12277163],[-121.97746426,49.12288457],[-121.97745981,49.1231202],[-121.97742022,49.12510617],[-121.97740181,49.12603023],[-121.97737384,49.12605158],[-121.97673728,49.12631613],[-121.97589162,49.12672238],[-121.97413577,49.12747152],[-121.97305844,49.12793866],[-121.97247649,49.12816724],[-121.9711911,49.1287679],[-121.96943287,49.12951633],[-121.96792654,49.13016897],[-121.9677739,49.13023057],[-121.96677777,49.13068916],[-121.96556038,49.13119119],[-121.9653812,49.13126169],[-121.96521585,49.13133184],[-121.96517476,49.13134964],[-121.96509629,49.13138631],[-121.96508105,49.13138622],[-121.96487602,49.13138722],[-121.9647967,49.13138774],[-121.96456752,49.1313888],[-121.96351143,49.13139593],[-121.96252959,49.13140613],[-121.96200458,49.13141159],[-121.96161196,49.13138558],[-121.96133822,49.13136744],[-121.96124885,49.13135187],[-121.96108486,49.13132329],[-121.96040901,49.13120473],[-121.96033606,49.13141551],[-121.96012069,49.13168077],[-121.96007601,49.1317648],[-121.95999311,49.1319211],[-121.95995777,49.13256235],[-121.95992679,49.13312242],[-121.95990664,49.13351657],[-121.95987488,49.13438819],[-121.9597197,49.13471861],[-121.95908751,49.13591815],[-121.95898417,49.13628666],[-121.95896436,49.13642481],[-121.95886373,49.13710451],[-121.95875169,49.1380598],[-121.95884255,49.13844586],[-121.95996941,49.14084199],[-121.96181521,49.14437083],[-121.96203863,49.1447429],[-121.96206703,49.14479646],[-121.9619685,49.14481945],[-121.95355904,49.14689987],[-121.94741263,49.14843588],[-121.94000103,49.15026456],[-121.9338246,49.15180876],[-121.92968089,49.15284446],[-121.92498748,49.15401731],[-121.92166685,49.15484696],[-121.9203454,49.15509904],[-121.91931612,49.15521547],[-121.91827314,49.15525998],[-121.91820443,49.15525927],[-121.91369578,49.15525626],[-121.90961934,49.15522841],[-121.90910374,49.15522488],[-121.89653792,49.15515186],[-121.87442067,49.15503317],[-121.8522427,49.15490006],[-121.85222479,49.15489995],[-121.84103925,49.15483198],[-121.83445163,49.1547914],[-121.83012826,49.15477895],[-121.82696432,49.15476926],[-121.82628498,49.15477093],[-121.82456903,49.15489656],[-121.82453854,49.15489879],[-121.82402012,49.15495058],[-121.82385915,49.15496666],[-121.82243657,49.15521712],[-121.82139987,49.15544407],[-121.82026822,49.15575797],[-121.82014315,49.15580232],[-121.81950197,49.15602966],[-121.81921374,49.15613185],[-121.81877037,49.15628905],[-121.81873714,49.15630371],[-121.81753383,49.15683431],[-121.81751739,49.15684156],[-121.8173875,49.15690716],[-121.81540309,49.15790929],[-121.81435297,49.15843238],[-121.81412461,49.15854614],[-121.8117749,49.1597165],[-121.81116544,49.15998801],[-121.81116381,49.15998874],[-121.81116346,49.15998887],[-121.81074387,49.16013592],[-121.81059404,49.16018844],[-121.81055965,49.16019681],[-121.80926008,49.16051344],[-121.80843784,49.16062495],[-121.80838542,49.16063206],[-121.80823116,49.16064136],[-121.80780872,49.16066685],[-121.80699775,49.16068296],[-121.80621001,49.16064271],[-121.80567436,49.16058934],[-121.80561998,49.16058392],[-121.80554193,49.16056999],[-121.80521908,49.16051236],[-121.8045768,49.16039772],[-121.80364019,49.16021888],[-121.80317934,49.16013088],[-121.80278403,49.16008889],[-121.80235847,49.16004369],[-121.80232719,49.16004037],[-121.80162449,49.16001534],[-121.80140176,49.16002723],[-121.80095331,49.16005118],[-121.8004379,49.16010791],[-121.80042533,49.1601093],[-121.799902,49.16019623],[-121.79929647,49.16034914],[-121.79886961,49.16048516],[-121.7987986,49.16051375],[-121.79861528,49.16058754],[-121.79845898,49.16065045],[-121.79782478,49.16095969],[-121.79666721,49.16159682],[-121.78716192,49.16696126],[-121.78659429,49.16738313],[-121.78595778,49.16785617],[-121.78583531,49.16794718],[-121.78577878,49.1679892],[-121.78577852,49.16797798],[-121.78576521,49.16798934],[-121.78576505,49.16798948],[-121.78559769,49.16813223],[-121.78314163,49.17022704],[-121.782444,49.1707367],[-121.78242122,49.17074995],[-121.78208809,49.17094363],[-121.78163358,49.17120788],[-121.78163335,49.17120805],[-121.78125336,49.17134954],[-121.78069877,49.17155604],[-121.77939212,49.17196008],[-121.77837485,49.17227461],[-121.77824797,49.17231384],[-121.77804627,49.17239929],[-121.77793736,49.17244542],[-121.77769809,49.17254676],[-121.77768315,49.17255309],[-121.77703499,49.17287839],[-121.77650469,49.1732515],[-121.77632653,49.17337686],[-121.77596037,49.1737649],[-121.77498361,49.17469162],[-121.77463283,49.17502449],[-121.77451607,49.1751353],[-121.77448189,49.17516051],[-121.77423672,49.17534133],[-121.7732849,49.17598949],[-121.77325975,49.17600661],[-121.77282553,49.17623248],[-121.77227171,49.17652056],[-121.77223626,49.176539],[-121.77194979,49.17666448],[-121.76831246,49.17814582],[-121.76801575,49.17826672],[-121.76567043,49.17922228],[-121.76448949,49.1797034],[-121.76173199,49.18083211],[-121.75753862,49.18255376],[-121.75483334,49.18366687],[-121.74768288,49.18673221],[-121.74585711,49.18751835],[-121.74330505,49.18880528],[-121.74163416,49.18979493],[-121.74069321,49.19044959],[-121.74000307,49.19099993],[-121.7385448,49.19197201],[-121.73851571,49.19199091],[-121.73763465,49.19269985],[-121.73627257,49.19391165],[-121.73548416,49.19448238],[-121.73310635,49.1959412],[-121.72921397,49.19804608],[-121.72881326,49.19827732],[-121.72387484,49.2011193],[-121.72362247,49.20092583],[-121.72338056,49.20074037],[-121.72155755,49.19934317],[-121.72127817,49.19912848],[-121.72079527,49.19980747],[-121.71995302,49.20006525],[-121.71664226,49.20015141],[-121.71592244,49.20086921],[-121.71563351,49.20115655],[-121.71401397,49.20338188],[-121.71114681,49.2055367],[-121.70998599,49.20567307],[-121.70888439,49.20554169],[-121.70658811,49.20671346],[-121.70693753,49.20698258],[-121.70879098,49.20841005],[-121.70892255,49.20851125],[-121.7086443,49.20879611],[-121.70842369,49.20902196],[-121.70619852,49.2112332],[-121.70510761,49.2121822],[-121.70288471,49.21357394],[-121.70161251,49.2141244],[-121.70010524,49.21462252],[-121.6962196,49.21536918],[-121.69486698,49.21584478],[-121.69345366,49.21650403],[-121.6926359,49.21716895],[-121.69156509,49.21836675],[-121.69003774,49.22025248],[-121.68812531,49.22340156],[-121.68723145,49.22488315],[-121.68657625,49.22583033],[-121.68522177,49.22744218],[-121.68381995,49.22922309],[-121.6818633,49.23368247],[-121.68168271,49.23413807],[-121.68114142,49.23710098],[-121.68078156,49.23780229],[-121.68041523,49.23833872],[-121.679091,49.23978867],[-121.67859129,49.24049152],[-121.67822406,49.24127125],[-121.67793984,49.24244796],[-121.67806441,49.24652066],[-121.67813153,49.24829834],[-121.6789869,49.25098556],[-121.67939779,49.2525098],[-121.67977552,49.25376551],[-121.67943372,49.25493512],[-121.67848541,49.25636671],[-121.67843938,49.25668042],[-121.67792108,49.25773734],[-121.67703953,49.25907616],[-121.67652906,49.25990739],[-121.67598147,49.26098047],[-121.67573103,49.26214418],[-121.67583433,49.26314316],[-121.67599267,49.26413718],[-121.67575296,49.26623889],[-121.6756607,49.26699384],[-121.6759832,49.26915387],[-121.67603499,49.26988596],[-121.67597736,49.27062081],[-121.6755386,49.27146206],[-121.67496241,49.27225485],[-121.67297821,49.27432951],[-121.67217129,49.27537068],[-121.67181633,49.27601488],[-121.67158524,49.27673561],[-121.67147202,49.27829844],[-121.67136658,49.28036255],[-121.67134056,49.28054759],[-121.67117449,49.28115641],[-121.67085144,49.28180904],[-121.66952587,49.28372398],[-121.66929627,49.28419428],[-121.66908131,49.28485839],[-121.66899683,49.28693049],[-121.66892042,49.28751428],[-121.66887531,49.28811365],[-121.6687647,49.28859587],[-121.66848288,49.2891571],[-121.66797342,49.28981655],[-121.66726942,49.29045386],[-121.66641086,49.29099193],[-121.66539039,49.29139228],[-121.66328355,49.29211873],[-121.66036142,49.29310534],[-121.65915727,49.29367255],[-121.65929797,49.29371724],[-121.65955497,49.29379888],[-121.65967938,49.29384263],[-121.65988587,49.29391524],[-121.6602121,49.29402995],[-121.65987721,49.29416988],[-121.65963905,49.29433794],[-121.659626,49.2943561],[-121.65954679,49.29443282],[-121.65947012,49.29450706],[-121.65939782,49.294668],[-121.65939318,49.29483112],[-121.66744303,49.29482573]]]},"geometry_name":"SHAPE","properties":{"id":270,"slug":"chilliwack-north","name":"Chilliwack North","abbreviation":"CHN","gazetteDate":"2023-12-07Z","boundarySet":11},"bbox":[-122.22102203,49.05540688,-121.65915727,49.29483112]}
