{"type":"Feature","id":276,"geometry":{"type":"Polygon","coordinates":[[[-122.92008345,49.19401307],[-122.9235338,49.19150646],[-122.92818695,49.1881261],[-122.93041472,49.18650713],[-122.93177414,49.18551944],[-122.93407772,49.18384528],[-122.93560584,49.18273476],[-122.93851684,49.18144993],[-122.94334213,49.17931986],[-122.94625513,49.17842902],[-122.95085377,49.17702225],[-122.95517009,49.17570166],[-122.95533922,49.17565003],[-122.95725289,49.17506432],[-122.95766387,49.17482612],[-122.95786069,49.17470079],[-122.95809329,49.17455018],[-122.95817916,49.17449464],[-122.95825141,49.17444764],[-122.95864695,49.1741984],[-122.9588507,49.17407806],[-122.95906207,49.17396341],[-122.95949745,49.17374337],[-122.95992188,49.17351585],[-122.9603079,49.17325949],[-122.96064045,49.17297394],[-122.96095213,49.17267735],[-122.96125727,49.17237791],[-122.9614096,49.17222765],[-122.96170059,49.17192252],[-122.96183374,49.17176585],[-122.96205037,49.17143472],[-122.96216189,49.17127023],[-122.96243478,49.17095868],[-122.96272721,49.1706539],[-122.96302317,49.17035054],[-122.9634335,49.1698834],[-122.96361829,49.16954231],[-122.9638735,49.16922934],[-122.9642136,49.1689477],[-122.96439198,49.16880991],[-122.9647582,49.16853966],[-122.9653325,49.16815192],[-122.96554283,49.1680362],[-122.96622916,49.16773676],[-122.96647462,49.16765558],[-122.96698156,49.16752028],[-122.96749366,49.16739211],[-122.96800909,49.16726856],[-122.96826771,49.16720803],[-122.96904536,49.16703],[-122.96956505,49.16691322],[-122.97008454,49.16679679],[-122.97060532,49.16668285],[-122.97112901,49.16657425],[-122.97165399,49.16646815],[-122.97217862,49.16636169],[-122.97270183,49.16625203],[-122.97296201,49.16619541],[-122.97347877,49.16607614],[-122.97423785,49.16587069],[-122.97472948,49.16571083],[-122.97521786,49.16554526],[-122.97546364,49.16546444],[-122.97621002,49.16523656],[-122.97670864,49.16508631],[-122.97720794,49.16493677],[-122.97770873,49.16478936],[-122.97820555,49.16464702],[-122.97846304,49.16457324],[-122.97871519,49.1645031],[-122.97947818,49.16430122],[-122.97999403,49.16417873],[-122.98025325,49.16411998],[-122.98103374,49.1639473],[-122.98155237,49.16382945],[-122.98206624,49.16370376],[-122.98232213,49.16363753],[-122.98282691,49.16349547],[-122.98331715,49.16333418],[-122.98355966,49.16324481],[-122.98400675,49.16303545],[-122.98418753,49.16290478],[-122.98433213,49.16274989],[-122.98464459,49.16224822],[-122.98473143,49.16207731],[-122.98489907,49.16173372],[-122.9850808,49.16139405],[-122.9852943,49.16106256],[-122.98553426,49.16073713],[-122.98580741,49.16042594],[-122.98596365,49.16027925],[-122.9861377,49.16014039],[-122.98650749,49.15987228],[-122.98721864,49.15932396],[-122.98739568,49.15918652],[-122.98772223,49.15893301],[-122.98809344,49.15866811],[-122.98846656,49.15840463],[-122.98865305,49.15827254],[-122.98902269,49.15800657],[-122.98938445,49.15773632],[-122.98973328,49.15745824],[-122.98990189,49.15731654],[-122.99023209,49.1570292],[-122.99039614,49.156885],[-122.99089706,49.15645703],[-122.99107042,49.15631745],[-122.99142415,49.15604223],[-122.99177679,49.155767],[-122.99195803,49.1556317],[-122.99234004,49.15537356],[-122.9927614,49.15514355],[-122.9934112,49.15486966],[-122.98864085,49.1557378],[-122.97777178,49.15714634],[-122.97595897,49.15734858],[-122.97130691,49.15767472],[-122.96849641,49.15759354],[-122.96536785,49.15731582],[-122.96220311,49.15692701],[-122.95827522,49.15655601],[-122.95493357,49.15603119],[-122.95351779,49.15603546],[-122.95097552,49.15629039],[-122.94827828,49.15688999],[-122.94584598,49.15808062],[-122.94474985,49.15875962],[-122.94284128,49.1596763],[-122.94273271,49.15972844],[-122.94206298,49.15808098],[-122.94148942,49.15666963],[-122.94147194,49.15662662],[-122.94144756,49.15656661],[-122.94142669,49.15651525],[-122.94137333,49.15638349],[-122.94071241,49.15473623],[-122.93972862,49.1523799],[-122.93943429,49.15167489],[-122.93850761,49.14945348],[-122.93774525,49.14762835],[-122.93679092,49.14529336],[-122.93677077,49.14525053],[-122.93625041,49.14414487],[-122.93622414,49.14408905],[-122.93579994,49.14318767],[-122.9357971,49.14318126],[-122.93506901,49.14134403],[-122.93469576,49.14073126],[-122.9336366,49.13954311],[-122.93103391,49.1367862],[-122.92979109,49.13546988],[-122.92923984,49.13482649],[-122.92881728,49.13402893],[-122.92856378,49.13307614],[-122.92844244,49.13181892],[-122.9281959,49.12902106],[-122.92778607,49.12344492],[-122.92770511,49.12234009],[-122.92766351,49.12177504],[-122.92761932,49.12143785],[-122.92751607,49.12102768],[-122.92723908,49.12014859],[-122.926874,49.11946924],[-122.92671178,49.11945504],[-122.92666969,49.11944933],[-122.92663524,49.11944554],[-122.92654731,49.11943592],[-122.92647515,49.11942656],[-122.9263543,49.11941091],[-122.92609217,49.11937702],[-122.92549063,49.11923245],[-122.92544914,49.1192225],[-122.92464798,49.11901207],[-122.92417221,49.11900317],[-122.92410387,49.11900281],[-122.92398184,49.11900213],[-122.92391245,49.11900174],[-122.92381432,49.11900129],[-122.92377728,49.1190011],[-122.92370634,49.11900067],[-122.9233777,49.1189989],[-122.92279344,49.11899605],[-122.92207189,49.11899071],[-122.92194166,49.11900072],[-122.92182653,49.11900958],[-122.92174522,49.11901568],[-122.92170313,49.11901883],[-122.92074187,49.11919686],[-122.91997425,49.1192289],[-122.91994609,49.1192294],[-122.91854006,49.11924991],[-122.91769661,49.11926914],[-122.91035456,49.11933786],[-122.90900256,49.11935312],[-122.90659866,49.11938023],[-122.9031473,49.11941619],[-122.9014706,49.11946426],[-122.89928453,49.11944859],[-122.89914316,49.11944752],[-122.89907807,49.11945001],[-122.89906025,49.11945073],[-122.89859822,49.11946888],[-122.89850694,49.11947244],[-122.89809741,49.11938537],[-122.89802598,49.1193991],[-122.89799796,49.11940052],[-122.89756285,49.11942011],[-122.89741941,49.11941888],[-122.89718661,49.1194169],[-122.89598152,49.11940764],[-122.89506128,49.11939439],[-122.89316574,49.11936705],[-122.89213065,49.11934605],[-122.89197896,49.11934283],[-122.89179475,49.11933892],[-122.89048668,49.11932212],[-122.89040909,49.11932112],[-122.89040815,49.11938486],[-122.89037994,49.12194096],[-122.89036783,49.12300484],[-122.89036688,49.12411822],[-122.89036159,49.12487768],[-122.89036555,49.12671989],[-122.8903652,49.12865361],[-122.8903652,49.12891068],[-122.8903644,49.13036231],[-122.89036104,49.13109613],[-122.89035436,49.13252141],[-122.89034507,49.13399938],[-122.89034428,49.13403748],[-122.89034543,49.13403926],[-122.89034405,49.13407273],[-122.8903522,49.13571377],[-122.89035863,49.13706214],[-122.89035818,49.1390482],[-122.89035783,49.14017867],[-122.89036195,49.14229576],[-122.8903699,49.14495796],[-122.89037489,49.14677062],[-122.89038041,49.14860144],[-122.89038062,49.15225988],[-122.89037923,49.15439762],[-122.89037776,49.15598205],[-122.89036827,49.15742015],[-122.89035624,49.15958459],[-122.89034642,49.16157563],[-122.89034447,49.16197726],[-122.89034322,49.16202284],[-122.8903426,49.16206165],[-122.89033901,49.16320885],[-122.89033871,49.16325656],[-122.89028388,49.16681281],[-122.89028276,49.16818076],[-122.89028169,49.16917771],[-122.89027718,49.17045166],[-122.89024443,49.17137241],[-122.89023024,49.17296931],[-122.89020052,49.17402002],[-122.89018459,49.17504687],[-122.89018217,49.17610043],[-122.89016601,49.17714295],[-122.89021959,49.1771426],[-122.89332195,49.1771369],[-122.89404914,49.17713583],[-122.89568277,49.17713263],[-122.8965079,49.17713833],[-122.90119217,49.17712373],[-122.9067972,49.17712088],[-122.90859816,49.17712124],[-122.90954234,49.17711411],[-122.90967775,49.17711533],[-122.90999268,49.17711606],[-122.9101983,49.17711661],[-122.91214679,49.17712088],[-122.91298498,49.17712296],[-122.9131897,49.17712343],[-122.91329115,49.17712366],[-122.91336055,49.17712382],[-122.91350329,49.17712411],[-122.91401466,49.17712515],[-122.91482409,49.17712408],[-122.91576913,49.17712302],[-122.91696683,49.17712302],[-122.92281648,49.17712195],[-122.91442531,49.19195936],[-122.91650173,49.19356572],[-122.91854601,49.19514707],[-122.92008345,49.19401307]]]},"geometry_name":"SHAPE","properties":{"id":276,"slug":"delta-north","name":"Delta North","abbreviation":"DLN","gazetteDate":"2023-12-07Z","boundarySet":11},"bbox":[-122.9934112,49.11899071,-122.89016601,49.19514707]}
