{"type":"Feature","id":277,"geometry":{"type":"Polygon","coordinates":[[[-122.94273271,49.15972844],[-122.94284128,49.1596763],[-122.94474985,49.15875962],[-122.94584598,49.15808062],[-122.94827828,49.15688999],[-122.95097552,49.15629039],[-122.95351779,49.15603546],[-122.95493357,49.15603119],[-122.95827522,49.15655601],[-122.96220311,49.15692701],[-122.96536785,49.15731582],[-122.96849641,49.15759354],[-122.97130691,49.15767472],[-122.97595897,49.15734858],[-122.97777178,49.15714634],[-122.98864085,49.1557378],[-122.9934112,49.15486966],[-122.99369081,49.15476186],[-122.99393179,49.15467605],[-122.99442182,49.15451405],[-122.99464337,49.15444497],[-122.99517035,49.15428973],[-122.99542232,49.15421888],[-122.99593108,49.15408394],[-122.99619086,49.15402697],[-122.99698686,49.15388953],[-122.9975199,49.15380515],[-122.99804778,49.15370795],[-122.9985735,49.15360505],[-122.99910158,49.15350749],[-122.99962824,49.15340673],[-123.00014961,49.15329528],[-123.00040701,49.15323297],[-123.00090998,49.15308913],[-123.00138464,49.15290932],[-123.00180765,49.15268109],[-123.00200526,49.15255612],[-123.0023881,49.15229833],[-123.00298799,49.15192911],[-123.00343268,49.15171904],[-123.00390786,49.15153923],[-123.00415785,49.15146517],[-123.00468014,49.15135586],[-123.0052166,49.15128252],[-123.00603279,49.15121309],[-123.00630554,49.151196],[-123.00712718,49.15116822],[-123.00767541,49.15117855],[-123.00849172,49.15124335],[-123.00903171,49.1513078],[-123.00956923,49.15137936],[-123.01010656,49.15145129],[-123.01064634,49.15151609],[-123.0117331,49.15161329],[-123.01227755,49.15165673],[-123.01282413,49.15168699],[-123.01364641,49.15168557],[-123.01418529,49.15162219],[-123.01468699,49.15147763],[-123.01516567,49.1513021],[-123.01540681,49.15121594],[-123.01611324,49.15093964],[-123.01657275,49.15074345],[-123.01727951,49.15046751],[-123.01752635,49.15038847],[-123.01830644,49.15022077],[-123.01911995,49.15014173],[-123.01966599,49.1501047],[-123.02047896,49.1500228],[-123.02100453,49.14992097],[-123.02150988,49.1497814],[-123.02200028,49.14962046],[-123.0222412,49.14953466],[-123.02271767,49.14935627],[-123.02295472,49.14926584],[-123.02342915,49.14908532],[-123.02366823,49.14899702],[-123.02415325,49.14882932],[-123.02440055,49.14875134],[-123.02490656,49.14861248],[-123.02542676,49.14849819],[-123.02595584,49.14840348],[-123.02649021,49.1483223],[-123.02675828,49.14828491],[-123.02756444,49.14817596],[-123.02809982,49.1480987],[-123.02863378,49.14801538],[-123.02916869,49.14793705],[-123.02970488,49.14786121],[-123.03024114,49.1477843],[-123.03077529,49.14770348],[-123.0320964,49.14746279],[-123.03261847,49.14735277],[-123.03287954,49.14729722],[-123.0333995,49.14718329],[-123.03365915,49.14712454],[-123.03417524,49.14700312],[-123.03468712,49.14687388],[-123.03519323,49.14673573],[-123.03544417,49.14666274],[-123.03593886,49.1465075],[-123.03642336,49.14633873],[-123.03689298,49.14615323],[-123.03734988,49.14595384],[-123.03801512,49.14563624],[-123.03844973,49.14541691],[-123.0386654,49.14530582],[-123.03909606,49.14508293],[-123.03952862,49.14486147],[-123.03996526,49.14464428],[-123.04040625,49.14442993],[-123.04084737,49.1442163],[-123.04106664,49.14410842],[-123.04150211,49.14388945],[-123.0417171,49.14377765],[-123.04234356,49.143428],[-123.04274116,49.14318019],[-123.04293433,49.14305237],[-123.04331521,49.14279387],[-123.04350313,49.14266285],[-123.04387531,49.14239865],[-123.04424279,49.14213126],[-123.0444246,49.14199667],[-123.0447863,49.14172607],[-123.04514501,49.14145405],[-123.04568029,49.14104423],[-123.04603709,49.14077078],[-123.04621556,49.14063442],[-123.04657393,49.14036204],[-123.0469344,49.14009072],[-123.04721779,49.13988065],[-123.04751197,49.13957694],[-123.04765828,49.13942455],[-123.04794981,49.13911977],[-123.04824133,49.13881499],[-123.04838655,49.1386626],[-123.04867774,49.13835746],[-123.04882316,49.13820471],[-123.04911469,49.13789993],[-123.04926079,49.1377479],[-123.04970128,49.1372918],[-123.04999634,49.13698844],[-123.0501451,49.13683747],[-123.05044369,49.13653554],[-123.05059422,49.13638529],[-123.05089703,49.13608549],[-123.05104932,49.13593595],[-123.05135342,49.1356358],[-123.05150503,49.13548554],[-123.05180866,49.13518432],[-123.05196082,49.13503407],[-123.05226676,49.13473356],[-123.05257549,49.13443483],[-123.05273152,49.13428636],[-123.05304779,49.13399155],[-123.05320837,49.13384557],[-123.05353388,49.13355645],[-123.05370024,49.13341367],[-123.05403867,49.13313239],[-123.05421128,49.13299389],[-123.05456596,49.13272222],[-123.05493953,49.13245839],[-123.05513362,49.13232985],[-123.05553403,49.1320799],[-123.05594954,49.13184063],[-123.05637883,49.13161241],[-123.05681892,49.13139664],[-123.05726865,49.1311944],[-123.05749983,49.13110076],[-123.05798066,49.13093341],[-123.05848025,49.13078458],[-123.05899022,49.13064608],[-123.05950155,49.130509],[-123.05975555,49.13043814],[-123.06025458,49.13028647],[-123.06098017,49.13003118],[-123.0614627,49.12985422],[-123.06193708,49.12966872],[-123.06239549,49.12946933],[-123.0628297,49.12925142],[-123.06303539,49.12913392],[-123.06343291,49.12888896],[-123.06382214,49.12863759],[-123.064393,49.12825092],[-123.06458034,49.12811989],[-123.06495264,49.12785534],[-123.0651376,49.12772182],[-123.06550576,49.12745407],[-123.06587269,49.12718561],[-123.06642445,49.12678291],[-123.06660907,49.12664904],[-123.06698123,49.12638378],[-123.0673574,49.12612101],[-123.06754718,49.12599141],[-123.06773921,49.12586358],[-123.06793219,49.12573505],[-123.06832411,49.12548368],[-123.06872005,49.1252348],[-123.06912088,49.12498876],[-123.0695266,49.12474558],[-123.06993647,49.1245056],[-123.07035061,49.12426954],[-123.07076943,49.12403668],[-123.07098109,49.12392203],[-123.07140657,49.12369558],[-123.07183721,49.1234734],[-123.07227485,49.12325799],[-123.07294662,49.12294752],[-123.07317314,49.12284675],[-123.07363109,49.12264808],[-123.0740914,49.12245189],[-123.07478463,49.12215993],[-123.07524596,49.12196481],[-123.07547594,49.12186654],[-123.07553153,49.12184268],[-123.07558787,49.12181847],[-123.07564795,49.12179248],[-123.07593448,49.12166964],[-123.0763975,49.12147631],[-123.0768629,49.12128546],[-123.07732775,49.12109462],[-123.07802136,49.12080479],[-123.07825045,49.12070617],[-123.07870423,49.12050428],[-123.07892782,49.12040103],[-123.07937609,49.12019167],[-123.07959894,49.12008592],[-123.08004109,49.11987016],[-123.08025898,49.11975978],[-123.08068516,49.11953297],[-123.08089258,49.11941619],[-123.08129349,49.11917372],[-123.08167055,49.11891309],[-123.08201832,49.11863145],[-123.08217967,49.11848404],[-123.08233307,49.11833343],[-123.08261138,49.11802402],[-123.08273718,49.11786558],[-123.0829688,49.11754086],[-123.08307639,49.1173753],[-123.08328129,49.11704025],[-123.08338073,49.11687184],[-123.08357925,49.11653466],[-123.08378375,49.11620032],[-123.08398839,49.1158667],[-123.08418861,49.1155313],[-123.08438775,49.1151959],[-123.08459151,49.11486192],[-123.08480418,49.11453044],[-123.08488791,49.11440546],[-123.08502983,49.11420287],[-123.08527097,49.11387957],[-123.08551939,49.11355877],[-123.08576836,49.11323797],[-123.08589036,49.11307668],[-123.08612437,49.1127516],[-123.08623604,49.11258746],[-123.08645123,49.11225633],[-123.08666071,49.11192378],[-123.08687216,49.11159158],[-123.0869801,49.11142637],[-123.08720542,49.11109845],[-123.08732138,49.11093538],[-123.08743767,49.11077266],[-123.08767421,49.11044794],[-123.08791394,49.11012429],[-123.08815652,49.10980135],[-123.08840264,49.10947984],[-123.0885273,49.10931961],[-123.08878103,49.10900095],[-123.08891765,49.10884357],[-123.08905216,49.10868798],[-123.08932824,49.10837679],[-123.08946282,49.10822012],[-123.08971513,49.1079011],[-123.08994793,49.10757531],[-123.09016986,49.10724667],[-123.09038758,49.1069159],[-123.09049552,49.10675069],[-123.09071447,49.10642063],[-123.09094177,49.10609307],[-123.09098217,49.10603788],[-123.09117853,49.10576799],[-123.0912968,49.10560563],[-123.09152553,49.10527842],[-123.09173286,49.10494586],[-123.09191362,49.10460655],[-123.09207637,49.1042626],[-123.09215436,49.10408992],[-123.09231032,49.10374454],[-123.09247559,49.10340095],[-123.09265955,49.1030627],[-123.09276091,49.10289572],[-123.09297077,49.10256352],[-123.09307817,49.10239831],[-123.09329782,49.10206896],[-123.09340971,49.10190447],[-123.09363615,49.10157654],[-123.09375015,49.10141311],[-123.09386469,49.10124969],[-123.09409487,49.10092283],[-123.09432471,49.10059562],[-123.09455237,49.10026841],[-123.09483698,49.0998326],[-123.09493747,49.09966525],[-123.09513701,49.09933021],[-123.09523715,49.09916251],[-123.09543812,49.09882782],[-123.09564337,49.0984942],[-123.09585324,49.098162],[-123.09595998,49.09799608],[-123.09549319,49.09359848],[-123.09549721,49.09196491],[-123.09542865,49.08998099],[-123.10216875,49.08783328],[-123.10307357,49.08762836],[-123.10324359,49.08758986],[-123.10452377,49.08729991],[-123.10622103,49.0869033],[-123.10708656,49.08670103],[-123.10794501,49.08655719],[-123.10820655,49.08650129],[-123.10899766,49.08635352],[-123.10953121,49.08626985],[-123.10980019,49.08623318],[-123.11061121,49.08614915],[-123.11115637,49.08610963],[-123.11170436,49.08608221],[-123.11225245,49.08606975],[-123.11279875,49.08607367],[-123.11307301,49.08608079],[-123.11334719,49.08609182],[-123.11362131,49.08610678],[-123.11416706,49.08614951],[-123.11497134,49.08625134],[-123.11523541,49.08629798],[-123.11575923,49.08640444],[-123.11601995,49.0864607],[-123.11654255,49.08657214],[-123.11680518,49.08662412],[-123.11733495,49.08671741],[-123.1176012,49.0867612],[-123.11813726,49.08683597],[-123.11867859,49.08688831],[-123.11922272,49.08693389],[-123.12004226,49.08699121],[-123.12058873,49.08701756],[-123.12086218,49.08702611],[-123.12140822,49.08703145],[-123.12195396,49.0870108],[-123.12250019,49.08697412],[-123.12304644,49.0869346],[-123.12331972,49.08691787],[-123.12386641,49.08689935],[-123.1241398,49.08689757],[-123.12468841,49.08690505],[-123.12523578,49.08692606],[-123.12550868,49.0869403],[-123.126052,49.08698445],[-123.12659245,49.08704498],[-123.12700162,49.08708984],[-123.12727027,49.08712473],[-123.12780942,49.08719131],[-123.12807759,49.08722799],[-123.12860699,49.08731914],[-123.12886991,49.08737255],[-123.12938356,49.08749966],[-123.12987323,49.08766095],[-123.13034249,49.08785215],[-123.13056089,49.08796039],[-123.13094504,49.08821176],[-123.13111372,49.08835454],[-123.13144183,49.08864579],[-123.13161187,49.08878714],[-123.13194496,49.08907448],[-123.13229132,49.08935291],[-123.13247953,49.08948251],[-123.13288352,49.08972498],[-123.13331117,49.08995179],[-123.13375102,49.09016684],[-123.13397502,49.0902701],[-123.13443032,49.09047056],[-123.13488984,49.09066745],[-123.13511903,49.09076644],[-123.13557182,49.09096939],[-123.13601163,49.09118266],[-123.1362283,49.09129304],[-123.13644382,49.09140448],[-123.13665763,49.09151699],[-123.13708024,49.091747],[-123.13749448,49.09198307],[-123.13769858,49.09210306],[-123.13809807,49.09234873],[-123.13848356,49.09260367],[-123.13867175,49.09273434],[-123.13904038,49.09300066],[-123.13922286,49.09313561],[-123.1395847,49.09340621],[-123.13994825,49.09367574],[-123.14031126,49.09394527],[-123.14067183,49.09421623],[-123.14085099,49.09435224],[-123.14120912,49.09462462],[-123.14156651,49.09489736],[-123.14174568,49.09503337],[-123.14210383,49.09530575],[-123.1422828,49.09544212],[-123.14263966,49.09571485],[-123.14281789,49.09585158],[-123.14317307,49.09612538],[-123.14352689,49.09640061],[-123.14369948,49.09654054],[-123.14403903,49.0968236],[-123.14421109,49.09696353],[-123.14457513,49.09723235],[-123.14477664,49.09735697],[-123.14499869,49.09746093],[-123.14523972,49.09754318],[-123.14549239,49.09761368],[-123.14600984,49.0977383],[-123.14652913,49.09785401],[-123.14705217,49.09796225],[-123.14731403,49.09801673],[-123.14808784,49.09819689],[-123.14883771,49.09841693],[-123.14932552,49.09858285],[-123.14956514,49.09867044],[-123.15026808,49.09894959],[-123.15095744,49.09924297],[-123.15141316,49.09944308],[-123.15164034,49.09954384],[-123.15209505,49.09974572],[-123.15267583,49.09999994],[-123.15288554,49.10011601],[-123.15351434,49.10046388],[-123.15414377,49.10081067],[-123.1543537,49.10092639],[-123.15477321,49.10115747],[-123.15519308,49.1013889],[-123.15582193,49.10173677],[-123.15665829,49.10220177],[-123.15707532,49.10243534],[-123.15749086,49.10266962],[-123.15790526,49.10290497],[-123.1581112,49.10302389],[-123.15851968,49.10326387],[-123.15892573,49.10350528],[-123.15933042,49.10374811],[-123.15953297,49.10386916],[-123.15993883,49.10411092],[-123.1603468,49.1043509],[-123.16075892,49.10458839],[-123.16096624,49.10470589],[-123.16138048,49.10494159],[-123.16179514,49.10517659],[-123.16200301,49.10529408],[-123.16242074,49.10552659],[-123.16263147,49.10564195],[-123.16305566,49.10586982],[-123.16326932,49.10598198],[-123.1637027,49.10620237],[-123.16414356,49.10641636],[-123.16436736,49.10652033],[-123.16481925,49.10672363],[-123.16504767,49.10682333],[-123.16550616,49.10701987],[-123.1659671,49.10721499],[-123.1661973,49.10731254],[-123.16665655,49.10750873],[-123.16688519,49.10760807],[-123.16733901,49.10780995],[-123.1677861,49.10801788],[-123.16822837,49.10823045],[-123.16866759,49.1084455],[-123.16888625,49.10855374],[-123.16932255,49.108772],[-123.16953951,49.10888131],[-123.16997392,49.109101],[-123.17019048,49.10921102],[-123.17062415,49.10943106],[-123.17105857,49.10965074],[-123.17127609,49.10976005],[-123.17171262,49.10997795],[-123.17193151,49.11008584],[-123.17237152,49.11030054],[-123.1728129,49.11051381],[-123.17303328,49.11062098],[-123.17347392,49.11083462],[-123.17369431,49.11094179],[-123.1741355,49.11115542],[-123.17446596,49.11144275],[-123.17478603,49.11173685],[-123.17510039,49.11203522],[-123.17525703,49.11218441],[-123.17557331,49.11248136],[-123.17573411,49.11262805],[-123.17606311,49.1129161],[-123.17623356,49.11305638],[-123.17677286,49.11345694],[-123.1771617,49.11370796],[-123.17736533,49.11383115],[-123.17778851,49.11406971],[-123.17823297,49.11429295],[-123.17846251,49.11439656],[-123.17893566,49.11458491],[-123.17942688,49.11474265],[-123.17967843,49.1148078],[-123.18045014,49.11497159],[-123.18071169,49.1150193],[-123.18123959,49.11510724],[-123.18150542,49.11514748],[-123.18177294,49.11518379],[-123.18231138,49.11525714],[-123.18312475,49.11535577],[-123.18394146,49.11545048],[-123.18448575,49.11551457],[-123.18502855,49.11558222],[-123.18583746,49.11569437],[-123.18689896,49.1158756],[-123.18741997,49.1159842],[-123.18793766,49.11609956],[-123.18819542,49.11615867],[-123.1889668,49.1163431],[-123.18947866,49.11647057],[-123.18973371,49.11653537],[-123.19049763,49.11673476],[-123.1907514,49.11680276],[-123.19085838,49.1168316],[-123.19125865,49.1169402],[-123.19176489,49.11707942],[-123.19201743,49.11714956],[-123.19252225,49.11729127],[-123.19302701,49.11743405],[-123.19327874,49.11750561],[-123.1937831,49.1176491],[-123.19403484,49.11772067],[-123.19453865,49.11786416],[-123.19504268,49.11800729],[-123.19529462,49.1180785],[-123.19579946,49.11822021],[-123.19605202,49.11829035],[-123.19655755,49.11842992],[-123.1970641,49.11856772],[-123.19757146,49.11870408],[-123.19808013,49.1188401],[-123.19858865,49.1189754],[-123.19909678,49.11911141],[-123.1996045,49.11924813],[-123.19985843,49.11931685],[-123.20036439,49.11945571],[-123.20086968,49.11959671],[-123.2011211,49.11966792],[-123.20162272,49.11981247],[-123.20212231,49.11996059],[-123.20261879,49.12011227],[-123.20286567,49.12018953],[-123.20335719,49.12034798],[-123.20384579,49.12050963],[-123.20409023,49.12059116],[-123.20457885,49.12075566],[-123.20482248,49.12083862],[-123.20555094,49.12109177],[-123.20579315,49.12117722],[-123.20627485,49.12135098],[-123.20675419,49.12152794],[-123.20722986,49.12170845],[-123.20770146,49.12189324],[-123.20816866,49.12208195],[-123.20840042,49.12217809],[-123.20886008,49.12237427],[-123.20931384,49.12257508],[-123.20976163,49.12278159],[-123.20998321,49.12288699],[-123.21042449,49.12309919],[-123.21086285,49.12331461],[-123.2112985,49.12353287],[-123.21173184,49.12375326],[-123.21194747,49.12386435],[-123.2123779,49.12408795],[-123.2130199,49.12442691],[-123.21344573,49.12465479],[-123.21387041,49.12488373],[-123.21429415,49.12511338],[-123.21471729,49.1253441],[-123.21513988,49.12557483],[-123.21556208,49.12580626],[-123.21598448,49.12603734],[-123.2164071,49.12626806],[-123.21661813,49.12638342],[-123.21704116,49.12661343],[-123.21746515,49.12684273],[-123.21767701,49.12695666],[-123.21810277,49.12718383],[-123.21852914,49.12740992],[-123.21895783,49.12763388],[-123.21938775,49.1278557],[-123.21981977,49.12807574],[-123.22025398,49.12829293],[-123.2206909,49.12850727],[-123.22113055,49.12871877],[-123.22135641,49.12881775],[-123.2218467,49.12897299],[-123.22237179,49.12908728],[-123.22264069,49.12913571],[-123.22317908,49.12922863],[-123.22370715,49.12932726],[-123.22423812,49.12941699],[-123.22477215,49.12949852],[-123.2250398,49.12953769],[-123.225308,49.12957685],[-123.22824429,49.13003972],[-123.22951797,49.13003901],[-123.23044841,49.12992757],[-123.23936952,49.12807146],[-123.24724513,49.12562004],[-123.25627139,49.12171591],[-123.30858097,49.0990621],[-123.31707515,49.09933768],[-123.31607369,49.12189863],[-123.32429045,49.12192114],[-123.42948929,49.12215387],[-123.42913223,49.12188078],[-123.42895352,49.12174406],[-123.42877516,49.12160769],[-123.42841756,49.1213346],[-123.42681087,49.12010622],[-123.42627497,49.11969676],[-123.42609664,49.11956039],[-123.42413262,49.11805892],[-123.4223471,49.11669381],[-123.4205623,49.11532871],[-123.41966969,49.11464616],[-123.41949087,49.11450979],[-123.41717035,49.11273487],[-123.41681331,49.11246213],[-123.41431436,49.11055084],[-123.41092353,49.107957],[-123.40824685,49.10590899],[-123.40717577,49.10508971],[-123.40592716,49.10413407],[-123.40574848,49.1039977],[-123.40414282,49.10276896],[-123.40325064,49.10208605],[-123.40307198,49.10194968],[-123.40260704,49.10151032],[-123.40202065,49.10069709],[-123.40190321,49.10053438],[-123.40069741,49.098862],[-123.40057998,49.09869928],[-123.39894497,49.09643159],[-123.39753837,49.09448006],[-123.39730395,49.09415499],[-123.39718657,49.09399227],[-123.39507665,49.09106552],[-123.39484197,49.09074009],[-123.39472497,49.09057773],[-123.3934359,49.08878892],[-123.39249807,49.08748791],[-123.39151117,49.08611853],[-123.39003761,49.08407301],[-123.38992014,49.08391065],[-123.38886548,49.08244692],[-123.38874857,49.08228456],[-123.38488225,49.07691814],[-123.38406263,49.07577984],[-123.38289105,49.07415339],[-123.38136837,49.07203951],[-123.38125123,49.07187679],[-123.38078304,49.07122628],[-123.38054858,49.07090121],[-123.37762137,49.06683545],[-123.37750428,49.06667273],[-123.3773872,49.06651001],[-123.37726992,49.06634765],[-123.375748,49.06423342],[-123.37469417,49.06276968],[-123.37270395,49.06000494],[-123.37223572,49.05935443],[-123.37059726,49.05707748],[-123.36989502,49.05610189],[-123.36860755,49.05431273],[-123.36743721,49.05268628],[-123.36696876,49.05203577],[-123.36575231,49.05092311],[-123.36403083,49.04952454],[-123.36351066,49.04910689],[-123.36333691,49.04896767],[-123.36316296,49.04882881],[-123.36298901,49.04868995],[-123.36141608,49.04744377],[-123.36124066,49.04730562],[-123.35877098,49.04537973],[-123.3584168,49.04510557],[-123.35610449,49.04332816],[-123.35431799,49.04196519],[-123.35413945,49.04182882],[-123.35351676,49.04135527],[-123.35270775,49.04074001],[-123.35252847,49.040604],[-123.35145393,49.03978793],[-123.3478741,49.03706627],[-123.3473379,49.03665752],[-123.34626779,49.03583895],[-123.34527457,49.035077],[-123.34395778,49.03406012],[-123.34113809,49.03185829],[-123.34078783,49.03158164],[-123.33835446,49.02963688],[-123.3381817,49.02949731],[-123.33612605,49.02781389],[-123.33595576,49.02767289],[-123.33426903,49.02625652],[-123.33310284,49.02525779],[-123.33211411,49.02439614],[-123.33099082,49.02239762],[-123.33091838,49.02222422],[-123.33012769,49.02031578],[-123.32998414,49.01996863],[-123.32969761,49.01927433],[-123.32855743,49.0164957],[-123.32841524,49.01614819],[-123.32770623,49.0144103],[-123.32763516,49.01423655],[-123.32749355,49.01388904],[-123.32742303,49.01371528],[-123.32678625,49.01215043],[-123.32650388,49.01145506],[-123.32643283,49.01128131],[-123.32579734,49.00971646],[-123.32572706,49.00954235],[-123.32565657,49.0093686],[-123.32487943,49.00745588],[-123.32480896,49.00728213],[-123.32466769,49.00693427],[-123.32332295,49.00363153],[-123.323181,49.00328402],[-123.32311003,49.00311027],[-123.32303906,49.00293651],[-123.32296809,49.00276276],[-123.32289713,49.00258901],[-123.3227747,49.00228992],[-123.32262436,49.00220839],[-123.1992076,49.0021883],[-123.17435149,49.00216708],[-123.14322911,49.00213255],[-123.14158205,49.00213041],[-123.13801003,49.00212579],[-123.13770857,49.00212539],[-123.09220063,49.002056],[-123.09095397,49.002056],[-123.0906978,49.00205599],[-123.08954753,49.00205635],[-123.08936246,49.00205635],[-123.08872389,49.00205638],[-123.08852252,49.00205639],[-123.07830149,49.00205635],[-123.07530145,49.00205599],[-123.06860897,49.002056],[-123.06805463,49.00205635],[-123.06789073,49.00205635],[-123.05372161,49.00206276],[-123.04238039,49.00206378],[-123.04089233,49.00206383],[-123.03808421,49.00206383],[-123.03516266,49.00206383],[-123.02730973,49.00207522],[-123.02291881,49.00208126],[-123.0000147,49.00210985],[-122.95698234,49.00215035],[-122.95698523,49.00938818],[-122.93159407,49.02966607],[-122.92898115,49.03175147],[-122.92209217,49.03724821],[-122.91893017,49.03977084],[-122.90510332,49.05079636],[-122.89503542,49.05882462],[-122.89385366,49.05976211],[-122.89038324,49.06252686],[-122.89038286,49.06758316],[-122.8903432,49.07729484],[-122.89035084,49.08103624],[-122.89035293,49.08198832],[-122.89036387,49.08757799],[-122.89036658,49.08900184],[-122.89037092,49.09107585],[-122.89037115,49.09126989],[-122.89037147,49.0913614],[-122.89037167,49.09146252],[-122.89037159,49.09146359],[-122.89038332,49.09170072],[-122.89038311,49.09190118],[-122.89038291,49.09198983],[-122.89038273,49.09208597],[-122.89038314,49.0921294],[-122.89038294,49.09241816],[-122.89038132,49.09324207],[-122.89038271,49.09331577],[-122.89038314,49.09335636],[-122.89038665,49.09828163],[-122.89036531,49.09828092],[-122.89036542,49.09828448],[-122.89036737,49.09983189],[-122.89036856,49.09999994],[-122.89037449,49.10277679],[-122.89039107,49.10340807],[-122.89039585,49.10433808],[-122.89039593,49.10470838],[-122.89040192,49.10497278],[-122.89040812,49.10524673],[-122.89041501,49.10684647],[-122.89041702,49.10720502],[-122.89043308,49.10768035],[-122.89044678,49.10817953],[-122.89044344,49.10823045],[-122.8904398,49.10828564],[-122.89042669,49.10963747],[-122.89040522,49.11185079],[-122.89041787,49.11290221],[-122.89043555,49.11447561],[-122.89042911,49.11559503],[-122.89040946,49.11927626],[-122.89040909,49.11932112],[-122.89048668,49.11932212],[-122.89179475,49.11933892],[-122.89197896,49.11934283],[-122.89213065,49.11934605],[-122.89316574,49.11936705],[-122.89506128,49.11939439],[-122.89598152,49.11940764],[-122.89718661,49.1194169],[-122.89741941,49.11941888],[-122.89756285,49.11942011],[-122.89799796,49.11940052],[-122.89802598,49.1193991],[-122.89809741,49.11938537],[-122.89850694,49.11947244],[-122.89859822,49.11946888],[-122.89906025,49.11945073],[-122.89907807,49.11945001],[-122.89914316,49.11944752],[-122.89928453,49.11944859],[-122.9014706,49.11946426],[-122.9031473,49.11941619],[-122.90659866,49.11938023],[-122.90900256,49.11935312],[-122.91035456,49.11933786],[-122.91769661,49.11926914],[-122.91854006,49.11924991],[-122.91994609,49.1192294],[-122.91997425,49.1192289],[-122.92074187,49.11919686],[-122.92170313,49.11901883],[-122.92174522,49.11901568],[-122.92182653,49.11900958],[-122.92194166,49.11900072],[-122.92207189,49.11899071],[-122.92279344,49.11899605],[-122.9233777,49.1189989],[-122.92370634,49.11900067],[-122.92377728,49.1190011],[-122.92381432,49.11900129],[-122.92391245,49.11900174],[-122.92398184,49.11900213],[-122.92410387,49.11900281],[-122.92417221,49.11900317],[-122.92464798,49.11901207],[-122.92544914,49.1192225],[-122.92549063,49.11923245],[-122.92609217,49.11937702],[-122.9263543,49.11941091],[-122.92647515,49.11942656],[-122.92654731,49.11943592],[-122.92663524,49.11944554],[-122.92666969,49.11944933],[-122.92671178,49.11945504],[-122.926874,49.11946924],[-122.92723908,49.12014859],[-122.92751607,49.12102768],[-122.92761932,49.12143785],[-122.92766351,49.12177504],[-122.92770511,49.12234009],[-122.92778607,49.12344492],[-122.9281959,49.12902106],[-122.92844244,49.13181892],[-122.92856378,49.13307614],[-122.92881728,49.13402893],[-122.92923984,49.13482649],[-122.92979109,49.13546988],[-122.93103391,49.1367862],[-122.9336366,49.13954311],[-122.93469576,49.14073126],[-122.93506901,49.14134403],[-122.9357971,49.14318126],[-122.93579994,49.14318767],[-122.93622414,49.14408905],[-122.93625041,49.14414487],[-122.93677077,49.14525053],[-122.93679092,49.14529336],[-122.93774525,49.14762835],[-122.93850761,49.14945348],[-122.93943429,49.15167489],[-122.93972862,49.1523799],[-122.94071241,49.15473623],[-122.94137333,49.15638349],[-122.94142669,49.15651525],[-122.94144756,49.15656661],[-122.94147194,49.15662662],[-122.94148942,49.15666963],[-122.94206298,49.15808098],[-122.94273271,49.15972844]]]},"geometry_name":"SHAPE","properties":{"id":277,"slug":"delta-south","name":"Delta South","abbreviation":"DLS","gazetteDate":"2023-12-07Z","boundarySet":11},"bbox":[-123.42948929,49.00205599,-122.8903432,49.15972844]}
