{"type":"Feature","id":278,"geometry":{"type":"Polygon","coordinates":[[[-123.48105589,48.49727952],[-123.48133752,48.49596391],[-123.48152147,48.49511401],[-123.48152931,48.4950784],[-123.48161045,48.49466147],[-123.48167222,48.49433959],[-123.48185482,48.49352067],[-123.48292343,48.48861178],[-123.4830748,48.48886743],[-123.48310386,48.4889162],[-123.48313383,48.48896712],[-123.48416867,48.48868192],[-123.48454993,48.48873569],[-123.48470087,48.48903726],[-123.48478033,48.48924484],[-123.48524644,48.48938904],[-123.48674873,48.4889073],[-123.48768969,48.48868548],[-123.48811838,48.48871041],[-123.48872684,48.4886748],[-123.48992734,48.48868157],[-123.49037108,48.48855339],[-123.49275167,48.48858721],[-123.49735691,48.48964042],[-123.49735768,48.4895247],[-123.49736213,48.48854377],[-123.49738842,48.4844392],[-123.49738924,48.48210279],[-123.4973896,48.48208926],[-123.49739022,48.48205223],[-123.4974187,48.48036205],[-123.49744952,48.47849562],[-123.49747435,48.47488561],[-123.48417256,48.47495575],[-123.48559211,48.47316837],[-123.4841615,48.47129553],[-123.48428371,48.46846249],[-123.48431569,48.46772112],[-123.48442485,48.46525866],[-123.48428602,48.46526009],[-123.48360287,48.46458359],[-123.48341938,48.46440841],[-123.4833607,48.46435251],[-123.4832145,48.46420546],[-123.48313154,48.46412214],[-123.48305702,48.46404737],[-123.48292124,48.463911],[-123.48238572,48.46338013],[-123.48065148,48.46166147],[-123.48062213,48.46163263],[-123.48023951,48.46125307],[-123.47978757,48.46080552],[-123.47961761,48.46063853],[-123.47873458,48.45976762],[-123.47668015,48.45774097],[-123.47572817,48.45682663],[-123.47497169,48.45609993],[-123.47443541,48.45558472],[-123.47417249,48.45534439],[-123.47365215,48.45486906],[-123.47352694,48.45474693],[-123.47350473,48.45472521],[-123.47315408,48.45438411],[-123.47296268,48.4541979],[-123.47283727,48.45407613],[-123.47271273,48.45395471],[-123.47258732,48.45383294],[-123.47242526,48.45367557],[-123.4722309,48.45348615],[-123.47200219,48.45326362],[-123.47186486,48.4531301],[-123.47172753,48.45299658],[-123.47137825,48.4526569],[-123.4710384,48.45232684],[-123.47087023,48.45216341],[-123.47075862,48.45205482],[-123.47067359,48.4519715],[-123.46980914,48.45115436],[-123.46979219,48.45113834],[-123.46951969,48.45088056],[-123.46939005,48.45074953],[-123.46933194,48.45069185],[-123.46891269,48.45028915],[-123.46784917,48.44924592],[-123.4679794,48.44918468],[-123.46823509,48.4491035],[-123.46839705,48.44903941],[-123.46846516,48.44898529],[-123.46854409,48.44886851],[-123.46862455,48.44874175],[-123.46874435,48.44860645],[-123.4689337,48.44846973],[-123.46901461,48.44843412],[-123.46922948,48.44839709],[-123.46945802,48.44828885],[-123.4695786,48.44812649],[-123.46963184,48.44799119],[-123.46967081,48.44787298],[-123.46968259,48.44765793],[-123.46972148,48.44755823],[-123.46982978,48.44744999],[-123.47003186,48.4473503],[-123.47021951,48.44730472],[-123.47041066,48.44733036],[-123.47060097,48.44740157],[-123.47088514,48.44741866],[-123.47104489,48.44732893],[-123.47116615,48.44720218],[-123.47131385,48.44711103],[-123.47158461,48.44705549],[-123.47185523,48.44703697],[-123.47212575,48.44708112],[-123.47228745,48.44716088],[-123.47241104,48.44726912],[-123.47249315,48.4473859],[-123.47261551,48.4474742],[-123.47276511,48.44748275],[-123.47295414,48.44746423],[-123.47314246,48.44745427],[-123.47345463,48.44745284],[-123.47377823,48.44744287],[-123.47395437,48.44742436],[-123.47415772,48.44741439],[-123.47431883,48.44739587],[-123.47464258,48.44734887],[-123.4749398,48.44728479],[-123.47519623,48.4472207],[-123.47546616,48.44716658],[-123.47576268,48.44711103],[-123.47597831,48.44704694],[-123.47626128,48.44691164],[-123.47650361,48.44673931],[-123.47662477,48.44663107],[-123.47673168,48.44649577],[-123.47685078,48.44636902],[-123.47691887,48.4463149],[-123.4770809,48.44623229],[-123.47720045,48.44619669],[-123.47743172,48.44618672],[-123.47770224,48.44623087],[-123.47797214,48.44626505],[-123.47812158,48.44635478],[-123.4781216,48.4463548],[-123.47819081,48.44647156],[-123.47823289,48.44660544],[-123.47833057,48.44679486],[-123.47849281,48.4469914],[-123.47864348,48.44718936],[-123.47889621,48.44712883],[-123.47912027,48.44713489],[-123.4792366,48.44714343],[-123.47934368,48.44715127],[-123.47956469,48.44717726],[-123.47959461,48.44718117],[-123.47966167,48.44719043],[-123.47979106,48.44693016],[-123.47998365,48.44657268],[-123.48007807,48.44639715],[-123.48018452,48.44619918],[-123.48028164,48.44601902],[-123.48035864,48.44587517],[-123.48041608,48.44576943],[-123.48044948,48.44570854],[-123.48062596,48.44538418],[-123.48073505,48.4452681],[-123.481435,48.44538026],[-123.48256906,48.44554689],[-123.48422405,48.44582711],[-123.4856317,48.4460621],[-123.48671928,48.44624404],[-123.4868035,48.44625793],[-123.48679212,48.44609165],[-123.48679094,48.44588123],[-123.4867411,48.4453799],[-123.48714387,48.44500712],[-123.48706638,48.44480239],[-123.48697652,48.4446354],[-123.48725284,48.44418499],[-123.48725457,48.4441857],[-123.48755468,48.44429501],[-123.48849424,48.44471302],[-123.48889264,48.44486363],[-123.48926271,48.44500391],[-123.48988353,48.44528662],[-123.49053301,48.44546322],[-123.49049344,48.44555401],[-123.4904685,48.44560778],[-123.49046788,48.44560885],[-123.49046143,48.44567507],[-123.49054816,48.44569109],[-123.49117171,48.44596917],[-123.49143983,48.44604964],[-123.49173218,48.44601225],[-123.49186277,48.44598163],[-123.49217363,48.44590793],[-123.49208454,48.44587019],[-123.49167825,48.4457064],[-123.49168185,48.44559354],[-123.49221094,48.44553586],[-123.49254742,48.44549918],[-123.49299766,48.44544969],[-123.4932854,48.44541836],[-123.49387139,48.44528341],[-123.49467614,48.44509827],[-123.49516402,48.44498611],[-123.49574562,48.44485223],[-123.49574711,48.44485152],[-123.4959367,48.44480808],[-123.49598137,48.44479776],[-123.49600745,48.44479171],[-123.49666834,48.44463967],[-123.49668694,48.4446354],[-123.49670586,48.44459837],[-123.49687397,48.44426795],[-123.49702126,48.44422986],[-123.49726692,48.44416577],[-123.49753834,48.44412375],[-123.49800454,48.44405147],[-123.49969413,48.4434914],[-123.49985894,48.44343828],[-123.50041538,48.4432589],[-123.50069955,48.44317202],[-123.50083939,48.44312645],[-123.49973974,48.44283555],[-123.49955977,48.44278891],[-123.49930268,48.44272269],[-123.49918075,48.44269064],[-123.49907792,48.44266358],[-123.49913778,48.44263367],[-123.49930903,48.44254715],[-123.49968321,48.44235844],[-123.49995034,48.4422235],[-123.50018517,48.44210529],[-123.50041031,48.44199171],[-123.50061643,48.44188774],[-123.50085593,48.44176704],[-123.5011305,48.44162854],[-123.50133269,48.44152671],[-123.50141177,48.44148683],[-123.50153146,48.44143164],[-123.50132172,48.44137716],[-123.50135741,48.44135188],[-123.50155012,48.44124329],[-123.50168624,48.44116638],[-123.50174185,48.44110051],[-123.50186356,48.44095631],[-123.50198444,48.44081353],[-123.50210217,48.44067432],[-123.50222525,48.44052869],[-123.50246166,48.44024955],[-123.50268348,48.43998714],[-123.50273772,48.43992269],[-123.5023498,48.43984614],[-123.50194745,48.43976674],[-123.50194164,48.43976567],[-123.50180888,48.43973932],[-123.50184418,48.43963927],[-123.50190524,48.43946659],[-123.50196629,48.4392939],[-123.50209899,48.43891933],[-123.50214498,48.43878902],[-123.50216982,48.43871888],[-123.5023009,48.43834894],[-123.50240144,48.43806445],[-123.50256463,48.43803312],[-123.50287116,48.43796583],[-123.50307287,48.43793378],[-123.50325159,48.43789947],[-123.50448414,48.43766283],[-123.50457226,48.43764609],[-123.50464571,48.43763193],[-123.5046475,48.4376316],[-123.5046684,48.43762758],[-123.50469385,48.43762259],[-123.50481601,48.43759959],[-123.50527627,48.43751293],[-123.50531808,48.43750474],[-123.50725363,48.43713266],[-123.50736484,48.4371113],[-123.50751038,48.43708353],[-123.51133509,48.43634792],[-123.51147956,48.43632015],[-123.51160478,48.43629594],[-123.51189916,48.43623933],[-123.5121234,48.43619625],[-123.51242538,48.43613857],[-123.51290786,48.43604564],[-123.51300998,48.43602605],[-123.51328201,48.43597371],[-123.51358965,48.43591461],[-123.51398178,48.43583948],[-123.51400124,48.43583557],[-123.51420001,48.4358021],[-123.51427091,48.43567321],[-123.51456713,48.43513877],[-123.51465453,48.43498068],[-123.51522551,48.43391644],[-123.51689647,48.43120973],[-123.51717017,48.43080134],[-123.51765016,48.43009458],[-123.51748826,48.43006396],[-123.51710758,48.42996319],[-123.51707834,48.42995536],[-123.51682129,48.42988735],[-123.51679939,48.42988166],[-123.51628721,48.429746],[-123.51621279,48.42972642],[-123.51594505,48.42965557],[-123.51586436,48.42963385],[-123.51517971,48.42945262],[-123.51504207,48.4294163],[-123.51495242,48.42939244],[-123.51450067,48.42927281],[-123.51438893,48.42924361],[-123.51424168,48.42920445],[-123.51315416,48.4289164],[-123.51156498,48.42849591],[-123.51128238,48.42842113],[-123.51127871,48.42842006],[-123.51129625,48.42838909],[-123.51147145,48.42807327],[-123.51148205,48.42805511],[-123.51149428,48.42803232],[-123.51149698,48.42802769],[-123.51159311,48.42786391],[-123.51162137,48.42781549],[-123.51162677,48.42780623],[-123.51163164,48.42779697],[-123.51179015,48.42751711],[-123.51180449,48.42749255],[-123.5119334,48.42726432],[-123.51193456,48.42726325],[-123.51196529,48.42720877],[-123.51215821,48.42687088],[-123.51217492,48.42684133],[-123.5123205,48.42658639],[-123.51232361,48.42658105],[-123.51246421,48.42633466],[-123.51247302,48.42631864],[-123.51259981,48.42609682],[-123.51260667,48.42608507],[-123.51261631,48.42606763],[-123.51278329,48.42574753],[-123.51281566,48.42569484],[-123.51292066,48.42552322],[-123.51292523,48.42551539],[-123.51293301,48.42550115],[-123.51314769,48.42513334],[-123.51315837,48.42511412],[-123.51319429,48.42505074],[-123.51322846,48.42499128],[-123.51328795,48.4248866],[-123.51345094,48.42460461],[-123.51379887,48.42400395],[-123.51403115,48.42360232],[-123.51423239,48.42325481],[-123.51459184,48.4226335],[-123.51497209,48.42197658],[-123.5151387,48.42168106],[-123.51511421,48.4216743],[-123.51476071,48.4215819],[-123.51405989,48.42139871],[-123.51428129,48.42114627],[-123.51441019,48.42093834],[-123.51425869,48.42069515],[-123.51447571,48.4203188],[-123.5145425,48.41987908],[-123.51467627,48.4196334],[-123.51491467,48.41936565],[-123.51508545,48.41929551],[-123.51511089,48.41929052],[-123.51536435,48.41926347],[-123.51520906,48.41885863],[-123.51514059,48.4187949],[-123.51505336,48.41868702],[-123.51504258,48.41858234],[-123.51512242,48.41844098],[-123.51535906,48.41838117],[-123.51538647,48.41832135],[-123.51558148,48.41819317],[-123.51556141,48.4181476],[-123.51549963,48.41800624],[-123.51541961,48.41785385],[-123.51570545,48.41776306],[-123.51551928,48.41754622],[-123.51525784,48.41761637],[-123.51507107,48.41752094],[-123.51496892,48.41740096],[-123.51463433,48.41752379],[-123.51469969,48.41756438],[-123.51455905,48.41763987],[-123.51458222,48.41773066],[-123.5146062,48.41782466],[-123.51483767,48.41795747],[-123.51480839,48.41796993],[-123.51476968,48.41799948],[-123.5143635,48.41777908],[-123.51424828,48.41777979],[-123.51409854,48.41773671],[-123.51382875,48.41765945],[-123.51379457,48.41763346],[-123.51388788,48.41716952],[-123.51347071,48.41720869],[-123.51313266,48.41724465],[-123.51215205,48.41679531],[-123.51199416,48.41672303],[-123.51181992,48.41664292],[-123.51158351,48.41647451],[-123.51145139,48.41625981],[-123.51156135,48.41603015],[-123.51155252,48.41597639],[-123.51151875,48.41576596],[-123.51149115,48.41571861],[-123.51137576,48.41552029],[-123.5113396,48.41548575],[-123.51112499,48.4152828],[-123.51109376,48.4152536],[-123.51092973,48.41520838],[-123.51077212,48.41524862],[-123.51064598,48.41534796],[-123.51056284,48.41546367],[-123.51044101,48.41540315],[-123.51166149,48.41327518],[-123.51185026,48.41294603],[-123.5123311,48.41307243],[-123.51264634,48.41315539],[-123.51281126,48.41285096],[-123.51283023,48.41281571],[-123.51297888,48.41254191],[-123.51299453,48.41251236],[-123.51308083,48.41235356],[-123.51309702,48.412324],[-123.51313135,48.41226063],[-123.51320547,48.41213281],[-123.51332263,48.41193128],[-123.5134427,48.41172477],[-123.51373492,48.41122167],[-123.51406167,48.41065946],[-123.51410439,48.41060285],[-123.51418892,48.41045259],[-123.51460901,48.40971129],[-123.5165785,48.40631277],[-123.51710755,48.40531155],[-123.51741406,48.40473083],[-123.51840587,48.40285301],[-123.51662664,48.40242993],[-123.51190069,48.40130596],[-123.50688145,48.40008471],[-123.50682855,48.40007153],[-123.50554487,48.39975927],[-123.5026245,48.39914793],[-123.50100249,48.39881823],[-123.49843408,48.39829946],[-123.4961129,48.39849244],[-123.49601012,48.39832153],[-123.4955804,48.39817235],[-123.49428346,48.39825531],[-123.49362908,48.3983931],[-123.49206093,48.39885454],[-123.49114302,48.39924763],[-123.49012217,48.3999341],[-123.48986447,48.40004554],[-123.48966723,48.40013064],[-123.48893435,48.40046497],[-123.4882903,48.40091609],[-123.48798571,48.40112972],[-123.48780165,48.40107489],[-123.48572952,48.40046034],[-123.48416416,48.39999996],[-123.48376873,48.39988493],[-123.4835253,48.39981411],[-123.48217675,48.39942138],[-123.48206819,48.39938969],[-123.48201774,48.39937509],[-123.48197785,48.39943026],[-123.48195173,48.39946638],[-123.48156587,48.39999996],[-123.47956672,48.40276609],[-123.47887107,48.40372855],[-123.47884762,48.40376089],[-123.47881012,48.40381257],[-123.47872935,48.40388379],[-123.47867725,48.40392972],[-123.4774399,48.40501826],[-123.47743396,48.40502347],[-123.47728912,48.4051509],[-123.47620793,48.40610199],[-123.47458971,48.4082059],[-123.47327753,48.40991175],[-123.4693263,48.41440869],[-123.46932617,48.41440884],[-123.46887375,48.41488761],[-123.46758097,48.41625563],[-123.46435426,48.41966972],[-123.4609139,48.42262068],[-123.4606179,48.42287455],[-123.46009998,48.42331083],[-123.45720157,48.42575216],[-123.45713158,48.42581081],[-123.45704902,48.42587999],[-123.45699378,48.42592686],[-123.45699368,48.42592695],[-123.45699364,48.42592698],[-123.45551799,48.42692082],[-123.45393095,48.4279896],[-123.45256365,48.42822281],[-123.45208989,48.42808508],[-123.45208922,48.42808489],[-123.45153361,48.42792337],[-123.45111189,48.42764586],[-123.45052119,48.42725716],[-123.45027128,48.4270927],[-123.44991201,48.42695797],[-123.44990918,48.42695691],[-123.44946995,48.42679219],[-123.44787915,48.42696555],[-123.44730365,48.42702825],[-123.44548046,48.42733909],[-123.44458213,48.42745943],[-123.44380799,48.42741243],[-123.4430047,48.42725933],[-123.44239624,48.42710397],[-123.44193799,48.42698695],[-123.43832923,48.42483146],[-123.43831902,48.42482536],[-123.43465224,48.42262709],[-123.42944787,48.4195065],[-123.42453176,48.41655813],[-123.41944617,48.41350748],[-123.41932101,48.4134324],[-123.41495928,48.41344806],[-123.4146824,48.41344913],[-123.40818903,48.41347192],[-123.40483646,48.41348367],[-123.40237784,48.41349221],[-123.40074753,48.41349791],[-123.3999999,48.4135004],[-123.39876791,48.41350467],[-123.39602908,48.4134623],[-123.39574105,48.41345768],[-123.39477698,48.41344269],[-123.39461889,48.41344023],[-123.39452948,48.41477115],[-123.39411746,48.41643285],[-123.39317186,48.41829109],[-123.39242459,48.41957038],[-123.39177094,48.42129225],[-123.39175114,48.42133427],[-123.39124387,48.42252918],[-123.39126319,48.42284678],[-123.39128624,48.42321387],[-123.39131259,48.42364214],[-123.39063016,48.42375596],[-123.39012222,48.42384068],[-123.38838581,48.42413027],[-123.38681795,48.42439173],[-123.38516086,48.42446474],[-123.38396137,48.42451756],[-123.38242653,48.42462281],[-123.38216624,48.4246421],[-123.37969802,48.42482183],[-123.37713747,48.42500822],[-123.37648942,48.42505539],[-123.37622586,48.42507457],[-123.37600642,48.42497022],[-123.37550363,48.42473108],[-123.37370848,48.42387719],[-123.37343263,48.42374633],[-123.37335286,48.42370932],[-123.37321818,48.42364683],[-123.37307201,48.42357901],[-123.37295369,48.42400708],[-123.37257536,48.42643121],[-123.37246701,48.42799062],[-123.3723488,48.42821909],[-123.37234655,48.42825522],[-123.37234149,48.42833669],[-123.37234027,48.42835636],[-123.37233178,48.42849261],[-123.37232016,48.4291862],[-123.37224854,48.4300016],[-123.37226555,48.43025748],[-123.37231474,48.43099741],[-123.37391752,48.43221045],[-123.37671268,48.43297655],[-123.37796229,48.43440721],[-123.37875959,48.43565576],[-123.37959967,48.43698419],[-123.38008672,48.43769917],[-123.38053761,48.43836104],[-123.38079695,48.43884172],[-123.3810311,48.43920418],[-123.38121967,48.43934767],[-123.38161685,48.43943739],[-123.38231919,48.43950213],[-123.3837723,48.43963607],[-123.38532304,48.43972366],[-123.38601338,48.43976282],[-123.38616042,48.4397995],[-123.38695658,48.44001071],[-123.38726364,48.44009217],[-123.38778753,48.44023958],[-123.3888797,48.44067396],[-123.38985186,48.44131236],[-123.39108336,48.44194151],[-123.39204943,48.44266928],[-123.39214031,48.44271022],[-123.39222081,48.4427469],[-123.39244994,48.44284232],[-123.39268372,48.44293347],[-123.39292119,48.44302106],[-123.39316024,48.44310687],[-123.39339939,48.44319161],[-123.3934792,48.44321938],[-123.39363862,48.44327528],[-123.39387985,48.44335646],[-123.3941234,48.4434355],[-123.39436747,48.44351277],[-123.39461207,48.44359003],[-123.39485613,48.44366729],[-123.39509969,48.44374634],[-123.39534093,48.44382752],[-123.39557996,48.44391154],[-123.39582466,48.44399415],[-123.39607109,48.44407746],[-123.3963115,48.44416648],[-123.39653629,48.44426475],[-123.39673858,48.44437762],[-123.39690317,48.44451363],[-123.3970289,48.44467385],[-123.39713892,48.4448444],[-123.39725586,48.44501139],[-123.39732942,48.44508621],[-123.39740287,48.44516093],[-123.39758605,48.44529089],[-123.39777757,48.44541943],[-123.39797443,48.44554618],[-123.39817725,48.44567009],[-123.39838592,48.44579043],[-123.39859911,48.44590579],[-123.39881693,48.4460151],[-123.39903837,48.44611729],[-123.39926408,48.44621129],[-123.39941771,48.44626612],[-123.39949506,48.44629353],[-123.39969906,48.44632558],[-123.3997517,48.44633377],[-123.39999961,48.44634125],[-123.40018041,48.44634231],[-123.40031171,48.44634267],[-123.40031902,48.44634303],[-123.40034857,48.44634481],[-123.40043422,48.44634979],[-123.4004828,48.446353],[-123.40058607,48.44635905],[-123.40083719,48.44641424],[-123.40107121,48.44649862],[-123.40129511,48.44659938],[-123.40151455,48.44670869],[-123.40173792,48.44682227],[-123.40195619,48.44692624],[-123.40218737,48.44701917],[-123.40243025,48.44709394],[-123.40268224,48.44715589],[-123.40293977,48.4472093],[-123.40303778,48.4472271],[-123.40320191,48.44725666],[-123.40346573,48.44730116],[-123.40372912,48.44734638],[-123.40399139,48.44739445],[-123.40424958,48.44744857],[-123.40450298,48.44751088],[-123.40475408,48.4475771],[-123.40500385,48.44764653],[-123.40525162,48.44771846],[-123.4054991,48.4477918],[-123.40574563,48.44786586],[-123.40599248,48.44794028],[-123.40623943,48.44801362],[-123.40648986,48.44808377],[-123.40674261,48.44815177],[-123.40699474,48.44822085],[-123.40724318,48.44829348],[-123.40748456,48.44837359],[-123.40760554,48.44842095],[-123.40771507,48.44846403],[-123.4079305,48.44857013],[-123.40812884,48.44869262],[-123.40831854,48.44882435],[-123.40850688,48.44895752],[-123.40870036,48.44908463],[-123.40890789,48.44919785],[-123.40913346,48.44929399],[-123.40936934,48.44938442],[-123.40961298,48.44946988],[-123.40986292,48.44954821],[-123.4101168,48.449618],[-123.41037424,48.4496771],[-123.41063233,48.4497241],[-123.41089066,48.44975508],[-123.41115489,48.44975579],[-123.41142374,48.449733],[-123.41169583,48.44969918],[-123.41196879,48.44966571],[-123.41224015,48.44964506],[-123.41251575,48.44963366],[-123.41255705,48.44963188],[-123.41258291,48.44963081],[-123.4126093,48.44962975],[-123.41264899,48.44962797],[-123.41268868,48.44962618],[-123.41279822,48.44962156],[-123.41307512,48.44962262],[-123.41333351,48.44965075],[-123.41343579,48.44968422],[-123.41346019,48.44969205],[-123.4134846,48.44969989],[-123.41350879,48.44970808],[-123.4135332,48.44971591],[-123.41357694,48.44973656],[-123.41359835,48.44975045],[-123.41374777,48.44985014],[-123.41391948,48.45000075],[-123.4140958,48.45014531],[-123.41427576,48.45028275],[-123.41444991,48.45042552],[-123.41463187,48.45056047],[-123.41483553,48.45067298],[-123.41506776,48.45075594],[-123.41531821,48.45081967],[-123.41558017,48.45087201],[-123.41579853,48.4509126],[-123.41584506,48.45092115],[-123.41590013,48.45093254],[-123.41599918,48.45095319],[-123.41610651,48.45097527],[-123.41620219,48.45099983],[-123.41630282,48.45102511],[-123.41635977,48.45103971],[-123.41640324,48.45105075],[-123.41661444,48.45110451],[-123.41680735,48.4511565],[-123.41686723,48.45117252],[-123.41690891,48.45118569],[-123.41700836,48.45121667],[-123.41712574,48.4512537],[-123.41720434,48.45128361],[-123.41729926,48.45131957],[-123.41734575,48.45133737],[-123.41738974,48.45135945],[-123.41756138,48.45144597],[-123.41776288,48.45157415],[-123.41795669,48.45171087],[-123.41815056,48.45184475],[-123.41835009,48.45196438],[-123.41856344,48.45205945],[-123.41869992,48.45210146],[-123.41879504,48.45213066],[-123.41889243,48.45216056],[-123.41899036,48.45219047],[-123.41908933,48.4522186],[-123.4191931,48.45224495],[-123.41930163,48.45226774],[-123.41941003,48.4522834],[-123.41951663,48.45228839],[-123.41961761,48.45227913],[-123.4197153,48.45225528],[-123.41981066,48.45222074],[-123.41990406,48.45217944],[-123.41999657,48.452136],[-123.42008729,48.4520947],[-123.42017184,48.45205019],[-123.4202519,48.45200141],[-123.42033731,48.45195726],[-123.42042806,48.45191774],[-123.42051881,48.45187822],[-123.42061097,48.45183905],[-123.42070423,48.45180167],[-123.42079839,48.45176642],[-123.42089411,48.45173401],[-123.42099227,48.4517066],[-123.42109855,48.45169378],[-123.42120793,48.45168666],[-123.42131486,48.45167455],[-123.42142098,48.45165924],[-123.42152644,48.45164322],[-123.42163076,48.45162364],[-123.42173518,48.45160299],[-123.42184163,48.45159444],[-123.42195075,48.45159053],[-123.42205985,48.45159124],[-123.42216714,48.45159871],[-123.42227294,48.45161331],[-123.42237915,48.45163183],[-123.42248446,48.45165461],[-123.42258462,48.45168346],[-123.42267653,48.45171906],[-123.42276011,48.4517625],[-123.42283841,48.45181128],[-123.42291282,48.45186397],[-123.42298469,48.45191916],[-123.42305507,48.45197506],[-123.42309461,48.45200568],[-123.42312641,48.45203025],[-123.42315621,48.4520509],[-123.4231939,48.45208651],[-123.42325299,48.45214704],[-123.42331154,48.45220756],[-123.42336529,48.45226987],[-123.4234135,48.45233432],[-123.42345915,48.45239948],[-123.42350587,48.45246463],[-123.42355643,48.45252872],[-123.42360411,48.45259317],[-123.42364227,48.45266011],[-123.42367349,48.45272883],[-123.42370086,48.45279861],[-123.42372588,48.45286875],[-123.4237509,48.4529389],[-123.42377645,48.45300904],[-123.42380329,48.45307882],[-123.42382992,48.45314897],[-123.42385601,48.45321911],[-123.42387942,48.45328925],[-123.42390047,48.45335975],[-123.42391756,48.4534306],[-123.42393014,48.45350181],[-123.4239393,48.45357338],[-123.42394556,48.4536453],[-123.42394968,48.45371723],[-123.42395218,48.45378915],[-123.42395448,48.45386143],[-123.42395699,48.45393335],[-123.42395982,48.45400563],[-123.42396394,48.45407755],[-123.42397074,48.45414947],[-123.42398022,48.4542214],[-123.42399111,48.45429367],[-123.42400275,48.4543656],[-123.42401223,48.45443752],[-123.42401957,48.45450944],[-123.42402229,48.45458101],[-123.42401964,48.45465258],[-123.42401075,48.45472379],[-123.42399811,48.454795],[-123.42398224,48.45486621],[-123.42396369,48.45493742],[-123.42394159,48.45500827],[-123.42391702,48.45507877],[-123.4238905,48.45514891],[-123.42386151,48.4552187],[-123.42383079,48.45528777],[-123.42379834,48.45535614],[-123.42376395,48.45542414],[-123.42372741,48.45549215],[-123.42368893,48.4555598],[-123.42364905,48.45562709],[-123.4236069,48.45569367],[-123.42356228,48.4557599],[-123.42351667,48.45582506],[-123.42346879,48.4558895],[-123.42341885,48.45595288],[-123.42336231,48.45601376],[-123.42329712,48.45607109],[-123.4232276,48.45612663],[-123.42315701,48.45618218],[-123.42308869,48.45623843],[-123.42302675,48.45629754],[-123.42297228,48.45635949],[-123.4213221,48.45826188],[-123.42119185,48.45841854],[-123.42107835,48.45858055],[-123.42098072,48.45874753],[-123.42089444,48.45891808],[-123.42081582,48.45909112],[-123.42073948,48.45926488],[-123.42066173,48.45943828],[-123.42057858,48.45960989],[-123.42048496,48.45977831],[-123.42037492,48.45994173],[-123.4202337,48.46009697],[-123.42007445,48.46024723],[-123.41991475,48.46039641],[-123.41977164,48.46054845],[-123.41966323,48.46070725],[-123.41960977,48.46088136],[-123.41961021,48.46106615],[-123.41964873,48.46124916],[-123.41970747,48.4614279],[-123.41977837,48.46161981],[-123.41987849,48.46180033],[-123.42002588,48.46194132],[-123.42023234,48.46202535],[-123.42047184,48.4620841],[-123.42073388,48.4621254],[-123.42101061,48.46215353],[-123.42127887,48.46217133],[-123.42128947,48.46344887],[-123.42129058,48.46358352],[-123.4212916,48.46370663],[-123.4211573,48.46401818],[-123.42113344,48.46406909],[-123.42111029,48.46411146],[-123.42106281,48.46425424],[-123.42096921,48.46443369],[-123.42032219,48.46567667],[-123.42028813,48.46576711],[-123.42044693,48.46591344],[-123.41869282,48.46928241],[-123.41997753,48.46958078],[-123.42003117,48.46948073],[-123.4202243,48.46911898],[-123.42048214,48.46913999],[-123.42055701,48.46914604],[-123.42077215,48.46916384],[-123.4212759,48.46920515],[-123.42164594,48.46923541],[-123.42211216,48.46927386],[-123.42225813,48.46928597],[-123.42280706,48.46933083],[-123.42294226,48.46934116],[-123.42326439,48.46793796],[-123.42332961,48.46736685],[-123.42340939,48.46751888],[-123.42354752,48.46778058],[-123.42378484,48.46821532],[-123.42395597,48.468529],[-123.42448077,48.46955906],[-123.42461104,48.46951349],[-123.42531502,48.46922865],[-123.42604415,48.46893383],[-123.42668779,48.4686732],[-123.4272428,48.46971323],[-123.42774774,48.47065891],[-123.42790819,48.47069772],[-123.43160739,48.46872733],[-123.4335109,48.46771364],[-123.43560432,48.46660276],[-123.43580463,48.46649701],[-123.43597378,48.46640693],[-123.43673012,48.46600566],[-123.43757418,48.46636065],[-123.43780779,48.46645714],[-123.43802621,48.46655113],[-123.43957398,48.46720271],[-123.43971658,48.46726288],[-123.43985972,48.46732305],[-123.44000232,48.46738323],[-123.44006566,48.46740993],[-123.44016702,48.46745337],[-123.44045143,48.46757692],[-123.44075263,48.46770759],[-123.44099729,48.46781369],[-123.44141817,48.46799599],[-123.44180114,48.46816227],[-123.44214091,48.46830968],[-123.44224326,48.46835418],[-123.44238991,48.46841756],[-123.44248067,48.46845708],[-123.44282098,48.46860449],[-123.44320299,48.4687697],[-123.44322398,48.46877788],[-123.44335049,48.46879391],[-123.44359289,48.46827763],[-123.44361712,48.468226],[-123.44383791,48.46753063],[-123.44391792,48.46727882],[-123.44408464,48.46675408],[-123.44428212,48.46637453],[-123.44437643,48.46646642],[-123.44440562,48.46647978],[-123.44461062,48.46656787],[-123.44484997,48.46667112],[-123.44508985,48.46677438],[-123.44533006,48.46687799],[-123.44553431,48.46696593],[-123.44569081,48.46703358],[-123.44619582,48.46725113],[-123.44668578,48.46746227],[-123.44722384,48.46769406],[-123.44735424,48.46775032],[-123.44792686,48.46799742],[-123.44850197,48.46824487],[-123.44874663,48.46799486],[-123.44903587,48.46769682],[-123.44936602,48.46736186],[-123.44951281,48.46721161],[-123.44964402,48.46707702],[-123.44977576,48.46694243],[-123.44990729,48.4668082],[-123.45003828,48.46667397],[-123.45017023,48.46653903],[-123.45030218,48.46640408],[-123.45043487,48.46626878],[-123.45056798,48.46613277],[-123.45070172,48.46599569],[-123.45083545,48.46585861],[-123.45097067,48.46572082],[-123.45110598,48.46558196],[-123.45124257,48.46544274],[-123.45137958,48.46530281],[-123.451517,48.46516217],[-123.45163547,48.46504112],[-123.45173288,48.46494142],[-123.45182587,48.46485205],[-123.45189547,48.46477514],[-123.45212051,48.4645341],[-123.45238396,48.4642521],[-123.45266644,48.46394946],[-123.452708,48.46390495],[-123.45273977,48.46387077],[-123.45292453,48.46394519],[-123.45319439,48.4640164],[-123.45347928,48.46413176],[-123.45368318,48.46425709],[-123.45384842,48.46438242],[-123.45390204,48.46444508],[-123.45393176,48.46467011],[-123.45389143,48.46480541],[-123.45382525,48.46495922],[-123.45380017,48.46503898],[-123.45375922,48.46512016],[-123.45373393,48.46525546],[-123.45372207,48.46546339],[-123.45375048,48.46564284],[-123.45380612,48.46578669],[-123.45388994,48.46589422],[-123.45394345,48.46595617],[-123.45397061,48.46598323],[-123.45409366,48.4660815],[-123.45443353,48.4663051],[-123.45455645,48.4664404],[-123.45461008,48.46654722],[-123.45462505,48.46656573],[-123.45469428,48.46670103],[-123.4547071,48.46680785],[-123.45470918,48.46682636],[-123.45470967,48.46696166],[-123.45469659,48.46714966],[-123.45468628,48.46734762],[-123.45466024,48.46746583],[-123.45457981,48.46768089],[-123.45449937,48.46780764],[-123.45438034,48.46791588],[-123.45412503,48.46810673],[-123.45411145,48.46811527],[-123.45408346,48.46817794],[-123.45408402,48.46825057],[-123.45411188,48.46831324],[-123.45422207,48.46841151],[-123.4543716,48.46850123],[-123.4545885,48.46860805],[-123.45464352,48.46865362],[-123.45486689,48.46887244],[-123.45488954,48.46893134],[-123.45494521,48.46911934],[-123.45498799,48.46926318],[-123.45501573,48.46940703],[-123.45515157,48.46958648],[-123.45518012,48.4696406],[-123.45519441,48.46971181],[-123.45514116,48.46990977],[-123.45515678,48.46998241],[-123.4553062,48.47015331],[-123.45556602,48.47036695],[-123.4557413,48.47051934],[-123.45591935,48.4706817],[-123.45602879,48.47080703],[-123.45619259,48.47103063],[-123.45630204,48.47115596],[-123.45641218,48.4712727],[-123.45643832,48.47128592],[-123.45641592,48.47447543],[-123.45638994,48.47813387],[-123.45636371,48.48179267],[-123.45633903,48.48525349],[-123.4563327,48.48616606],[-123.45631309,48.48890517],[-123.45630675,48.48981061],[-123.4562281,48.49342383],[-123.45622733,48.49344911],[-123.45629559,48.49347118],[-123.45650304,48.49350608],[-123.45652895,48.49350679],[-123.45694866,48.49351676],[-123.45723216,48.49352352],[-123.45726999,48.4935342],[-123.45797957,48.49373537],[-123.45806126,48.49374178],[-123.45853475,48.49378024],[-123.4590957,48.49382396],[-123.45927663,48.49384977],[-123.46002961,48.4943136],[-123.46023921,48.49438446],[-123.46057255,48.49439514],[-123.46100465,48.49434422],[-123.46137145,48.49436203],[-123.46167206,48.49441686],[-123.46220255,48.49460272],[-123.46240063,48.49464081],[-123.46267264,48.49465256],[-123.46278492,48.49465719],[-123.46316956,48.49471167],[-123.46340671,48.49479427],[-123.4634063,48.4945931],[-123.4635402,48.49437627],[-123.46359695,48.49439229],[-123.46372114,48.49439585],[-123.46602614,48.49447133],[-123.46786849,48.49451833],[-123.47069024,48.49504031],[-123.47080761,48.49506202],[-123.471013,48.49524895],[-123.4712682,48.49550531],[-123.47129575,48.49553273],[-123.47258039,48.49682199],[-123.47330438,48.49754834],[-123.47424416,48.49849188],[-123.47826774,48.49777586],[-123.478305,48.49776909],[-123.48105589,48.49727952]]]},"geometry_name":"SHAPE","properties":{"id":278,"slug":"esquimalt-colwood","name":"Esquimalt-Colwood","abbreviation":"ESC","gazetteDate":"2023-12-07Z","boundarySet":11},"bbox":[-123.51840587,48.39817235,-123.37224854,48.49849188]}
