{"type":"Feature","id":280,"geometry":{"type":"Polygon","coordinates":[[[-123.54481191,48.72739051],[-123.56100969,48.71928346],[-123.56109235,48.71924207],[-123.56388537,48.71923005],[-123.58855873,48.71913217],[-123.59327684,48.71907674],[-123.59553842,48.71905009],[-123.59648068,48.71906813],[-123.59694023,48.71907805],[-123.59706513,48.71907932],[-123.59707325,48.71907948],[-123.59844091,48.71909377],[-123.59894818,48.71909906],[-123.59940262,48.71909529],[-123.59997685,48.71909052],[-123.59998664,48.71909039],[-123.60000404,48.71909016],[-123.60085789,48.71908307],[-123.60171759,48.71907592],[-123.60213897,48.71907236],[-123.60291115,48.71906595],[-123.60920094,48.71908374],[-123.61619986,48.71912828],[-123.61619928,48.71908813],[-123.61619202,48.71859361],[-123.6161914,48.71835575],[-123.61619224,48.71831251],[-123.61713782,48.71844576],[-123.61828337,48.71848976],[-123.6188356,48.71851371],[-123.62301679,48.71912939],[-123.62396637,48.71926732],[-123.62407933,48.71928233],[-123.62750105,48.71978831],[-123.62998549,48.72016046],[-123.63104808,48.7203461],[-123.63177153,48.72054223],[-123.6320598,48.7206632],[-123.63237534,48.72079616],[-123.63284785,48.72106407],[-123.63326787,48.72138709],[-123.63333375,48.72144527],[-123.63364298,48.72177237],[-123.63372239,48.72185083],[-123.63378939,48.72185562],[-123.63405655,48.72186879],[-123.63642545,48.72237809],[-123.63645043,48.72117271],[-123.63650981,48.71901232],[-123.64095835,48.71897209],[-123.64360496,48.718951],[-123.64363273,48.71825415],[-123.64366166,48.71753457],[-123.64370983,48.71632791],[-123.64371536,48.7161837],[-123.64371615,48.71616163],[-123.64375182,48.71618088],[-123.64428049,48.71646618],[-123.6445416,48.71667706],[-123.64480823,48.71688491],[-123.64508032,48.71708963],[-123.64535774,48.71729118],[-123.64564047,48.71748951],[-123.64594359,48.71769223],[-123.64622136,48.71787619],[-123.64651937,48.71806445],[-123.64682231,48.71824923],[-123.64713007,48.71843048],[-123.64744257,48.71860815],[-123.64809834,48.71895876],[-123.64815885,48.71898919],[-123.64823167,48.71902655],[-123.6483678,48.71909539],[-123.64864847,48.71923306],[-123.64893276,48.71936248],[-123.64926113,48.71950845],[-123.65056555,48.72011939],[-123.65068799,48.72017727],[-123.65142987,48.72053115],[-123.65219563,48.72089355],[-123.65382522,48.72159593],[-123.65593861,48.72260555],[-123.65731431,48.72327286],[-123.65741185,48.72331985],[-123.65742096,48.71907943],[-123.65966818,48.7190303],[-123.65967007,48.71903016],[-123.65968676,48.71902979],[-123.65993364,48.71902533],[-123.66303759,48.71900155],[-123.67115251,48.71898016],[-123.67116028,48.71898014],[-123.68110395,48.71880847],[-123.68518286,48.71869256],[-123.68518657,48.71869245],[-123.68520556,48.71867993],[-123.68521011,48.71867678],[-123.68560245,48.71868065],[-123.68567968,48.71868141],[-123.68751604,48.71869957],[-123.68803181,48.71870455],[-123.68891522,48.7187131],[-123.68891868,48.71871313],[-123.68910524,48.71871488],[-123.68918687,48.71871559],[-123.68927491,48.71871661],[-123.68930964,48.71871702],[-123.69026118,48.71872627],[-123.69032833,48.71872691],[-123.69090046,48.71873233],[-123.6911976,48.71873553],[-123.69119976,48.71873542],[-123.69336427,48.71862757],[-123.69451516,48.71862291],[-123.69875957,48.71856612],[-123.71228513,48.71927098],[-123.72548491,48.71995719],[-123.72605434,48.71995001],[-123.72619224,48.71995394],[-123.72630952,48.71995713],[-123.73017285,48.7199573],[-123.73061668,48.71995173],[-123.73934433,48.71994783],[-123.75320031,48.71974559],[-123.76615013,48.71966865],[-123.76679753,48.71966644],[-123.77728031,48.71963011],[-123.78007457,48.71960783],[-123.78271713,48.71958669],[-123.78275411,48.71958639],[-123.78275677,48.71958649],[-123.78333428,48.71960727],[-123.79372943,48.71953469],[-123.79768757,48.71950679],[-123.79929619,48.71950662],[-123.80152021,48.7195041],[-123.80463367,48.7195005],[-123.81077176,48.71952388],[-123.81554733,48.71954182],[-123.82223407,48.71956701],[-123.82722693,48.71958555],[-123.83374907,48.71958964],[-123.83821638,48.71959221],[-123.84914822,48.71959815],[-123.8535129,48.71960026],[-123.85786416,48.71960219],[-123.87137665,48.71960704],[-123.87407039,48.71960784],[-123.88231535,48.71960986],[-123.89298018,48.71961548],[-123.89297999,48.71446718],[-123.89017326,48.71447309],[-123.89018782,48.71265847],[-123.89024807,48.70514448],[-123.89028008,48.70065854],[-123.89028478,48.70000025],[-123.89036152,48.68913361],[-123.89158504,48.68913355],[-123.89867365,48.68914353],[-123.89864864,48.68159048],[-123.89864811,48.6733702],[-123.89864793,48.67045953],[-123.89864773,48.66741916],[-123.89314401,48.66741851],[-123.88764027,48.66741803],[-123.8766298,48.66741563],[-123.8766372,48.65081601],[-123.87663958,48.64548454],[-123.87664486,48.63906255],[-123.87983102,48.63729141],[-123.88338077,48.63729212],[-123.88695751,48.63670178],[-123.88749571,48.63813311],[-123.89105956,48.63842365],[-123.89865468,48.63639024],[-123.89996378,48.6385383],[-123.90359539,48.6385383],[-123.90359573,48.64115279],[-123.90359588,48.64487283],[-123.90769246,48.64487283],[-123.9076923,48.64688559],[-123.9076927,48.64710421],[-123.90769305,48.65166275],[-123.90769323,48.65187709],[-123.90784575,48.65187709],[-123.91206309,48.65187709],[-123.91487461,48.65052302],[-123.91648195,48.64974897],[-123.91641688,48.64708747],[-123.91641189,48.6468863],[-123.91633564,48.64376088],[-123.91658782,48.64376373],[-123.91805533,48.64378046],[-123.91805493,48.64233275],[-123.9205609,48.64148606],[-123.92578106,48.63973713],[-123.92821411,48.63974995],[-123.93254596,48.63830081],[-123.94495465,48.63829655],[-123.94756407,48.63829547],[-123.9475665,48.64088495],[-123.9475691,48.64364657],[-123.94756987,48.64447227],[-123.94757101,48.64567608],[-123.94907671,48.64566151],[-123.96257487,48.64552992],[-123.96723053,48.64548413],[-123.97255946,48.64543148],[-123.9999996,48.64538697],[-124.01516682,48.645471],[-124.01516875,48.646777],[-124.01517123,48.64916007],[-124.01517339,48.65123584],[-124.01831048,48.65123798],[-124.01908475,48.65123833],[-124.02238892,48.65124047],[-124.03088176,48.6512451],[-124.04110335,48.65125008],[-124.04156415,48.65125008],[-124.04589792,48.65125186],[-124.04864812,48.65125293],[-124.05001254,48.65125329],[-124.05792129,48.65125578],[-124.06107031,48.65125685],[-124.06901397,48.65125863],[-124.07448714,48.65125934],[-124.08453688,48.65126041],[-124.0855873,48.65126041],[-124.08736206,48.65126041],[-124.09164833,48.65126041],[-124.09707394,48.65126041],[-124.10187114,48.65126041],[-124.1020754,48.65126041],[-124.10613551,48.65126005],[-124.11271219,48.65125934],[-124.11271198,48.65000639],[-124.1127111,48.64596876],[-124.11271102,48.64566042],[-124.11270985,48.63971434],[-124.1405628,48.63970686],[-124.14056554,48.64332614],[-124.15140494,48.64332115],[-124.15140745,48.64562552],[-124.15140842,48.64694042],[-124.1568702,48.64693758],[-124.1568875,48.65055685],[-124.16303561,48.65055329],[-124.16352551,48.65055329],[-124.16663749,48.65055115],[-124.16780956,48.65055044],[-124.16781331,48.65352347],[-124.16781412,48.65416971],[-124.17615848,48.65416615],[-124.18190833,48.6541633],[-124.1822053,48.6541633],[-124.18526072,48.65416152],[-124.18532323,48.65416152],[-124.18905365,48.65415939],[-124.19789973,48.65415404],[-124.19938668,48.65551203],[-124.19970704,48.65580506],[-124.19999948,48.6560721],[-124.20138266,48.65733537],[-124.20536128,48.66062565],[-124.20966824,48.66418724],[-124.20991857,48.66439447],[-124.21354607,48.66739385],[-124.21955268,48.67235829],[-124.21966858,48.67245407],[-124.22409523,48.67611215],[-124.22705163,48.67855502],[-124.22952309,48.68059663],[-124.23698071,48.68675669],[-124.24101596,48.69008863],[-124.24557771,48.69385495],[-124.25299445,48.69978821],[-124.25325953,48.70000006],[-124.25353443,48.70021654],[-124.25392157,48.70052132],[-124.25432718,48.70085565],[-124.26039874,48.70585961],[-124.26082926,48.70621424],[-124.26101856,48.70637197],[-124.26128518,48.70659379],[-124.26291778,48.70795284],[-124.26562344,48.71020452],[-124.26713595,48.71146387],[-124.26757848,48.71183203],[-124.26795006,48.71214393],[-124.27389154,48.71713543],[-124.27428043,48.71746193],[-124.27462842,48.71774784],[-124.27573617,48.71865649],[-124.27727858,48.7199219],[-124.28054103,48.7225987],[-124.28083117,48.7228369],[-124.28082938,48.72277174],[-124.28082322,48.72253532],[-124.28082078,48.72245592],[-124.28050124,48.71062786],[-124.28021425,48.70000006],[-124.27972291,48.68180471],[-124.29065065,48.6816744],[-124.30595668,48.68149032],[-124.31009338,48.68144047],[-124.31250865,48.68141092],[-124.334367,48.68114353],[-124.35622428,48.68087186],[-124.35625029,48.68177837],[-124.35635517,48.68545639],[-124.35652476,48.69138145],[-124.35663763,48.69534538],[-124.35737967,48.69533613],[-124.35804504,48.69532794],[-124.36326869,48.69526224],[-124.36756988,48.69520795],[-124.37850159,48.69506944],[-124.37828692,48.6864982],[-124.37781706,48.66770611],[-124.37777725,48.66612096],[-124.3795441,48.66610138],[-124.38870304,48.66600026],[-124.39962918,48.66587885],[-124.39991509,48.66587564],[-124.39999979,48.66587458],[-124.40705005,48.66579589],[-124.41055479,48.66575637],[-124.41068515,48.65446103],[-124.41090229,48.63563291],[-124.41622004,48.63563683],[-124.41558386,48.63194742],[-124.41833685,48.63173877],[-124.41753747,48.62769829],[-124.41889067,48.62758008],[-124.41750832,48.62575602],[-124.42305246,48.62390953],[-124.42541376,48.62702535],[-124.42836658,48.62676721],[-124.43827415,48.62681565],[-124.44545366,48.62685017],[-124.44544779,48.63259365],[-124.44544761,48.63271979],[-124.44544593,48.6342582],[-124.44544556,48.63461211],[-124.44544533,48.63477044],[-124.44544497,48.63501552],[-124.44551959,48.63501552],[-124.44585552,48.63501552],[-124.44590832,48.63501552],[-124.44621576,48.63501588],[-124.44807453,48.63501664],[-124.46728637,48.63502335],[-124.48868493,48.63502727],[-124.4891278,48.63502727],[-124.48913044,48.62055125],[-124.48921892,48.60629491],[-124.48920762,48.5993437],[-124.48920867,48.59326197],[-124.48920863,48.59281406],[-124.48920853,48.59260755],[-124.4994017,48.59260755],[-124.4994846,48.59260755],[-124.49948418,48.5900486],[-124.4994844,48.58797922],[-124.49948409,48.58526326],[-124.49948409,48.58305751],[-124.49948426,48.58026855],[-124.49948392,48.58015675],[-124.49948377,48.57878595],[-124.49948422,48.57813473],[-124.4994838,48.57711429],[-124.49948408,48.5755384],[-124.49948387,48.57460803],[-124.49948352,48.57249095],[-124.49948362,48.56430993],[-124.49948351,48.56366227],[-124.49948355,48.56240398],[-124.49948333,48.56070775],[-124.50290834,48.5607074],[-124.50290788,48.5579455],[-124.50290781,48.55549906],[-124.5029071,48.55313665],[-124.50290637,48.54469074],[-124.50290649,48.54450167],[-124.50290635,48.54416449],[-124.50295347,48.53934568],[-124.5030282,48.53168356],[-124.50333699,48.50000011],[-124.50368099,48.43443984],[-124.39999976,48.40431247],[-124.38431036,48.39999997],[-124.12701829,48.33325439],[-123.99999977,48.30000017],[-123.90608392,48.28114364],[-123.86928605,48.27372814],[-123.79128722,48.25795965],[-123.7340385,48.24634237],[-123.62708147,48.234431],[-123.59999992,48.23139672],[-123.54160889,48.22483467],[-123.51096591,48.23109906],[-123.5089894,48.23150282],[-123.44248426,48.24506379],[-123.40342321,48.25300776],[-123.39710797,48.36819879],[-123.39634807,48.38202013],[-123.39590945,48.39125995],[-123.39580124,48.39423939],[-123.395738,48.39598477],[-123.39539125,48.40228533],[-123.39530374,48.40354981],[-123.39478813,48.41099629],[-123.39475815,48.4114292],[-123.39465344,48.41294131],[-123.39461889,48.41344023],[-123.39477698,48.41344269],[-123.39574105,48.41345768],[-123.39602908,48.4134623],[-123.39876791,48.41350467],[-123.3999999,48.4135004],[-123.40074753,48.41349791],[-123.40237784,48.41349221],[-123.40483646,48.41348367],[-123.40818903,48.41347192],[-123.4146824,48.41344913],[-123.41495928,48.41344806],[-123.41932101,48.4134324],[-123.41944617,48.41350748],[-123.42453176,48.41655813],[-123.42944787,48.4195065],[-123.43465224,48.42262709],[-123.43831902,48.42482536],[-123.43832923,48.42483146],[-123.44193799,48.42698695],[-123.44239624,48.42710397],[-123.4430047,48.42725933],[-123.44380799,48.42741243],[-123.44458213,48.42745943],[-123.44548046,48.42733909],[-123.44730365,48.42702825],[-123.44787915,48.42696555],[-123.44946995,48.42679219],[-123.44990918,48.42695691],[-123.44991201,48.42695797],[-123.45027128,48.4270927],[-123.45052119,48.42725716],[-123.45111189,48.42764586],[-123.45153361,48.42792337],[-123.45208922,48.42808489],[-123.45208989,48.42808508],[-123.45256365,48.42822281],[-123.45393095,48.4279896],[-123.45551799,48.42692082],[-123.45699364,48.42592698],[-123.45699368,48.42592695],[-123.45699378,48.42592686],[-123.45704902,48.42587999],[-123.45713158,48.42581081],[-123.45720157,48.42575216],[-123.46009998,48.42331083],[-123.4606179,48.42287455],[-123.4609139,48.42262068],[-123.46435426,48.41966972],[-123.46758097,48.41625563],[-123.46887375,48.41488761],[-123.46932617,48.41440884],[-123.4693263,48.41440869],[-123.47327753,48.40991175],[-123.47458971,48.4082059],[-123.47620793,48.40610199],[-123.47728912,48.4051509],[-123.47743396,48.40502347],[-123.4774399,48.40501826],[-123.47867725,48.40392972],[-123.47872935,48.40388379],[-123.47881012,48.40381257],[-123.47884762,48.40376089],[-123.47887107,48.40372855],[-123.47956672,48.40276609],[-123.48156587,48.39999996],[-123.48195173,48.39946638],[-123.48197785,48.39943026],[-123.48201774,48.39937509],[-123.48206819,48.39938969],[-123.48217675,48.39942138],[-123.4835253,48.39981411],[-123.48376873,48.39988493],[-123.48416416,48.39999996],[-123.48572952,48.40046034],[-123.48780165,48.40107489],[-123.48798571,48.40112972],[-123.4882903,48.40091609],[-123.48893435,48.40046497],[-123.48966723,48.40013064],[-123.48986447,48.40004554],[-123.49012217,48.3999341],[-123.49114302,48.39924763],[-123.49206093,48.39885454],[-123.49362908,48.3983931],[-123.49428346,48.39825531],[-123.4955804,48.39817235],[-123.49601012,48.39832153],[-123.4961129,48.39849244],[-123.49843408,48.39829946],[-123.50100249,48.39881823],[-123.5026245,48.39914793],[-123.50554487,48.39975927],[-123.50682855,48.40007153],[-123.50688145,48.40008471],[-123.51190069,48.40130596],[-123.51662664,48.40242993],[-123.51840587,48.40285301],[-123.52543121,48.40471245],[-123.53112814,48.40621984],[-123.53125628,48.40599945],[-123.53302177,48.40645175],[-123.53412336,48.40673395],[-123.53475759,48.40689641],[-123.53633639,48.40730082],[-123.53685196,48.40743299],[-123.5379726,48.40772025],[-123.53877018,48.40792427],[-123.53959909,48.40813434],[-123.53968099,48.40815392],[-123.53975567,48.40817208],[-123.54009014,48.40825611],[-123.54067792,48.40840422],[-123.54077964,48.40842844],[-123.54097189,48.40847401],[-123.54246086,48.40885178],[-123.54337052,48.40908072],[-123.54409788,48.40926414],[-123.54415839,48.4092794],[-123.54417874,48.40924702],[-123.54442201,48.40885984],[-123.54506753,48.40903282],[-123.54536003,48.4091112],[-123.5454815,48.40914375],[-123.54573346,48.40921127],[-123.54578158,48.40913461],[-123.5459839,48.40881231],[-123.54631369,48.40828696],[-123.54643432,48.40809477],[-123.54748252,48.40839192],[-123.55111236,48.40942082],[-123.55482583,48.41047324],[-123.55526914,48.41151577],[-123.55669766,48.4118828],[-123.55705528,48.41304124],[-123.5582445,48.41355642],[-123.558809,48.41519207],[-123.55942271,48.41602042],[-123.55999363,48.4169452],[-123.56084397,48.41765219],[-123.56191158,48.41785201],[-123.56255334,48.41786492],[-123.56385684,48.41859273],[-123.56392171,48.41862895],[-123.56337231,48.41947474],[-123.56305293,48.41996641],[-123.56612024,48.42081463],[-123.56671168,48.42097817],[-123.56559872,48.4226929],[-123.56542003,48.42296819],[-123.5654522,48.42297745],[-123.56595179,48.42312094],[-123.56611594,48.42316794],[-123.56629931,48.42322063],[-123.56860414,48.42388289],[-123.57091952,48.42454835],[-123.57102142,48.4245779],[-123.5715088,48.42472032],[-123.57193977,48.42484352],[-123.57264191,48.4250511],[-123.57297961,48.42515115],[-123.57365099,48.42534982],[-123.57417492,48.42550506],[-123.57454165,48.4256133],[-123.57538007,48.42586147],[-123.57530911,48.4259665],[-123.57463589,48.42696288],[-123.57452178,48.42713176],[-123.57103838,48.43228648],[-123.57092459,48.43245485],[-123.57092479,48.43245485],[-123.57118146,48.43245553],[-123.57239857,48.43245876],[-123.57226279,48.43554502],[-123.57209939,48.43925854],[-123.57209939,48.43925865],[-123.57105349,48.43924747],[-123.56940317,48.43922981],[-123.5667642,48.4391457],[-123.56636508,48.43913297],[-123.56636497,48.43913297],[-123.5660639,48.43961684],[-123.5643691,48.44233957],[-123.56238745,48.4452122],[-123.56327369,48.44543415],[-123.56372959,48.44554832],[-123.56191387,48.44888132],[-123.56118326,48.45022278],[-123.56045342,48.45156275],[-123.56039243,48.45167491],[-123.56009317,48.45222964],[-123.55933689,48.45363322],[-123.55921642,48.4538568],[-123.55895933,48.45433355],[-123.55893868,48.45437272],[-123.55864035,48.45494312],[-123.55849536,48.45522033],[-123.5583245,48.45554698],[-123.55831675,48.45556122],[-123.55857211,48.45567409],[-123.55859715,48.45568548],[-123.55886998,48.45581722],[-123.55913384,48.45595608],[-123.55938906,48.45610242],[-123.55963422,48.45625588],[-123.55976702,48.45634596],[-123.55979107,48.45636091],[-123.55987029,48.45641575],[-123.56009599,48.45658238],[-123.56173875,48.45784565],[-123.56191881,48.45797632],[-123.56211054,48.45809987],[-123.56231273,48.45821559],[-123.56252526,48.45832276],[-123.56274665,48.4584221],[-123.56297611,48.45851218],[-123.56321364,48.45859301],[-123.56345763,48.45866457],[-123.56370776,48.45872653],[-123.56396261,48.45877851],[-123.56422186,48.45882017],[-123.56448476,48.45885186],[-123.56474958,48.45887286],[-123.56514697,48.45889672],[-123.56800366,48.45906869],[-123.56801792,48.45904235],[-123.56801847,48.45904132],[-123.56807576,48.45893553],[-123.56808986,48.45893638],[-123.57068142,48.45909326],[-123.57092734,48.45911356],[-123.57117038,48.45914524],[-123.57140935,48.45918761],[-123.57164373,48.45924067],[-123.57187189,48.4593044],[-123.57209351,48.45937846],[-123.57230632,48.45946213],[-123.57251053,48.45955506],[-123.57270452,48.45965725],[-123.57288817,48.45976798],[-123.57305954,48.4598869],[-123.57321851,48.4600133],[-123.57336388,48.46014646],[-123.57340433,48.46018955],[-123.57341563,48.46020058],[-123.5734386,48.46022479],[-123.57347212,48.4602604],[-123.57350127,48.46029244],[-123.57353375,48.46032983],[-123.5735601,48.46036116],[-123.57358536,48.4603925],[-123.57360115,48.46041243],[-123.57362568,48.46044412],[-123.57364979,48.46047652],[-123.5736645,48.46049646],[-123.57369277,48.46053741],[-123.57371996,48.46057836],[-123.57373339,48.46059865],[-123.57374662,48.4606193],[-123.5737591,48.46064031],[-123.57378373,48.46068197],[-123.57379568,48.46070297],[-123.57381903,48.46074499],[-123.57384057,48.46078736],[-123.57386136,48.46083008],[-123.57388107,48.46087281],[-123.57389099,48.46089453],[-123.57390889,48.46093761],[-123.5739172,48.46095933],[-123.57393382,48.46100277],[-123.57394262,48.46102734],[-123.57395688,48.46107113],[-123.57396412,48.46109285],[-123.57397061,48.46111493],[-123.5739771,48.461137],[-123.57398306,48.46115908],[-123.57398893,48.46118222],[-123.57399435,48.46120429],[-123.57399804,48.46122103],[-123.57399923,48.46122637],[-123.57400878,48.46127088],[-123.57401312,48.46129295],[-123.57402053,48.46133746],[-123.5740274,48.46138196],[-123.57402993,48.4614044],[-123.57403246,48.46142683],[-123.57403664,48.46147133],[-123.57403863,48.46149377],[-123.574041,48.46153863],[-123.57404191,48.46156106],[-123.57404229,48.46158349],[-123.57404267,48.46160592],[-123.57404251,48.46162835],[-123.57404182,48.46165078],[-123.57404112,48.46167322],[-123.57404043,48.46169565],[-123.5740392,48.46171808],[-123.57403675,48.46175368],[-123.57403444,48.46177611],[-123.57402983,48.46182098],[-123.57402666,48.46184305],[-123.5740201,48.46188756],[-123.57401619,48.46190999],[-123.57400802,48.4619545],[-123.57399879,48.461999],[-123.57398815,48.46204315],[-123.57398229,48.46206523],[-123.5739759,48.46208731],[-123.57397004,48.46210938],[-123.57396331,48.4621311],[-123.57394912,48.46217489],[-123.57393386,48.46221869],[-123.57392606,48.46224041],[-123.57391773,48.46226213],[-123.57389998,48.46230556],[-123.57389078,48.46232693],[-123.57387163,48.46237001],[-123.57386957,48.46237454],[-123.57386189,48.46239137],[-123.57385162,48.46241274],[-123.57384084,48.46243404],[-123.57384081,48.4624341],[-123.57381885,48.46247647],[-123.57381463,48.46248424],[-123.57381455,48.46248438],[-123.57379603,48.46251848],[-123.5737898,48.46252919],[-123.57378382,48.46253949],[-123.5737716,48.4625605],[-123.57374651,48.4626018],[-123.57373343,48.46262245],[-123.57372178,48.46264083],[-123.57372034,48.4626431],[-123.57370672,48.46266375],[-123.57370422,48.4626674],[-123.57369277,48.46268405],[-123.57367862,48.4627047],[-123.57367637,48.46270797],[-123.57366467,48.46272499],[-123.57365248,48.46274139],[-123.57364985,48.46274493],[-123.57363785,48.46276096],[-123.57363407,48.46276626],[-123.57362618,48.46277733],[-123.57361376,48.46279315],[-123.57360131,48.46280902],[-123.57358885,48.46282494],[-123.57358876,48.46282504],[-123.5735759,48.46284071],[-123.57356303,48.46285638],[-123.57355016,48.46287204],[-123.57354226,48.46288167],[-123.57353729,48.46288771],[-123.57352389,48.46290338],[-123.57351469,48.46291371],[-123.57350994,48.46291904],[-123.5735063,48.46292326],[-123.57349674,48.46293435],[-123.57348938,48.46294226],[-123.57348247,48.46294966],[-123.57346874,48.46296497],[-123.57346865,48.46296507],[-123.57345446,48.46298028],[-123.57344713,48.46298815],[-123.57344019,48.46299559],[-123.57343564,48.46300025],[-123.57342559,48.46301055],[-123.57341991,48.46301664],[-123.57341132,48.46302586],[-123.57339835,48.46303867],[-123.57339618,48.46304081],[-123.57339407,48.46304297],[-123.57338157,48.46305577],[-123.57337304,48.46306382],[-123.5733661,48.46307037],[-123.57335102,48.46308526],[-123.57335097,48.46308532],[-123.5733355,48.46309992],[-123.57332003,48.46311452],[-123.57331122,48.46312282],[-123.57330456,48.46312911],[-123.57328855,48.46314371],[-123.57327275,48.46315795],[-123.5732645,48.46316524],[-123.57325621,48.46317255],[-123.57323987,48.46318679],[-123.5732292,48.4631961],[-123.57322354,48.46320104],[-123.5732072,48.46321528],[-123.57316186,48.46319711],[-123.57311837,48.46317967],[-123.57311828,48.46317974],[-123.57311084,48.4631858],[-123.57310613,48.46318964],[-123.57308164,48.46320958],[-123.57306444,48.46322347],[-123.57305209,48.4632333],[-123.57305201,48.46323336],[-123.57304745,48.463237],[-123.5730297,48.46325088],[-123.57302265,48.46325608],[-123.57301184,48.46326406],[-123.57299939,48.46327367],[-123.57299431,48.46327759],[-123.57297624,48.46329112],[-123.57295784,48.46330429],[-123.57293964,48.46331711],[-123.57292125,48.46333028],[-123.57290252,48.4633431],[-123.57289432,48.46334855],[-123.57288325,48.46335592],[-123.57287377,48.46336241],[-123.57286452,48.46336874],[-123.57284546,48.4633812],[-123.57283999,48.46338468],[-123.57282586,48.46339366],[-123.57280627,48.46340612],[-123.57279761,48.46341163],[-123.57278667,48.46341858],[-123.57277431,48.46342609],[-123.57276674,48.46343069],[-123.57275849,48.46343571],[-123.57274682,48.4634428],[-123.5727271,48.46345455],[-123.57270664,48.46346665],[-123.57268638,48.4634784],[-123.57266579,48.46348979],[-123.57265234,48.46349724],[-123.57264521,48.46350119],[-123.57262408,48.46351258],[-123.57261554,48.46351731],[-123.5726035,48.46352398],[-123.57259266,48.46352955],[-123.57258204,48.46353501],[-123.57256808,48.46354238],[-123.57256113,48.46354605],[-123.57253967,48.46355709],[-123.57252828,48.46356268],[-123.57251789,48.46356777],[-123.57249611,48.46357845],[-123.57247432,48.46358913],[-123.57245275,48.46359946],[-123.57242489,48.46361228],[-123.57240284,48.46362258],[-123.57240278,48.4636226],[-123.57238033,48.46363257],[-123.57235789,48.46364254],[-123.57234691,48.46364742],[-123.57233545,48.46365251],[-123.57231281,48.46366206],[-123.57231267,48.46366212],[-123.5722899,48.46367174],[-123.57227693,48.46367694],[-123.5722668,48.463681],[-123.57225407,48.46368622],[-123.57224423,48.46369025],[-123.57223073,48.46369554],[-123.57222059,48.46369951],[-123.5721977,48.46370841],[-123.57217426,48.46371731],[-123.57215083,48.46372621],[-123.57214112,48.46372971],[-123.57212707,48.46373476],[-123.57210331,48.4637433],[-123.57209632,48.46374582],[-123.57207954,48.46375185],[-123.5720572,48.46375944],[-123.57205556,48.46376],[-123.57205545,48.46376004],[-123.57203136,48.46376823],[-123.57202055,48.46377177],[-123.57200747,48.46377606],[-123.57198305,48.46378389],[-123.57195863,48.46379173],[-123.57193441,48.4637992],[-123.57191153,48.46380627],[-123.57191019,48.46380668],[-123.57190992,48.46380676],[-123.57188544,48.46381416],[-123.5718609,48.46382128],[-123.57183582,48.4638284],[-123.5718242,48.46383156],[-123.57181094,48.46383517],[-123.57178607,48.46384193],[-123.57177401,48.46384521],[-123.57176119,48.4638487],[-123.57173599,48.4638551],[-123.57171078,48.46386151],[-123.57171066,48.46386154],[-123.57168557,48.46386792],[-123.57166004,48.46387398],[-123.57164264,48.46387789],[-123.57163471,48.46387967],[-123.57162751,48.46388138],[-123.57160918,48.46388572],[-123.57158331,48.46389142],[-123.5715629,48.46389567],[-123.57155765,48.46389676],[-123.57153249,48.463902],[-123.57153199,48.4639021],[-123.57150634,48.46390744],[-123.57149576,48.46390947],[-123.57148035,48.46391243],[-123.57145436,48.46391741],[-123.57144825,48.46391859],[-123.57142837,48.4639224],[-123.57140259,48.46392703],[-123.57138848,48.46392934],[-123.57137648,48.4639313],[-123.57136509,48.4639333],[-123.57135016,48.46393593],[-123.57132405,48.4639402],[-123.57129815,48.46394412],[-123.57128126,48.46394662],[-123.57127171,48.46394803],[-123.57126555,48.4639298],[-123.57124921,48.46388145],[-123.57013165,48.46404581],[-123.56944071,48.46414742],[-123.56875355,48.46424852],[-123.56762801,48.46441411],[-123.56759528,48.46441895],[-123.56757513,48.46442194],[-123.56754901,48.46442621],[-123.56752864,48.4644298],[-123.5675227,48.46443084],[-123.56751841,48.46443154],[-123.56749658,48.46443511],[-123.56748293,48.46443773],[-123.5674706,48.4644401],[-123.56745649,48.46444263],[-123.56744482,48.46444473],[-123.56741883,48.46444971],[-123.56740991,48.46445157],[-123.56739317,48.46445505],[-123.5673819,48.46445721],[-123.56736718,48.46446004],[-123.56735376,48.46446306],[-123.56734185,48.46446573],[-123.56732003,48.46447028],[-123.56731619,48.46447108],[-123.56729033,48.46447677],[-123.56727311,48.46448085],[-123.56726479,48.46448283],[-123.56723979,48.46448888],[-123.56721426,48.46449493],[-123.56720607,48.46449691],[-123.56718926,48.46450098],[-123.56717639,48.46450441],[-123.56716384,48.46450775],[-123.5671413,48.46451348],[-123.56713864,48.46451416],[-123.56711376,48.46452092],[-123.56708888,48.46452769],[-123.5670638,48.46453481],[-123.5670495,48.46453896],[-123.56703926,48.46454193],[-123.56703374,48.46454353],[-123.56701471,48.46454905],[-123.56698996,48.46455653],[-123.56696574,48.46456401],[-123.56694304,48.46457128],[-123.56694132,48.46457184],[-123.56691689,48.46457967],[-123.56689301,48.4645875],[-123.56686891,48.46459569],[-123.56684482,48.46460388],[-123.56682106,48.46461243],[-123.56681348,48.46461515],[-123.56679729,48.46462097],[-123.56677406,48.46462952],[-123.56675009,48.46463842],[-123.56674029,48.46464214],[-123.56672666,48.46464732],[-123.56670376,48.46465622],[-123.56670363,48.46465627],[-123.56668066,48.46466548],[-123.56665756,48.46467474],[-123.56663478,48.46468435],[-123.56662402,48.46468866],[-123.56661168,48.46469361],[-123.56659658,48.46470031],[-123.56658923,48.46470358],[-123.5665795,48.46470769],[-123.56656646,48.46471319],[-123.56654401,48.46472316],[-123.56653206,48.46472874],[-123.5665219,48.46473349],[-123.56651042,48.46473858],[-123.56649946,48.46474345],[-123.56647734,48.46475378],[-123.56645556,48.46476446],[-123.56643398,48.46477479],[-123.56641219,48.46478547],[-123.56639084,48.46479646],[-123.56639074,48.46479651],[-123.56636929,48.46480754],[-123.5663618,48.46481149],[-123.56634837,48.46481858],[-123.56630633,48.46484101],[-123.56628287,48.464854],[-123.56626515,48.4648638],[-123.56624436,48.46487555],[-123.56623317,48.46488218],[-123.56622633,48.46488623],[-123.56585879,48.46510053],[-123.56574696,48.46516573],[-123.56574076,48.46516933],[-123.5657267,48.46517748],[-123.56571569,48.4651837],[-123.56570591,48.46518923],[-123.56569292,48.46519657],[-123.56568511,48.46520098],[-123.56566452,48.46521238],[-123.56565025,48.46521991],[-123.5656436,48.46522341],[-123.56560103,48.46524584],[-123.5655977,48.4652476],[-123.56558011,48.46525688],[-123.56555832,48.46526756],[-123.56554427,48.46527446],[-123.56553654,48.46527825],[-123.56553057,48.46528117],[-123.56551475,48.46528893],[-123.56549318,48.46529925],[-123.56547106,48.46530958],[-123.56546286,48.46531322],[-123.56544862,48.46531955],[-123.56543502,48.4653259],[-123.5654265,48.46532987],[-123.56540406,48.46533984],[-123.56539069,48.46534548],[-123.56538128,48.46534946],[-123.56535905,48.46535907],[-123.56535233,48.4653619],[-123.56533627,48.46536868],[-123.56531296,48.4653783],[-123.56528986,48.46538755],[-123.56527992,48.46539142],[-123.56526696,48.46539646],[-123.56524332,48.46540571],[-123.56524174,48.46540633],[-123.56522042,48.46541461],[-123.56520455,48.46542032],[-123.56519665,48.46542316],[-123.56518965,48.46542582],[-123.56517322,48.46543206],[-123.56515845,48.46543708],[-123.56514913,48.46544025],[-123.56513337,48.46544592],[-123.56512536,48.46544879],[-123.56511172,48.46545343],[-123.56510127,48.46545698],[-123.56509194,48.46546015],[-123.56507717,48.46546517],[-123.56505329,48.46547301],[-123.56502894,48.46548082],[-123.56502886,48.46548084],[-123.56500465,48.46548832],[-123.56499817,48.46549039],[-123.56498022,48.46549615],[-123.56495568,48.46550327],[-123.56493092,48.46551075],[-123.56490638,48.46551787],[-123.56488522,48.46552362],[-123.5648815,48.46552463],[-123.56485662,48.4655314],[-123.56483121,48.46553816],[-123.56482341,48.46554028],[-123.56480633,48.46554493],[-123.56478113,48.46555134],[-123.56476464,48.46555525],[-123.56475559,48.46555739],[-123.56473339,48.46556277],[-123.56473059,48.46556344],[-123.56470505,48.4655695],[-123.56467972,48.46557519],[-123.56465386,48.46558089],[-123.56464192,48.46558358],[-123.56462853,48.46558659],[-123.56460287,48.46559193],[-123.56457667,48.46559727],[-123.56455122,48.46560225],[-123.56452523,48.46560724],[-123.56451388,48.46560924],[-123.56449891,48.46561187],[-123.56447313,48.4656165],[-123.56444681,48.46562112],[-123.56443689,48.46562281],[-123.56440273,48.4656286],[-123.56437884,48.46563214],[-123.56437628,48.46563252],[-123.56435693,48.46563538],[-123.56434984,48.46563643],[-123.5643234,48.46564035],[-123.56427093,48.46564747],[-123.56423098,48.46565246],[-123.56419124,48.46565709],[-123.5641712,48.46565922],[-123.56415116,48.46566136],[-123.56413113,48.46566349],[-123.5641113,48.46566527],[-123.56410449,48.46566588],[-123.56408347,48.46566774],[-123.5640711,48.46566883],[-123.56405127,48.46567062],[-123.56403725,48.46567161],[-123.56403111,48.46567204],[-123.56401095,48.46567346],[-123.56399079,48.46567489],[-123.56397063,48.46567631],[-123.56396632,48.46567662],[-123.56395047,48.46567774],[-123.56393052,48.4656788],[-123.56391057,48.46567987],[-123.56389008,48.46568094],[-123.56387377,48.46568151],[-123.5638698,48.46568165],[-123.56385005,48.46568236],[-123.56382977,48.46568308],[-123.56380949,48.46568379],[-123.56380408,48.46568398],[-123.563804,48.46568398],[-123.5637892,48.4656845],[-123.56378044,48.46568466],[-123.56376913,48.46568486],[-123.56374905,48.46568521],[-123.56372844,48.46568557],[-123.56372576,48.46568562],[-123.56370837,48.46568593],[-123.56368796,48.46568593],[-123.56367552,48.46568593],[-123.56366809,48.46568593],[-123.56365759,48.46568593],[-123.56364769,48.46568593],[-123.56362728,48.46568593],[-123.56360708,48.46568557],[-123.56358689,48.46568521],[-123.56356688,48.46568486],[-123.56356669,48.46568486],[-123.56353488,48.46568415],[-123.56349428,48.46568379],[-123.56345409,48.46568272],[-123.56343389,48.46568237],[-123.56341337,48.46568165],[-123.56337338,48.46568023],[-123.56335306,48.46567916],[-123.56333274,48.46567809],[-123.56329264,48.46567596],[-123.56327232,48.46567489],[-123.5632522,48.46567346],[-123.56321198,48.46567062],[-123.56319207,48.46566883],[-123.56317196,48.46566741],[-123.56313161,48.46566385],[-123.563092,48.46565993],[-123.56305206,48.46565566],[-123.56303203,48.46565317],[-123.56231064,48.46556772],[-123.56228545,48.46556487],[-123.56226542,48.46556238],[-123.56222528,48.46555846],[-123.56220558,48.46555632],[-123.56218567,48.46555454],[-123.56216523,48.46555276],[-123.56214532,48.46555098],[-123.5621053,48.46554778],[-123.56206507,48.46554493],[-123.56202464,48.46554244],[-123.56198454,48.4655403],[-123.56194422,48.46553852],[-123.5619237,48.46553781],[-123.56188351,48.46553674],[-123.56184332,48.46553567],[-123.56182312,48.46553532],[-123.56180271,48.46553532],[-123.56179466,48.46553532],[-123.56178432,48.46553532],[-123.56177426,48.46553532],[-123.56175418,48.46553567],[-123.56173411,48.46553603],[-123.56171443,48.46553672],[-123.56171382,48.46553674],[-123.56169354,48.46553745],[-123.56168385,48.46553762],[-123.56167347,48.46553781],[-123.56166001,48.46553851],[-123.56165298,48.46553888],[-123.56163323,48.46553959],[-123.561633,48.4655396],[-123.56161274,48.46554066],[-123.5615723,48.46554279],[-123.56153219,48.46554529],[-123.56152858,48.46554548],[-123.56151223,48.46554635],[-123.5614993,48.46554748],[-123.56149187,48.46554813],[-123.56147171,48.46554956],[-123.56147027,48.46554966],[-123.56145209,48.46555098],[-123.56143172,48.46555276],[-123.56141189,48.46555454],[-123.56139708,48.46555612],[-123.56139185,48.46555668],[-123.56137735,48.46555798],[-123.56137202,48.46555846],[-123.56135199,48.4655606],[-123.56133195,48.46556273],[-123.56131191,48.46556487],[-123.56127217,48.4655695],[-123.56125246,48.46557199],[-123.56123151,48.46557478],[-123.56122569,48.46557555],[-123.56122401,48.46557576],[-123.56120598,48.46557804],[-123.56118669,48.4655809],[-123.56117954,48.46558196],[-123.56112719,48.46558979],[-123.5611182,48.46559112],[-123.56110075,48.46559371],[-123.56108509,48.46559646],[-123.56107443,48.46559834],[-123.56105744,48.46560112],[-123.56104832,48.46560261],[-123.56103618,48.46560479],[-123.56102254,48.46560724],[-123.5610124,48.46560902],[-123.56099622,48.46561187],[-123.56097826,48.46561535],[-123.56094478,48.46562184],[-123.56093076,48.46562464],[-123.56089313,48.46563216],[-123.56086726,48.46563786],[-123.56086365,48.46563867],[-123.56084193,48.46564356],[-123.56081931,48.46564854],[-123.56081606,48.46564925],[-123.56079073,48.46565495],[-123.5607652,48.465661],[-123.56074653,48.46566575],[-123.56073999,48.46566741],[-123.56068958,48.46568023],[-123.56068457,48.4656815],[-123.56066437,48.46568664],[-123.56063949,48.4656934],[-123.56062235,48.46569838],[-123.56061494,48.46570052],[-123.5606075,48.46570255],[-123.56059007,48.46570729],[-123.56054076,48.46572189],[-123.56052297,48.46572743],[-123.56049159,48.4657372],[-123.5604812,48.4657404],[-123.56046737,48.46574467],[-123.56042492,48.46575856],[-123.56037727,48.46577494],[-123.56036476,48.46577944],[-123.56035351,48.46578348],[-123.56031786,48.4657963],[-123.56030598,48.46580057],[-123.56029092,48.4658063],[-123.56029088,48.46580631],[-123.56028254,48.46580948],[-123.56026943,48.46581446],[-123.56023567,48.46582728],[-123.56021257,48.46583654],[-123.56016681,48.46585535],[-123.56016668,48.46585541],[-123.56012113,48.46587463],[-123.5601068,48.46588105],[-123.56005433,48.46590454],[-123.55943837,48.46618618],[-123.55918834,48.46630193],[-123.5591738,48.46630866],[-123.55916381,48.46631348],[-123.55873795,48.46651901],[-123.55873706,48.46651945],[-123.55869402,48.46654081],[-123.55865098,48.46656217],[-123.55865089,48.46656222],[-123.55860774,48.46658389],[-123.55860344,48.466586],[-123.55858447,48.46659528],[-123.55857115,48.46660231],[-123.55856355,48.46660632],[-123.55855284,48.46661183],[-123.55854209,48.46661736],[-123.55852117,48.4666284],[-123.55849364,48.4666436],[-123.55847925,48.46665154],[-123.55845368,48.46666603],[-123.5584384,48.46667468],[-123.55841834,48.46668659],[-123.55839821,48.46669854],[-123.55837828,48.46671064],[-123.55833929,48.46673521],[-123.55832002,48.46674803],[-123.55830096,48.46676049],[-123.55828039,48.46677456],[-123.55826349,48.46678613],[-123.55825993,48.46678861],[-123.55824455,48.4667993],[-123.55822615,48.46681248],[-123.55822009,48.46681698],[-123.5581924,48.46683755],[-123.55819021,48.46683918],[-123.55818909,48.46684004],[-123.55815513,48.46686624],[-123.55810372,48.46690754],[-123.55805416,48.46695027],[-123.55802607,48.46697531],[-123.55802182,48.46697911],[-123.55801631,48.4669843],[-123.55799087,48.4670083],[-123.55796079,48.46703786],[-123.55793137,48.46706812],[-123.55791091,48.46708956],[-123.55790249,48.46709839],[-123.55788875,48.4671137],[-123.55788353,48.4671198],[-123.55787534,48.46712936],[-123.55785671,48.46715062],[-123.55784819,48.46716034],[-123.55783553,48.46717612],[-123.55782278,48.46719203],[-123.55781044,48.46720769],[-123.55778653,48.46723891],[-123.5577859,48.46723974],[-123.55778587,48.46723977],[-123.55775458,48.46728343],[-123.55775451,48.46728353],[-123.55772747,48.46732448],[-123.55772455,48.4673291],[-123.55771439,48.46734513],[-123.55770957,48.46735359],[-123.55769048,48.46738714],[-123.55765791,48.46745052],[-123.55764327,48.46748255],[-123.55763822,48.4674936],[-123.55763456,48.46750313],[-123.55761646,48.46755029],[-123.55761321,48.46755876],[-123.55760594,48.46758048],[-123.55760233,48.4675928],[-123.55759456,48.46761927],[-123.55759174,48.4676289],[-123.55759101,48.46763209],[-123.55757663,48.46769549],[-123.55756583,48.46776207],[-123.55756121,48.46780693],[-123.55755858,48.46787422],[-123.55755934,48.46791909],[-123.55756443,48.46798602],[-123.55778823,48.46984121],[-123.55782696,48.47016222],[-123.55782778,48.47016827],[-123.5578299,48.47018394],[-123.55783677,48.47022844],[-123.55784354,48.47026634],[-123.55784472,48.47027295],[-123.55784656,48.47028126],[-123.55785448,48.4703171],[-123.55786565,48.47036161],[-123.55803948,48.47099716],[-123.55804496,48.47101808],[-123.55804498,48.47101817],[-123.55805528,48.47106232],[-123.55805963,48.47108439],[-123.55806737,48.47112925],[-123.55807064,48.47115133],[-123.5580757,48.47119619],[-123.55807861,48.47123166],[-123.55807935,48.4712407],[-123.55807964,48.47125075],[-123.55808065,48.47128556],[-123.55808033,48.47133042],[-123.55807841,48.47137529],[-123.55807227,48.47144188],[-123.55807223,48.47144222],[-123.55807221,48.47144237],[-123.55806177,48.47150916],[-123.55805538,48.47154184],[-123.55805307,48.47155367],[-123.55805054,48.47156351],[-123.5580367,48.47161729],[-123.55803603,48.47161989],[-123.55803546,48.47162168],[-123.55801491,48.47168576],[-123.55799044,48.47175092],[-123.5579886,48.47175543],[-123.55798157,48.47177264],[-123.55797405,48.47178913],[-123.55796795,48.47180251],[-123.55796209,48.47181537],[-123.55795181,48.47183673],[-123.55794182,48.47185602],[-123.55793986,48.4718598],[-123.55792986,48.4718791],[-123.55791818,48.47190011],[-123.5579139,48.4719073],[-123.55789341,48.47194177],[-123.55786724,48.47198307],[-123.55783967,48.47202401],[-123.55782518,48.47204432],[-123.55781016,48.4720646],[-123.55779217,48.47208802],[-123.55778582,48.47209629],[-123.55777961,48.47210388],[-123.55775987,48.47212798],[-123.55773326,48.47215896],[-123.55771506,48.47217973],[-123.55770612,48.47218993],[-123.55769469,48.47220191],[-123.55767724,48.4722202],[-123.55763817,48.47225972],[-123.55763289,48.47226506],[-123.557626,48.47227149],[-123.55758594,48.47230886],[-123.55755359,48.4723377],[-123.55752561,48.47236153],[-123.55752058,48.47236582],[-123.55751685,48.47236884],[-123.55748617,48.4723936],[-123.55745664,48.4724169],[-123.55745143,48.47242101],[-123.55744497,48.47242581],[-123.55741549,48.47244772],[-123.55737868,48.47247406],[-123.55735599,48.47248995],[-123.55734155,48.47250006],[-123.5573234,48.47251183],[-123.5573174,48.47251572],[-123.55727896,48.4725405],[-123.55727874,48.47254065],[-123.55723888,48.47256486],[-123.55721895,48.47257696],[-123.55716999,48.47260511],[-123.55715763,48.47261221],[-123.55711612,48.47263464],[-123.55711016,48.47263771],[-123.55707321,48.47265672],[-123.55703017,48.47267808],[-123.55698634,48.47269906],[-123.55698627,48.47269909],[-123.55694922,48.47271596],[-123.55694171,48.47271938],[-123.55693161,48.47272372],[-123.55687867,48.47274645],[-123.55687371,48.47274858],[-123.55651312,48.47289802],[-123.5557465,48.47321572],[-123.55573685,48.47321993],[-123.55567883,48.47324527],[-123.55563426,48.47326557],[-123.55560383,48.47327977],[-123.55559003,48.47328622],[-123.55557259,48.47329477],[-123.55557255,48.47329479],[-123.5555551,48.47330334],[-123.55554645,48.47330758],[-123.55553296,48.47331444],[-123.55550375,48.4733293],[-123.55547536,48.47334409],[-123.55546137,48.47335138],[-123.55545223,48.47335643],[-123.55544078,48.47336277],[-123.55538856,48.47339161],[-123.55536531,48.47340492],[-123.55534804,48.4734148],[-123.5553475,48.47341511],[-123.55531479,48.47343479],[-123.55530785,48.47343897],[-123.55524872,48.473476],[-123.55517557,48.47352424],[-123.55517205,48.47352655],[-123.55516708,48.47353004],[-123.5551286,48.47355703],[-123.55511672,48.47356536],[-123.55510794,48.47357184],[-123.55508013,48.47359236],[-123.55508004,48.47359242],[-123.55501264,48.47364603],[-123.55501109,48.47364726],[-123.55500962,48.47364857],[-123.55494962,48.47370206],[-123.5549464,48.47370494],[-123.55494245,48.47370887],[-123.55490171,48.47374944],[-123.55485943,48.47379537],[-123.55481037,48.47385457],[-123.5548072,48.4738584],[-123.55479533,48.47387431],[-123.55478038,48.47389436],[-123.55476901,48.47391123],[-123.55476082,48.47392339],[-123.5547528,48.4739353],[-123.55474859,48.47394236],[-123.55471265,48.47400259],[-123.55471052,48.47400616],[-123.55470525,48.47401633],[-123.55469518,48.47403575],[-123.55468856,48.47404853],[-123.5546857,48.47405503],[-123.55466021,48.47411297],[-123.55463052,48.47419837],[-123.55462989,48.47420021],[-123.55454865,48.47448844],[-123.55442538,48.47492584],[-123.55434749,48.47520155],[-123.55426575,48.47549093],[-123.55426304,48.47550051],[-123.55426013,48.47551017],[-123.5542377,48.47558478],[-123.5542366,48.47558845],[-123.55423289,48.47559977],[-123.55421515,48.47565397],[-123.55419026,48.47572624],[-123.55418706,48.4757355],[-123.55418121,48.47575145],[-123.55417574,48.47576634],[-123.55416314,48.47580066],[-123.55413762,48.47586574],[-123.55413759,48.47586582],[-123.55410178,48.47595234],[-123.55409013,48.47597933],[-123.55407397,48.47601678],[-123.55404455,48.47608123],[-123.554024,48.47612396],[-123.55401839,48.47613532],[-123.55399034,48.4761922],[-123.55398203,48.47620905],[-123.55396007,48.47625142],[-123.55395251,48.47626545],[-123.5539259,48.4763148],[-123.55389086,48.47637782],[-123.55385869,48.47643396],[-123.55385496,48.47644049],[-123.55384953,48.47644956],[-123.55382382,48.4764925],[-123.55381744,48.47650315],[-123.5538109,48.47651362],[-123.55377873,48.47656511],[-123.55372553,48.47664735],[-123.5536722,48.47672654],[-123.55367038,48.47672925],[-123.55366811,48.47673247],[-123.55362746,48.47679013],[-123.55358915,48.47684307],[-123.55358366,48.47685066],[-123.55351911,48.47693724],[-123.5535104,48.47694893],[-123.5535055,48.47695635],[-123.55345613,48.47703118],[-123.55339686,48.47713586],[-123.55334694,48.47724291],[-123.55334689,48.47724303],[-123.55330103,48.47737204],[-123.55330044,48.4773737],[-123.55329995,48.4773757],[-123.55327311,48.47748443],[-123.5532584,48.47757345],[-123.55324889,48.4777075],[-123.55324855,48.47771231],[-123.55324878,48.47771826],[-123.55325282,48.47782411],[-123.55326632,48.47793239],[-123.55326676,48.47793591],[-123.55326782,48.4779409],[-123.55328486,48.47802123],[-123.55328557,48.47802456],[-123.55328638,48.47802736],[-123.55331123,48.47811251],[-123.55334904,48.4782147],[-123.55335154,48.47822146],[-123.55335487,48.47822841],[-123.55340275,48.47832828],[-123.55348924,48.47847271],[-123.55348995,48.4784739],[-123.55349099,48.4784753],[-123.55359199,48.47861063],[-123.55451713,48.47980132],[-123.55515174,48.48061805],[-123.55515301,48.48061951],[-123.55526043,48.48074338],[-123.5553327,48.48081464],[-123.55533554,48.48081744],[-123.55533878,48.48082027],[-123.55541329,48.48088535],[-123.55541747,48.480889],[-123.55542561,48.4808954],[-123.55548512,48.48094218],[-123.55548678,48.48094348],[-123.55548812,48.48094444],[-123.55556035,48.48099618],[-123.55565659,48.48105884],[-123.55575812,48.48111795],[-123.55586183,48.48117196],[-123.55586408,48.48117313],[-123.55646382,48.48146367],[-123.55646399,48.48146376],[-123.55652246,48.48149358],[-123.55652804,48.48149643],[-123.55653434,48.48149986],[-123.55658196,48.48152576],[-123.55659088,48.48153061],[-123.55659639,48.48153381],[-123.55664652,48.48156296],[-123.5566515,48.48156586],[-123.55665592,48.4815686],[-123.55670554,48.48159931],[-123.55671075,48.48160253],[-123.55671453,48.48160504],[-123.5567681,48.48164063],[-123.55681185,48.48167103],[-123.55682396,48.48167944],[-123.55686001,48.48170614],[-123.55687738,48.48171968],[-123.55687757,48.48171982],[-123.55692911,48.48176098],[-123.55697894,48.4818037],[-123.55703825,48.48185782],[-123.55708361,48.48190269],[-123.55712641,48.48194826],[-123.55716081,48.4819868],[-123.55716772,48.48199455],[-123.55717691,48.48200583],[-123.55720004,48.48203426],[-123.55720626,48.4820419],[-123.55752534,48.48245029],[-123.55755951,48.48249409],[-123.55789676,48.48296087],[-123.55792665,48.48300916],[-123.55793665,48.48302532],[-123.55794379,48.48303749],[-123.55795608,48.48305843],[-123.55797455,48.48309226],[-123.55797764,48.48309827],[-123.55799591,48.48313382],[-123.55799926,48.48314032],[-123.55814513,48.48332832],[-123.55823367,48.48345507],[-123.5583063,48.4835861],[-123.5583629,48.48372069],[-123.55840247,48.48385777],[-123.55842522,48.48399699],[-123.55843058,48.48413656],[-123.55841929,48.48427613],[-123.55839035,48.48441464],[-123.55834439,48.484551],[-123.55820853,48.48489103],[-123.55816547,48.48501779],[-123.5581375,48.48514632],[-123.55812502,48.48527593],[-123.55812704,48.48540553],[-123.55814432,48.48553478],[-123.55817672,48.48566295],[-123.55822379,48.485789],[-123.55831039,48.48598661],[-123.55837923,48.48616392],[-123.55843233,48.48634337],[-123.55846882,48.4865246],[-123.55848944,48.48670726],[-123.55849374,48.48689027],[-123.5584816,48.48707292],[-123.55845322,48.48725486],[-123.55840536,48.48749342],[-123.55837354,48.4876896],[-123.55835742,48.4878865],[-123.55835647,48.48808411],[-123.55837077,48.48828136],[-123.55840073,48.48847755],[-123.55844582,48.48867267],[-123.55850645,48.488866],[-123.55858196,48.48905685],[-123.55867202,48.48924484],[-123.55876227,48.48941681],[-123.55877002,48.48943213],[-123.55899991,48.48987043],[-123.55906497,48.49001178],[-123.55911387,48.49015598],[-123.55914703,48.49030232],[-123.55916271,48.49045008],[-123.55916227,48.49059784],[-123.55914538,48.49074525],[-123.55911139,48.49089158],[-123.55906145,48.49103578],[-123.55899489,48.49117714],[-123.55866967,48.49178955],[-123.55859068,48.49199392],[-123.55856727,48.49220435],[-123.55859961,48.49241406],[-123.55863673,48.49251661],[-123.55868746,48.49261701],[-123.5587512,48.4927135],[-123.55882744,48.49280608],[-123.55931881,48.49334372],[-123.55941206,48.49345694],[-123.5594906,48.49357515],[-123.55955289,48.49369728],[-123.55959935,48.49382261],[-123.55962878,48.49395043],[-123.55964147,48.49407932],[-123.55963751,48.49420821],[-123.55961657,48.49433675],[-123.55957839,48.4944635],[-123.55952413,48.49458741],[-123.55949828,48.49463191],[-123.55949592,48.4946369],[-123.55948268,48.49466431],[-123.5594691,48.49469137],[-123.55945467,48.49471808],[-123.55943915,48.49474478],[-123.5594231,48.49477149],[-123.55940672,48.49479783],[-123.55938893,48.49482383],[-123.55776675,48.49678745],[-123.55756187,48.49703562],[-123.55750776,48.49712321],[-123.55744243,48.49725602],[-123.55739177,48.49739132],[-123.55735652,48.49752875],[-123.55733711,48.49766762],[-123.55733287,48.49780719],[-123.55735855,48.49882301],[-123.55740513,48.49955683],[-123.55752536,48.50039426],[-123.55751908,48.50058546],[-123.55753282,48.50098923],[-123.55759723,48.50139086],[-123.55773537,48.50188577],[-123.55777881,48.50214034],[-123.55776124,48.50239635],[-123.55768284,48.50264701],[-123.55754656,48.50288627],[-123.55735465,48.50310845],[-123.55715428,48.50328968],[-123.55702183,48.5034613],[-123.55693488,48.50367208],[-123.55689951,48.50391527],[-123.55692607,48.50415916],[-123.55701459,48.50439629],[-123.55716289,48.50462025],[-123.55731734,48.50477442],[-123.55705116,48.50476267],[-123.55702921,48.5047616],[-123.55697029,48.50475894],[-123.55680037,48.50475128],[-123.55651138,48.5047381],[-123.55650601,48.5047381],[-123.55574813,48.50470321],[-123.55549792,48.5046936],[-123.5553813,48.50468897],[-123.55557181,48.50490687],[-123.55657195,48.505797],[-123.55685429,48.50618439],[-123.55705901,48.50662126],[-123.55714489,48.50727391],[-123.55719939,48.50776775],[-123.55717154,48.50838586],[-123.55718415,48.50877324],[-123.55714161,48.50931767],[-123.55714145,48.50931978],[-123.55706906,48.50931765],[-123.55667024,48.50930522],[-123.5565322,48.50930091],[-123.55307191,48.50920208],[-123.55258093,48.50918805],[-123.55249732,48.50918555],[-123.55247369,48.50918484],[-123.5524379,48.50918375],[-123.54551168,48.50897306],[-123.54505328,48.5089591],[-123.54481629,48.50914781],[-123.54477481,48.50918591],[-123.54475631,48.50920768],[-123.54469495,48.50927991],[-123.54457477,48.50941556],[-123.54400005,48.50991529],[-123.54398839,48.50992543],[-123.54389568,48.50998881],[-123.5438794,48.50999884],[-123.54377633,48.51006231],[-123.54377601,48.51006251],[-123.54366691,48.51022128],[-123.54356413,48.51037085],[-123.54342198,48.5105077],[-123.54319925,48.51072213],[-123.5431618,48.51075819],[-123.54316175,48.51075824],[-123.54312797,48.51078494],[-123.54296566,48.51091169],[-123.54256898,48.51116805],[-123.54254678,48.51119434],[-123.5425311,48.51121291],[-123.54246485,48.51128163],[-123.54238832,48.51138993],[-123.54232596,48.51147817],[-123.54229279,48.51152695],[-123.5422588,48.51157716],[-123.54225871,48.51157728],[-123.54222038,48.51162995],[-123.54216553,48.51170534],[-123.54215356,48.51172068],[-123.54206664,48.51183209],[-123.5420438,48.5118635],[-123.54202392,48.51189084],[-123.54192887,48.51203504],[-123.54188595,48.51208952],[-123.54186729,48.51212441],[-123.54183623,48.51218066],[-123.54183618,48.51218074],[-123.54181071,48.51222553],[-123.54179269,48.51226339],[-123.54176446,48.51232273],[-123.54169591,48.51249257],[-123.54169584,48.51249271],[-123.54164924,48.51259974],[-123.54158185,48.51274207],[-123.54154252,48.51282512],[-123.54151864,48.51287178],[-123.54147472,48.51295757],[-123.54140158,48.51308796],[-123.54136847,48.51314699],[-123.54135598,48.51316898],[-123.54134481,48.51318865],[-123.54131787,48.51323432],[-123.54123855,48.51336881],[-123.54103593,48.51363654],[-123.54089417,48.51382385],[-123.54076068,48.51396484],[-123.54074875,48.51397706],[-123.54073148,48.51399475],[-123.54069033,48.51404709],[-123.54061105,48.51414287],[-123.54050245,48.51426784],[-123.54043417,48.51435116],[-123.5403417,48.51447613],[-123.54029798,48.51453844],[-123.54024974,48.51463145],[-123.54022614,48.51467695],[-123.54020399,48.51471299],[-123.54005921,48.51494862],[-123.53996107,48.51508713],[-123.53992803,48.51513376],[-123.53984835,48.51525128],[-123.53979672,48.51532746],[-123.53957966,48.51559667],[-123.53953146,48.51565645],[-123.53953137,48.51565654],[-123.53942936,48.51576469],[-123.53942482,48.51579907],[-123.53942414,48.51580421],[-123.53940795,48.51590889],[-123.53939608,48.51597426],[-123.53937981,48.51606377],[-123.53936633,48.51617096],[-123.53936064,48.51621616],[-123.53933667,48.51641199],[-123.53932653,48.51647683],[-123.53931606,48.51654373],[-123.53929905,48.51662937],[-123.53927667,48.51674205],[-123.53916242,48.51711555],[-123.53910761,48.51724693],[-123.53906236,48.5173776],[-123.53902274,48.51746909],[-123.53894408,48.5176507],[-123.5389098,48.51771722],[-123.53889325,48.51774932],[-123.53889513,48.51777108],[-123.53889618,48.51778315],[-123.53891356,48.51790346],[-123.53891973,48.51794622],[-123.53892355,48.51798173],[-123.53893316,48.5180712],[-123.53894422,48.5182243],[-123.5389615,48.51834357],[-123.53897168,48.51836977],[-123.5389717,48.51836981],[-123.53898973,48.51841621],[-123.53899909,48.51844343],[-123.53900552,48.51846214],[-123.53908498,48.51857002],[-123.53913927,48.51864373],[-123.53915696,48.51866866],[-123.53917917,48.51869998],[-123.53930342,48.51887943],[-123.5394007,48.51903218],[-123.53945523,48.51912529],[-123.53945543,48.51912564],[-123.53949786,48.5191981],[-123.539553,48.51928808],[-123.53956658,48.51931026],[-123.53959761,48.51938666],[-123.53982827,48.51995471],[-123.53985688,48.52008966],[-123.53985574,48.5205308],[-123.53985491,48.52085125],[-123.53984089,48.52091427],[-123.53954414,48.52160679],[-123.53949109,48.52168798],[-123.53919814,48.52203741],[-123.53910811,48.52214479],[-123.53910718,48.52215517],[-123.53910547,48.52217434],[-123.53908587,48.52223309],[-123.53908538,48.52223461],[-123.53907905,48.5222541],[-123.53905702,48.52234204],[-123.53895672,48.52263792],[-123.53895256,48.52264756],[-123.53892571,48.52270984],[-123.53891632,48.52275491],[-123.5389163,48.52275501],[-123.53891459,48.52276325],[-123.53888809,48.52287185],[-123.5388794,48.52290323],[-123.53883563,48.52306127],[-123.53880375,48.52316524],[-123.53875609,48.52330659],[-123.53870735,48.5234572],[-123.53863043,48.52365397],[-123.53863006,48.52365491],[-123.53862541,48.52366679],[-123.53862537,48.52366691],[-123.5386197,48.52370074],[-123.53861145,48.5237418],[-123.53859437,48.52382678],[-123.53849394,48.52411743],[-123.53846555,48.52419957],[-123.53848972,48.52437043],[-123.53850715,48.52449367],[-123.53863232,48.52466856],[-123.53869444,48.52475537],[-123.5386945,48.52475552],[-123.53888268,48.52520898],[-123.53890939,48.52533917],[-123.5389328,48.52545323],[-123.53894726,48.52555873],[-123.53894758,48.52556111],[-123.53894759,48.52556126],[-123.53895857,48.52594316],[-123.53895181,48.52603212],[-123.53894682,48.52609768],[-123.53894195,48.52615464],[-123.53893374,48.52625079],[-123.53888653,48.52650251],[-123.53891089,48.52653741],[-123.53898441,48.52665063],[-123.53912139,48.52687495],[-123.53937704,48.52750053],[-123.53939099,48.52756355],[-123.53942666,48.52805597],[-123.53951782,48.52824254],[-123.53956104,48.5283739],[-123.53968042,48.52873674],[-123.53986943,48.52900485],[-123.53996287,48.52916018],[-123.53999366,48.52921136],[-123.54003432,48.5292899],[-123.54003445,48.52929015],[-123.5401275,48.52946985],[-123.54017074,48.52957026],[-123.54019757,48.52963257],[-123.54021541,48.52965928],[-123.54029939,48.52972073],[-123.54038523,48.52978354],[-123.54079549,48.530167],[-123.54326177,48.53234303],[-123.54709909,48.53572819],[-123.54707612,48.53593648],[-123.54707366,48.53597337],[-123.54706655,48.53607997],[-123.54707344,48.53622381],[-123.54708072,48.53630093],[-123.54708074,48.53630117],[-123.54708699,48.5363673],[-123.54710376,48.53651079],[-123.54712162,48.53665428],[-123.54713873,48.53679812],[-123.54715282,48.53694161],[-123.54716137,48.53706314],[-123.54716294,48.53708546],[-123.54716455,48.53711267],[-123.54717145,48.5372293],[-123.54717889,48.53737315],[-123.54718632,48.53751699],[-123.54719537,48.53766084],[-123.54720034,48.53772463],[-123.54720658,48.53780468],[-123.54722121,48.53794817],[-123.54723746,48.53809166],[-123.54725008,48.53819303],[-123.54725532,48.53823515],[-123.54727425,48.53837856],[-123.54727426,48.53837864],[-123.54729449,48.53852177],[-123.54731503,48.53866521],[-123.54731504,48.53866526],[-123.54733634,48.5388084],[-123.54734229,48.53884736],[-123.54734234,48.53884774],[-123.54734237,48.53884788],[-123.54735818,48.53895153],[-123.54737644,48.53907572],[-123.54737928,48.53909502],[-123.54740058,48.53923815],[-123.54742275,48.53938164],[-123.54744621,48.53952477],[-123.54747095,48.53966755],[-123.54749784,48.53981033],[-123.54751444,48.53989045],[-123.54752742,48.5399531],[-123.54755956,48.54009517],[-123.54755958,48.54009526],[-123.54759493,48.54023723],[-123.54760914,48.54028984],[-123.5476332,48.54037894],[-123.54767276,48.5405203],[-123.54768774,48.54057244],[-123.54771338,48.54066165],[-123.54775455,48.540803],[-123.54779551,48.54094471],[-123.54782722,48.54105649],[-123.54782726,48.54105664],[-123.54783561,48.54108606],[-123.54787388,48.54122777],[-123.5478843,48.54126805],[-123.54791055,48.54136948],[-123.547947,48.54151155],[-123.54798292,48.54165361],[-123.54801851,48.54179532],[-123.54805444,48.54193738],[-123.54806293,48.54197098],[-123.54809036,48.54207945],[-123.54812649,48.54222116],[-123.54812653,48.5422213],[-123.54816349,48.54236322],[-123.5482007,48.54250493],[-123.54822392,48.54259339],[-123.54823791,48.54264664],[-123.54824883,48.54268763],[-123.54827565,48.54278835],[-123.5483132,48.54293041],[-123.54835041,48.54307212],[-123.54838708,48.54321383],[-123.5484077,48.54328861],[-123.54842624,48.5433559],[-123.54847012,48.54349725],[-123.54851486,48.54363896],[-123.54855671,48.54378102],[-123.54859124,48.54392273],[-123.54860904,48.54402876],[-123.54861514,48.54406515],[-123.54862178,48.54416129],[-123.54862317,48.54418407],[-123.54862464,48.54420829],[-123.54862641,48.54435177],[-123.54862239,48.54449598],[-123.54861923,48.54454184],[-123.54861245,48.54464018],[-123.54860298,48.54472635],[-123.5485966,48.54478438],[-123.54857537,48.54492858],[-123.54856408,48.54499076],[-123.54856406,48.54499088],[-123.54856402,48.54499107],[-123.54854938,48.54507171],[-123.54852755,48.54517047],[-123.54851789,48.54521413],[-123.5485083,48.54525156],[-123.54848164,48.54535549],[-123.54846273,48.54541609],[-123.54843774,48.54549613],[-123.54838834,48.54563606],[-123.54833376,48.54577563],[-123.54827563,48.54591484],[-123.54821468,48.54605335],[-123.54815232,48.5461915],[-123.54808943,48.54632965],[-123.54802728,48.54646744],[-123.54798929,48.54655024],[-123.54796406,48.54660523],[-123.54793124,48.54667444],[-123.54789889,48.54674267],[-123.54786614,48.5468101],[-123.54786608,48.54681023],[-123.54783232,48.54687975],[-123.54780714,48.54693001],[-123.54776401,48.54701611],[-123.54769408,48.54715248],[-123.54766691,48.5472043],[-123.54762275,48.54728849],[-123.54754952,48.54742405],[-123.54754947,48.54742415],[-123.547475,48.54755909],[-123.54740064,48.54769475],[-123.5473428,48.54779953],[-123.54732575,48.54783041],[-123.54729836,48.54787865],[-123.54724892,48.54796571],[-123.54720213,48.54804268],[-123.54716753,48.54809958],[-123.54708039,48.54823132],[-123.5470046,48.54833397],[-123.54700317,48.54833591],[-123.54698531,48.54836009],[-123.54698522,48.54836021],[-123.54688083,48.54848554],[-123.54677013,48.54860874],[-123.54665509,48.54873015],[-123.54665492,48.54873033],[-123.5465353,48.5488505],[-123.54641256,48.54896942],[-123.54635703,48.54902193],[-123.54628755,48.54908763],[-123.54616047,48.54920477],[-123.54603252,48.54932155],[-123.54590477,48.54943798],[-123.54577837,48.54955318],[-123.54577709,48.54955435],[-123.54577703,48.54955441],[-123.54565048,48.54967155],[-123.54552319,48.54978905],[-123.5453947,48.54990584],[-123.54526381,48.5500212],[-123.54521887,48.55005903],[-123.54512931,48.55013442],[-123.54499056,48.5502448],[-123.54484633,48.55035161],[-123.54469598,48.55045416],[-123.54454061,48.55055421],[-123.54446486,48.55060108],[-123.54438123,48.55065283],[-123.54421792,48.55074897],[-123.54408549,48.55082269],[-123.54405034,48.55084225],[-123.54389107,48.5509266],[-123.5438798,48.55093257],[-123.54387957,48.55093269],[-123.54370549,48.55101957],[-123.5435283,48.55110253],[-123.54334767,48.55118121],[-123.54329595,48.55120183],[-123.54316367,48.55125456],[-123.54311597,48.55127113],[-123.54297306,48.55132079],[-123.5427756,48.55138025],[-123.54257404,48.55143472],[-123.542415,48.55147401],[-123.54236938,48.55148528],[-123.54233693,48.55149291],[-123.54233678,48.55149294],[-123.54233652,48.551493],[-123.54216326,48.55153371],[-123.54207661,48.55155344],[-123.54195689,48.55158071],[-123.54175809,48.55162706],[-123.54175227,48.55162842],[-123.54175206,48.55162846],[-123.54154718,48.55167506],[-123.54154713,48.55167507],[-123.54134098,48.55171992],[-123.54113452,48.55176336],[-123.5410134,48.55178791],[-123.54092728,48.55180537],[-123.5407197,48.55184703],[-123.54051179,48.55188833],[-123.54040124,48.55191052],[-123.54040114,48.55191054],[-123.54030422,48.55192999],[-123.54018313,48.55195429],[-123.54009664,48.55197165],[-123.53988952,48.55201438],[-123.53971337,48.55205207],[-123.53968319,48.55205853],[-123.53955568,48.55208673],[-123.53947711,48.5521041],[-123.53927223,48.55215039],[-123.53906708,48.55219735],[-123.53906693,48.55219739],[-123.5388625,48.55224474],[-123.53866607,48.55229084],[-123.53865766,48.55229281],[-123.53845357,48.55234052],[-123.53841312,48.55234995],[-123.53824893,48.55238823],[-123.53814085,48.55241304],[-123.53804418,48.55243523],[-123.53787428,48.55247377],[-123.53783855,48.55248187],[-123.537633,48.55252745],[-123.53742699,48.55257196],[-123.53722066,48.55261611],[-123.53715976,48.55262914],[-123.53701432,48.55266026],[-123.53680732,48.55270369],[-123.53675786,48.552714],[-123.53660053,48.55274678],[-123.53639341,48.5527895],[-123.53624824,48.55281945],[-123.53618628,48.55283223],[-123.53597903,48.55287424],[-123.53577145,48.5529159],[-123.53556353,48.5529572],[-123.53544857,48.55297969],[-123.53535603,48.55299779],[-123.53514766,48.55303803],[-123.53503746,48.5530587],[-123.53493884,48.55307719],[-123.53484027,48.55309484],[-123.53472997,48.55311458],[-123.53451989,48.55315125],[-123.53431023,48.55318721],[-123.5341536,48.5532137],[-123.5340997,48.55322282],[-123.5340516,48.55323081],[-123.53388959,48.55325771],[-123.53370706,48.55328802],[-123.53367947,48.55329261],[-123.53365736,48.55329615],[-123.53346836,48.55332643],[-123.53332878,48.55334858],[-123.53325746,48.5533599],[-123.53304643,48.55339266],[-123.53300051,48.55339969],[-123.53283507,48.55342506],[-123.53262404,48.55345781],[-123.53259785,48.55346192],[-123.5324128,48.55349093],[-123.53220189,48.55352439],[-123.53199111,48.55355858],[-123.53178132,48.55359383],[-123.53157146,48.55363014],[-123.53155189,48.55363367],[-123.53136237,48.55366788],[-123.53115387,48.55370741],[-123.53094583,48.553748],[-123.53073791,48.5537893],[-123.53053065,48.55383131],[-123.53032319,48.55387368],[-123.53011572,48.55391605],[-123.53005186,48.553929],[-123.52990847,48.55395807],[-123.52977182,48.55398569],[-123.52970067,48.55400008],[-123.5295716,48.55402552],[-123.52949295,48.55404103],[-123.52942905,48.55405337],[-123.52928458,48.55408126],[-123.52907595,48.55412007],[-123.52886707,48.55415746],[-123.52877029,48.55417368],[-123.52865674,48.55419271],[-123.52844637,48.55422618],[-123.52844617,48.5542262],[-123.52823455,48.55425751],[-123.52805761,48.55428246],[-123.52802247,48.55428742],[-123.52795843,48.55429601],[-123.52781015,48.5543159],[-123.52759716,48.55434367],[-123.52752418,48.55435308],[-123.52738438,48.55437109],[-123.52729006,48.55438307],[-123.52717127,48.55439815],[-123.52701282,48.55441881],[-123.52695829,48.55442592],[-123.52688579,48.55443551],[-123.52674563,48.55445405],[-123.5266291,48.55447026],[-123.52653322,48.5544836],[-123.52646314,48.55449373],[-123.52632128,48.55451422],[-123.52611044,48.55454662],[-123.5258992,48.55457973],[-123.5257366,48.5546061],[-123.52568841,48.55461392],[-123.52551014,48.55464317],[-123.52547803,48.55464844],[-123.52547795,48.55464845],[-123.52526762,48.5546837],[-123.52505795,48.55471966],[-123.52505778,48.55471969],[-123.52484802,48.55475631],[-123.52484787,48.55475634],[-123.52463865,48.55479337],[-123.52451777,48.55481537],[-123.52442936,48.55483146],[-123.52422039,48.55486992],[-123.52401155,48.55490908],[-123.5238037,48.55494932],[-123.52359578,48.55499062],[-123.52338851,48.55503263],[-123.52318137,48.55507536],[-123.52297456,48.55511844],[-123.52276808,48.55516188],[-123.52266951,48.55518256],[-123.52256106,48.55520532],[-123.52243756,48.55523149],[-123.52243724,48.55523155],[-123.52243679,48.55523165],[-123.52235437,48.55524911],[-123.52228861,48.55526281],[-123.52214756,48.5552922],[-123.52194075,48.55533528],[-123.52180126,48.55536455],[-123.52180095,48.55536461],[-123.52180074,48.55536466],[-123.52173373,48.55537872],[-123.52152725,48.55542215],[-123.52132056,48.55546595],[-123.52111454,48.55551046],[-123.52107846,48.55551843],[-123.52090843,48.55555603],[-123.52083708,48.5555724],[-123.52070365,48.55560303],[-123.52054426,48.55564052],[-123.52049932,48.5556511],[-123.52036434,48.55568392],[-123.52029578,48.55570059],[-123.52025347,48.55571097],[-123.52009257,48.55575043],[-123.51988941,48.55580132],[-123.51988928,48.55580135],[-123.5196868,48.55585294],[-123.51968665,48.55585298],[-123.51948502,48.55590567],[-123.5192835,48.55595938],[-123.5192833,48.55595944],[-123.51908291,48.55601463],[-123.51888385,48.55607124],[-123.51868557,48.55612927],[-123.51858132,48.5561609],[-123.51848841,48.55618909],[-123.51829224,48.55624998],[-123.51814469,48.5562969],[-123.51809633,48.55631228],[-123.51790161,48.55637531],[-123.51790155,48.55637533],[-123.51770714,48.55643975],[-123.51755464,48.55649117],[-123.51751388,48.55650491],[-123.51742436,48.55653587],[-123.5173214,48.55657149],[-123.51712991,48.55663914],[-123.51693921,48.55670822],[-123.51686899,48.55673408],[-123.51674971,48.556778],[-123.51662179,48.55682674],[-123.51656187,48.55684957],[-123.51637473,48.55692211],[-123.51637449,48.5569222],[-123.51618863,48.55699591],[-123.51600356,48.55707103],[-123.51600351,48.55707106],[-123.51581949,48.55714723],[-123.5156362,48.55722485],[-123.51552387,48.55727348],[-123.51545445,48.55730354],[-123.51527369,48.55738329],[-123.51523712,48.55739973],[-123.51509392,48.55746411],[-123.51491569,48.55754601],[-123.51481397,48.55759391],[-123.51473878,48.55762932],[-123.51456307,48.55771335],[-123.51438815,48.5577988],[-123.51421455,48.55788568],[-123.51404294,48.55797469],[-123.51387439,48.55806584],[-123.51370904,48.55815984],[-123.51354869,48.55825633],[-123.51339327,48.55835638],[-123.51324352,48.55845964],[-123.51318,48.5585064],[-123.51309891,48.5585661],[-123.51303703,48.55861456],[-123.51295889,48.55867576],[-123.51282214,48.5587872],[-123.51268759,48.55890043],[-123.51255457,48.55901472],[-123.51242242,48.55912937],[-123.51229027,48.55924402],[-123.51215691,48.55935796],[-123.5120217,48.55947047],[-123.51188474,48.55958227],[-123.51174832,48.55969407],[-123.51161104,48.55980551],[-123.51147408,48.55991731],[-123.511338,48.56002947],[-123.51120299,48.56014163],[-123.51106843,48.56025485],[-123.51093582,48.56036843],[-123.51080475,48.56048308],[-123.510674,48.56059809],[-123.51054413,48.56071345],[-123.51041599,48.56082952],[-123.51028905,48.56094631],[-123.51016331,48.5610638],[-123.51003986,48.56118201],[-123.5099176,48.56130093],[-123.50979795,48.56142092],[-123.50968003,48.56154163],[-123.50956386,48.56166304],[-123.50944889,48.56178517],[-123.50933479,48.56190765],[-123.50922242,48.56203084],[-123.5091106,48.56215404],[-123.50899944,48.56227794],[-123.50888881,48.56240185],[-123.50877819,48.56252575],[-123.50866723,48.5626493],[-123.50855607,48.56277321],[-123.50844511,48.56289676],[-123.50833428,48.56302102],[-123.50822453,48.56314529],[-123.50811564,48.5632699],[-123.50800816,48.56339488],[-123.50790296,48.56352057],[-123.50779896,48.56364696],[-123.50769777,48.56377407],[-123.50759887,48.5639019],[-123.50750311,48.56403079],[-123.50741103,48.56416075],[-123.50732156,48.56429177],[-123.5072347,48.56442387],[-123.50714945,48.56455596],[-123.50706574,48.56468913],[-123.50698311,48.56482229],[-123.50690047,48.56495546],[-123.50681816,48.56508898],[-123.50673553,48.56522214],[-123.50665202,48.56535495],[-123.50656657,48.5654874],[-123.50648112,48.56561985],[-123.50639588,48.56575194],[-123.50631043,48.5658844],[-123.50622519,48.56601649],[-123.50613974,48.56614894],[-123.50605429,48.56628139],[-123.50596938,48.56641385],[-123.50588413,48.56654594],[-123.50579869,48.56667839],[-123.50571291,48.56681049],[-123.50562746,48.56694294],[-123.50554168,48.56707503],[-123.5054559,48.56720713],[-123.50537045,48.56733958],[-123.50528554,48.56747203],[-123.50520064,48.56760449],[-123.50511626,48.56773694],[-123.50503222,48.56786974],[-123.50494819,48.56800255],[-123.50486382,48.568135],[-123.50477978,48.56826781],[-123.50469628,48.56840062],[-123.50461332,48.56853343],[-123.50453069,48.56866659],[-123.50444859,48.56879975],[-123.50436737,48.56893327],[-123.50428702,48.56906715],[-123.50420721,48.56920102],[-123.50412826,48.56933526],[-123.50405073,48.56946984],[-123.50397568,48.56960479],[-123.50390398,48.56974044],[-123.50383596,48.56987717],[-123.50377184,48.5700146],[-123.50371021,48.5701524],[-123.50365031,48.5702909],[-123.50359203,48.5704294],[-123.50353462,48.57056827],[-123.5034772,48.57070713],[-123.50341979,48.57084599],[-123.50336184,48.57098485],[-123.50330195,48.57112335],[-123.50324085,48.57126114],[-123.50317848,48.57139929],[-123.5031149,48.57153673],[-123.50305078,48.57167416],[-123.50298667,48.5718116],[-123.50292147,48.57194904],[-123.50285628,48.57208647],[-123.5027913,48.57222355],[-123.50272611,48.57236099],[-123.5026581,48.57249771],[-123.50258956,48.57263444],[-123.50252209,48.57277116],[-123.5024569,48.5729086],[-123.50239635,48.57304639],[-123.50233733,48.57318525],[-123.50228046,48.57332411],[-123.50222641,48.57346368],[-123.50217539,48.57360361],[-123.50212792,48.5737439],[-123.50208596,48.57388489],[-123.50204897,48.5740266],[-123.50201479,48.57416902],[-123.50198083,48.57431109],[-123.50194525,48.57445315],[-123.5019061,48.57459486],[-123.50186307,48.57473586],[-123.50181702,48.5748765],[-123.50177042,48.57501714],[-123.50172524,48.57515814],[-123.50168275,48.57529913],[-123.50164361,48.57544084],[-123.50160501,48.57558255],[-123.50156836,48.57572462],[-123.50153493,48.57586668],[-123.50150702,48.57600946],[-123.50148481,48.57615259],[-123.50146584,48.57629572],[-123.50144881,48.57643921],[-123.50143286,48.5765827],[-123.50141779,48.57672655],[-123.50140399,48.57687004],[-123.50139053,48.57701388],[-123.50137781,48.57715737],[-123.50136542,48.57730121],[-123.5013525,48.57744506],[-123.50133958,48.5775889],[-123.50132633,48.57773239],[-123.50131233,48.57787624],[-123.50131449,48.5843845],[-123.50131378,48.58890959],[-123.50131534,48.59999991],[-123.50132751,48.60063689],[-123.50148392,48.60884674],[-123.50148488,48.61266077],[-123.50148653,48.61784312],[-123.50142505,48.62683913],[-123.50132761,48.63469488],[-123.50131347,48.6358348],[-123.50117205,48.64344826],[-123.50114635,48.6448301],[-123.50119833,48.64695858],[-123.50120467,48.64720675],[-123.50136695,48.65382933],[-123.50140219,48.6540518],[-123.50145509,48.65440776],[-123.50168974,48.65594748],[-123.50262622,48.66209359],[-123.50272981,48.66277336],[-123.50290357,48.66350247],[-123.50484882,48.67166328],[-123.50712517,48.67929818],[-123.50748052,48.68048981],[-123.50826721,48.68315985],[-123.50827363,48.6831805],[-123.50935677,48.68685638],[-123.51008295,48.68931955],[-123.51037126,48.69028772],[-123.51182166,48.69515758],[-123.51301282,48.69915621],[-123.51320063,48.69978678],[-123.5136673,48.70107533],[-123.51382855,48.70134309],[-123.51497869,48.70289405],[-123.51565669,48.70363286],[-123.51589319,48.70387497],[-123.51762462,48.70553275],[-123.51787808,48.70576704],[-123.52021099,48.70784781],[-123.52182821,48.70920365],[-123.52377148,48.71075533],[-123.52520931,48.71183488],[-123.52550291,48.71204744],[-123.52754595,48.7135418],[-123.52900315,48.71461066],[-123.53016848,48.7154659],[-123.53074947,48.71589459],[-123.53190609,48.71675481],[-123.53248022,48.71718706],[-123.53333644,48.71783899],[-123.53446456,48.71871524],[-123.53558089,48.71959896],[-123.53613489,48.72004296],[-123.53641125,48.72026513],[-123.53723805,48.7209338],[-123.53778742,48.72138029],[-123.53861002,48.72205073],[-123.53915645,48.72249865],[-123.53969877,48.72294905],[-123.54077433,48.7238545],[-123.54104142,48.72408166],[-123.54184102,48.72476421],[-123.54481155,48.72739019],[-123.54481191,48.72739051]]]},"geometry_name":"SHAPE","properties":{"id":280,"slug":"juan-de-fuca-malahat","name":"Juan de Fuca-Malahat","abbreviation":"JFM","gazetteDate":"2023-12-07Z","boundarySet":11},"bbox":[-124.50368099,48.22483467,-123.39461889,48.72739051]}
