{"type":"Feature","id":283,"geometry":{"type":"Polygon","coordinates":[[[-119.4789525,49.96696021],[-119.47929992,49.96429667],[-119.47978784,49.96178303],[-119.48100238,49.95272381],[-119.48156905,49.94849581],[-119.48167902,49.94767518],[-119.48451283,49.94093747],[-119.49995696,49.92508827],[-119.50222841,49.92275611],[-119.50242287,49.92255644],[-119.50451936,49.92043922],[-119.50696995,49.91796453],[-119.51489815,49.90995427],[-119.51623135,49.90759751],[-119.51827454,49.90397709],[-119.5185178,49.9015952],[-119.51862503,49.90054518],[-119.51776578,49.89771603],[-119.51759817,49.89716411],[-119.51606591,49.89522861],[-119.51416615,49.89282882],[-119.51359916,49.88983264],[-119.51296326,49.88647083],[-119.51240169,49.88350154],[-119.51164541,49.87950213],[-119.51163668,49.87945578],[-119.51163649,49.87945478],[-119.5116263,49.87940066],[-119.51159837,49.87925304],[-119.51150101,49.8787384],[-119.51154049,49.87843858],[-119.51161699,49.87785753],[-119.51162455,49.87785142],[-119.51185321,49.87617833],[-119.49724429,49.87630763],[-119.49682406,49.87630728],[-119.49439977,49.87631155],[-119.49124175,49.8763176],[-119.48822887,49.87631689],[-119.48277809,49.8763087],[-119.4821706,49.87630478],[-119.48203794,49.87631191],[-119.48112337,49.87635962],[-119.47915032,49.87663022],[-119.47714874,49.87679507],[-119.47707711,49.87679827],[-119.47708134,49.87661028],[-119.47709089,49.87646465],[-119.47708158,49.87536694],[-119.47707346,49.87526435],[-119.47706084,49.87510489],[-119.47705372,49.87501683],[-119.47704146,49.87486527],[-119.47686972,49.87432691],[-119.47682592,49.87424288],[-119.47639289,49.873411],[-119.4760666,49.87278414],[-119.47536565,49.87278307],[-119.47467862,49.87278271],[-119.47418803,49.87278271],[-119.47339304,49.87278271],[-119.47154531,49.87278058],[-119.47106824,49.87277956],[-119.47054726,49.87277844],[-119.47029853,49.87277971],[-119.47004434,49.87277808],[-119.4697051,49.87277702],[-119.46936722,49.87277666],[-119.46892018,49.87277595],[-119.46581529,49.87277168],[-119.46581253,49.87197378],[-119.46580963,49.87113704],[-119.46580793,49.87100637],[-119.46580589,49.87088852],[-119.46586527,49.87004447],[-119.46590048,49.86954406],[-119.46589969,49.86922902],[-119.46589563,49.86760927],[-119.46589474,49.86744187],[-119.46589436,49.86737179],[-119.46586018,49.86723867],[-119.46569991,49.86661616],[-119.46569041,49.86660453],[-119.46546482,49.86593739],[-119.46510345,49.86549731],[-119.46449956,49.86489864],[-119.46406458,49.86445414],[-119.46380366,49.86414645],[-119.46345381,49.86363106],[-119.46334052,49.863229],[-119.46335088,49.86252179],[-119.46334621,49.86250989],[-119.46334947,49.86232947],[-119.46337303,49.86098528],[-119.46337453,49.86093116],[-119.45651524,49.86092938],[-119.45560965,49.86091674],[-119.45459517,49.86091167],[-119.45444211,49.86091051],[-119.45408881,49.8609117],[-119.4537001,49.86091282],[-119.45314003,49.86091442],[-119.45304741,49.86091471],[-119.45273801,49.8609156],[-119.45162342,49.86091869],[-119.45143043,49.86091933],[-119.45119226,49.86092012],[-119.45044804,49.86092225],[-119.44951336,49.86102943],[-119.44718506,49.8612954],[-119.44628709,49.86137648],[-119.44594289,49.86140755],[-119.4457986,49.86139901],[-119.44541456,49.86137124],[-119.44533072,49.86135842],[-119.44525385,49.86134667],[-119.44434918,49.86120638],[-119.44346766,49.86099168],[-119.44343495,49.86097872],[-119.4433311,49.86093757],[-119.4432126,49.8608908],[-119.44320279,49.86088701],[-119.4430352,49.86082078],[-119.44300721,49.86086379],[-119.44290868,49.86115326],[-119.4429016,49.8612278],[-119.44281585,49.86181067],[-119.44278352,49.86209295],[-119.44272534,49.86227735],[-119.44267298,49.86245799],[-119.44248287,49.86306427],[-119.44230402,49.86329251],[-119.44219214,49.86344137],[-119.44208491,49.86357188],[-119.44194718,49.86371474],[-119.44179999,49.86383774],[-119.44165957,49.86398116],[-119.44145812,49.86416739],[-119.44126757,49.86432831],[-119.44104116,49.86455676],[-119.44089166,49.86470687],[-119.44076277,49.86481522],[-119.4406042,49.86497037],[-119.44044279,49.8651245],[-119.44036394,49.86519239],[-119.44028524,49.86526467],[-119.43998667,49.86552403],[-119.43978856,49.86568775],[-119.43954741,49.86588847],[-119.43943192,49.86601984],[-119.43925007,49.86620209],[-119.43906969,49.86639407],[-119.43897088,49.8665402],[-119.43884216,49.86672159],[-119.43872557,49.866884],[-119.4386411,49.8670677],[-119.43854212,49.86725571],[-119.43851065,49.86740589],[-119.43845531,49.86760269],[-119.4384225,49.86772512],[-119.4383968,49.86787753],[-119.43834814,49.86803333],[-119.43833532,49.86818578],[-119.43832467,49.86832533],[-119.4382961,49.86848096],[-119.4382694,49.86875494],[-119.43824163,49.86900973],[-119.43822594,49.86920742],[-119.43820367,49.86940315],[-119.4381754,49.86967159],[-119.43815262,49.86988917],[-119.43813617,49.87006639],[-119.43811914,49.87020952],[-119.43807733,49.87043947],[-119.43800049,49.87076738],[-119.43796609,49.87091878],[-119.43781493,49.87132089],[-119.43770654,49.87151981],[-119.43763079,49.87174383],[-119.43758408,49.87187946],[-119.43750143,49.8720287],[-119.43742032,49.87220435],[-119.43733066,49.87244268],[-119.43721454,49.87261598],[-119.43714186,49.8727318],[-119.43696379,49.87293882],[-119.43671438,49.8732108],[-119.43659245,49.87333497],[-119.43644646,49.87350298],[-119.43631684,49.87363627],[-119.43617011,49.87378999],[-119.43602198,49.87392415],[-119.43587468,49.87403721],[-119.4357,49.87418204],[-119.43551446,49.87432549],[-119.43527143,49.87449103],[-119.4348112,49.87479975],[-119.43439763,49.87504813],[-119.4340624,49.87523001],[-119.43379378,49.87539202],[-119.43356408,49.87553037],[-119.43330799,49.87564054],[-119.43303782,49.87574863],[-119.43276927,49.87585066],[-119.43254657,49.87595083],[-119.43231871,49.87604325],[-119.43204099,49.87615374],[-119.43195082,49.87618832],[-119.43162979,49.87630159],[-119.4314616,49.87636354],[-119.43125777,49.87643529],[-119.43098454,49.87654523],[-119.43049601,49.87672245],[-119.42967802,49.87702579],[-119.42929652,49.87715214],[-119.42897165,49.87725814],[-119.42868887,49.87735873],[-119.42845785,49.87743279],[-119.42826654,49.87750599],[-119.42807955,49.87756365],[-119.42782456,49.87765624],[-119.42759432,49.87774626],[-119.42738659,49.87781198],[-119.42714847,49.87788239],[-119.42699227,49.87794695],[-119.42685213,49.8779855],[-119.42668486,49.87803698],[-119.42635081,49.87816939],[-119.42619312,49.87823986],[-119.42601419,49.87832219],[-119.42581766,49.87840361],[-119.42569278,49.87845267],[-119.42546623,49.87854685],[-119.42522083,49.87863105],[-119.42502947,49.878691],[-119.42474873,49.87879094],[-119.42450766,49.87887315],[-119.42424263,49.87895541],[-119.42400655,49.87903563],[-119.42376051,49.87912471],[-119.42349691,49.87921515],[-119.42330443,49.87927269],[-119.42309543,49.87934944],[-119.4227829,49.87945229],[-119.42248925,49.87955297],[-119.42232278,49.879605],[-119.42197714,49.87972752],[-119.4217547,49.87977695],[-119.4215054,49.87981826],[-119.42133738,49.87986021],[-119.42118752,49.87988275],[-119.42079166,49.87987929],[-119.42049049,49.87987706],[-119.42012795,49.8798511],[-119.4197416,49.87982208],[-119.41941486,49.87980242],[-119.41913361,49.87978387],[-119.41874293,49.87976027],[-119.41840503,49.87970834],[-119.41805066,49.87965244],[-119.41777692,49.87961074],[-119.41753287,49.87957253],[-119.41756499,49.87968368],[-119.41756811,49.87996598],[-119.417581,49.88042111],[-119.41758161,49.88044123],[-119.41758268,49.88047629],[-119.41758398,49.88052507],[-119.41761871,49.88204613],[-119.41761317,49.88274399],[-119.41760854,49.88328875],[-119.41760504,49.88369323],[-119.41759128,49.88460935],[-119.41758305,49.88583417],[-119.4175803,49.88631555],[-119.41758218,49.88671504],[-119.4175833,49.88690268],[-119.41760165,49.88765238],[-119.41760497,49.88778818],[-119.41759629,49.88819222],[-119.4175878,49.88858717],[-119.41758193,49.8887588],[-119.41757489,49.88896458],[-119.41757229,49.88899447],[-119.41757275,49.88903437],[-119.41757347,49.88903437],[-119.4184214,49.88902796],[-119.4191245,49.88902511],[-119.41949147,49.88909525],[-119.41985241,49.88923198],[-119.42042882,49.88944774],[-119.42050747,49.8894773],[-119.42044017,49.88952358],[-119.42014934,49.88973246],[-119.41971709,49.89004943],[-119.41941174,49.89030036],[-119.41902977,49.89059917],[-119.41875463,49.89083742],[-119.41778023,49.89174847],[-119.4172323,49.8922882],[-119.41679216,49.89271702],[-119.41645621,49.89309487],[-119.41571599,49.89388148],[-119.41468777,49.89499172],[-119.41431881,49.89538812],[-119.41397858,49.89574152],[-119.41288625,49.89693833],[-119.41229386,49.89756668],[-119.40914997,49.90094446],[-119.40884255,49.9012637],[-119.40850831,49.90162846],[-119.4059793,49.90437809],[-119.40544433,49.90497984],[-119.40527695,49.90518437],[-119.40511708,49.90535143],[-119.40123731,49.90945953],[-119.40030483,49.91035225],[-119.39965039,49.91090606],[-119.39884531,49.91144086],[-119.39797175,49.91191704],[-119.39784743,49.9119848],[-119.39746686,49.91221172],[-119.39701782,49.91245271],[-119.39587798,49.91306193],[-119.3958762,49.91306288],[-119.39561304,49.91319473],[-119.39339629,49.91432495],[-119.39238357,49.91485341],[-119.38953868,49.91647946],[-119.38877339,49.91696682],[-119.38838793,49.9172967],[-119.38806853,49.91764372],[-119.38770988,49.91809438],[-119.38766853,49.91815378],[-119.38764173,49.91819273],[-119.38739045,49.91862974],[-119.38694738,49.91935711],[-119.38683394,49.91954708],[-119.38674146,49.9198024],[-119.38667516,49.92001274],[-119.38661892,49.92059493],[-119.38659842,49.92189983],[-119.38658886,49.92229346],[-119.38659209,49.92280948],[-119.38655824,49.92366645],[-119.38657086,49.92442668],[-119.38656532,49.92512854],[-119.38655702,49.92867508],[-119.3865558,49.92910236],[-119.38654726,49.92974857],[-119.38656128,49.93003694],[-119.38660819,49.93053016],[-119.38674894,49.93085412],[-119.38682248,49.93107748],[-119.38700674,49.93133416],[-119.38717275,49.93151756],[-119.38741423,49.93175414],[-119.38784261,49.93206839],[-119.38802067,49.93218321],[-119.38830351,49.93234935],[-119.38887999,49.93269705],[-119.38941022,49.93305386],[-119.39013016,49.93359973],[-119.39041184,49.93391327],[-119.39049074,49.93399633],[-119.39079328,49.93463363],[-119.39091429,49.93528318],[-119.39081492,49.93604609],[-119.39089585,49.93609416],[-119.39132691,49.93622839],[-119.3918662,49.93631812],[-119.39238599,49.93634892],[-119.39270953,49.93636808],[-119.39308822,49.93642889],[-119.39344414,49.93641518],[-119.39439899,49.93619744],[-119.39497596,49.93616207],[-119.39540706,49.93614821],[-119.39558463,49.93614798],[-119.39576212,49.93615067],[-119.39659141,49.93614542],[-119.39680861,49.93615395],[-119.39702498,49.93616885],[-119.39724009,49.9361901],[-119.39745346,49.93621765],[-119.39766466,49.93625145],[-119.39787327,49.93629142],[-119.39807884,49.93633749],[-119.39828094,49.93638955],[-119.39847916,49.9364475],[-119.39867308,49.93651121],[-119.39886231,49.93658057],[-119.39904645,49.93665542],[-119.3992251,49.9367356],[-119.39939792,49.93682095],[-119.39956454,49.9369113],[-119.3997246,49.93700645],[-119.39987777,49.9371062],[-119.40133752,49.93826575],[-119.40163147,49.93848095],[-119.40179339,49.9385984],[-119.40193217,49.93872727],[-119.40217171,49.93895094],[-119.4030623,49.93958528],[-119.40372708,49.9400137],[-119.40413071,49.94026896],[-119.40921077,49.94321267],[-119.40939399,49.94330501],[-119.4095828,49.94339253],[-119.40977687,49.9434751],[-119.40997592,49.94355259],[-119.41017963,49.94362488],[-119.41038766,49.94369184],[-119.41059967,49.94375337],[-119.41081533,49.94380937],[-119.41103431,49.94385975],[-119.41125623,49.94390443],[-119.41254414,49.94418606],[-119.4133723,49.94435729],[-119.41367106,49.94442245],[-119.41396647,49.94449372],[-119.41425821,49.944571],[-119.41454602,49.94465424],[-119.41482956,49.94474333],[-119.41510858,49.9448382],[-119.41538278,49.94493874],[-119.41565189,49.94504486],[-119.41591565,49.94515645],[-119.41695625,49.9456121],[-119.41716557,49.94569954],[-119.41738057,49.94578105],[-119.41760084,49.94585647],[-119.41782597,49.94592565],[-119.41805552,49.94598848],[-119.41828908,49.94604483],[-119.41852621,49.94609459],[-119.41876646,49.94613768],[-119.41900937,49.94617402],[-119.4192545,49.94620352],[-119.41950138,49.94622614],[-119.41974953,49.94624184],[-119.42088315,49.94629756],[-119.42111065,49.94631205],[-119.42133692,49.94633309],[-119.42156151,49.94636064],[-119.42178396,49.94639463],[-119.42200384,49.94643501],[-119.42222071,49.94648169],[-119.42243411,49.94653457],[-119.42264365,49.94659357],[-119.42284889,49.94665854],[-119.42304942,49.94672936],[-119.42324485,49.94680591],[-119.42343479,49.94688801],[-119.42361884,49.94697551],[-119.4244587,49.94739379],[-119.42464923,49.9474847],[-119.4248454,49.94757046],[-119.42504689,49.94765095],[-119.42525332,49.94772601],[-119.42546438,49.94779552],[-119.4256797,49.94785938],[-119.4258989,49.94791744],[-119.42604637,49.94795424],[-119.42651741,49.94808616],[-119.42651446,49.94809108],[-119.42645473,49.94819068],[-119.42643614,49.94822202],[-119.42630583,49.94868987],[-119.42628407,49.9491004],[-119.42619987,49.9507151],[-119.42530552,49.95342003],[-119.42530547,49.95342015],[-119.42528367,49.95347415],[-119.42503448,49.95408549],[-119.42450336,49.95507852],[-119.42345044,49.95662272],[-119.42327088,49.95717175],[-119.42331745,49.95773787],[-119.42339166,49.95815013],[-119.42350563,49.95878324],[-119.42358568,49.95924494],[-119.42358569,49.95924504],[-119.42358392,49.95979835],[-119.42358231,49.96029504],[-119.42354068,49.96188339],[-119.42362497,49.96231742],[-119.42378424,49.96269555],[-119.4243241,49.96341584],[-119.42462011,49.96396665],[-119.42480016,49.96450999],[-119.42489219,49.9650754],[-119.4248553,49.96584518],[-119.42467205,49.96658186],[-119.4241241,49.96878653],[-119.42504087,49.96884635],[-119.42553009,49.96895495],[-119.42571394,49.96903328],[-119.42682533,49.96950683],[-119.42698704,49.96954991],[-119.42731078,49.96963643],[-119.42803741,49.96976105],[-119.42825877,49.96977778],[-119.42825884,49.96977778],[-119.42864683,49.96980698],[-119.42988712,49.96977743],[-119.43026854,49.96972188],[-119.43069548,49.96958943],[-119.43129975,49.96930067],[-119.43184761,49.96892895],[-119.43219686,49.96859142],[-119.43237226,49.96809615],[-119.43250359,49.96791171],[-119.43253712,49.96789533],[-119.43274444,49.9677935],[-119.43290379,49.96776893],[-119.43327028,49.96779884],[-119.43364202,49.9679288],[-119.43380041,49.96802565],[-119.43417264,49.96838669],[-119.43438979,49.96856646],[-119.43449607,49.96865444],[-119.43510513,49.96899625],[-119.43536884,49.96910876],[-119.43557528,49.96913261],[-119.43577982,49.96912336],[-119.43582837,49.96911481],[-119.4372299,49.96887163],[-119.43783322,49.96886202],[-119.43859882,49.96887697],[-119.43953268,49.96889548],[-119.4395846,49.96889655],[-119.43995573,49.96894818],[-119.43998261,49.9689521],[-119.44074546,49.96922626],[-119.44183628,49.9694965],[-119.44251696,49.96977636],[-119.44257547,49.96984133],[-119.44261091,49.96988068],[-119.44264505,49.96998679],[-119.44268355,49.97010535],[-119.44267331,49.97049114],[-119.44266866,49.97066613],[-119.44274053,49.97074156],[-119.44287292,49.97088048],[-119.44317273,49.97105281],[-119.44369152,49.97118742],[-119.44498252,49.97152239],[-119.44498269,49.97152244],[-119.44548063,49.97165169],[-119.44610147,49.97201379],[-119.44623807,49.97205723],[-119.44627439,49.97205778],[-119.44651772,49.9720615],[-119.44667995,49.97213903],[-119.44690549,49.97220148],[-119.44946246,49.97234738],[-119.45036132,49.97328273],[-119.45204188,49.97411434],[-119.45337376,49.97432518],[-119.47536332,49.97569641],[-119.47565276,49.9748855],[-119.47595229,49.97416619],[-119.4789525,49.96696021]]]},"geometry_name":"SHAPE","properties":{"id":283,"slug":"kelowna-centre","name":"Kelowna Centre","abbreviation":"KEC","gazetteDate":"2023-12-07Z","boundarySet":11},"bbox":[-119.51862503,49.86082078,-119.38654726,49.97569641]}
