{"type":"Feature","id":285,"geometry":{"type":"Polygon","coordinates":[[[-119.37856746,49.88901478],[-119.37974955,49.88900517],[-119.38079517,49.88900339],[-119.38113351,49.88900232],[-119.38192758,49.88899983],[-119.38391823,49.88898666],[-119.38535077,49.88897776],[-119.3868579,49.88897063],[-119.38859589,49.88896636],[-119.38975427,49.8889742],[-119.39122245,49.88897099],[-119.39203121,49.88896885],[-119.39284251,49.88896707],[-119.39368666,49.88897455],[-119.39390913,49.88897669],[-119.39550006,49.88899093],[-119.39558361,49.88899164],[-119.39565224,49.88899235],[-119.39588986,49.88899413],[-119.39611718,49.88899592],[-119.39675214,49.8890009],[-119.39710039,49.88900339],[-119.39743372,49.88900588],[-119.39815874,49.88901122],[-119.39957871,49.88902226],[-119.39999853,49.88901906],[-119.40069446,49.88901443],[-119.4012813,49.88901016],[-119.40237808,49.88901051],[-119.40275807,49.88901087],[-119.40588502,49.88903615],[-119.4070018,49.88903722],[-119.40770818,49.88903793],[-119.4079099,49.88903793],[-119.40824392,49.88903757],[-119.40938432,49.88903733],[-119.40941045,49.88903686],[-119.41026319,49.88903508],[-119.41062397,49.88903437],[-119.41260843,49.88903188],[-119.41355236,49.8890301],[-119.41505732,49.88903081],[-119.41535476,49.88902974],[-119.41678877,49.88904042],[-119.41757275,49.88903437],[-119.41757229,49.88899447],[-119.41757489,49.88896458],[-119.41758193,49.8887588],[-119.4175878,49.88858717],[-119.41759629,49.88819222],[-119.41760497,49.88778818],[-119.41760165,49.88765238],[-119.4175833,49.88690268],[-119.41758218,49.88671504],[-119.4175803,49.88631555],[-119.41758305,49.88583417],[-119.41759128,49.88460935],[-119.41760504,49.88369323],[-119.41760854,49.88328875],[-119.41761317,49.88274399],[-119.41761871,49.88204613],[-119.41758398,49.88052507],[-119.41758268,49.88047629],[-119.41758161,49.88044123],[-119.417581,49.88042111],[-119.41756811,49.87996598],[-119.41756499,49.87968368],[-119.41753287,49.87957253],[-119.41777692,49.87961074],[-119.41805066,49.87965244],[-119.41840503,49.87970834],[-119.41874293,49.87976027],[-119.41913361,49.87978387],[-119.41941486,49.87980242],[-119.4197416,49.87982208],[-119.42012795,49.8798511],[-119.42049049,49.87987706],[-119.42079166,49.87987929],[-119.42118752,49.87988275],[-119.42133738,49.87986021],[-119.4215054,49.87981826],[-119.4217547,49.87977695],[-119.42197714,49.87972752],[-119.42232278,49.879605],[-119.42248925,49.87955297],[-119.4227829,49.87945229],[-119.42309543,49.87934944],[-119.42330443,49.87927269],[-119.42349691,49.87921515],[-119.42376051,49.87912471],[-119.42400655,49.87903563],[-119.42424263,49.87895541],[-119.42450766,49.87887315],[-119.42474873,49.87879094],[-119.42502947,49.878691],[-119.42522083,49.87863105],[-119.42546623,49.87854685],[-119.42569278,49.87845267],[-119.42581766,49.87840361],[-119.42601419,49.87832219],[-119.42619312,49.87823986],[-119.42635081,49.87816939],[-119.42668486,49.87803698],[-119.42685213,49.8779855],[-119.42699227,49.87794695],[-119.42714847,49.87788239],[-119.42738659,49.87781198],[-119.42759432,49.87774626],[-119.42782456,49.87765624],[-119.42807955,49.87756365],[-119.42826654,49.87750599],[-119.42845785,49.87743279],[-119.42868887,49.87735873],[-119.42897165,49.87725814],[-119.42929652,49.87715214],[-119.42967802,49.87702579],[-119.43049601,49.87672245],[-119.43098454,49.87654523],[-119.43125777,49.87643529],[-119.4314616,49.87636354],[-119.43162979,49.87630159],[-119.43195082,49.87618832],[-119.43204099,49.87615374],[-119.43231871,49.87604325],[-119.43254657,49.87595083],[-119.43276927,49.87585066],[-119.43303782,49.87574863],[-119.43330799,49.87564054],[-119.43356408,49.87553037],[-119.43379378,49.87539202],[-119.4340624,49.87523001],[-119.43439763,49.87504813],[-119.4348112,49.87479975],[-119.43527143,49.87449103],[-119.43551446,49.87432549],[-119.4357,49.87418204],[-119.43587468,49.87403721],[-119.43602198,49.87392415],[-119.43617011,49.87378999],[-119.43631684,49.87363627],[-119.43644646,49.87350298],[-119.43659245,49.87333497],[-119.43671438,49.8732108],[-119.43696379,49.87293882],[-119.43714186,49.8727318],[-119.43721454,49.87261598],[-119.43733066,49.87244268],[-119.43742032,49.87220435],[-119.43750143,49.8720287],[-119.43758408,49.87187946],[-119.43763079,49.87174383],[-119.43770654,49.87151981],[-119.43781493,49.87132089],[-119.43796609,49.87091878],[-119.43800049,49.87076738],[-119.43807733,49.87043947],[-119.43811914,49.87020952],[-119.43813617,49.87006639],[-119.43815262,49.86988917],[-119.4381754,49.86967159],[-119.43820367,49.86940315],[-119.43822594,49.86920742],[-119.43824163,49.86900973],[-119.4382694,49.86875494],[-119.4382961,49.86848096],[-119.43832467,49.86832533],[-119.43833532,49.86818578],[-119.43834814,49.86803333],[-119.4383968,49.86787753],[-119.4384225,49.86772512],[-119.43845531,49.86760269],[-119.43851065,49.86740589],[-119.43854212,49.86725571],[-119.4386411,49.8670677],[-119.43872557,49.866884],[-119.43884216,49.86672159],[-119.43897088,49.8665402],[-119.43906969,49.86639407],[-119.43925007,49.86620209],[-119.43943192,49.86601984],[-119.43954741,49.86588847],[-119.43978856,49.86568775],[-119.43998667,49.86552403],[-119.44028524,49.86526467],[-119.44036394,49.86519239],[-119.44044279,49.8651245],[-119.4406042,49.86497037],[-119.44076277,49.86481522],[-119.44089166,49.86470687],[-119.44104116,49.86455676],[-119.44126757,49.86432831],[-119.44145812,49.86416739],[-119.44165957,49.86398116],[-119.44179999,49.86383774],[-119.44194718,49.86371474],[-119.44208491,49.86357188],[-119.44219214,49.86344137],[-119.44230402,49.86329251],[-119.44248287,49.86306427],[-119.44267298,49.86245799],[-119.44272534,49.86227735],[-119.44278352,49.86209295],[-119.44281585,49.86181067],[-119.4429016,49.8612278],[-119.44290868,49.86115326],[-119.44300721,49.86086379],[-119.4430352,49.86082078],[-119.44320279,49.86088701],[-119.4432126,49.8608908],[-119.4433311,49.86093757],[-119.44343495,49.86097872],[-119.44346766,49.86099168],[-119.44434918,49.86120638],[-119.44525385,49.86134667],[-119.44533072,49.86135842],[-119.44541456,49.86137124],[-119.4457986,49.86139901],[-119.44594289,49.86140755],[-119.44628709,49.86137648],[-119.44718506,49.8612954],[-119.44951336,49.86102943],[-119.45044804,49.86092225],[-119.45119226,49.86092012],[-119.45143043,49.86091933],[-119.45162342,49.86091869],[-119.45273801,49.8609156],[-119.45304741,49.86091471],[-119.45314003,49.86091442],[-119.4537001,49.86091282],[-119.45408881,49.8609117],[-119.45444211,49.86091051],[-119.45459517,49.86091167],[-119.45560965,49.86091674],[-119.45651524,49.86092938],[-119.46337453,49.86093116],[-119.46337303,49.86098528],[-119.46334947,49.86232947],[-119.46334621,49.86250989],[-119.46335088,49.86252179],[-119.46334052,49.863229],[-119.46345381,49.86363106],[-119.46380366,49.86414645],[-119.46406458,49.86445414],[-119.46449956,49.86489864],[-119.46510345,49.86549731],[-119.46546482,49.86593739],[-119.46569041,49.86660453],[-119.46569991,49.86661616],[-119.46586018,49.86723867],[-119.46589436,49.86737179],[-119.46589474,49.86744187],[-119.46589563,49.86760927],[-119.46589969,49.86922902],[-119.46590048,49.86954406],[-119.46586527,49.87004447],[-119.46580589,49.87088852],[-119.46580793,49.87100637],[-119.46580963,49.87113704],[-119.46581253,49.87197378],[-119.46581529,49.87277168],[-119.46892018,49.87277595],[-119.46936722,49.87277666],[-119.4697051,49.87277702],[-119.47004434,49.87277808],[-119.47029853,49.87277971],[-119.47054726,49.87277844],[-119.47106824,49.87277956],[-119.47154531,49.87278058],[-119.47339304,49.87278271],[-119.47418803,49.87278271],[-119.47467862,49.87278271],[-119.47536565,49.87278307],[-119.4760666,49.87278414],[-119.47639289,49.873411],[-119.47682592,49.87424288],[-119.47686972,49.87432691],[-119.47704146,49.87486527],[-119.47705372,49.87501683],[-119.47706084,49.87510489],[-119.47707346,49.87526435],[-119.47708158,49.87536694],[-119.47709089,49.87646465],[-119.47708134,49.87661028],[-119.47707711,49.87679827],[-119.47714874,49.87679507],[-119.47915032,49.87663022],[-119.48112337,49.87635962],[-119.48203794,49.87631191],[-119.4821706,49.87630478],[-119.48277809,49.8763087],[-119.48822887,49.87631689],[-119.49124175,49.8763176],[-119.49439977,49.87631155],[-119.49682406,49.87630728],[-119.49724429,49.87630763],[-119.51185321,49.87617833],[-119.51229825,49.87301436],[-119.51294464,49.86837222],[-119.51334038,49.86552963],[-119.51368722,49.86303803],[-119.51371361,49.86285722],[-119.51474205,49.85580943],[-119.51539677,49.85132149],[-119.51545301,49.85093591],[-119.51664556,49.84678259],[-119.51705507,49.84535622],[-119.51796943,49.84384291],[-119.52218398,49.83686624],[-119.52369657,49.83521059],[-119.52507453,49.83403195],[-119.52741243,49.83203205],[-119.52900092,49.83084016],[-119.53234352,49.82854146],[-119.53521827,49.82696097],[-119.53631178,49.82626475],[-119.53935539,49.82441835],[-119.54084447,49.82365178],[-119.54297921,49.82255275],[-119.54502914,49.82142157],[-119.54963329,49.81888064],[-119.55648983,49.81486328],[-119.56454951,49.81000732],[-119.56797092,49.80852289],[-119.5739384,49.80593336],[-119.58290202,49.8033119],[-119.5846716,49.80281562],[-119.58872986,49.80174538],[-119.59223626,49.8008205],[-119.59435932,49.80026044],[-119.59869854,49.79919729],[-119.60353197,49.79801124],[-119.60635155,49.79731883],[-119.6082803,49.79681308],[-119.61079854,49.79615268],[-119.61762463,49.79444502],[-119.62558887,49.79245193],[-119.63605268,49.79016749],[-119.64829234,49.78782835],[-119.65256751,49.78701245],[-119.66607011,49.78442797],[-119.66924768,49.78388108],[-119.68237811,49.78048733],[-119.69007578,49.77809221],[-119.6945665,49.77631168],[-119.69538959,49.77598218],[-119.69550496,49.7594128],[-119.67318575,49.75889012],[-119.66181067,49.75895456],[-119.66153276,49.75895563],[-119.59999894,49.75919739],[-119.57809303,49.75929352],[-119.57781567,49.75929459],[-119.57753831,49.75929566],[-119.55576226,49.75937363],[-119.5554849,49.7593747],[-119.54431829,49.75941316],[-119.54431813,49.75923335],[-119.54431251,49.75327766],[-119.54431137,49.75217853],[-119.53314615,49.75218244],[-119.52197852,49.75218494],[-119.52204867,49.74731699],[-119.52205505,49.74686872],[-119.52213377,49.74141364],[-119.52216718,49.73908613],[-119.52209195,49.73906654],[-119.52194678,49.73903557],[-119.52182744,49.73900993],[-119.52155786,49.73896222],[-119.52153565,49.73895902],[-119.52128587,49.7389227],[-119.52110714,49.73890561],[-119.52101249,49.73889671],[-119.52073152,49.73889671],[-119.52045164,49.73889671],[-119.52018505,49.73886609],[-119.51994131,49.73877921],[-119.51970489,49.73867987],[-119.51945023,49.73859371],[-119.51919105,49.73850861],[-119.51895149,49.73841426],[-119.51875537,49.73829996],[-119.51863161,49.73815398],[-119.51857434,49.73797774],[-119.51854345,49.73778938],[-119.51849807,49.73760566],[-119.51840681,49.7374344],[-119.51830913,49.73726456],[-119.51827314,49.73708867],[-119.51832371,49.73689783],[-119.51837444,49.73671197],[-119.51832538,49.73655851],[-119.51812351,49.73645597],[-119.51784663,49.73637799],[-119.51759449,49.73628613],[-119.51736819,49.73618216],[-119.51714333,49.73607677],[-119.51691993,49.73596996],[-119.51669798,49.73586172],[-119.51647725,49.73575241],[-119.5162583,49.73564203],[-119.51603981,49.73553095],[-119.51581393,49.73542021],[-119.51559461,49.73530521],[-119.51539843,49.73518059],[-119.51524691,49.73503674],[-119.51516699,49.73485979],[-119.51514752,49.73467784],[-119.51517084,49.73450053],[-119.51521798,49.73432215],[-119.51526864,49.73414341],[-119.51530168,49.73396467],[-119.51530488,49.73378522],[-119.51528869,49.73360506],[-119.51526612,49.73342454],[-119.51524916,49.73324473],[-119.51525103,49.73306564],[-119.51527669,49.73288726],[-119.51531612,49.73270887],[-119.51536855,49.73253085],[-119.51543506,49.73235496],[-119.51551616,49.73218298],[-119.51561473,49.73201564],[-119.51573548,49.73185328],[-119.51587184,49.73169412],[-119.51601303,49.73153604],[-119.51615115,49.73137759],[-119.51627651,49.73121666],[-119.51637934,49.73105216],[-119.51645194,49.73088233],[-119.51649827,49.73070786],[-119.51652624,49.73053019],[-119.51653982,49.73035003],[-119.51654383,49.73016844],[-119.51654388,49.72998614],[-119.51654481,49.7298042],[-119.51655081,49.72962297],[-119.51656637,49.72944316],[-119.51658756,49.72926229],[-119.51661173,49.72908106],[-119.51663315,49.72889983],[-119.51664917,49.72871931],[-119.51665492,49.72854021],[-119.51664632,49.7283629],[-119.51661513,49.72818737],[-119.51652617,49.72801432],[-119.51639171,49.72785054],[-119.51623166,49.72770634],[-119.51601712,49.72759347],[-119.51576644,49.72750553],[-119.51551035,49.72743574],[-119.51523948,49.72738411],[-119.51497419,49.72732714],[-119.51473694,49.72724062],[-119.5145207,49.72713131],[-119.51431171,49.72701488],[-119.51410798,49.72689276],[-119.51390816,49.72676707],[-119.51370968,49.72663925],[-119.51351199,49.72651107],[-119.51316247,49.72629281],[-119.51300653,49.7260393],[-119.51301356,49.72571529],[-119.51304957,49.72548315],[-119.51268784,49.72539841],[-119.51232841,49.72540588],[-119.51177603,49.72534393],[-119.51134248,49.72529266],[-119.51107244,49.72527984],[-119.51080373,49.72524922],[-119.51053642,49.72520507],[-119.51026868,49.72515202],[-119.51000111,49.72509434],[-119.50973331,49.72503701],[-119.50946424,49.72498432],[-119.50919373,49.72494088],[-119.50891692,49.72490741],[-119.50861209,49.7248686],[-119.50829121,49.7248273],[-119.5079697,49.72479134],[-119.50766479,49.72476748],[-119.5073932,49.72476321],[-119.50717138,49.72478564],[-119.5070175,49.72484261],[-119.50697285,49.72496117],[-119.50702299,49.72513279],[-119.50712845,49.72533539],[-119.50724912,49.72554617],[-119.50734685,49.72574271],[-119.50741215,49.72591824],[-119.50748175,49.72609307],[-119.50755488,49.72626753],[-119.50762857,49.726442],[-119.50764138,49.72647375],[-119.5068763,49.72691879],[-119.50634708,49.72739104],[-119.50610599,49.72779907],[-119.50568714,49.72837888],[-119.50554045,49.72879387],[-119.50532336,49.72933931],[-119.50490645,49.72983711],[-119.50428341,49.7300455],[-119.50354048,49.72996162],[-119.50318008,49.72937068],[-119.50270679,49.72880318],[-119.50212061,49.72825911],[-119.50161379,49.72886778],[-119.50086181,49.72935782],[-119.49986474,49.72972919],[-119.49875823,49.73001196],[-119.49777099,49.73033512],[-119.49702297,49.73081305],[-119.4965149,49.73151968],[-119.49538874,49.73166091],[-119.49427485,49.7317109],[-119.49328723,49.73178715],[-119.49254865,49.73193899],[-119.49091384,49.73325959],[-119.49086575,49.73557255],[-119.49086701,49.73613927],[-119.49097212,49.73683668],[-119.49132647,49.73743178],[-119.49193006,49.73792456],[-119.49204522,49.73863675],[-119.49227798,49.73929644],[-119.49251187,49.73976718],[-119.49250425,49.74016017],[-119.49213137,49.74043807],[-119.49151074,49.74078727],[-119.4896563,49.74149985],[-119.48855682,49.74117265],[-119.48804928,49.74171332],[-119.48741629,49.74221369],[-119.48739369,49.7436715],[-119.48686758,49.74424155],[-119.48598172,49.74468438],[-119.4847361,49.74499998],[-119.48338586,49.74504894],[-119.48240983,49.74475402],[-119.48133465,49.74360361],[-119.48061059,49.74325829],[-119.47962955,49.74316636],[-119.47864358,49.74309851],[-119.47777529,49.74307011],[-119.47715971,49.74288538],[-119.47654575,49.74276258],[-119.47606049,49.74253207],[-119.47545058,49.7423372],[-119.47484257,49.74196738],[-119.47398698,49.74158185],[-119.47227269,49.7406879],[-119.47153563,49.74020586],[-119.47068071,49.73974134],[-119.46982832,49.73929574],[-119.46897938,49.73894802],[-119.46837436,49.73860508],[-119.46777054,49.73840705],[-119.46709658,49.7382713],[-119.46643401,49.73823662],[-119.46718493,49.73707815],[-119.46744184,49.73645796],[-119.4675531,49.73616614],[-119.46757188,49.73598669],[-119.46759154,49.7358076],[-119.46761142,49.73562815],[-119.46763131,49.7354487],[-119.46765064,49.73526925],[-119.46766833,49.7350898],[-119.46768491,49.73491035],[-119.46769984,49.7347309],[-119.46771169,49.73455109],[-119.46772112,49.73437164],[-119.46772746,49.73419183],[-119.46773018,49.73401167],[-119.46771019,49.73383257],[-119.46765103,49.73365704],[-119.46755753,49.73348792],[-119.46744059,49.73332449],[-119.46730815,49.7331664],[-119.46715434,49.73301686],[-119.46697145,49.73288192],[-119.46676556,49.73276157],[-119.46655089,49.73264728],[-119.46633208,49.7325369],[-119.46610882,49.73243008],[-119.46588188,49.73232647],[-119.46565281,49.73222535],[-119.46542129,49.73212637],[-119.46518777,49.73202881],[-119.4649539,49.73193268],[-119.4647149,49.73184117],[-119.46446839,49.73175893],[-119.46421649,49.73168344],[-119.4639637,49.73160938],[-119.46371271,49.73153248],[-119.46346688,49.73144916],[-119.46322362,49.73136264],[-119.46298721,49.73126793],[-119.46278578,49.7311458],[-119.46262956,49.73099662],[-119.46249561,49.73083924],[-119.46237638,49.73067688],[-119.46227065,49.73051061],[-119.46217531,49.73034184],[-119.46208981,49.73017058],[-119.46201779,49.72999718],[-119.46196079,49.72982093],[-119.46191383,49.72964362],[-119.4618715,49.72946595],[-119.4618273,49.72928864],[-119.46177681,49.72911168],[-119.46171419,49.7289365],[-119.46163246,49.72876453],[-119.46152862,49.72859789],[-119.46140178,49.72843803],[-119.46125268,49.72828635],[-119.46108029,49.72814535],[-119.46088525,49.72801753],[-119.46067318,49.72790181],[-119.46045143,49.72779357],[-119.46022286,49.72769174],[-119.45998971,49.72759454],[-119.45975366,49.72750018],[-119.45951661,49.72740654],[-119.45928033,49.72731254],[-119.45904451,49.72721783],[-119.45880365,49.72712847],[-119.45855619,49.72704693],[-119.45831398,49.7269597],[-119.45808956,49.72685395],[-119.45789709,49.7267247],[-119.45773637,49.72657836],[-119.45760004,49.72642135],[-119.4574843,49.72625792],[-119.45738182,49.72609093],[-119.45728787,49.7259218],[-119.45719789,49.72575161],[-119.45710659,49.72558177],[-119.45700943,49.72541336],[-119.45690243,49.72524744],[-119.45677486,49.72508793],[-119.45661593,49.72494052],[-119.45644104,49.72480095],[-119.45627235,49.72465853],[-119.45612718,49.72450507],[-119.45600039,49.7243452],[-119.45587913,49.72418356],[-119.45576341,49.72402013],[-119.4556519,49.72385528],[-119.4555447,49.72368971],[-119.45543982,49.72352308],[-119.45533683,49.72335609],[-119.45523649,49.72318839],[-119.4551388,49.72301998],[-119.45504488,49.72285085],[-119.45495361,49.72268102],[-119.45486687,49.72251011],[-119.45478499,49.72233849],[-119.45470654,49.72216581],[-119.45463593,49.72199205],[-119.45459369,49.72181438],[-119.45461326,49.72163565],[-119.45470452,49.72146545],[-119.45483307,49.72130594],[-119.45497709,49.7211507],[-119.45506482,49.7209887],[-119.45498643,49.72081245],[-119.45492335,49.72063728],[-119.45484281,49.7204653],[-119.45472527,49.72030045],[-119.45462483,49.72013382],[-119.45459161,49.71995757],[-119.45459482,49.71977598],[-119.45458997,49.71959582],[-119.45457829,49.71941602],[-119.4545666,49.71923621],[-119.45455988,49.7190564],[-119.4545644,49.71887624],[-119.45458556,49.71869501],[-119.45460407,49.71851449],[-119.45459775,49.71833753],[-119.45448822,49.71816876],[-119.45426878,49.71806658],[-119.45401448,49.71799074],[-119.45375808,49.71791561],[-119.45352503,49.71781841],[-119.45330215,49.71771124],[-119.45308818,49.71759694],[-119.45288391,49.71747517],[-119.45269176,49.71734557],[-119.45250122,49.7172117],[-119.45240609,49.71704542],[-119.45232372,49.7168738],[-119.45224687,49.7167004],[-119.45217722,49.71652523],[-119.45211572,49.71634934],[-119.45206382,49.71617309],[-119.45202085,49.71599578],[-119.4519865,49.71581704],[-119.45195976,49.71563759],[-119.45193852,49.71545814],[-119.45192247,49.71527833],[-119.45191303,49.71509852],[-119.45192133,49.71491765],[-119.45193868,49.71473642],[-119.45195437,49.71455519],[-119.45195682,49.71437574],[-119.45193677,49.71419878],[-119.45188408,49.71402467],[-119.45180338,49.71385305],[-119.4517037,49.71368357],[-119.45159465,49.71351587],[-119.45148469,49.7133496],[-119.45134248,49.71319685],[-119.45117637,49.71305229],[-119.45101624,49.71290524],[-119.45085766,49.71275748],[-119.45073187,49.71259797],[-119.45062334,49.71243205],[-119.45051172,49.71226755],[-119.4504001,49.71210306],[-119.4502887,49.7119382],[-119.45017653,49.71177371],[-119.45006359,49.71160957],[-119.44995009,49.71144543],[-119.44983505,49.711282],[-119.44971758,49.71111893],[-119.44959457,49.71095764],[-119.44946792,49.71079777],[-119.44933971,49.71063861],[-119.44921173,49.7104791],[-119.44908664,49.71031852],[-119.4489663,49.71015652],[-119.44885282,49.70999238],[-119.44874212,49.70982646],[-119.44871165,49.7096495],[-119.4487123,49.70946863],[-119.4487158,49.70928846],[-119.44872127,49.70910866],[-119.44872873,49.70892921],[-119.44873586,49.7087494],[-119.44874244,49.70856959],[-119.44874682,49.70838979],[-119.44874481,49.70820962],[-119.44873433,49.70802982],[-119.44872628,49.70784965],[-119.44872988,49.7076702],[-119.44874946,49.70749075],[-119.44877797,49.70731024],[-119.44881967,49.7071315],[-119.44888101,49.70695739],[-119.44898098,49.70679182],[-119.44912694,49.70663623],[-119.44928107,49.70648597],[-119.44944241,49.70633999],[-119.44960923,49.70619579],[-119.44977341,49.70605052],[-119.44992775,49.70590169],[-119.45006765,49.7057461],[-119.45018816,49.70558374],[-119.45028959,49.70541675],[-119.45038158,49.70524727],[-119.4504681,49.70507601],[-119.45055351,49.70490475],[-119.4506387,49.70473384],[-119.45072214,49.70456222],[-119.45080416,49.70439025],[-119.4508865,49.70421863],[-119.45097081,49.70404737],[-119.45106822,49.70387718],[-119.4511411,49.70370485],[-119.45115506,49.70352647],[-119.45113426,49.70334559],[-119.45107783,49.7031697],[-119.45102107,49.70299346],[-119.45097193,49.7028165],[-119.45092741,49.70263919],[-119.45088532,49.70246152],[-119.45084158,49.70228385],[-119.4508243,49.70210439],[-119.45082501,49.70192174],[-119.45067807,49.70177576],[-119.45045378,49.7016693],[-119.45020989,49.7015842],[-119.44995387,49.70151477],[-119.44969002,49.7014603],[-119.44942106,49.7014165],[-119.44914866,49.70138161],[-119.44887527,49.70135348],[-119.44860037,49.70133034],[-119.44832454,49.7013104],[-119.44804869,49.70129224],[-119.44777183,49.70129651],[-119.44749543,49.70131396],[-119.44721865,49.70131289],[-119.44694481,49.70128547],[-119.44667643,49.7012399],[-119.44641894,49.70117367],[-119.44617574,49.70108751],[-119.44593389,49.70099921],[-119.44569495,49.70090806],[-119.44546755,49.7008048],[-119.44526745,49.70068018],[-119.44512947,49.7005253],[-119.44504803,49.70035333],[-119.44498889,49.70017744],[-119.44494496,49.70000013],[-119.44493402,49.69995313],[-119.44490535,49.69977261],[-119.44488696,49.69958888],[-119.44487763,49.69940303],[-119.44487701,49.69921645],[-119.444883,49.69902988],[-119.44489525,49.69884474],[-119.44491197,49.69866208],[-119.44493272,49.69848263],[-119.44496792,49.69830816],[-119.44504555,49.69813797],[-119.44515363,49.69797098],[-119.44527819,49.69780577],[-119.44540538,49.69764163],[-119.44552179,49.69747714],[-119.44563664,49.69731335],[-119.44575555,49.69715099],[-119.44587676,49.69698935],[-119.44599819,49.69682734],[-119.4461171,49.69666498],[-119.44623876,49.69650262],[-119.44635834,49.6963392],[-119.44644116,49.69616865],[-119.44649884,49.69599347],[-119.44655169,49.69581722],[-119.44659939,49.69563955],[-119.44664291,49.69546153],[-119.44668138,49.69528279],[-119.44671545,49.69510405],[-119.44674512,49.69492531],[-119.44677006,49.69474622],[-119.4467917,49.69456712],[-119.44680971,49.69438767],[-119.44682465,49.69420787],[-119.44683628,49.69402806],[-119.44684571,49.69384825],[-119.4468524,49.69366845],[-119.4468571,49.69348828],[-119.44685994,49.69330848],[-119.44686332,49.69312867],[-119.44686738,49.6929478],[-119.44687035,49.69276692],[-119.44687056,49.69258605],[-119.44686637,49.69240517],[-119.4468549,49.69222537],[-119.44683504,49.69204663],[-119.44680461,49.69186896],[-119.44676038,49.69169307],[-119.44669852,49.69151896],[-119.44662067,49.69134663],[-119.44653091,49.69117572],[-119.44643355,49.69100553],[-119.44633253,49.69083676],[-119.44623129,49.69066835],[-119.44613561,49.69049638],[-119.44604285,49.69031372],[-119.44591786,49.69015065],[-119.44572636,49.69003778],[-119.44549378,49.68995411],[-119.4452443,49.68988147],[-119.44498178,49.6898181],[-119.44471013,49.6897622],[-119.44443509,49.68971164],[-119.44416054,49.68966464],[-119.44389091,49.68961942],[-119.44361908,49.68958203],[-119.44334214,49.68955355],[-119.44306302,49.68953112],[-119.44278254,49.68951082],[-119.44250275,49.68948946],[-119.44222598,49.68946418],[-119.44195419,49.68943107],[-119.4416894,49.68938692],[-119.44143286,49.68932888],[-119.44118504,49.68925625],[-119.44094085,49.68917613],[-119.44070019,49.68908961],[-119.44046204,49.6889974],[-119.4402276,49.68890019],[-119.43999533,49.68879872],[-119.43976641,49.68869368],[-119.4395404,49.6885858],[-119.43931708,49.68847542],[-119.43909599,49.68836327],[-119.43887788,49.68825075],[-119.43866132,49.68813753],[-119.43844962,49.68802359],[-119.43825084,49.68789969],[-119.43806365,49.68776795],[-119.43788359,49.68763015],[-119.43770678,49.68748987],[-119.43752951,49.6873503],[-119.43734768,49.68721357],[-119.43715596,49.6870829],[-119.43694694,49.68696042],[-119.43672916,49.68684221],[-119.43651293,49.68672329],[-119.43630877,49.6866001],[-119.436127,49.68646764],[-119.43597835,49.68632202],[-119.43585509,49.686165],[-119.43574238,49.68600264],[-119.43563976,49.68583565],[-119.43554623,49.68566475],[-119.43546111,49.68549099],[-119.43538396,49.6853151],[-119.43531353,49.68513814],[-119.43524994,49.68496083],[-119.43519141,49.68478423],[-119.43513967,49.68460905],[-119.43511804,49.68443067],[-119.43512408,49.68424944],[-119.435144,49.68406714],[-119.43516305,49.68388448],[-119.43516732,49.68370432],[-119.43514259,49.68352736],[-119.43508268,49.68335468],[-119.43500095,49.68318342],[-119.43490191,49.68301429],[-119.43478887,49.6828473],[-119.43466608,49.68268352],[-119.43453796,49.68252294],[-119.43440151,49.6823677],[-119.4342295,49.68222599],[-119.434041,49.68209034],[-119.43393766,49.68200951],[-119.43386356,49.68195112],[-119.43372255,49.68179873],[-119.43360868,49.68163566],[-119.43350989,49.68146618],[-119.43342756,49.68129242],[-119.4333609,49.68111653],[-119.43331263,49.68094029],[-119.43329193,49.68076048],[-119.43329065,49.68057783],[-119.43329698,49.68039446],[-119.43329768,49.68021216],[-119.43328016,49.68003342],[-119.43323086,49.67985967],[-119.43314614,49.67969232],[-119.4330442,49.67952783],[-119.43292912,49.67936582],[-119.43280356,49.6792056],[-119.43267017,49.67904644],[-119.43253203,49.67888871],[-119.43239169,49.67873098],[-119.43225268,49.6785729],[-119.4321172,49.67841445],[-119.43198812,49.67825458],[-119.431866,49.67809329],[-119.43174644,49.67793058],[-119.43162799,49.67776786],[-119.43150875,49.6776055],[-119.43138609,49.67744421],[-119.431259,49.6772847],[-119.43112373,49.67712768],[-119.43098225,49.67697351],[-119.43083446,49.67682147],[-119.43068302,49.67667086],[-119.43052893,49.67652097],[-119.43037383,49.67637178],[-119.43021897,49.67622224],[-119.4300642,49.67607341],[-119.42990601,49.67592565],[-119.42974704,49.67577824],[-119.42958785,49.67563119],[-119.42942966,49.67548343],[-119.42927513,49.67533424],[-119.42912604,49.67518257],[-119.42898992,49.67502519],[-119.42885823,49.67486603],[-119.42871933,49.67471044],[-119.42856335,49.67456268],[-119.42838409,49.6744256],[-119.42818843,49.67429528],[-119.42798423,49.67416888],[-119.42777793,49.6740432],[-119.42757804,49.67391609],[-119.42739122,49.67378399],[-119.42722533,49.67364406],[-119.42708668,49.67349417],[-119.42697242,49.67333359],[-119.42687799,49.67316517],[-119.42679951,49.67299071],[-119.42673585,49.67281197],[-119.42668267,49.67263145],[-119.42663808,49.67245129],[-119.42660005,49.67227291],[-119.42657468,49.67208847],[-119.42656395,49.67189656],[-119.42656277,49.67170002],[-119.4265679,49.67150134],[-119.4265752,49.67130444],[-119.42657947,49.67111146],[-119.42657809,49.67093344],[-119.42656593,49.670749],[-119.42653965,49.67058593],[-119.4264943,49.67043817],[-119.42638944,49.67032779],[-119.42615676,49.67035806],[-119.42591911,49.67040221],[-119.42560199,49.67050653],[-119.42533018,49.67056029],[-119.42506039,49.6706048],[-119.42479855,49.67066106],[-119.42455434,49.67074758],[-119.42434428,49.67086436],[-119.4242032,49.67102067],[-119.42413169,49.67119478],[-119.42408296,49.67137458],[-119.42399636,49.671543],[-119.42385894,49.67169788],[-119.42369862,49.67184635],[-119.42351953,49.67198628],[-119.42332861,49.67211624],[-119.42314136,49.67223089],[-119.42291804,49.67235729],[-119.42270121,49.67247087],[-119.42247994,49.67258018],[-119.42225478,49.67268521],[-119.42202722,49.67278883],[-119.42179594,49.67289137],[-119.42156022,49.67298964],[-119.42132022,49.67308079],[-119.42107435,49.67316126],[-119.42082159,49.6732257],[-119.42054993,49.67325668],[-119.42026786,49.67326594],[-119.41998827,49.67327128],[-119.41971123,49.67326914],[-119.41943412,49.67325846],[-119.41915746,49.67324706],[-119.41898272,49.67324066],[-119.41887902,49.67323674],[-119.41860613,49.67321075],[-119.4183514,49.67313277],[-119.41808251,49.67309183],[-119.41777002,49.67316197],[-119.41765822,49.67326522],[-119.41755821,49.67343826],[-119.41747173,49.67361771],[-119.41738574,49.67378862],[-119.41730851,49.67396131],[-119.41723502,49.67413506],[-119.41716174,49.67430846],[-119.41709896,49.67448613],[-119.41703696,49.67466344],[-119.41695702,49.67483435],[-119.4168334,49.67499172],[-119.41663703,49.67512417],[-119.41640486,49.67522031],[-119.41614957,49.67529045],[-119.41588736,49.67535418],[-119.41563668,49.6754318],[-119.41540525,49.67552936],[-119.41518169,49.67563618],[-119.41496072,49.67574584],[-119.41473717,49.67585266],[-119.41450486,49.67594986],[-119.41426056,49.67603389],[-119.4140088,49.67610972],[-119.41375575,49.67618414],[-119.41350669,49.67626354],[-119.41327033,49.67635932],[-119.413045,49.67647325],[-119.41281674,49.67657793],[-119.41257083,49.6766463],[-119.41230345,49.67667051],[-119.41202516,49.67666944],[-119.41174207,49.67665947],[-119.41146029,49.67665698],[-119.41118581,49.67667763],[-119.41091812,49.67671964],[-119.41065355,49.67677234],[-119.41039009,49.67683109],[-119.41012672,49.67689055],[-119.40986222,49.67694574],[-119.40947573,49.67697814],[-119.40931831,49.67701374],[-119.40903712,49.67702157],[-119.40876189,49.6770408],[-119.40850292,49.67709421],[-119.40825659,49.67717361],[-119.40801731,49.67726618],[-119.40777841,49.6773616],[-119.40753523,49.67744991],[-119.40728253,49.6775229],[-119.40702233,49.67758343],[-119.40675749,49.67763826],[-119.40649191,49.67769167],[-119.40622912,49.67774935],[-119.40597255,49.67781628],[-119.40572253,49.67789284],[-119.40547604,49.67797508],[-119.40523137,49.67806054],[-119.40498594,49.67814456],[-119.40473751,49.67822468],[-119.40448703,49.67830194],[-119.40423623,49.67837885],[-119.40398316,49.67845326],[-119.40372808,49.67852305],[-119.40346904,49.67858607],[-119.40320562,49.67864126],[-119.40293977,49.67869075],[-119.40267178,49.67873668],[-119.40240239,49.67878047],[-119.40213323,49.67882391],[-119.40186459,49.67886913],[-119.40159754,49.67891791],[-119.40133243,49.67896883],[-119.40106729,49.67902152],[-119.40080258,49.67907529],[-119.40053851,49.67912976],[-119.40027453,49.67918495],[-119.40001098,49.67924121],[-119.39971023,49.6793231],[-119.39945459,49.67939288],[-119.39919853,49.6794616],[-119.39893371,49.67951465],[-119.39865987,49.67954207],[-119.39838404,49.67955702],[-119.39810687,49.67956023],[-119.39782976,49.67955382],[-119.39755378,49.67953958],[-119.39727724,49.67952534],[-119.39700043,49.67952106],[-119.39672398,49.67953352],[-119.396449,49.67955667],[-119.39617477,49.67958124],[-119.39589868,49.67959833],[-119.39562189,49.67958622],[-119.39538041,49.67949863],[-119.39520864,49.67935763],[-119.39499058,49.67924619],[-119.39473526,49.67917605],[-119.39447575,49.67911338],[-119.3942142,49.67905392],[-119.39395184,49.6789966],[-119.39368803,49.6789407],[-119.39342409,49.67888587],[-119.39315993,49.67883139],[-119.39289621,49.6787762],[-119.39263296,49.6787203],[-119.39236844,49.67866725],[-119.39210279,49.67861598],[-119.39184125,49.67855652],[-119.39157492,49.67850631],[-119.39129775,49.67850347],[-119.39102177,49.67852127],[-119.39074789,49.67849421],[-119.39048076,49.67844614],[-119.39021511,49.67839487],[-119.38995322,49.67833683],[-119.38968644,49.67828734],[-119.38941421,49.67825423],[-119.38914046,49.6782261],[-119.38886787,49.67819441],[-119.38859855,49.6781524],[-119.38832819,49.67811288],[-119.38805302,49.67809044],[-119.38777659,49.67807691],[-119.38749969,49.67807193],[-119.3872226,49.67807763],[-119.38694814,49.67810255],[-119.38667751,49.67814136],[-119.38640688,49.67818017],[-119.3861344,49.6782115],[-119.38586052,49.6782407],[-119.38558648,49.67826669],[-119.38530968,49.67827452],[-119.38504026,49.6782318],[-119.38478281,49.67816593],[-119.38453754,49.67808866],[-119.38429341,49.67799752],[-119.38406856,49.67789248],[-119.38388939,49.6777554],[-119.38371456,49.67761583],[-119.38348121,49.67751898],[-119.38320476,49.67750723],[-119.38293474,49.67754853],[-119.38270311,49.67764716],[-119.38251513,49.67777925],[-119.38235354,49.67792524],[-119.3822069,49.67807798],[-119.38206761,49.67823215],[-119.3819483,49.67839558],[-119.38186845,49.67856791],[-119.3817693,49.67873597],[-119.38166041,49.67890118],[-119.38146492,49.67902864],[-119.38119733,49.67907564],[-119.38092078,49.67908739],[-119.38064365,49.67908882],[-119.38036645,49.67908775],[-119.38008928,49.6790849],[-119.37981214,49.67908027],[-119.37953527,49.6790735],[-119.37925864,49.6790646],[-119.37898183,49.67905428],[-119.37870527,49.67904182],[-119.3784293,49.67902757],[-119.37815384,49.67900906],[-119.37787963,49.67898164],[-119.37760695,49.67894924],[-119.37733508,49.67891471],[-119.37708182,49.67889156],[-119.37706094,49.67888978],[-119.37664518,49.67867829],[-119.37594385,49.67878866],[-119.37513981,49.67901903],[-119.37412276,49.67891115],[-119.37307138,49.6789585],[-119.37200835,49.67904751],[-119.37100983,49.67875306],[-119.36993424,49.67830728],[-119.36938237,49.67860743],[-119.36894099,49.67897523],[-119.36893507,49.67971297],[-119.36788782,49.67990346],[-119.36684916,49.68014273],[-119.36641327,49.68031328],[-119.36665929,49.68086516],[-119.36668513,49.68137218],[-119.36638258,49.68177345],[-119.36580012,49.68204725],[-119.36523203,49.68234171],[-119.36478388,49.68273052],[-119.36442044,49.68304669],[-119.36418074,49.68341058],[-119.36382957,49.68382858],[-119.36336749,49.68430071],[-119.36256043,49.68471302],[-119.36164021,49.68508865],[-119.36059825,49.68533469],[-119.35953587,49.68572527],[-119.35954359,49.68645376],[-119.35953316,49.68710177],[-119.35887184,49.68756785],[-119.35817898,49.68789399],[-119.35736497,49.68805065],[-119.35643114,49.68803748],[-119.35538317,49.68786978],[-119.35493491,49.68838499],[-119.35437715,49.6888621],[-119.35332317,49.68924022],[-119.35228682,49.68941932],[-119.35124112,49.68955426],[-119.35018563,49.68964577],[-119.34916459,49.68987257],[-119.34814414,49.69015813],[-119.3471081,49.69052094],[-119.34696398,49.6906947],[-119.34685932,49.69082288],[-119.34677806,49.69095924],[-119.34670632,49.69110487],[-119.34665761,49.69124978],[-119.34661023,49.6914125],[-119.34649155,49.6916717],[-119.3463514,49.69190065],[-119.34606394,49.69216128],[-119.34545003,49.69219795],[-119.34520809,49.69225207],[-119.34504069,49.69231794],[-119.34495556,49.69246819],[-119.34486403,49.6926804],[-119.3447505,49.69313828],[-119.34456727,49.6936218],[-119.34424943,49.69412918],[-119.34386723,49.69463477],[-119.3427989,49.69434139],[-119.34170601,49.69411173],[-119.34067726,49.69433925],[-119.3405792,49.69470705],[-119.34071252,49.69507628],[-119.3396741,49.69539423],[-119.33867308,49.69572607],[-119.33764361,49.69614586],[-119.33663731,49.69656208],[-119.33595787,49.69695339],[-119.33527584,49.69737816],[-119.33459057,49.69783568],[-119.33359406,49.69817073],[-119.33269413,49.69849758],[-119.33194211,49.69871656],[-119.33154605,49.69884153],[-119.33151217,49.69814046],[-119.33042771,49.69779367],[-119.32948708,49.69754871],[-119.32880008,49.69739738],[-119.32836734,49.69734041],[-119.32790448,49.69742159],[-119.3275184,49.69756117],[-119.32720886,49.69775949],[-119.32672792,49.6977869],[-119.32616007,49.69778049],[-119.32524735,49.69763701],[-119.32420477,49.69761885],[-119.32316925,49.69767866],[-119.32212108,49.6980956],[-119.32180886,49.69862932],[-119.32137579,49.69914275],[-119.32093573,49.69967149],[-119.3203742,49.70017139],[-119.31981231,49.70067271],[-119.31902578,49.70108502],[-119.31810809,49.70148629],[-119.31713941,49.70182062],[-119.31668446,49.70236752],[-119.31610779,49.7028756],[-119.31544477,49.70332387],[-119.31476892,49.7037992],[-119.3140808,49.70430159],[-119.31330444,49.70466583],[-119.31274703,49.70503293],[-119.31261322,49.70535729],[-119.31254967,49.70561365],[-119.31266012,49.70576533],[-119.31242302,49.7059259],[-119.31192726,49.70601278],[-119.31100974,49.70596827],[-119.31000188,49.70580449],[-119.30895206,49.7057023],[-119.30792712,49.70583084],[-119.30691212,49.70610892],[-119.30584866,49.70648989],[-119.30481616,49.70659137],[-119.30377345,49.70661202],[-119.30287692,49.70697982],[-119.30220867,49.70741278],[-119.30176826,49.70791161],[-119.30078776,49.70829971],[-119.30020179,49.70878501],[-119.29986313,49.70934365],[-119.29965656,49.70996639],[-119.2994589,49.71061405],[-119.29903381,49.71113637],[-119.29860464,49.71161669],[-119.29817249,49.71205499],[-119.29785234,49.7125232],[-119.29740801,49.71303769],[-119.29684416,49.71350555],[-119.29676278,49.71416175],[-119.296441,49.71466022],[-119.2957537,49.71489558],[-119.29481599,49.71492228],[-119.29484719,49.71557813],[-119.29488006,49.71627029],[-119.29479833,49.71692365],[-119.294602,49.7175382],[-119.29429123,49.71810503],[-119.29420481,49.7186594],[-119.29445378,49.71917141],[-119.29503859,49.71964033],[-119.29414738,49.7200238],[-119.29336106,49.7204475],[-119.29269409,49.72092247],[-119.29190982,49.72128671],[-119.291106,49.72141347],[-119.29028015,49.72122797],[-119.28956435,49.72085233],[-119.28883025,49.72039302],[-119.2879775,49.72081459],[-119.28722336,49.72123438],[-119.2865506,49.72167944],[-119.28586037,49.72215192],[-119.2858914,49.72280813],[-119.28521807,49.72324109],[-119.28454915,49.72367405],[-119.28376006,49.7239774],[-119.28283813,49.72407852],[-119.28178337,49.7239774],[-119.28134358,49.72446306],[-119.28066927,49.72487501],[-119.27976022,49.72521362],[-119.27891308,49.72560029],[-119.27848978,49.72593462],[-119.27848888,49.72621626],[-119.27853435,49.72646229],[-119.27841251,49.72676173],[-119.27799553,49.72694083],[-119.27743367,49.72723065],[-119.27663019,49.72732038],[-119.27571836,49.72753615],[-119.27468675,49.72766753],[-119.27365953,49.72789754],[-119.27261981,49.72801397],[-119.27159447,49.728145],[-119.27055387,49.72828528],[-119.26949218,49.72850105],[-119.26849768,49.7288984],[-119.26805673,49.72942465],[-119.26749913,49.7299014],[-119.26648382,49.73044296],[-119.26559316,49.73102403],[-119.26493377,49.73162683],[-119.26450481,49.73225099],[-119.26417422,49.73280892],[-119.26373161,49.73336543],[-119.26317461,49.73388705],[-119.2623862,49.73428334],[-119.26146539,49.7346401],[-119.26104789,49.73520907],[-119.26051735,49.73574707],[-119.26065864,49.73639793],[-119.26090734,49.73697189],[-119.26115227,49.73745576],[-119.26117607,49.73797026],[-119.26108817,49.73846553],[-119.26111239,49.73898893],[-119.26124585,49.7394671],[-119.26127047,49.7399994],[-119.26107448,49.74055805],[-119.26088157,49.74119147],[-119.26080195,49.74186761],[-119.26083257,49.74252381],[-119.26129797,49.7429792],[-119.26187133,49.74337585],[-119.26190389,49.74406801],[-119.2615991,49.74468256],[-119.26129447,49.74530031],[-119.26099024,49.74592091],[-119.25989011,49.7455467],[-119.25886041,49.74519777],[-119.25836849,49.74466369],[-119.25764792,49.74419192],[-119.25669903,49.74378281],[-119.25666977,49.74316257],[-119.25618248,49.74263348],[-119.2554712,49.7421585],[-119.25453571,49.74173801],[-119.25343907,49.74144426],[-119.25240799,49.74105973],[-119.25133727,49.74071151],[-119.25125527,49.74134706],[-119.25094841,49.74190749],[-119.25027982,49.74229451],[-119.24936282,49.74253699],[-119.2483142,49.74268332],[-119.24729081,49.74289126],[-119.24626024,49.74308709],[-119.24522924,49.74320921],[-119.24417816,49.74319853],[-119.24314727,49.74318037],[-119.24212569,49.74323841],[-119.24118364,49.74324339],[-119.24047517,49.74303226],[-119.24000053,49.74260464],[-119.239263,49.7420613],[-119.23867487,49.74158099],[-119.23820438,49.74107432],[-119.23785042,49.74052315],[-119.23678439,49.74038216],[-119.23573048,49.74037236],[-119.23467997,49.74036765],[-119.23363277,49.74036787],[-119.23257859,49.74028324],[-119.23260871,49.74093934],[-119.23337912,49.74199796],[-119.23352472,49.74254888],[-119.23330892,49.74308878],[-119.23273167,49.74361766],[-119.2320316,49.74328532],[-119.23144212,49.74311077],[-119.23096321,49.74309402],[-119.23028697,49.74328096],[-119.22949556,49.74337816],[-119.22858788,49.74336165],[-119.2275505,49.74324068],[-119.22660993,49.74358361],[-119.22593593,49.74402236],[-119.22552853,49.74455692],[-119.2254359,49.74516141],[-119.22509982,49.7457046],[-119.22442566,49.74614034],[-119.22351278,49.74644974],[-119.22248319,49.7466694],[-119.22144063,49.74674038],[-119.22039913,49.74673337],[-119.21932599,49.74667498],[-119.21837161,49.74665029],[-119.21762748,49.74668489],[-119.21720712,49.74689723],[-119.21698714,49.74711542],[-119.21690098,49.74730202],[-119.21683533,49.74741156],[-119.21677857,49.74752138],[-119.21674713,49.74760368],[-119.21672925,49.74769833],[-119.21671598,49.74782232],[-119.21668463,49.74792683],[-119.21667209,49.74799799],[-119.2166771,49.74801948],[-119.21638495,49.748059],[-119.2159799,49.74808215],[-119.21512321,49.74803982],[-119.21499105,49.74730571],[-119.21474806,49.7466107],[-119.21404172,49.74532585],[-119.21342209,49.74479297],[-119.21292302,49.74423179],[-119.21190888,49.74390933],[-119.21084009,49.74360591],[-119.21019657,49.7444128],[-119.20952381,49.74518725],[-119.20918089,49.7457875],[-119.20895795,49.74665233],[-119.20897799,49.74760248],[-119.20935381,49.74857483],[-119.20996639,49.7492238],[-119.21057481,49.74978091],[-119.21094484,49.75035356],[-119.21107649,49.75094175],[-119.21111293,49.75235336],[-119.21054909,49.75298082],[-119.210102,49.75363204],[-119.20900608,49.75334709],[-119.20797314,49.75319188],[-119.20694185,49.75320854],[-119.20591217,49.75339707],[-119.20520578,49.75302672],[-119.20379712,49.75237587],[-119.20201866,49.75234673],[-119.20122196,49.75130941],[-119.20077721,49.75060727],[-119.20060769,49.75000773],[-119.19956557,49.7500905],[-119.19853688,49.75026596],[-119.19752164,49.7505341],[-119.19780475,49.75096151],[-119.1978807,49.7513109],[-119.1978451,49.75164941],[-119.19812481,49.75189897],[-119.19836383,49.75227224],[-119.19831782,49.75248301],[-119.19806318,49.7527877],[-119.19759988,49.7531863],[-119.1980616,49.75374226],[-119.19863399,49.75425513],[-119.19923854,49.75476727],[-119.19970856,49.75529619],[-119.19974426,49.75669881],[-119.19964358,49.75733741],[-119.19942555,49.75794026],[-119.19853198,49.75895772],[-119.19797539,49.75942107],[-119.19742127,49.75988236],[-119.19662181,49.76021837],[-119.19570333,49.76048166],[-119.19464329,49.76058271],[-119.19467601,49.76192242],[-119.19399041,49.76150063],[-119.19327709,49.76097741],[-119.19256488,49.76047815],[-119.19197687,49.75996155],[-119.19150845,49.75942768],[-119.19113485,49.75884104],[-119.19038972,49.75771271],[-119.18947736,49.75773496],[-119.18867816,49.75793998],[-119.18799208,49.75832775],[-119.18716032,49.75859834],[-119.18661208,49.75812781],[-119.17545249,49.75813122],[-119.17244812,49.75813195],[-119.16427029,49.7581335],[-119.16425891,49.76358146],[-119.15306612,49.76356829],[-119.15308307,49.7700018],[-119.15315562,49.79764418],[-119.15322799,49.82518279],[-119.15242766,49.82525044],[-119.15158076,49.82510446],[-119.15076745,49.82476977],[-119.15005958,49.82438915],[-119.1493606,49.82423106],[-119.14867175,49.82437063],[-119.14799014,49.82474306],[-119.14718262,49.8250749],[-119.14625336,49.82523228],[-119.14520227,49.82521448],[-119.14416721,49.82518884],[-119.14312796,49.82519489],[-119.14208463,49.82525151],[-119.14106582,49.825416],[-119.14006175,49.82563355],[-119.14008006,49.82636168],[-119.13899516,49.82666966],[-119.1383426,49.82721549],[-119.13777345,49.82773177],[-119.13731825,49.82826585],[-119.13697548,49.82880277],[-119.13605787,49.82880491],[-119.13525522,49.82896442],[-119.13456761,49.82928202],[-119.1337799,49.82970038],[-119.13287461,49.83009275],[-119.132845,49.82941874],[-119.13283119,49.82878924],[-119.13269203,49.82815725],[-119.13232273,49.82758935],[-119.13172272,49.82708553],[-119.13100286,49.82663121],[-119.13040787,49.82613345],[-119.12993316,49.8256072],[-119.12957977,49.82504393],[-119.12852017,49.82529744],[-119.12753521,49.8249656],[-119.12669986,49.82451341],[-119.12601347,49.82394017],[-119.12523844,49.8242364],[-119.12432785,49.82450202],[-119.12429873,49.82384581],[-119.12428477,49.82320741],[-119.12425584,49.8225423],[-119.12423866,49.82183198],[-119.12422285,49.82115762],[-119.12319035,49.82121031],[-119.12225817,49.82102267],[-119.12142678,49.82059399],[-119.12106385,49.82002786],[-119.12092397,49.81937771],[-119.12066904,49.81877385],[-119.12018586,49.81825187],[-119.11958821,49.8177623],[-119.11876769,49.81733148],[-119.11794952,49.81688143],[-119.11713086,49.81645381],[-119.11642041,49.8160002],[-119.11559608,49.81558326],[-119.11466034,49.8151706],[-119.11520519,49.81477075],[-119.11552205,49.81427334],[-119.11561005,49.81367803],[-119.11559096,49.81292284],[-119.11556302,49.81228444],[-119.11554507,49.81154741],[-119.11551771,49.81092717],[-119.11494394,49.81036603],[-119.11470354,49.80981165],[-119.11479704,49.80926404],[-119.11523399,49.80873246],[-119.11579362,49.80822046],[-119.11650256,49.80768887],[-119.11659841,49.80708144],[-119.11680304,49.80650499],[-119.1172378,49.8060261],[-119.11767841,49.80554152],[-119.11812477,49.80505052],[-119.1184612,49.80447763],[-119.11843227,49.80381253],[-119.11829829,49.80319015],[-119.11793109,49.80262118],[-119.11732901,49.80210561],[-119.11729845,49.80139564],[-119.11716829,49.80075012],[-119.11692385,49.80013415],[-119.11645296,49.79967591],[-119.11638789,49.79962631],[-119.11597655,49.79931274],[-119.1153855,49.79914468],[-119.11491256,49.79892037],[-119.11433272,49.79879611],[-119.11386571,49.79856859],[-119.11339525,49.7983603],[-119.11303773,49.7980192],[-119.11197833,49.79763359],[-119.11196775,49.79706712],[-119.11193483,49.79631193],[-119.11203385,49.79571554],[-119.11236202,49.79516971],[-119.11291968,49.7946748],[-119.11329588,49.79412719],[-119.11372818,49.79366361],[-119.11421657,49.79328406],[-119.11450089,49.7929451],[-119.11474536,49.79256661],[-119.11490311,49.79203894],[-119.11478407,49.79142653],[-119.11461277,49.79100995],[-119.11435544,49.79062791],[-119.11362313,49.79008635],[-119.11276495,49.78952343],[-119.11169714,49.78893132],[-119.11172432,49.78956046],[-119.11162519,49.79021987],[-119.11128978,49.79081662],[-119.11071865,49.79135069],[-119.10966241,49.79127913],[-119.10862158,49.79137597],[-119.10759537,49.79164159],[-119.10655257,49.79204713],[-119.10641908,49.79135995],[-119.10628457,49.79070375],[-119.10626054,49.79005075],[-119.10646297,49.78934114],[-119.10472552,49.78911789],[-119.10334201,49.78882237],[-119.10230065,49.78915314],[-119.10127532,49.78954337],[-119.09994322,49.78969042],[-119.09946781,49.78979831],[-119.09920637,49.78989586],[-119.09916768,49.7899685],[-119.09911514,49.79003259],[-119.09909171,49.79014261],[-119.0990993,49.79030853],[-119.09922641,49.79068701],[-119.09865392,49.79115309],[-119.0981988,49.79165904],[-119.0977622,49.79213686],[-119.09708451,49.79253279],[-119.09616582,49.79284754],[-119.09513935,49.79299174],[-119.09421924,49.79314555],[-119.09405734,49.79320039],[-119.0942693,49.79339088],[-119.09470565,49.79368853],[-119.09505203,49.79385339],[-119.09638726,49.79447933],[-119.0972228,49.79499738],[-119.09756745,49.7953221],[-119.09783851,49.79568172],[-119.09805497,49.79626493],[-119.0980749,49.79655404],[-119.09801881,49.7970899],[-119.09774377,49.79768273],[-119.09765557,49.79778883],[-119.09640029,49.79929173],[-119.09623669,49.79945801],[-119.09606556,49.79963176],[-119.0954837,49.80010994],[-119.09457555,49.80067143],[-119.09319023,49.80135897],[-119.09280984,49.80154768],[-119.09250263,49.80170042],[-119.09122834,49.80233242],[-119.09090251,49.80249442],[-119.08996461,49.80304025],[-119.08934432,49.80350597],[-119.08859222,49.80418923],[-119.08739813,49.80541227],[-119.08668668,49.80653704],[-119.08602329,49.80721354],[-119.08485706,49.80885067],[-119.08469465,49.80921455],[-119.0846683,49.80940433],[-119.08476337,49.81016058],[-119.08473212,49.81053337],[-119.08455173,49.81091506],[-119.08421126,49.81144024],[-119.08411293,49.81181267],[-119.08409063,49.8122086],[-119.08423984,49.81283703],[-119.0850352,49.81438977],[-119.08512334,49.81456104],[-119.08541479,49.81542909],[-119.0856224,49.81707298],[-119.08552079,49.81734786],[-119.08525156,49.81807527],[-119.08541628,49.81880411],[-119.08542221,49.81917761],[-119.08487913,49.82036932],[-119.08475445,49.82123773],[-119.0847908,49.82291616],[-119.0850572,49.8238775],[-119.08519121,49.82463482],[-119.08503896,49.82552068],[-119.08509953,49.82606117],[-119.08521839,49.8265657],[-119.08540711,49.82714321],[-119.0856407,49.82749143],[-119.08650734,49.82847342],[-119.08678896,49.82900928],[-119.08738193,49.83090526],[-119.08725491,49.83192749],[-119.08732327,49.83256411],[-119.08749973,49.83305475],[-119.08805711,49.83460571],[-119.08851079,49.83548552],[-119.08860606,49.83658964],[-119.08879667,49.8369432],[-119.08908198,49.83727468],[-119.08942207,49.83758089],[-119.0898485,49.83785647],[-119.09048939,49.83816196],[-119.09160706,49.83869533],[-119.09252994,49.83920093],[-119.0943966,49.84052046],[-119.09687527,49.84227259],[-119.09758044,49.8427173],[-119.09838383,49.84310326],[-119.10104955,49.8442736],[-119.10193305,49.84466134],[-119.10583535,49.84712451],[-119.10664813,49.847503],[-119.10840244,49.84814211],[-119.10888709,49.84835111],[-119.10925073,49.84850742],[-119.11207706,49.85005945],[-119.1138076,49.85105854],[-119.11519128,49.85193656],[-119.11602538,49.85251159],[-119.11670545,49.85298086],[-119.11713918,49.85329597],[-119.11776049,49.85374744],[-119.11807464,49.85400238],[-119.11819755,49.85410243],[-119.11936984,49.85505522],[-119.12035826,49.85593788],[-119.12079057,49.85632384],[-119.12184057,49.85726168],[-119.12261985,49.85804286],[-119.12421208,49.85983701],[-119.12465414,49.86019484],[-119.1250911,49.86046615],[-119.12541908,49.86062068],[-119.12573402,49.8607688],[-119.12622632,49.86093329],[-119.12888225,49.86159021],[-119.13090007,49.86207836],[-119.13665064,49.86346981],[-119.13723398,49.86361116],[-119.13856939,49.86393339],[-119.13919094,49.86408329],[-119.14098706,49.8645166],[-119.14109337,49.86454224],[-119.14135001,49.86460419],[-119.14555577,49.86562927],[-119.14607197,49.86575211],[-119.14635977,49.86582154],[-119.14678513,49.86592479],[-119.1471536,49.86601416],[-119.14773526,49.86614091],[-119.14826434,49.86621747],[-119.15001589,49.86633389],[-119.15078485,49.86645887],[-119.15164539,49.86671167],[-119.15288009,49.86725073],[-119.1531169,49.86735434],[-119.15333333,49.86744656],[-119.15342354,49.86748537],[-119.15368936,49.86759895],[-119.15410705,49.86777163],[-119.15434593,49.86787026],[-119.15489305,49.8680401],[-119.15562645,49.86818109],[-119.15621126,49.86824305],[-119.1569633,49.86825836],[-119.15765015,49.86820851],[-119.15827528,49.86809244],[-119.16031194,49.86752881],[-119.16073266,49.86741273],[-119.16094858,49.86735292],[-119.16214502,49.86708979],[-119.1631097,49.86694702],[-119.16440995,49.86682988],[-119.16673427,49.86671629],[-119.17125607,49.86649483],[-119.17499802,49.86602983],[-119.17592267,49.86591518],[-119.17608081,49.86588278],[-119.1783403,49.8654192],[-119.18112841,49.86501899],[-119.18166724,49.86489081],[-119.18233469,49.86468715],[-119.18308893,49.86445643],[-119.1838158,49.86431223],[-119.18441275,49.86426381],[-119.18530193,49.86427876],[-119.18750636,49.86457001],[-119.18760265,49.86457322],[-119.18827521,49.86459529],[-119.18891803,49.86456681],[-119.1897906,49.86445928],[-119.19495968,49.86373151],[-119.19505554,49.86371798],[-119.19581983,49.86361045],[-119.1965196,49.86355491],[-119.19656378,49.86355491],[-119.19705746,49.86355597],[-119.19775002,49.86361437],[-119.19865185,49.86380592],[-119.19938193,49.8640548],[-119.20005586,49.86435211],[-119.20101398,49.8647751],[-119.20135807,49.86488298],[-119.20151203,49.86493105],[-119.20208386,49.86501258],[-119.20241923,49.86501508],[-119.20272388,49.86501721],[-119.20291406,49.8649987],[-119.20344973,49.86494671],[-119.2042268,49.86487123],[-119.20452755,49.8648456],[-119.20596507,49.86472169],[-119.20702628,49.86463018],[-119.20798228,49.86461737],[-119.20894674,49.86465297],[-119.21046056,49.86476726],[-119.21138801,49.86491075],[-119.21223048,49.86512545],[-119.2137295,49.86566416],[-119.21431771,49.86577738],[-119.21436652,49.86578664],[-119.21507197,49.86581263],[-119.21562193,49.86575032],[-119.21563501,49.86574712],[-119.21612118,49.8656339],[-119.21652605,49.86549646],[-119.21813913,49.86493675],[-119.21848197,49.86481782],[-119.21930244,49.86465653],[-119.21999748,49.86461452],[-119.22070754,49.86464977],[-119.22143782,49.86478542],[-119.2224374,49.86510338],[-119.22300929,49.86528496],[-119.2237176,49.86540567],[-119.22440777,49.86543486],[-119.2251194,49.8653754],[-119.22707839,49.86494849],[-119.22782587,49.86483776],[-119.22862758,49.86479824],[-119.23051168,49.86469819],[-119.23124586,49.86458924],[-119.2313311,49.86456894],[-119.2346064,49.8637867],[-119.23746332,49.86308741],[-119.23898284,49.86267474],[-119.24360651,49.86117719],[-119.24454365,49.86083787],[-119.24585346,49.86028635],[-119.24743225,49.8596216],[-119.2482391,49.85932394],[-119.24833487,49.85930008],[-119.24899847,49.85913594],[-119.24987723,49.85900527],[-119.2521953,49.85880054],[-119.25359974,49.85879627],[-119.25595505,49.85902307],[-119.25683914,49.85904159],[-119.25754567,49.85900741],[-119.25777879,49.85899601],[-119.25993204,49.85872541],[-119.26724882,49.85780644],[-119.26801377,49.85777938],[-119.26893338,49.8578246],[-119.27013169,49.85797557],[-119.27156367,49.85815608],[-119.27261919,49.85828925],[-119.27317701,49.85842953],[-119.27363362,49.85862928],[-119.274076,49.85894474],[-119.27468952,49.85954789],[-119.27518155,49.86016066],[-119.27540187,49.8605808],[-119.27555476,49.86116401],[-119.2755771,49.8625163],[-119.2755779,49.86257256],[-119.27559724,49.86385648],[-119.2756077,49.86454081],[-119.27552864,49.86490007],[-119.27542055,49.86514824],[-119.27488904,49.86589203],[-119.27477623,49.86613807],[-119.27466171,49.86691248],[-119.27441177,49.86733048],[-119.27441122,49.86747433],[-119.27448696,49.86759717],[-119.27470993,49.86769686],[-119.27501358,49.86771894],[-119.27528462,49.86768262],[-119.27553634,49.86759396],[-119.27575603,49.86747041],[-119.27656517,49.86669814],[-119.27719644,49.86627372],[-119.27770596,49.86599351],[-119.28023921,49.86485129],[-119.28063434,49.86461559],[-119.28087023,49.86435923],[-119.28273571,49.86162403],[-119.28310567,49.86122668],[-119.28351956,49.86088202],[-119.28358649,49.86084001],[-119.28398567,49.86059006],[-119.28447151,49.86034367],[-119.28501592,49.86012861],[-119.28560792,49.85994916],[-119.28990323,49.85909215],[-119.29063586,49.85900278],[-119.2911898,49.85898711],[-119.29179334,49.85901346],[-119.29251341,49.85909215],[-119.29475612,49.85933747],[-119.29488644,49.85935669],[-119.29569657,49.85947633],[-119.29766719,49.85982953],[-119.29830255,49.85994347],[-119.29918988,49.8601514],[-119.30010722,49.86044977],[-119.30258324,49.8615838],[-119.30282258,49.86167424],[-119.30315218,49.86179921],[-119.30381172,49.86195267],[-119.30458951,49.86205806],[-119.30528739,49.86207943],[-119.30592748,49.86204987],[-119.30615379,49.86201783],[-119.30657664,49.86195801],[-119.30724786,49.86181864],[-119.30744407,49.86177785],[-119.30789011,49.86168314],[-119.30881652,49.8614866],[-119.31021597,49.86118929],[-119.311128,49.86103726],[-119.31188408,49.86097887],[-119.31218214,49.86096783],[-119.31325027,49.86092866],[-119.31387137,49.86090552],[-119.31430718,49.86090374],[-119.31470244,49.86090232],[-119.31544461,49.86094967],[-119.31643325,49.86108497],[-119.31651497,49.86109636],[-119.31741858,49.8613189],[-119.31828969,49.86159804],[-119.31927224,49.86203278],[-119.31995484,49.86242658],[-119.32009163,49.86251416],[-119.32146866,49.86339575],[-119.32183226,49.86362861],[-119.32209328,49.86376152],[-119.32281401,49.86412851],[-119.3231512,49.86427128],[-119.32370943,49.86450735],[-119.32439558,49.86475338],[-119.32459216,49.86481284],[-119.32507131,49.8649574],[-119.32643415,49.86528461],[-119.32693141,49.86535689],[-119.33127879,49.86598888],[-119.33310656,49.8662545],[-119.3359639,49.86666965],[-119.33702733,49.8668224],[-119.33905527,49.86711401],[-119.34246448,49.86760358],[-119.34312129,49.86769793],[-119.34399091,49.86781908],[-119.34431233,49.86786385],[-119.34549715,49.86802623],[-119.34740897,49.86812385],[-119.35023623,49.86827174],[-119.35084245,49.86830304],[-119.35176097,49.86835898],[-119.35441895,49.86850831],[-119.35520706,49.86854356],[-119.35568153,49.86856812],[-119.35611922,49.86859055],[-119.35757984,49.86866568],[-119.35902709,49.8687401],[-119.35917749,49.86874686],[-119.3603628,49.86880134],[-119.36186338,49.86887005],[-119.36192982,49.86887333],[-119.36305649,49.8689288],[-119.36458616,49.86900571],[-119.3652236,49.86908974],[-119.36585847,49.86923643],[-119.36639157,49.86943404],[-119.36697865,49.86974737],[-119.36745752,49.87012621],[-119.36746091,49.8701287],[-119.36777638,49.87047763],[-119.36794118,49.87073363],[-119.36799061,49.87081018],[-119.36831168,49.87153689],[-119.368501,49.87196664],[-119.36877671,49.87259116],[-119.36885597,49.87282081],[-119.36895088,49.87309568],[-119.36903925,49.87351476],[-119.36904795,49.87387366],[-119.36905406,49.87413607],[-119.36890496,49.8749671],[-119.36852107,49.87582874],[-119.36842413,49.876047],[-119.36831099,49.87650702],[-119.36831398,49.87691791],[-119.36855337,49.87768591],[-119.36881884,49.87799176],[-119.37036048,49.87976811],[-119.37197177,49.88154303],[-119.37220556,49.88180116],[-119.37246818,49.88209242],[-119.3727449,49.88241998],[-119.37318159,49.88294409],[-119.37364713,49.88366154],[-119.3739281,49.88430813],[-119.37408735,49.88486393],[-119.3745276,49.88738335],[-119.37474128,49.88786616],[-119.37516507,49.88829627],[-119.375558,49.88854586],[-119.37600922,49.88875914],[-119.37648496,49.88889764],[-119.37697222,49.88898025],[-119.377398,49.88901051],[-119.37856746,49.88901478]]]},"geometry_name":"SHAPE","properties":{"id":285,"slug":"kelowna-mission","name":"Kelowna-Mission","abbreviation":"KLM","gazetteDate":"2023-12-07Z","boundarySet":11},"bbox":[-119.69550496,49.67032779,-119.08409063,49.88904042]}
