{"type":"Feature","id":284,"geometry":{"type":"Polygon","coordinates":[[[-119.05757838,50.25257164],[-119.05799913,50.252572],[-119.0583661,50.252572],[-119.05848972,50.252572],[-119.05863004,50.252572],[-119.05912096,50.25257236],[-119.05996236,50.25257236],[-119.06045328,50.25257271],[-119.0605936,50.25257271],[-119.06108419,50.25257271],[-119.06143924,50.25257307],[-119.06192536,50.25257307],[-119.06241628,50.25257342],[-119.06255661,50.25257342],[-119.06304719,50.25257342],[-119.06388893,50.25257378],[-119.06437951,50.25257378],[-119.06451984,50.25257378],[-119.06501076,50.25257414],[-119.06585216,50.25257414],[-119.06634307,50.25257449],[-119.0664834,50.25257449],[-119.06697398,50.25257449],[-119.06707544,50.25257456],[-119.06755678,50.25257485],[-119.06781516,50.25257485],[-119.0683063,50.25257485],[-119.06844663,50.25257485],[-119.0688891,50.2525752],[-119.06888902,50.25230532],[-119.06888931,50.25199057],[-119.06888895,50.25190084],[-119.06888926,50.25158609],[-119.06888907,50.25115527],[-119.06888889,50.25104667],[-119.06888864,50.25073192],[-119.06888857,50.25068777],[-119.06888851,50.25064184],[-119.0688886,50.25032745],[-119.06888848,50.24978767],[-119.06888803,50.24947328],[-119.06888799,50.24894668],[-119.0764268,50.24895522],[-119.07871275,50.24895772],[-119.08036409,50.24895949],[-119.08036429,50.24947541],[-119.08036404,50.24979016],[-119.08036395,50.25032958],[-119.08036371,50.25064433],[-119.08036331,50.25073441],[-119.0803633,50.25104881],[-119.08036301,50.25158858],[-119.08036301,50.25190298],[-119.08036317,50.25199306],[-119.08036295,50.25230781],[-119.08036276,50.25257734],[-119.08078352,50.2525777],[-119.08127466,50.2525777],[-119.08141443,50.2525777],[-119.08190557,50.2525777],[-119.08274697,50.2525777],[-119.08323789,50.25257805],[-119.08337766,50.25257805],[-119.0838688,50.25257805],[-119.0847102,50.25257805],[-119.08520079,50.25257805],[-119.08534111,50.25257805],[-119.0858317,50.25257805],[-119.08667343,50.25257841],[-119.08716402,50.25257841],[-119.08730434,50.25257841],[-119.08779493,50.25257841],[-119.08863633,50.25257841],[-119.08911979,50.25257734],[-119.0892678,50.25257841],[-119.08975838,50.25257841],[-119.0902265,50.25257862],[-119.09055334,50.25257877],[-119.09059956,50.25257877],[-119.0910907,50.25257876],[-119.09123102,50.25257876],[-119.09156179,50.25257877],[-119.09152321,50.24535943],[-119.09152319,50.24535624],[-119.09174213,50.24535678],[-119.10135086,50.2453798],[-119.10299872,50.24538366],[-119.10299913,50.24565853],[-119.10299904,50.24572689],[-119.10299932,50.24574861],[-119.10299917,50.24606336],[-119.10299953,50.24609292],[-119.10299927,50.24660278],[-119.1029997,50.24691753],[-119.10299955,50.24700726],[-119.10299998,50.24732201],[-119.1030001,50.24786143],[-119.10299998,50.24817618],[-119.10300039,50.2482659],[-119.10300028,50.24858065],[-119.10300043,50.24912007],[-119.10300088,50.24943482],[-119.10300052,50.2495249],[-119.10300098,50.24983965],[-119.10300115,50.25037907],[-119.10300106,50.25069382],[-119.10300148,50.25078355],[-119.10300121,50.25112429],[-119.10300159,50.25163772],[-119.10300207,50.25195247],[-119.10300194,50.25204219],[-119.10300187,50.25235694],[-119.10300215,50.25262683],[-119.10342256,50.25262861],[-119.1039137,50.25263039],[-119.10405358,50.25263111],[-119.1045445,50.25263324],[-119.10538589,50.2526368],[-119.10587702,50.25263858],[-119.1060169,50.25263929],[-119.10650782,50.25264143],[-119.10734943,50.25264463],[-119.10783979,50.25264677],[-119.10798023,50.25264748],[-119.10847081,50.25264926],[-119.1093122,50.25265282],[-119.10980312,50.25265496],[-119.10994322,50.25265532],[-119.11043413,50.25265745],[-119.11127552,50.25266101],[-119.11176666,50.25266279],[-119.11190654,50.25266351],[-119.11239768,50.25266529],[-119.11323907,50.25266885],[-119.11372943,50.25267098],[-119.11387009,50.25267134],[-119.11436045,50.25267348],[-119.11444264,50.25267383],[-119.12588293,50.25271941],[-119.13518863,50.2527561],[-119.13728806,50.25276427],[-119.13734777,50.24545767],[-119.13734794,50.24543671],[-119.17209844,50.24549546],[-119.17209625,50.24576535],[-119.17209323,50.2460801],[-119.17209265,50.24616982],[-119.17209019,50.24648457],[-119.17208701,50.24683244],[-119.17208551,50.24702399],[-119.17208305,50.24733874],[-119.17208248,50.24742847],[-119.17207947,50.24774322],[-119.17207482,50.24828264],[-119.17207237,50.24859739],[-119.17207158,50.24868747],[-119.17206881,50.24900186],[-119.17206474,50.24954128],[-119.17206175,50.24985603],[-119.17206096,50.24994611],[-119.17205854,50.25026086],[-119.17205394,50.25080028],[-119.17205119,50.25111468],[-119.17205041,50.25120476],[-119.172048,50.25151951],[-119.17204394,50.25199769],[-119.17204342,50.25205893],[-119.17204102,50.25237368],[-119.17204076,50.2524043],[-119.1720399,50.2524634],[-119.17203751,50.25277815],[-119.17203724,50.25281687],[-119.1720367,50.25289316],[-119.17245735,50.25289458],[-119.17294793,50.25289636],[-119.17308804,50.25289672],[-119.17357918,50.2528985],[-119.17442047,50.25290135],[-119.17491106,50.25290313],[-119.17505149,50.25290384],[-119.17554208,50.25290562],[-119.18276389,50.25293054],[-119.18461055,50.25293723],[-119.18654974,50.25294275],[-119.19031639,50.25295476],[-119.19517425,50.25297007],[-119.19569179,50.25296971],[-119.19601555,50.25296757],[-119.19650625,50.25296473],[-119.19664646,50.25296401],[-119.19713739,50.25296081],[-119.19797858,50.25295582],[-119.19846928,50.25295298],[-119.1986095,50.25295226],[-119.19910042,50.25294906],[-119.19994161,50.25294408],[-119.19999974,50.25294372],[-119.20253634,50.25292841],[-119.20574571,50.25292271],[-119.20580808,50.25292271],[-119.20598371,50.25292236],[-119.20604831,50.25292236],[-119.2061237,50.252922],[-119.20661418,50.25292129],[-119.20720567,50.25292022],[-119.20745592,50.25291986],[-119.20794662,50.25291879],[-119.20808695,50.2529188],[-119.20941884,50.2529163],[-119.21054056,50.25291417],[-119.21397624,50.25290811],[-119.21446694,50.25290705],[-119.21530478,50.25290562],[-119.21538887,50.25290562],[-119.2163196,50.25290349],[-119.21643041,50.25290348],[-119.21685128,50.25290277],[-119.21686057,50.25120913],[-119.21689167,50.24553783],[-119.21714244,50.24553747],[-119.21840987,50.24553534],[-119.21994433,50.24553298],[-119.22209089,50.24552964],[-119.22216549,50.24552964],[-119.2226932,50.24552893],[-119.22695748,50.24552181],[-119.22836132,50.24551967],[-119.22890773,50.24551753],[-119.2295606,50.24551789],[-119.23722862,50.24550507],[-119.23767638,50.245504],[-119.23811923,50.24550365],[-119.23826421,50.24550329],[-119.23833459,50.24550294],[-119.23915366,50.24550167],[-119.2392547,50.24550151],[-119.2393371,50.24550151],[-119.23937719,50.24552288],[-119.23971702,50.24574683],[-119.24030328,50.24632008],[-119.24026598,50.24614383],[-119.2403661,50.24574968],[-119.24081042,50.24550222],[-119.24433618,50.24550566],[-119.24595907,50.24550721],[-119.2482559,50.24553896],[-119.25108734,50.24553667],[-119.25109775,50.24513015],[-119.25109492,50.24482216],[-119.25109063,50.24433971],[-119.25108646,50.24387151],[-119.25107286,50.24234039],[-119.25105292,50.24009557],[-119.25104992,50.23978082],[-119.25104904,50.23965763],[-119.2510455,50.2392414],[-119.25104252,50.23892665],[-119.2510423,50.2388825],[-119.25104186,50.23883693],[-119.25103943,50.23857736],[-119.25103888,50.23852217],[-119.25103679,50.23825229],[-119.25154003,50.23825229],[-119.25168053,50.23825193],[-119.25217097,50.23825193],[-119.25231237,50.23825193],[-119.25301179,50.23825157],[-119.25350245,50.23825122],[-119.25353974,50.23825122],[-119.25364273,50.23825122],[-119.25413339,50.23825086],[-119.25471256,50.23825051],[-119.25480497,50.23825051],[-119.25497476,50.23825051],[-119.25546542,50.23825015],[-119.25553779,50.23825015],[-119.2556057,50.23825015],[-119.25693718,50.23824944],[-119.25718464,50.23824926],[-119.25742784,50.23824908],[-119.25756812,50.23824908],[-119.25939026,50.23824801],[-119.2600212,50.23824766],[-119.26086257,50.2382473],[-119.26135323,50.23824695],[-119.26149296,50.23824695],[-119.26159928,50.23824695],[-119.26198362,50.23824659],[-119.26236216,50.23824659],[-119.26240447,50.23824659],[-119.26282499,50.23824445],[-119.26331553,50.23824161],[-119.26345571,50.23824089],[-119.26394659,50.2382384],[-119.26478762,50.23823413],[-119.2660407,50.23822751],[-119.26654084,50.23822487],[-119.26698474,50.23822273],[-119.26703283,50.23822238],[-119.26705343,50.23822238],[-119.26706421,50.23822231],[-119.26711044,50.23822202],[-119.2671533,50.23822202],[-119.26719639,50.23822167],[-119.26787108,50.23821811],[-119.26793032,50.23821775],[-119.26817203,50.23821668],[-119.26835863,50.23821561],[-119.26871268,50.23821383],[-119.269203,50.23821134],[-119.26926557,50.23821099],[-119.26934317,50.23821063],[-119.26983372,50.23820778],[-119.2702195,50.238206],[-119.27067475,50.23820351],[-119.27086302,50.23820244],[-119.27086289,50.23813408],[-119.27125702,50.2381323],[-119.27175642,50.23829964],[-119.27185761,50.23825442],[-119.27190867,50.23823164],[-119.27204596,50.23817039],[-119.27317258,50.23817146],[-119.27356426,50.23817538],[-119.27462953,50.23818642],[-119.27599417,50.23817538],[-119.27923238,50.23814868],[-119.27953173,50.23807675],[-119.27977912,50.2378617],[-119.27995486,50.23795819],[-119.28034414,50.23805859],[-119.28072102,50.23807996],[-119.28228427,50.23804506],[-119.28240017,50.23804578],[-119.28369125,50.23487762],[-119.28425342,50.23353709],[-119.2844062,50.23338078],[-119.28567464,50.23208226],[-119.28716858,50.23069721],[-119.28803047,50.22999579],[-119.28829001,50.22984589],[-119.28849723,50.22972626],[-119.28925173,50.22942468],[-119.28958541,50.22929152],[-119.28992215,50.22903231],[-119.29002502,50.22879376],[-119.29001645,50.22559249],[-119.29001426,50.2248195],[-119.29001282,50.22438369],[-119.29009104,50.22364595],[-119.29072958,50.2236456],[-119.29634456,50.22364061],[-119.29686234,50.22364012],[-119.30147379,50.22363562],[-119.30214131,50.22363495],[-119.3021932,50.2236349],[-119.30772289,50.22362922],[-119.30778012,50.22362914],[-119.30791768,50.22362895],[-119.31379921,50.22362067],[-119.31390335,50.21642223],[-119.30800427,50.21643055],[-119.30450656,50.21642517],[-119.3043418,50.21613325],[-119.30421264,50.21580212],[-119.30415051,50.21564332],[-119.30413593,50.21560522],[-119.30406442,50.21524953],[-119.30406803,50.21487425],[-119.30414387,50.21452318],[-119.30436358,50.21403539],[-119.30362286,50.21396338],[-119.3035478,50.21395598],[-119.30308173,50.21435351],[-119.30266476,50.21464807],[-119.30221136,50.21490781],[-119.30152134,50.21523227],[-119.30000107,50.21581693],[-119.29985075,50.21581387],[-119.29746821,50.21583984],[-119.29678893,50.21584723],[-119.29672497,50.21118875],[-119.29697134,50.21108478],[-119.29795916,50.21063936],[-119.29847161,50.21029577],[-119.29873581,50.21000487],[-119.29922205,50.20922975],[-119.30797223,50.20923153],[-119.30805878,50.20923215],[-119.30828688,50.20885474],[-119.30828799,50.20871917],[-119.30829154,50.20447147],[-119.30879156,50.20431053],[-119.30948727,50.20408657],[-119.30979692,50.20393561],[-119.31010556,50.20378535],[-119.31137811,50.20269726],[-119.31213591,50.20228317],[-119.31354174,50.20189044],[-119.31737035,50.2019912],[-119.31761277,50.20199761],[-119.31779177,50.20200224],[-119.31838386,50.20201791],[-119.31997765,50.20202574],[-119.31997985,50.20271327],[-119.32001198,50.2127568],[-119.33080012,50.2126653],[-119.33080178,50.21246299],[-119.33082818,50.20923829],[-119.3313395,50.20923788],[-119.33303631,50.20923651],[-119.35340672,50.20922334],[-119.35341626,50.20661255],[-119.35344889,50.1976819],[-119.35344908,50.19742768],[-119.35344953,50.19724431],[-119.35346592,50.18036031],[-119.37501197,50.18026606],[-119.37598964,50.18026169],[-119.3759767,50.17516132],[-119.37597152,50.17311572],[-119.38711789,50.17310931],[-119.38708012,50.18032969],[-119.38888767,50.18035056],[-119.3918274,50.18030548],[-119.39197241,50.18030477],[-119.39848823,50.18027094],[-119.40980044,50.180284],[-119.40991096,50.18028412],[-119.40989152,50.1789437],[-119.40980678,50.17310041],[-119.42034349,50.17309909],[-119.42095282,50.17309898],[-119.42096449,50.16590637],[-119.42091679,50.15412175],[-119.42091643,50.15405374],[-119.4209062,50.15149444],[-119.4238716,50.15149657],[-119.43044276,50.15150049],[-119.43210911,50.15150156],[-119.43438503,50.15150263],[-119.44278024,50.1515069],[-119.4433118,50.15150725],[-119.44979083,50.1515101],[-119.4498614,50.1515101],[-119.45020091,50.1515101],[-119.45317772,50.15151151],[-119.45398893,50.15151188],[-119.45963801,50.15151179],[-119.4770501,50.15150966],[-119.47690592,50.15013651],[-119.47468689,50.14332553],[-119.47282454,50.13760768],[-119.47322722,50.13434875],[-119.47348974,50.13283608],[-119.47367074,50.13157808],[-119.47513768,50.12886165],[-119.47642104,50.12744629],[-119.48248816,50.12281857],[-119.48290665,50.12249933],[-119.48445775,50.11967888],[-119.48471453,50.11830782],[-119.48473879,50.11817824],[-119.48533865,50.11326914],[-119.48537052,50.11300834],[-119.48550375,50.11130962],[-119.48556705,50.10961764],[-119.4858418,50.10189677],[-119.48479169,50.09823026],[-119.48182541,50.09490045],[-119.479668,50.09244457],[-119.4742999,50.08652984],[-119.47347083,50.08557496],[-119.47331548,50.08539604],[-119.47297757,50.08450726],[-119.47265677,50.08349967],[-119.47255749,50.08289468],[-119.47228198,50.07962198],[-119.47225197,50.07939729],[-119.47225526,50.07930459],[-119.47164813,50.07209068],[-119.47159857,50.07150175],[-119.47159459,50.07145453],[-119.47078281,50.06706271],[-119.47068842,50.06448092],[-119.47198634,50.05868691],[-119.47328855,50.05448076],[-119.47403997,50.0524885],[-119.47509775,50.05059018],[-119.47776136,50.04580922],[-119.47520304,50.04267558],[-119.4736895,50.04044906],[-119.47212062,50.0381409],[-119.47114808,50.03561578],[-119.47080267,50.03474131],[-119.47067735,50.03442401],[-119.47026955,50.03339155],[-119.46888128,50.02770857],[-119.46717155,50.02152976],[-119.46610808,50.01768564],[-119.46614524,50.00965921],[-119.46661632,50.00581056],[-119.46694969,50.00308649],[-119.46751595,50.00250361],[-119.46918654,50.00078389],[-119.46902947,49.99793764],[-119.46885504,49.99323043],[-119.46881422,49.99203421],[-119.46878282,49.99151272],[-119.46878801,49.99054489],[-119.47112022,49.98531578],[-119.47205263,49.98322486],[-119.47228218,49.98271004],[-119.47390442,49.97905673],[-119.47492505,49.97678826],[-119.47529953,49.97586213],[-119.47533914,49.97576417],[-119.47536332,49.97569641],[-119.45337376,49.97432518],[-119.45204188,49.97411434],[-119.45036132,49.97328273],[-119.44946246,49.97234738],[-119.44690549,49.97220148],[-119.44667995,49.97213903],[-119.44651772,49.9720615],[-119.44627439,49.97205778],[-119.44623807,49.97205723],[-119.44610147,49.97201379],[-119.44548063,49.97165169],[-119.44498269,49.97152244],[-119.44498252,49.97152239],[-119.44369152,49.97118742],[-119.44317273,49.97105281],[-119.44287292,49.97088048],[-119.44274053,49.97074156],[-119.44266866,49.97066613],[-119.44267331,49.97049114],[-119.44268355,49.97010535],[-119.44264505,49.96998679],[-119.44261091,49.96988068],[-119.44257547,49.96984133],[-119.44251696,49.96977636],[-119.44183628,49.9694965],[-119.44074546,49.96922626],[-119.43998261,49.9689521],[-119.43995573,49.96894818],[-119.4395846,49.96889655],[-119.43953268,49.96889548],[-119.43859882,49.96887697],[-119.43783322,49.96886202],[-119.4372299,49.96887163],[-119.43582837,49.96911481],[-119.43577982,49.96912336],[-119.43557528,49.96913261],[-119.43536884,49.96910876],[-119.43510513,49.96899625],[-119.43449607,49.96865444],[-119.43438979,49.96856646],[-119.43417264,49.96838669],[-119.43380041,49.96802565],[-119.43364202,49.9679288],[-119.43327028,49.96779884],[-119.43290379,49.96776893],[-119.43274444,49.9677935],[-119.43253712,49.96789533],[-119.43250359,49.96791171],[-119.43237226,49.96809615],[-119.43219686,49.96859142],[-119.43184761,49.96892895],[-119.43129975,49.96930067],[-119.43069548,49.96958943],[-119.43026854,49.96972188],[-119.42988712,49.96977743],[-119.42864683,49.96980698],[-119.42825884,49.96977778],[-119.42825877,49.96977778],[-119.42803741,49.96976105],[-119.42731078,49.96963643],[-119.42698704,49.96954991],[-119.42682533,49.96950683],[-119.42571394,49.96903328],[-119.42553009,49.96895495],[-119.42504087,49.96884635],[-119.4241241,49.96878653],[-119.42467205,49.96658186],[-119.4248553,49.96584518],[-119.42489219,49.9650754],[-119.42480016,49.96450999],[-119.42462011,49.96396665],[-119.4243241,49.96341584],[-119.42378424,49.96269555],[-119.42362497,49.96231742],[-119.42354068,49.96188339],[-119.42358231,49.96029504],[-119.42358392,49.95979835],[-119.42358569,49.95924504],[-119.42358568,49.95924494],[-119.42350563,49.95878324],[-119.42339166,49.95815013],[-119.42331745,49.95773787],[-119.42327088,49.95717175],[-119.42345044,49.95662272],[-119.42450336,49.95507852],[-119.42503448,49.95408549],[-119.42528367,49.95347415],[-119.42530547,49.95342015],[-119.42530552,49.95342003],[-119.42619987,49.9507151],[-119.42628407,49.9491004],[-119.42630583,49.94868987],[-119.42643614,49.94822202],[-119.42645473,49.94819068],[-119.42651446,49.94809108],[-119.42651741,49.94808616],[-119.42604637,49.94795424],[-119.4258989,49.94791744],[-119.4256797,49.94785938],[-119.42546438,49.94779552],[-119.42525332,49.94772601],[-119.42504689,49.94765095],[-119.4248454,49.94757046],[-119.42464923,49.9474847],[-119.4244587,49.94739379],[-119.42361884,49.94697551],[-119.42343479,49.94688801],[-119.42324485,49.94680591],[-119.42304942,49.94672936],[-119.42284889,49.94665854],[-119.42264365,49.94659357],[-119.42243411,49.94653457],[-119.42222071,49.94648169],[-119.42200384,49.94643501],[-119.42178396,49.94639463],[-119.42156151,49.94636064],[-119.42133692,49.94633309],[-119.42111065,49.94631205],[-119.42088315,49.94629756],[-119.41974953,49.94624184],[-119.41950138,49.94622614],[-119.4192545,49.94620352],[-119.41900937,49.94617402],[-119.41876646,49.94613768],[-119.41852621,49.94609459],[-119.41828908,49.94604483],[-119.41805552,49.94598848],[-119.41782597,49.94592565],[-119.41760084,49.94585647],[-119.41738057,49.94578105],[-119.41716557,49.94569954],[-119.41695625,49.9456121],[-119.41591565,49.94515645],[-119.41565189,49.94504486],[-119.41538278,49.94493874],[-119.41510858,49.9448382],[-119.41482956,49.94474333],[-119.41454602,49.94465424],[-119.41425821,49.944571],[-119.41396647,49.94449372],[-119.41367106,49.94442245],[-119.4133723,49.94435729],[-119.41254414,49.94418606],[-119.41125623,49.94390443],[-119.41103431,49.94385975],[-119.41081533,49.94380937],[-119.41059967,49.94375337],[-119.41038766,49.94369184],[-119.41017963,49.94362488],[-119.40997592,49.94355259],[-119.40977687,49.9434751],[-119.4095828,49.94339253],[-119.40939399,49.94330501],[-119.40921077,49.94321267],[-119.40413071,49.94026896],[-119.40372708,49.9400137],[-119.4030623,49.93958528],[-119.40217171,49.93895094],[-119.40193217,49.93872727],[-119.40179339,49.9385984],[-119.40163147,49.93848095],[-119.40133752,49.93826575],[-119.39987777,49.9371062],[-119.3997246,49.93700645],[-119.39956454,49.9369113],[-119.39939792,49.93682095],[-119.3992251,49.9367356],[-119.39904645,49.93665542],[-119.39886231,49.93658057],[-119.39867308,49.93651121],[-119.39847916,49.9364475],[-119.39828094,49.93638955],[-119.39807884,49.93633749],[-119.39787327,49.93629142],[-119.39766466,49.93625145],[-119.39745346,49.93621765],[-119.39724009,49.9361901],[-119.39702498,49.93616885],[-119.39680861,49.93615395],[-119.39659141,49.93614542],[-119.39576212,49.93615067],[-119.39558463,49.93614798],[-119.39540706,49.93614821],[-119.39497596,49.93616207],[-119.39439899,49.93619744],[-119.39344414,49.93641518],[-119.39308822,49.93642889],[-119.39270953,49.93636808],[-119.39238599,49.93634892],[-119.3918662,49.93631812],[-119.39132691,49.93622839],[-119.39089585,49.93609416],[-119.39081492,49.93604609],[-119.39091429,49.93528318],[-119.39079328,49.93463363],[-119.39049074,49.93399633],[-119.39041184,49.93391327],[-119.39013016,49.93359973],[-119.38941022,49.93305386],[-119.38887999,49.93269705],[-119.38830351,49.93234935],[-119.38802067,49.93218321],[-119.38784261,49.93206839],[-119.38741423,49.93175414],[-119.38717275,49.93151756],[-119.38700674,49.93133416],[-119.38682248,49.93107748],[-119.38674894,49.93085412],[-119.38660819,49.93053016],[-119.38656128,49.93003694],[-119.38654726,49.92974857],[-119.3865558,49.92910236],[-119.38655702,49.92867508],[-119.38656532,49.92512854],[-119.38657086,49.92442668],[-119.38655824,49.92366645],[-119.38659209,49.92280948],[-119.38658886,49.92229346],[-119.38659842,49.92189983],[-119.38661892,49.92059493],[-119.38667516,49.92001274],[-119.38674146,49.9198024],[-119.38683394,49.91954708],[-119.38694738,49.91935711],[-119.38739045,49.91862974],[-119.38764173,49.91819273],[-119.38766853,49.91815378],[-119.38770988,49.91809438],[-119.38806853,49.91764372],[-119.38838793,49.9172967],[-119.38877339,49.91696682],[-119.38953868,49.91647946],[-119.39238357,49.91485341],[-119.39339629,49.91432495],[-119.39561304,49.91319473],[-119.3958762,49.91306288],[-119.39587798,49.91306193],[-119.39701782,49.91245271],[-119.39746686,49.91221172],[-119.39784743,49.9119848],[-119.39797175,49.91191704],[-119.39884531,49.91144086],[-119.39965039,49.91090606],[-119.40030483,49.91035225],[-119.40123731,49.90945953],[-119.40511708,49.90535143],[-119.40527695,49.90518437],[-119.40544433,49.90497984],[-119.4059793,49.90437809],[-119.40850831,49.90162846],[-119.40884255,49.9012637],[-119.40914997,49.90094446],[-119.41229386,49.89756668],[-119.41288625,49.89693833],[-119.41397858,49.89574152],[-119.41431881,49.89538812],[-119.41468777,49.89499172],[-119.41571599,49.89388148],[-119.41645621,49.89309487],[-119.41679216,49.89271702],[-119.4172323,49.8922882],[-119.41778023,49.89174847],[-119.41875463,49.89083742],[-119.41902977,49.89059917],[-119.41941174,49.89030036],[-119.41971709,49.89004943],[-119.42014934,49.88973246],[-119.42044017,49.88952358],[-119.42050747,49.8894773],[-119.42042882,49.88944774],[-119.41985241,49.88923198],[-119.41949147,49.88909525],[-119.4191245,49.88902511],[-119.4184214,49.88902796],[-119.41757347,49.88903437],[-119.41757275,49.88903437],[-119.41678877,49.88904042],[-119.41535476,49.88902974],[-119.41505732,49.88903081],[-119.41355236,49.8890301],[-119.41260843,49.88903188],[-119.41062397,49.88903437],[-119.41026319,49.88903508],[-119.40941045,49.88903686],[-119.40938432,49.88903733],[-119.40824392,49.88903757],[-119.4079099,49.88903793],[-119.40770818,49.88903793],[-119.4070018,49.88903722],[-119.40588502,49.88903615],[-119.40275807,49.88901087],[-119.40237808,49.88901051],[-119.4012813,49.88901016],[-119.40069446,49.88901443],[-119.39999853,49.88901906],[-119.39957871,49.88902226],[-119.39815874,49.88901122],[-119.39743372,49.88900588],[-119.39710039,49.88900339],[-119.39675214,49.8890009],[-119.39611718,49.88899592],[-119.39588986,49.88899413],[-119.39565224,49.88899235],[-119.39558361,49.88899164],[-119.39550006,49.88899093],[-119.39390913,49.88897669],[-119.39368666,49.88897455],[-119.39284251,49.88896707],[-119.39203121,49.88896885],[-119.39122245,49.88897099],[-119.38975427,49.8889742],[-119.38859589,49.88896636],[-119.3868579,49.88897063],[-119.38535077,49.88897776],[-119.38391823,49.88898666],[-119.38192758,49.88899983],[-119.38113351,49.88900232],[-119.38079517,49.88900339],[-119.37974955,49.88900517],[-119.37856746,49.88901478],[-119.377398,49.88901051],[-119.37697222,49.88898025],[-119.37648496,49.88889764],[-119.37600922,49.88875914],[-119.375558,49.88854586],[-119.37516507,49.88829627],[-119.37474128,49.88786616],[-119.3745276,49.88738335],[-119.37408735,49.88486393],[-119.3739281,49.88430813],[-119.37364713,49.88366154],[-119.37318159,49.88294409],[-119.3727449,49.88241998],[-119.37246818,49.88209242],[-119.37220556,49.88180116],[-119.37197177,49.88154303],[-119.37036048,49.87976811],[-119.36881884,49.87799176],[-119.36855337,49.87768591],[-119.36831398,49.87691791],[-119.36831099,49.87650702],[-119.36842413,49.876047],[-119.36852107,49.87582874],[-119.36890496,49.8749671],[-119.36905406,49.87413607],[-119.36904795,49.87387366],[-119.36903925,49.87351476],[-119.36895088,49.87309568],[-119.36885597,49.87282081],[-119.36877671,49.87259116],[-119.368501,49.87196664],[-119.36831168,49.87153689],[-119.36799061,49.87081018],[-119.36794118,49.87073363],[-119.36777638,49.87047763],[-119.36746091,49.8701287],[-119.36745752,49.87012621],[-119.36697865,49.86974737],[-119.36639157,49.86943404],[-119.36585847,49.86923643],[-119.3652236,49.86908974],[-119.36458616,49.86900571],[-119.36305649,49.8689288],[-119.36192982,49.86887333],[-119.36186338,49.86887005],[-119.3603628,49.86880134],[-119.35917749,49.86874686],[-119.35902709,49.8687401],[-119.35757984,49.86866568],[-119.35611922,49.86859055],[-119.35568153,49.86856812],[-119.35520706,49.86854356],[-119.35441895,49.86850831],[-119.35176097,49.86835898],[-119.35084245,49.86830304],[-119.35023623,49.86827174],[-119.34740897,49.86812385],[-119.34549715,49.86802623],[-119.34431233,49.86786385],[-119.34399091,49.86781908],[-119.34312129,49.86769793],[-119.34246448,49.86760358],[-119.33905527,49.86711401],[-119.33702733,49.8668224],[-119.3359639,49.86666965],[-119.33310656,49.8662545],[-119.33127879,49.86598888],[-119.32693141,49.86535689],[-119.32643415,49.86528461],[-119.32507131,49.8649574],[-119.32459216,49.86481284],[-119.32439558,49.86475338],[-119.32370943,49.86450735],[-119.3231512,49.86427128],[-119.32281401,49.86412851],[-119.32209328,49.86376152],[-119.32183226,49.86362861],[-119.32146866,49.86339575],[-119.32009163,49.86251416],[-119.31995484,49.86242658],[-119.31927224,49.86203278],[-119.31828969,49.86159804],[-119.31741858,49.8613189],[-119.31651497,49.86109636],[-119.31643325,49.86108497],[-119.31544461,49.86094967],[-119.31470244,49.86090232],[-119.31430718,49.86090374],[-119.31387137,49.86090552],[-119.31325027,49.86092866],[-119.31218214,49.86096783],[-119.31188408,49.86097887],[-119.311128,49.86103726],[-119.31021597,49.86118929],[-119.30881652,49.8614866],[-119.30789011,49.86168314],[-119.30744407,49.86177785],[-119.30724786,49.86181864],[-119.30657664,49.86195801],[-119.30615379,49.86201783],[-119.30592748,49.86204987],[-119.30528739,49.86207943],[-119.30458951,49.86205806],[-119.30381172,49.86195267],[-119.30315218,49.86179921],[-119.30282258,49.86167424],[-119.30258324,49.8615838],[-119.30010722,49.86044977],[-119.29918988,49.8601514],[-119.29830255,49.85994347],[-119.29766719,49.85982953],[-119.29569657,49.85947633],[-119.29488644,49.85935669],[-119.29475612,49.85933747],[-119.29251341,49.85909215],[-119.29179334,49.85901346],[-119.2911898,49.85898711],[-119.29063586,49.85900278],[-119.28990323,49.85909215],[-119.28560792,49.85994916],[-119.28501592,49.86012861],[-119.28447151,49.86034367],[-119.28398567,49.86059006],[-119.28358649,49.86084001],[-119.28351956,49.86088202],[-119.28310567,49.86122668],[-119.28273571,49.86162403],[-119.28087023,49.86435923],[-119.28063434,49.86461559],[-119.28023921,49.86485129],[-119.27770596,49.86599351],[-119.27719644,49.86627372],[-119.27656517,49.86669814],[-119.27575603,49.86747041],[-119.27553634,49.86759396],[-119.27528462,49.86768262],[-119.27501358,49.86771894],[-119.27470993,49.86769686],[-119.27448696,49.86759717],[-119.27441122,49.86747433],[-119.27441177,49.86733048],[-119.27466171,49.86691248],[-119.27477623,49.86613807],[-119.27488904,49.86589203],[-119.27542055,49.86514824],[-119.27552864,49.86490007],[-119.2756077,49.86454081],[-119.27559724,49.86385648],[-119.2755779,49.86257256],[-119.2755771,49.8625163],[-119.27555476,49.86116401],[-119.27540187,49.8605808],[-119.27518155,49.86016066],[-119.27468952,49.85954789],[-119.274076,49.85894474],[-119.27363362,49.85862928],[-119.27317701,49.85842953],[-119.27261919,49.85828925],[-119.27156367,49.85815608],[-119.27013169,49.85797557],[-119.26893338,49.8578246],[-119.26801377,49.85777938],[-119.26724882,49.85780644],[-119.25993204,49.85872541],[-119.25777879,49.85899601],[-119.25754567,49.85900741],[-119.25683914,49.85904159],[-119.25595505,49.85902307],[-119.25359974,49.85879627],[-119.2521953,49.85880054],[-119.24987723,49.85900527],[-119.24899847,49.85913594],[-119.24833487,49.85930008],[-119.2482391,49.85932394],[-119.24743225,49.8596216],[-119.24585346,49.86028635],[-119.24454365,49.86083787],[-119.24360651,49.86117719],[-119.23898284,49.86267474],[-119.23746332,49.86308741],[-119.2346064,49.8637867],[-119.2313311,49.86456894],[-119.23124586,49.86458924],[-119.23051168,49.86469819],[-119.22862758,49.86479824],[-119.22782587,49.86483776],[-119.22707839,49.86494849],[-119.2251194,49.8653754],[-119.22440777,49.86543486],[-119.2237176,49.86540567],[-119.22300929,49.86528496],[-119.2224374,49.86510338],[-119.22143782,49.86478542],[-119.22070754,49.86464977],[-119.21999748,49.86461452],[-119.21930244,49.86465653],[-119.21848197,49.86481782],[-119.21813913,49.86493675],[-119.21652605,49.86549646],[-119.21612118,49.8656339],[-119.21563501,49.86574712],[-119.21562193,49.86575032],[-119.21507197,49.86581263],[-119.21436652,49.86578664],[-119.21431771,49.86577738],[-119.2137295,49.86566416],[-119.21223048,49.86512545],[-119.21138801,49.86491075],[-119.21046056,49.86476726],[-119.20894674,49.86465297],[-119.20798228,49.86461737],[-119.20702628,49.86463018],[-119.20596507,49.86472169],[-119.20452755,49.8648456],[-119.2042268,49.86487123],[-119.20344973,49.86494671],[-119.20291406,49.8649987],[-119.20272388,49.86501721],[-119.20241923,49.86501508],[-119.20208386,49.86501258],[-119.20151203,49.86493105],[-119.20135807,49.86488298],[-119.20101398,49.8647751],[-119.20005586,49.86435211],[-119.19938193,49.8640548],[-119.19865185,49.86380592],[-119.19775002,49.86361437],[-119.19705746,49.86355597],[-119.19656378,49.86355491],[-119.1965196,49.86355491],[-119.19581983,49.86361045],[-119.19505554,49.86371798],[-119.19495968,49.86373151],[-119.1897906,49.86445928],[-119.18891803,49.86456681],[-119.18827521,49.86459529],[-119.18760265,49.86457322],[-119.18750636,49.86457001],[-119.18530193,49.86427876],[-119.18441275,49.86426381],[-119.1838158,49.86431223],[-119.18308893,49.86445643],[-119.18233469,49.86468715],[-119.18166724,49.86489081],[-119.18112841,49.86501899],[-119.1783403,49.8654192],[-119.17608081,49.86588278],[-119.17592267,49.86591518],[-119.17499802,49.86602983],[-119.17125607,49.86649483],[-119.16673427,49.86671629],[-119.16440995,49.86682988],[-119.1631097,49.86694702],[-119.16214502,49.86708979],[-119.16094858,49.86735292],[-119.16073266,49.86741273],[-119.16031194,49.86752881],[-119.15827528,49.86809244],[-119.15765015,49.86820851],[-119.1569633,49.86825836],[-119.15621126,49.86824305],[-119.15562645,49.86818109],[-119.15489305,49.8680401],[-119.15434593,49.86787026],[-119.15410705,49.86777163],[-119.15368936,49.86759895],[-119.15342354,49.86748537],[-119.15333333,49.86744656],[-119.1531169,49.86735434],[-119.15288009,49.86725073],[-119.15164539,49.86671167],[-119.15078485,49.86645887],[-119.15001589,49.86633389],[-119.14826434,49.86621747],[-119.14773526,49.86614091],[-119.1471536,49.86601416],[-119.14678513,49.86592479],[-119.14635977,49.86582154],[-119.14607197,49.86575211],[-119.14555577,49.86562927],[-119.14135001,49.86460419],[-119.14109337,49.86454224],[-119.14098706,49.8645166],[-119.13919094,49.86408329],[-119.13856939,49.86393339],[-119.13723398,49.86361116],[-119.13665064,49.86346981],[-119.13090007,49.86207836],[-119.12888225,49.86159021],[-119.12622632,49.86093329],[-119.12573402,49.8607688],[-119.12541908,49.86062068],[-119.1250911,49.86046615],[-119.12465414,49.86019484],[-119.12421208,49.85983701],[-119.12261985,49.85804286],[-119.12184057,49.85726168],[-119.12079057,49.85632384],[-119.12035826,49.85593788],[-119.11936984,49.85505522],[-119.11819755,49.85410243],[-119.11807464,49.85400238],[-119.11776049,49.85374744],[-119.11713918,49.85329597],[-119.11670545,49.85298086],[-119.11602538,49.85251159],[-119.11519128,49.85193656],[-119.1138076,49.85105854],[-119.11207706,49.85005945],[-119.10925073,49.84850742],[-119.10888709,49.84835111],[-119.10840244,49.84814211],[-119.10664813,49.847503],[-119.10583535,49.84712451],[-119.10193305,49.84466134],[-119.10104955,49.8442736],[-119.09838383,49.84310326],[-119.09758044,49.8427173],[-119.09687527,49.84227259],[-119.0943966,49.84052046],[-119.09252994,49.83920093],[-119.09160706,49.83869533],[-119.09048939,49.83816196],[-119.0898485,49.83785647],[-119.08942207,49.83758089],[-119.08908198,49.83727468],[-119.08879667,49.8369432],[-119.08860606,49.83658964],[-119.08851079,49.83548552],[-119.08805711,49.83460571],[-119.08749973,49.83305475],[-119.08732327,49.83256411],[-119.08725491,49.83192749],[-119.08738193,49.83090526],[-119.08678896,49.82900928],[-119.08650734,49.82847342],[-119.0856407,49.82749143],[-119.08540711,49.82714321],[-119.08521839,49.8265657],[-119.08509953,49.82606117],[-119.08503896,49.82552068],[-119.08519121,49.82463482],[-119.0850572,49.8238775],[-119.0847908,49.82291616],[-119.08475445,49.82123773],[-119.08487913,49.82036932],[-119.08542221,49.81917761],[-119.08541628,49.81880411],[-119.08525156,49.81807527],[-119.08552079,49.81734786],[-119.0856224,49.81707298],[-119.08541479,49.81542909],[-119.08512334,49.81456104],[-119.0850352,49.81438977],[-119.08423984,49.81283703],[-119.08409063,49.8122086],[-119.08411293,49.81181267],[-119.08421126,49.81144024],[-119.08455173,49.81091506],[-119.08473212,49.81053337],[-119.08476337,49.81016058],[-119.0846683,49.80940433],[-119.08469465,49.80921455],[-119.08485706,49.80885067],[-119.08602329,49.80721354],[-119.08668668,49.80653704],[-119.08739813,49.80541227],[-119.08859222,49.80418923],[-119.08934432,49.80350597],[-119.08996461,49.80304025],[-119.09090251,49.80249442],[-119.09122834,49.80233242],[-119.09250263,49.80170042],[-119.09280984,49.80154768],[-119.09319023,49.80135897],[-119.09457555,49.80067143],[-119.0954837,49.80010994],[-119.09606556,49.79963176],[-119.09623669,49.79945801],[-119.09640029,49.79929173],[-119.09765557,49.79778883],[-119.09774377,49.79768273],[-119.09801881,49.7970899],[-119.0980749,49.79655404],[-119.09805497,49.79626493],[-119.09783851,49.79568172],[-119.09756745,49.7953221],[-119.0972228,49.79499738],[-119.09638726,49.79447933],[-119.09505203,49.79385339],[-119.09470565,49.79368853],[-119.0942693,49.79339088],[-119.09405734,49.79320039],[-119.0934171,49.79341081],[-119.09284896,49.79383808],[-119.09240151,49.79438462],[-119.09207493,49.79497246],[-119.0911551,49.79491691],[-119.08932168,49.79471325],[-119.08785242,49.79437394],[-119.08683851,49.79405919],[-119.0857889,49.79409799],[-119.08484887,49.7939602],[-119.08402649,49.79369103],[-119.08332155,49.79338482],[-119.08250129,49.79311493],[-119.08215181,49.79298316],[-119.08168357,49.79280659],[-119.08086785,49.79253742],[-119.08028191,49.79224011],[-119.07980608,49.79197592],[-119.07955649,49.79152267],[-119.07942402,49.79095441],[-119.07838465,49.79093589],[-119.07734037,49.79096473],[-119.07689309,49.79147531],[-119.07620708,49.79189866],[-119.07528277,49.79223406],[-119.07515356,49.79163661],[-119.07479375,49.79115914],[-119.07420772,49.79095868],[-119.07351715,49.791089],[-119.07283674,49.79146214],[-119.07219006,49.79204642],[-119.0721966,49.79237684],[-119.07220316,49.79268482],[-119.07128813,49.79280731],[-119.07049311,49.79298533],[-119.06998661,49.79337628],[-119.06958997,49.79386193],[-119.06930514,49.79445476],[-119.06874973,49.79496961],[-119.06830808,49.79551615],[-119.06833743,49.79619906],[-119.06777809,49.7966338],[-119.06733418,49.79711661],[-119.06630357,49.79750079],[-119.06538563,49.79792093],[-119.06502913,49.79817907],[-119.06469996,49.79841691],[-119.0643633,49.79900368],[-119.06426005,49.79965419],[-119.06331916,49.799578],[-119.06250694,49.79972327],[-119.06182314,49.80009036],[-119.06101688,49.80045139],[-119.0602107,49.80073552],[-119.05940352,49.80085907],[-119.05872039,49.80101894],[-119.05798967,49.80113074],[-119.05791619,49.80114213],[-119.05699232,49.80131268],[-119.05712683,49.80193293],[-119.05738145,49.80251721],[-119.05775877,49.80310719],[-119.0578977,49.80369645],[-119.05791572,49.80422982],[-119.05769023,49.80465744],[-119.05758406,49.80513918],[-119.05724506,49.80567183],[-119.05691885,49.80635617],[-119.05648128,49.80707575],[-119.05616062,49.80759701],[-119.05570272,49.80819482],[-119.05512591,49.80875774],[-119.05464743,49.80822651],[-119.05405358,49.80773338],[-119.05371809,49.80834507],[-119.05326836,49.80891369],[-119.05270345,49.80944243],[-119.05191268,49.80984121],[-119.0510025,49.81018942],[-119.05192553,49.81032579],[-119.05273444,49.81049741],[-119.05344353,49.81079578],[-119.05427039,49.81113866],[-119.05521512,49.81152676],[-119.05522311,49.81198108],[-119.05491461,49.81197859],[-119.05359083,49.81197788],[-119.03728502,49.81200387],[-119.03522985,49.81200707],[-119.03469672,49.81200814],[-119.03455546,49.81200814],[-119.03447964,49.8120085],[-119.03431301,49.8120085],[-119.03411967,49.81200885],[-119.0337865,49.81200956],[-119.0335446,49.81200992],[-119.03344418,49.81200992],[-119.03164415,49.81201277],[-119.0314028,49.81201312],[-119.02882278,49.8120174],[-119.02854942,49.81201775],[-119.01861568,49.81203378],[-119.01852905,49.81203378],[-119.01599173,49.81203739],[-119.01091282,49.81204446],[-119.01059423,49.81204481],[-119.00117842,49.81205763],[-119.0007337,49.81205763],[-119.00028898,49.81205763],[-118.99999985,49.81205763],[-118.99984425,49.81205763],[-118.99939953,49.81205763],[-118.99895536,49.81205763],[-118.99851064,49.81205763],[-118.99806592,49.81205763],[-118.99762119,49.81205763],[-118.99717647,49.81205763],[-118.99673175,49.81205763],[-118.99628703,49.81205763],[-118.9958423,49.81205763],[-118.99539758,49.81205763],[-118.99495286,49.81205763],[-118.99450869,49.81205763],[-118.99406396,49.81205763],[-118.99361924,49.81205763],[-118.99317452,49.81205763],[-118.9927298,49.81205763],[-118.99228507,49.81205763],[-118.99184035,49.81205763],[-118.99139563,49.81205763],[-118.99095091,49.81205763],[-118.99050673,49.81205763],[-118.99006201,49.81205763],[-118.98965741,49.81205763],[-118.98961729,49.81205763],[-118.98957039,49.81205763],[-118.98917257,49.81205763],[-118.98872784,49.81205763],[-118.98828312,49.81205763],[-118.9878384,49.81205763],[-118.98739368,49.81205763],[-118.98694895,49.81205763],[-118.98650423,49.81205763],[-118.98606006,49.81205763],[-118.98561534,49.81205763],[-118.98517061,49.81205763],[-118.98472589,49.81205763],[-118.98428117,49.81205763],[-118.98383645,49.81205763],[-118.98339172,49.81205763],[-118.982947,49.81205763],[-118.98250228,49.81205763],[-118.98205755,49.81205763],[-118.98161338,49.81205763],[-118.98118797,49.81205763],[-118.98115652,49.81205763],[-118.98072394,49.81205763],[-118.98027922,49.81205763],[-118.97983449,49.81205763],[-118.97963475,49.81205763],[-118.97938977,49.81205763],[-118.97894505,49.81205763],[-118.97850032,49.81205763],[-118.9780556,49.81205763],[-118.97761088,49.81205763],[-118.97716671,49.81205763],[-118.97672199,49.81205763],[-118.97627726,49.81205763],[-118.97583231,49.81205799],[-118.97538759,49.81205799],[-118.97494342,49.81205799],[-118.9744987,49.81205799],[-118.97405397,49.81205799],[-118.97360925,49.81205799],[-118.97316453,49.81205799],[-118.97271981,49.81205799],[-118.97227508,49.81205799],[-118.97183036,49.81205799],[-118.97138564,49.81205799],[-118.97094091,49.81205799],[-118.97049619,49.81205799],[-118.97005202,49.81205799],[-118.9696073,49.81205799],[-118.96916258,49.81205799],[-118.96871785,49.81205799],[-118.96827313,49.81205799],[-118.96782841,49.81205799],[-118.96738369,49.81205799],[-118.96693896,49.81205799],[-118.96649424,49.81205799],[-118.96604952,49.81205799],[-118.96560535,49.81205799],[-118.96516062,49.81205799],[-118.9647159,49.81205799],[-118.96427118,49.81205799],[-118.96382646,49.81205799],[-118.96338173,49.81205799],[-118.96293701,49.81205799],[-118.96249229,49.81205799],[-118.96204756,49.81205799],[-118.96160284,49.81205799],[-118.96115867,49.81205799],[-118.96071395,49.81205799],[-118.96026923,49.81205799],[-118.9598245,49.81205799],[-118.95937978,49.81205799],[-118.95893506,49.81205799],[-118.95849033,49.81205799],[-118.95804561,49.81205799],[-118.95760089,49.81205799],[-118.95715617,49.81205799],[-118.956712,49.81205799],[-118.95626727,49.81205799],[-118.95582255,49.81205799],[-118.95537783,49.81205799],[-118.9549331,49.81205799],[-118.95448838,49.81205799],[-118.95404366,49.81205799],[-118.95359894,49.81205799],[-118.95315421,49.81205799],[-118.95270949,49.81205799],[-118.95226532,49.81205799],[-118.9518206,49.81205799],[-118.95137587,49.81205799],[-118.95093115,49.81205799],[-118.95048643,49.81205799],[-118.95004171,49.81205799],[-118.94959698,49.81205799],[-118.94915226,49.81205799],[-118.94870754,49.81205799],[-118.94826282,49.81205799],[-118.94781809,49.81205799],[-118.94737392,49.81205799],[-118.9469292,49.81205799],[-118.94648448,49.81205799],[-118.94603975,49.81205799],[-118.94559503,49.81205799],[-118.94515031,49.81205799],[-118.94470559,49.81205799],[-118.94426086,49.81205799],[-118.94381614,49.81205799],[-118.94337142,49.81205799],[-118.94292702,49.81205834],[-118.9424823,49.81205834],[-118.94203757,49.81205834],[-118.94159285,49.81205834],[-118.94114813,49.81205834],[-118.94070341,49.81205834],[-118.94025868,49.81205834],[-118.93981451,49.81205834],[-118.93936979,49.81205834],[-118.93892507,49.81205834],[-118.93848034,49.81205834],[-118.93803562,49.81205834],[-118.9375909,49.81205834],[-118.93714618,49.81205834],[-118.93670145,49.81205834],[-118.93625673,49.81205834],[-118.93581201,49.81205834],[-118.93536784,49.81205834],[-118.93492311,49.81205834],[-118.93447839,49.81205834],[-118.93403367,49.81205834],[-118.93358895,49.81205834],[-118.93314422,49.81205834],[-118.9326995,49.81205834],[-118.93225478,49.81205834],[-118.93181005,49.81205834],[-118.93136533,49.81205834],[-118.93092061,49.81205834],[-118.93047589,49.81205834],[-118.93003172,49.81205834],[-118.92958699,49.81205834],[-118.92914227,49.81205834],[-118.92869755,49.81205834],[-118.92825283,49.81205834],[-118.9278081,49.81205834],[-118.92736338,49.81205834],[-118.92691866,49.81205834],[-118.92647393,49.81205834],[-118.92602921,49.81205834],[-118.92558504,49.81205834],[-118.92514032,49.81205834],[-118.9246956,49.81205834],[-118.92425087,49.81205834],[-118.92380615,49.81205834],[-118.92336143,49.81205834],[-118.92291671,49.81205834],[-118.92247198,49.81205834],[-118.9217911,49.81205834],[-118.91023776,49.81206511],[-118.78904437,49.81206226],[-118.78647977,49.81206226],[-118.78603504,49.81206226],[-118.78559032,49.81206226],[-118.7851456,49.81206226],[-118.78470087,49.81206226],[-118.78425647,49.81206262],[-118.78381175,49.81206262],[-118.78336703,49.81206262],[-118.78292231,49.81206262],[-118.78247758,49.81206262],[-118.78203286,49.81206262],[-118.78158814,49.81206262],[-118.78114342,49.81206262],[-118.78069869,49.81206262],[-118.78025397,49.81206262],[-118.77980925,49.81206262],[-118.77936452,49.81206262],[-118.7789198,49.81206262],[-118.77847508,49.81206262],[-118.77803036,49.81206262],[-118.77758563,49.81206262],[-118.77714146,49.81206262],[-118.77669674,49.81206262],[-118.77625202,49.81206262],[-118.77580729,49.81206262],[-118.77536257,49.81206262],[-118.77491785,49.81206262],[-118.7744729,49.81206297],[-118.77402817,49.81206297],[-118.77358345,49.81206297],[-118.77313928,49.81206297],[-118.77269456,49.81206297],[-118.77224983,49.81206297],[-118.77180511,49.81206297],[-118.77136039,49.81206297],[-118.77091567,49.81206297],[-118.77047094,49.81206297],[-118.77002622,49.81206297],[-118.7695815,49.81206297],[-118.76913678,49.81206297],[-118.76869205,49.81206297],[-118.76824733,49.81206297],[-118.76780261,49.81206297],[-118.76735788,49.81206297],[-118.76691316,49.81206297],[-118.76646844,49.81206297],[-118.76609453,49.81206297],[-118.76602427,49.81206297],[-118.76557954,49.81206297],[-118.76513459,49.81206333],[-118.76468987,49.81206333],[-118.76424515,49.81206333],[-118.76380042,49.81206333],[-118.7633557,49.81206333],[-118.76291098,49.81206333],[-118.76246626,49.81206333],[-118.76202153,49.81206333],[-118.76157736,49.81206333],[-118.76113264,49.81206333],[-118.76068792,49.81206333],[-118.76024319,49.81206333],[-118.75979847,49.81206333],[-118.75935375,49.81206333],[-118.75890903,49.81206333],[-118.7584643,49.81206333],[-118.75801958,49.81206333],[-118.75757486,49.81206333],[-118.75713013,49.81206333],[-118.75668541,49.81206333],[-118.75624069,49.81206333],[-118.75579629,49.81206368],[-118.75535157,49.81206368],[-118.75490684,49.81206368],[-118.75446212,49.81206368],[-118.7540174,49.81206368],[-118.75357268,49.81206368],[-118.75312795,49.81206368],[-118.75268323,49.81206368],[-118.75223851,49.81206368],[-118.75179378,49.81206368],[-118.75134906,49.81206368],[-118.75090434,49.81206368],[-118.75045962,49.81206368],[-118.75001489,49.81206368],[-118.74957072,49.81206368],[-118.749126,49.81206368],[-118.74868128,49.81206368],[-118.74823655,49.81206368],[-118.74779183,49.81206368],[-118.74734688,49.81206404],[-118.74690216,49.81206404],[-118.74645743,49.81206404],[-118.74601271,49.81206404],[-118.74556799,49.81206404],[-118.74512326,49.81206404],[-118.74467909,49.81206404],[-118.74423437,49.81206404],[-118.74378965,49.81206404],[-118.74334493,49.81206404],[-118.7429002,49.81206404],[-118.74245548,49.81206404],[-118.74201076,49.81206404],[-118.74156603,49.81206404],[-118.74112131,49.81206404],[-118.74067659,49.81206404],[-118.74023187,49.81206404],[-118.73978714,49.81206404],[-118.73934274,49.8120644],[-118.73889802,49.8120644],[-118.7384533,49.8120644],[-118.73800857,49.8120644],[-118.73756385,49.8120644],[-118.73711913,49.8120644],[-118.73667441,49.8120644],[-118.73622968,49.8120644],[-118.73578496,49.8120644],[-118.73534024,49.8120644],[-118.73489551,49.8120644],[-118.73445079,49.8120644],[-118.73400607,49.8120644],[-118.73356135,49.8120644],[-118.73311662,49.8120644],[-118.7326719,49.8120644],[-118.73222773,49.8120644],[-118.73178278,49.81206475],[-118.73133805,49.81206475],[-118.73089333,49.81206475],[-118.73044861,49.81206475],[-118.73000389,49.81206475],[-118.72955916,49.81206475],[-118.72911444,49.81206475],[-118.72866972,49.81206475],[-118.72822499,49.81206475],[-118.72778027,49.81206475],[-118.7273361,49.81206475],[-118.72689138,49.81206475],[-118.72644666,49.81206475],[-118.72600193,49.81206475],[-118.72555721,49.81206475],[-118.72511249,49.81206475],[-118.72466776,49.81206475],[-118.72422304,49.81206475],[-118.72377809,49.81206511],[-118.72333337,49.81206511],[-118.72288864,49.81206511],[-118.72244447,49.81206511],[-118.72199975,49.81206511],[-118.72155503,49.81206511],[-118.72111031,49.81206511],[-118.72066558,49.81206511],[-118.72022086,49.81206511],[-118.71977614,49.81206511],[-118.71933141,49.81206511],[-118.71888669,49.81206511],[-118.71844197,49.81206511],[-118.71799724,49.81206511],[-118.71755252,49.81206511],[-118.7171078,49.81206511],[-118.71666308,49.81206511],[-118.71621868,49.81206546],[-118.71577395,49.81206546],[-118.71532923,49.81206546],[-118.71488451,49.81206546],[-118.71443978,49.81206546],[-118.71399506,49.81206546],[-118.71355034,49.81206546],[-118.71310562,49.81206546],[-118.71266089,49.81206546],[-118.71221617,49.81206546],[-118.71177145,49.81206546],[-118.71132672,49.81206546],[-118.710882,49.81206546],[-118.71043728,49.81206546],[-118.70999256,49.81206546],[-118.70954783,49.81206546],[-118.70910366,49.81206546],[-118.70865894,49.81206546],[-118.70821399,49.81206582],[-118.70810264,49.81206582],[-118.70776926,49.81206582],[-118.70769809,49.81206582],[-118.70732454,49.81206582],[-118.70687982,49.81206582],[-118.7064351,49.81206582],[-118.70599037,49.81206582],[-118.70554565,49.81206582],[-118.70510093,49.81206582],[-118.70465621,49.81206582],[-118.70421148,49.81206582],[-118.70376731,49.81206582],[-118.70332259,49.81206582],[-118.70287787,49.81206582],[-118.70243314,49.81206582],[-118.70198842,49.81206582],[-118.7015437,49.81206582],[-118.70109898,49.81206582],[-118.70065402,49.81206618],[-118.7002093,49.81206618],[-118.69976458,49.81206618],[-118.69931985,49.81206618],[-118.69887513,49.81206618],[-118.69843096,49.81206618],[-118.69798624,49.81206618],[-118.69754151,49.81206618],[-118.69709679,49.81206618],[-118.69665207,49.81206618],[-118.69620735,49.81206618],[-118.69576262,49.81206618],[-118.6953179,49.81206618],[-118.69487318,49.81206618],[-118.69442846,49.81206618],[-118.69398373,49.81206618],[-118.69353901,49.81206618],[-118.69309406,49.81206653],[-118.69264989,49.81206653],[-118.69220516,49.81206653],[-118.69176044,49.81206653],[-118.69131572,49.81206653],[-118.69087099,49.81206653],[-118.69042627,49.81206653],[-118.68998155,49.81206653],[-118.68953683,49.81206653],[-118.6890921,49.81206653],[-118.68864738,49.81206653],[-118.68820266,49.81206653],[-118.68775793,49.81206653],[-118.68731321,49.81206653],[-118.68686849,49.81206653],[-118.68642377,49.81206653],[-118.68597904,49.81206653],[-118.68553432,49.81206653],[-118.68508992,49.81206689],[-118.6846452,49.81206689],[-118.68420047,49.81206689],[-118.68375575,49.81206689],[-118.68331103,49.81206689],[-118.68286631,49.81206689],[-118.68242158,49.81206689],[-118.68197686,49.81206689],[-118.68153214,49.81206689],[-118.68108741,49.81206689],[-118.68064269,49.81206689],[-118.68019797,49.81206689],[-118.67975325,49.81206689],[-118.67930852,49.81206689],[-118.6788638,49.81206689],[-118.67841908,49.81206689],[-118.67797491,49.81206689],[-118.67752995,49.81206724],[-118.67708523,49.81206724],[-118.67664051,49.81206724],[-118.67619579,49.81206725],[-118.67575106,49.81206724],[-118.67530634,49.81206724],[-118.67486162,49.81206724],[-118.67441689,49.81206724],[-118.67397217,49.81206724],[-118.67352745,49.81206724],[-118.67308273,49.81206724],[-118.672638,49.81206724],[-118.67219328,49.81206724],[-118.67205997,49.81206724],[-118.67206039,49.81256885],[-118.67206051,49.81271016],[-118.67213747,49.90437859],[-118.67217136,49.9415864],[-118.67218803,49.95932129],[-118.67219605,49.96864304],[-118.67227633,50.0564157],[-118.67230432,50.0870413],[-118.67231223,50.09569143],[-118.67234976,50.13666313],[-118.6723896,50.18008001],[-118.68876151,50.1801448],[-118.68973952,50.18013885],[-118.69594652,50.18010076],[-118.70325207,50.18005547],[-118.70950917,50.18001622],[-118.75025597,50.18006241],[-118.75084434,50.18006186],[-118.76160495,50.18005126],[-118.7622568,50.18005059],[-118.76265364,50.18005017],[-118.77115583,50.18004087],[-118.78529267,50.18002379],[-118.79130254,50.1800576],[-118.79131577,50.18005768],[-118.79502031,50.18008073],[-118.81135658,50.18018089],[-118.81219646,50.18018092],[-118.81383016,50.18018088],[-118.81418373,50.18018089],[-118.82086186,50.18018046],[-118.84345353,50.18026951],[-118.89871502,50.18045831],[-118.90027239,50.18046317],[-118.92408263,50.18036333],[-118.92741194,50.18036967],[-118.92846733,50.18036963],[-118.93315719,50.18036934],[-118.93580721,50.18036906],[-118.93911166,50.18035564],[-118.94215453,50.18034318],[-118.94298497,50.18034321],[-118.94314536,50.1803432],[-118.95886253,50.18038086],[-118.95958136,50.18038252],[-118.96361186,50.18038658],[-118.96884547,50.18039164],[-118.97751467,50.18039662],[-118.97821145,50.18039851],[-118.98068339,50.18040519],[-118.98479985,50.18039937],[-118.99796842,50.18037951],[-119.0000321,50.18037625],[-119.00055202,50.18037542],[-119.01167454,50.1803511],[-119.01226207,50.18034846],[-119.02074431,50.18030942],[-119.02374344,50.18029834],[-119.04035337,50.1803195],[-119.0650773,50.18034588],[-119.09398432,50.18035782],[-119.11426601,50.18036117],[-119.12760431,50.18036529],[-119.12857567,50.18036552],[-119.13047737,50.18036592],[-119.13184626,50.1803662],[-119.14889023,50.18036776],[-119.18733959,50.18036161],[-119.18735352,50.18036161],[-119.19568511,50.18033711],[-119.20108273,50.18032083],[-119.22218119,50.18018692],[-119.22217044,50.18695333],[-119.22782525,50.18695689],[-119.22781334,50.19464134],[-119.22459489,50.19465759],[-119.21892437,50.19465368],[-119.21808366,50.19465332],[-119.21759389,50.19465297],[-119.21654317,50.19465225],[-119.21654233,50.19532662],[-119.21654076,50.19617865],[-119.21653992,50.19658526],[-119.21653954,50.19674727],[-119.21653941,50.19689823],[-119.21653872,50.19743943],[-119.216538,50.19775276],[-119.21653809,50.19781115],[-119.21653812,50.19784391],[-119.21653779,50.19803867],[-119.21653763,50.19815866],[-119.21653693,50.19826975],[-119.21612166,50.19826939],[-119.21598171,50.19826903],[-119.21549135,50.19826868],[-119.21465058,50.19826832],[-119.21416078,50.19826796],[-119.21402061,50.19826797],[-119.21353025,50.19826761],[-119.2126897,50.1982669],[-119.21219989,50.19826654],[-119.21205973,50.19826654],[-119.21156937,50.19826618],[-119.21072882,50.19826547],[-119.21023846,50.19826512],[-119.21009885,50.19826512],[-119.20960849,50.19826476],[-119.20876793,50.19826405],[-119.20827758,50.19826369],[-119.20813763,50.19826334],[-119.20764727,50.19826298],[-119.20680705,50.19826262],[-119.20631692,50.19826191],[-119.20617675,50.19826191],[-119.20568639,50.19826156],[-119.20526612,50.1982612],[-119.20526629,50.19845774],[-119.2052663,50.19846491],[-119.20526717,50.19899716],[-119.20526772,50.19931191],[-119.20526622,50.19937992],[-119.20526817,50.19971639],[-119.2052687,50.20000016],[-119.20526849,50.20027005],[-119.20526817,50.20058444],[-119.20526838,50.20063464],[-119.20526784,50.20067452],[-119.20526785,50.20098927],[-119.20526751,50.20122569],[-119.20526711,50.20152869],[-119.20526689,50.20185626],[-119.20514707,50.20185662],[-119.20465678,50.20185697],[-119.20442293,50.20185733],[-119.2041029,50.20185752],[-119.20381639,50.20185768],[-119.20331253,50.2018584],[-119.20318625,50.2018584],[-119.20269597,50.20185875],[-119.20241539,50.20185911],[-119.20185557,50.20185946],[-119.20136528,50.20185982],[-119.20126872,50.20185947],[-119.20122488,50.20186018],[-119.2007346,50.20186053],[-119.19999989,50.20186125],[-119.19957969,50.2018616],[-119.1990894,50.20186196],[-119.19901097,50.20186196],[-119.19894923,50.20186196],[-119.19845894,50.20186231],[-119.19761854,50.20186303],[-119.19712859,50.20186374],[-119.19698841,50.20186374],[-119.19649813,50.20186409],[-119.19565773,50.20186481],[-119.19516744,50.20186516],[-119.19502727,50.20186516],[-119.19453676,50.20186587],[-119.19399863,50.20186623],[-119.19399889,50.20159634],[-119.19399894,50.20128159],[-119.19399907,50.20119187],[-119.19399912,50.20087712],[-119.19399956,50.20054492],[-119.19399945,50.2003377],[-119.19399991,50.20000016],[-119.19400019,50.19973027],[-119.19400026,50.19941552],[-119.19400039,50.1993258],[-119.19400047,50.19901105],[-119.19400083,50.19847163],[-119.19400091,50.19815688],[-119.19400127,50.1980668],[-119.19400114,50.1977524],[-119.19400152,50.19721298],[-119.19400162,50.19689823],[-119.19400198,50.19680815],[-119.19400209,50.1964934],[-119.1940025,50.19595398],[-119.19400261,50.19563923],[-119.19400276,50.19554951],[-119.19400288,50.19523476],[-119.19400315,50.19463445],[-119.18302691,50.19461166],[-119.18302353,50.19561085],[-119.18300238,50.20187442],[-119.18194653,50.20187123],[-119.17776033,50.20185848],[-119.17174482,50.20183988],[-119.15480339,50.20175407],[-119.1546222,50.19730527],[-119.15452519,50.19492321],[-119.15410601,50.19490612],[-119.15361665,50.19488654],[-119.15347673,50.19488084],[-119.15298759,50.1948609],[-119.15216769,50.19482743],[-119.15214923,50.19482672],[-119.15166009,50.19480678],[-119.15152018,50.19480108],[-119.15103104,50.19478114],[-119.15019213,50.19474696],[-119.14970299,50.19472702],[-119.14956308,50.19472133],[-119.14907394,50.19470139],[-119.14889511,50.19469391],[-119.14891699,50.19496344],[-119.14893619,50.1951989],[-119.1489426,50.19527748],[-119.14894994,50.19536756],[-119.14897556,50.1956816],[-119.14901902,50.19622031],[-119.14905773,50.19654538],[-119.14906313,50.19661909],[-119.14908637,50.19694843],[-119.14912568,50.19750352],[-119.14914631,50.19779192],[-119.14915331,50.19788165],[-119.14915905,50.19795393],[-119.14917091,50.19809842],[-119.14917491,50.19814726],[-119.14917896,50.19819569],[-119.14919108,50.19834808],[-119.14922248,50.19873439],[-119.14924792,50.19904879],[-119.14925493,50.19913851],[-119.14928037,50.19945291],[-119.14932466,50.20000016],[-119.14934683,50.20026934],[-119.14937228,50.20058373],[-119.1493793,50.20067345],[-119.14940476,50.20098785],[-119.14944834,50.20152656],[-119.14947381,50.20184095],[-119.14947809,50.2018908],[-119.14945631,50.20216531],[-119.14943139,50.20247935],[-119.14942429,50.20256943],[-119.14939937,50.20288347],[-119.14935621,50.20342218],[-119.1493242,50.2038263],[-119.14929964,50.20414069],[-119.14925649,50.2046794],[-119.14923193,50.20499379],[-119.14922451,50.20508352],[-119.14919995,50.20539791],[-119.14918228,50.20561902],[-119.14915683,50.20593662],[-119.14913228,50.20625101],[-119.14912486,50.20634074],[-119.14910032,50.20665513],[-119.14905722,50.20719384],[-119.14903235,50.20750788],[-119.14902527,50.20759796],[-119.1490004,50.207912],[-119.14895733,50.20845071],[-119.14893281,50.2087651],[-119.14892539,50.20885483],[-119.14890205,50.20915142],[-119.14848166,50.2091564],[-119.14799128,50.2091621],[-119.1478513,50.20916352],[-119.14764373,50.20916593],[-119.14736092,50.20916922],[-119.14688278,50.20917492],[-119.14652069,50.20917919],[-119.14603031,50.20918489],[-119.14589033,50.20918631],[-119.14539995,50.20919201],[-119.14455973,50.20920198],[-119.14406902,50.20920732],[-119.14392937,50.2092091],[-119.14343899,50.20921479],[-119.14259843,50.20922441],[-119.14210805,50.2092301],[-119.14196784,50.20923188],[-119.14147802,50.20923758],[-119.14063746,50.2092472],[-119.14014708,50.20925289],[-119.1400071,50.20925432],[-119.13951672,50.20926001],[-119.13867593,50.20926998],[-119.13818611,50.20927568],[-119.13804557,50.2092771],[-119.13755574,50.2092828],[-119.13747162,50.20928387],[-119.1370516,50.20927853],[-119.13656137,50.20927247],[-119.13644933,50.20927105],[-119.13642118,50.20927069],[-119.13593095,50.20926464],[-119.1358613,50.20926393],[-119.13509046,50.20925467],[-119.13460023,50.20924862],[-119.13446004,50.20924684],[-119.13396981,50.20924079],[-119.13312899,50.20923046],[-119.13263876,50.20922441],[-119.13249912,50.20922263],[-119.13200834,50.20921657],[-119.13116807,50.20920625],[-119.13067785,50.2092002],[-119.13053766,50.20919842],[-119.13004743,50.20919236],[-119.12920716,50.20918204],[-119.12871694,50.20917598],[-119.12857675,50.2091742],[-119.12808652,50.20916815],[-119.1272457,50.20915783],[-119.12675547,50.20915177],[-119.12661584,50.20914999],[-119.12612561,50.20914394],[-119.12592801,50.20914145],[-119.12550764,50.20913931],[-119.12501718,50.20913717],[-119.12487687,50.20913646],[-119.12438663,50.20913397],[-119.12354623,50.20913005],[-119.123056,50.20912756],[-119.12291569,50.20912685],[-119.12242545,50.20912436],[-119.12158505,50.20912044],[-119.12109426,50.20911795],[-119.12095451,50.20911724],[-119.12046404,50.2091151],[-119.11962331,50.20911083],[-119.11913308,50.20910833],[-119.11899277,50.20910762],[-119.11717189,50.20909872],[-119.11700642,50.20909797],[-119.11654112,50.20909587],[-119.1157004,50.2090916],[-119.11518679,50.20908911],[-119.11507041,50.2090884],[-119.11461221,50.20908626],[-119.11460927,50.20993117],[-119.1146069,50.21047095],[-119.11460555,50.21078534],[-119.11460508,50.21087542],[-119.11460194,50.21172959],[-119.11460069,50.21213407],[-119.11459913,50.21244882],[-119.11459796,50.21271871],[-119.11435783,50.21271835],[-119.11386721,50.21271728],[-119.11382549,50.21271728],[-119.113727,50.21271728],[-119.11323695,50.21271621],[-119.11239581,50.21271514],[-119.11189351,50.21271408],[-119.11176554,50.21271408],[-119.11127492,50.21271301],[-119.11043434,50.21271194],[-119.10994428,50.21271087],[-119.10980407,50.21271087],[-119.10931346,50.2127098],[-119.10877978,50.21270909],[-119.10877976,50.21290634],[-119.10877951,50.21322074],[-119.10877904,50.21331082],[-119.10877912,50.21362557],[-119.10877809,50.21416499],[-119.10877763,50.21447974],[-119.10877739,50.21456947],[-119.10877748,50.21488422],[-119.10877648,50.21542363],[-119.10877603,50.21573839],[-119.10877612,50.21582847],[-119.10877568,50.21614322],[-119.1087753,50.21641275],[-119.10835486,50.21641239],[-119.10786465,50.21641239],[-119.10772466,50.21641204],[-119.10723389,50.21641204],[-119.10678615,50.21641202],[-119.10639335,50.21641168],[-119.1059028,50.21641132],[-119.10576258,50.21641132],[-119.10527204,50.21641097],[-119.10443117,50.21641026],[-119.10394095,50.21641026],[-119.10380096,50.2164099],[-119.10331019,50.2164099],[-119.10305946,50.21640954],[-119.10298657,50.21640954],[-119.10246987,50.21640919],[-119.10197911,50.21640919],[-119.10183911,50.21640883],[-119.1013489,50.21640883],[-119.10050803,50.21640812],[-119.10001748,50.21640776],[-119.09987726,50.21640776],[-119.09938672,50.21640741],[-119.09854618,50.21640705],[-119.09805563,50.2164067],[-119.09791541,50.2164067],[-119.09742487,50.21640634],[-119.09658455,50.21640563],[-119.09609401,50.21640527],[-119.09595379,50.21640527],[-119.09546324,50.21640491],[-119.095027,50.21640491],[-119.0946227,50.21640456],[-119.09413216,50.2164042],[-119.09399194,50.2164042],[-119.0935014,50.21640385],[-119.09287174,50.21640349],[-119.09282667,50.21640349],[-119.0924059,50.21640278],[-119.09191558,50.21640207],[-119.09177559,50.21640171],[-119.09167321,50.21640171],[-119.09162758,50.21640171],[-119.09128504,50.21640135],[-119.0904445,50.216401],[-119.09012489,50.21640135],[-119.09007982,50.21640135],[-119.08976566,50.216401],[-119.08927489,50.216401],[-119.0891349,50.21640064],[-119.08864435,50.21640029],[-119.08829659,50.21640029],[-119.08780381,50.21639993],[-119.08731327,50.21639957],[-119.08717327,50.21639922],[-119.08668273,50.21639886],[-119.08584219,50.21639851],[-119.08535165,50.21639815],[-119.08521143,50.21639815],[-119.08472088,50.21639779],[-119.0844223,50.21639744],[-119.08241558,50.21617597],[-119.08205786,50.21618915],[-119.08056394,50.21624469],[-119.08051775,50.21624647],[-119.08037669,50.21625929],[-119.0803772,50.21639459],[-119.08037683,50.21640135],[-119.08037676,50.21666839],[-119.08037702,50.21675812],[-119.08037696,50.21707287],[-119.08037693,50.21715512],[-119.08037679,50.21761229],[-119.08037673,50.21792704],[-119.08037622,50.21801712],[-119.0803764,50.21833151],[-119.08037625,50.21887093],[-119.08037621,50.21918568],[-119.08037571,50.21927577],[-119.08038303,50.21958589],[-119.08037586,50.22003309],[-119.08037555,50.22012993],[-119.08037552,50.22044468],[-119.08037525,50.22053441],[-119.08037522,50.22084916],[-119.08037513,50.22138858],[-119.08037512,50.22170333],[-119.08037517,50.22179341],[-119.08037483,50.22210781],[-119.08037454,50.22264758],[-119.08037421,50.22296198],[-119.08037427,50.22305206],[-119.08037428,50.22336681],[-119.08037433,50.22353914],[-119.08037511,50.2235662],[-119.07995136,50.22357011],[-119.07994317,50.22356991],[-119.07993712,50.22356976],[-119.07665766,50.2235281],[-119.07545189,50.22351279],[-119.07527397,50.22351358],[-119.07337305,50.22352205],[-119.07111981,50.22350602],[-119.06926825,50.22349285],[-119.06882895,50.22348964],[-119.06909677,50.22363527],[-119.06909809,50.22556755],[-119.06909893,50.22679661],[-119.06909975,50.22799905],[-119.06814369,50.22870499],[-119.06715595,50.22943429],[-119.06621004,50.23069899],[-119.06741218,50.23064345],[-119.06903845,50.2311202],[-119.06908796,50.2311786],[-119.06908777,50.23146629],[-119.06908511,50.23571185],[-119.06908543,50.23574319],[-119.06888671,50.23574319],[-119.06883717,50.23574319],[-119.06841689,50.23574319],[-119.06792615,50.23574283],[-119.06778587,50.23574283],[-119.06729546,50.23574283],[-119.0670728,50.23574283],[-119.06626476,50.23574247],[-119.06626437,50.23610478],[-119.0662612,50.23903359],[-119.06625831,50.24170208],[-119.06598852,50.24170172],[-119.06432137,50.24169959],[-119.05971329,50.24169353],[-119.05909969,50.24174231],[-119.05764119,50.24201896],[-119.05743076,50.24204282],[-119.05752765,50.24895166],[-119.05757838,50.25257164]]]},"geometry_name":"SHAPE","properties":{"id":284,"slug":"kelowna-lake-country-coldstream","name":"Kelowna-Lake Country-Coldstream","abbreviation":"KLC","gazetteDate":"2023-12-07Z","boundarySet":11},"bbox":[-119.4858418,49.79093589,-118.67205997,50.25297007]}
