{"type":"Feature","id":289,"geometry":{"type":"Polygon","coordinates":[[[-124.49000387,49.5393565],[-124.48779745,49.53592551],[-124.48515967,49.53109637],[-124.48305022,49.52723249],[-124.48141947,49.52271454],[-124.4817312,49.51655021],[-124.48210196,49.51233063],[-124.48296971,49.50810465],[-124.48377924,49.5019339],[-124.48522451,49.49721977],[-124.48740659,49.49021515],[-124.48916068,49.4824112],[-124.48994878,49.47559244],[-124.49026949,49.46975211],[-124.49000761,49.46736407],[-124.49001706,49.46736409],[-124.51310996,49.46740359],[-124.53552633,49.46743713],[-124.53585824,49.38164945],[-124.53585738,49.38159106],[-124.53585428,49.38118827],[-124.53583467,49.38067618],[-124.53558734,49.37421566],[-124.53562979,49.37221442],[-124.53564572,49.37203034],[-124.53564626,49.37194703],[-124.53565154,49.37079911],[-124.53566927,49.36988654],[-124.53560075,49.36901885],[-124.53562516,49.3686178],[-124.53565211,49.36817465],[-124.53565218,49.36816317],[-124.5356533,49.36792158],[-124.53565336,49.36790791],[-124.5356591,49.3666672],[-124.53566285,49.36584464],[-124.535664,49.36560075],[-124.53567076,49.36413168],[-124.53568631,49.36073529],[-124.53550021,49.35936805],[-124.53538502,49.35936876],[-124.53011041,49.359409],[-124.52984905,49.35941113],[-124.5298853,49.35575697],[-124.52990823,49.35433632],[-124.52990986,49.35418108],[-124.53320758,49.35200099],[-124.53372687,49.35165227],[-124.53690642,49.34958693],[-124.53680342,49.34540591],[-124.53680084,49.34528306],[-124.53677403,49.34407747],[-124.54118375,49.34139933],[-124.54118027,49.33604566],[-124.54105312,49.33530643],[-124.5410374,49.33521563],[-124.53926905,49.33472709],[-124.5368507,49.33413213],[-124.53558805,49.33384622],[-124.53166458,49.33301306],[-124.52915437,49.33257262],[-124.52648599,49.33214393],[-124.52409291,49.33181067],[-124.5217393,49.33151977],[-124.51836202,49.33123564],[-124.51568313,49.33103839],[-124.51115587,49.33086357],[-124.50837862,49.33083651],[-124.50798443,49.33083295],[-124.50676092,49.33084755],[-124.50378508,49.33089721],[-124.49983331,49.33096172],[-124.49757053,49.33099973],[-124.49670985,49.33101418],[-124.49575606,49.33098356],[-124.4942336,49.33090523],[-124.49250037,49.33068305],[-124.49050708,49.33028285],[-124.49000705,49.33014755],[-124.48868051,49.32976728],[-124.4870486,49.32915238],[-124.48554781,49.32844455],[-124.48073937,49.32610671],[-124.47854464,49.32501861],[-124.47711438,49.32443967],[-124.47615476,49.32412584],[-124.47565769,49.32396328],[-124.47433841,49.32356521],[-124.47241596,49.32314008],[-124.47077533,49.32289191],[-124.46936595,49.32272528],[-124.46786687,49.32267401],[-124.46617258,49.32266048],[-124.4648675,49.32271211],[-124.45183564,49.32380582],[-124.44139697,49.32468072],[-124.4337022,49.3252999],[-124.42766838,49.3257852],[-124.42640612,49.32588667],[-124.42481745,49.32594827],[-124.42305619,49.3259059],[-124.4214857,49.32576348],[-124.41977041,49.32550213],[-124.41793505,49.32508733],[-124.41655929,49.32466221],[-124.41563687,49.32434817],[-124.41457935,49.32390844],[-124.41241164,49.32286023],[-124.41214354,49.32273098],[-124.40928329,49.32135128],[-124.40880872,49.32114548],[-124.4078755,49.32072569],[-124.40651238,49.32020016],[-124.40533076,49.31981349],[-124.4035778,49.31938551],[-124.40179049,49.31905118],[-124.39986965,49.3188201],[-124.38838085,49.31772424],[-124.38657094,49.31755148],[-124.3829567,49.31728697],[-124.37981678,49.31705706],[-124.37940173,49.31702666],[-124.37158894,49.31645413],[-124.36856766,49.31614686],[-124.36598606,49.31582356],[-124.36211416,49.31522219],[-124.3578511,49.314461],[-124.35693968,49.31429823],[-124.34972756,49.31297657],[-124.34807264,49.31264508],[-124.34795657,49.31261406],[-124.34781417,49.31257601],[-124.34662251,49.31225841],[-124.34585312,49.31199493],[-124.34580288,49.31197784],[-124.34560391,49.31190984],[-124.34398657,49.31120094],[-124.34033979,49.30934519],[-124.34000743,49.30917607],[-124.33793969,49.30812393],[-124.33701822,49.30767744],[-124.33583521,49.30721991],[-124.33545149,49.30709708],[-124.33487739,49.30691264],[-124.33486419,49.30690979],[-124.33449276,49.30682363],[-124.33356203,49.30660715],[-124.33317824,49.3065427],[-124.3327939,49.30647826],[-124.3320907,49.30636254],[-124.32956073,49.30607342],[-124.32583523,49.30565222],[-124.32575707,49.30564331],[-124.31945173,49.30492458],[-124.31827333,49.30479021],[-124.31626115,49.30446407],[-124.31326898,49.30398019],[-124.30134812,49.30190654],[-124.2842006,49.29892105],[-124.2830993,49.29873981],[-124.28219994,49.29865187],[-124.28149369,49.29861733],[-124.28078919,49.29861164],[-124.27970523,49.29869104],[-124.27827982,49.29889897],[-124.27750006,49.29908234],[-124.27694201,49.29924363],[-124.27624415,49.29948005],[-124.274589,49.30007216],[-124.27398606,49.30027369],[-124.2739483,49.30025482],[-124.27390874,49.30023524],[-124.27363933,49.30017257],[-124.27350184,49.30014836],[-124.27275433,49.29997318],[-124.27250642,49.29996321],[-124.27227976,49.29997033],[-124.27130427,49.300033],[-124.27085202,49.30003727],[-124.27040396,49.30002588],[-124.2700384,49.30000736],[-124.26957685,49.29996464],[-124.26921931,49.29990339],[-124.26842285,49.29973392],[-124.26787886,49.29959007],[-124.26763893,49.29951743],[-124.26725186,49.29936219],[-124.26711594,49.29927105],[-124.26696774,49.29919841],[-124.26679129,49.2991215],[-124.26665994,49.29904602],[-124.26657856,49.29899902],[-124.26649743,49.29892354],[-124.26657349,49.29874409],[-124.26673074,49.29853188],[-124.26689935,49.29837095],[-124.2671493,49.29817298],[-124.2672597,49.29801061],[-124.26729339,49.29785681],[-124.26731825,49.29766311],[-124.26526688,49.29766632],[-124.26526937,49.29779485],[-124.26527058,49.29790772],[-124.26527087,49.2979152],[-124.26527141,49.29795223],[-124.26527516,49.29827161],[-124.26527756,49.29846637],[-124.26527934,49.29862623],[-124.26517958,49.29862695],[-124.26460797,49.29863086],[-124.26446325,49.29863193],[-124.26445943,49.29863193],[-124.26432819,49.29863229],[-124.26426302,49.29863264],[-124.26419875,49.29863336],[-124.2641738,49.29863407],[-124.26399522,49.29863514],[-124.26349369,49.2986387],[-124.26334604,49.29864012],[-124.26334331,49.29864012],[-124.26325775,49.29864083],[-124.26313759,49.2986419],[-124.26290477,49.29864332],[-124.26290149,49.29864333],[-124.26023103,49.29866433],[-124.26022885,49.29866433],[-124.26004789,49.29866576],[-124.25998818,49.29866611],[-124.25980614,49.29866754],[-124.25782114,49.2986921],[-124.25755895,49.29869531],[-124.2566451,49.29870675],[-124.25648784,49.29870942],[-124.25625817,49.29870996],[-124.25613749,49.29871276],[-124.25607623,49.29871358],[-124.25583395,49.29812242],[-124.25547786,49.29696598],[-124.25537111,49.29655649],[-124.25530731,49.29601049],[-124.25529033,49.29576632],[-124.25527213,49.29518524],[-124.25526249,49.29455406],[-124.25528066,49.29408372],[-124.25534946,49.29291159],[-124.25532954,49.29247507],[-124.25530638,49.2921945],[-124.25519072,49.29174837],[-124.2551139,49.2915561],[-124.254899,49.29102879],[-124.25476419,49.29080376],[-124.25448414,49.29039181],[-124.25418309,49.29005534],[-124.25377251,49.28960957],[-124.2536132,49.28949242],[-124.25194182,49.28816364],[-124.25155674,49.28785921],[-124.25117786,49.28750245],[-124.2510193,49.287344],[-124.25075191,49.287041],[-124.2504574,49.28660876],[-124.250181,49.2859935],[-124.24997919,49.28528566],[-124.24961501,49.28403378],[-124.24941388,49.28357163],[-124.24920848,49.28321024],[-124.24896983,49.28290474],[-124.24905343,49.2828816],[-124.25003189,49.28261919],[-124.25024937,49.28257077],[-124.2510676,49.28265859],[-124.2511937,49.28265451],[-124.2513454,49.2826496],[-124.2516291,49.28259299],[-124.25188465,49.28248282],[-124.2520682,49.2823489],[-124.2521742,49.28217855],[-124.25242675,49.28177321],[-124.25297477,49.28151747],[-124.25371197,49.28117397],[-124.25372826,49.28116614],[-124.25378402,49.28114013],[-124.2539994,49.2810397],[-124.25503932,49.28052434],[-124.25588891,49.2801033],[-124.25686663,49.27949341],[-124.25806041,49.2786791],[-124.25863922,49.27800083],[-124.25888061,49.27761986],[-124.2589197,49.2775577],[-124.25898999,49.27737895],[-124.25903806,49.27725668],[-124.2593312,49.2765111],[-124.26011258,49.27489606],[-124.2609342,49.2739415],[-124.26162783,49.27326441],[-124.2618151,49.2730816],[-124.26218711,49.27269494],[-124.2623701,49.27250459],[-124.26265699,49.27220644],[-124.26280108,49.27197215],[-124.2628461,49.27182831],[-124.26285623,49.27166085],[-124.26286574,49.27148971],[-124.2628608,49.271301],[-124.26281581,49.27114861],[-124.26280148,49.2711219],[-124.26278588,49.27105892],[-124.26269847,49.27086199],[-124.26266624,49.27067328],[-124.26261978,49.27047602],[-124.26255998,49.27028777],[-124.2625002,49.27009952],[-124.26245407,49.26990207],[-124.26244913,49.26971336],[-124.26233549,49.26946975],[-124.26222344,49.26917177],[-124.26208363,49.26879256],[-124.2618507,49.26843205],[-124.26152266,49.26814405],[-124.26116639,49.26797685],[-124.26114558,49.26796537],[-124.26062985,49.26776651],[-124.26001479,49.26753319],[-124.25906246,49.26726247],[-124.25372959,49.26723005],[-124.25192138,49.26722585],[-124.25192682,49.26601833],[-124.25193429,49.26435872],[-124.25195391,49.25999938],[-124.251955,49.25975752],[-124.23671857,49.25975301],[-124.2367835,49.25585312],[-124.23684434,49.25219879],[-124.23699068,49.25219845],[-124.24079912,49.25218963],[-124.24266372,49.25218526],[-124.24268955,49.24870164],[-124.25085511,49.24876398],[-124.25092028,49.24153823],[-124.2412291,49.24153039],[-124.24138211,49.2316033],[-124.24689933,49.23162359],[-124.24698121,49.22624471],[-124.25528099,49.22628103],[-124.26221293,49.22631129],[-124.26844884,49.22637111],[-124.26878215,49.22637075],[-124.27317706,49.22636862],[-124.2738015,49.22636826],[-124.27380423,49.22636826],[-124.27397604,49.22637111],[-124.27584887,49.22636399],[-124.28869373,49.22631307],[-124.28877352,49.22631272],[-124.28877359,49.22631281],[-124.28901209,49.22631185],[-124.29772621,49.22630568],[-124.304499,49.2263004],[-124.30485126,49.22630012],[-124.30694831,49.22629841],[-124.30694854,49.22629841],[-124.30694288,49.22442144],[-124.30693812,49.2228437],[-124.30693762,49.22267778],[-124.30693762,49.22267763],[-124.29863449,49.22267493],[-124.29863439,49.22263986],[-124.29863168,49.22167256],[-124.29862515,49.21930632],[-124.29862514,49.2193001],[-124.29862446,49.21905401],[-124.2930896,49.21905176],[-124.29307071,49.21180975],[-124.29146399,49.211809],[-124.28753699,49.21180706],[-124.28753651,49.21161401],[-124.28753222,49.20988706],[-124.28753133,49.20951863],[-124.28753003,49.20898],[-124.28752812,49.20818609],[-124.28752812,49.20818595],[-124.29236162,49.20818308],[-124.29584307,49.20818089],[-124.29905209,49.20817877],[-124.29927942,49.20817861],[-124.30176993,49.20817691],[-124.3017701,49.20817691],[-124.3068343,49.20817327],[-124.30682846,49.21156111],[-124.3068265,49.21269158],[-124.30682653,49.21269165],[-124.30819413,49.2126906],[-124.30819702,49.21269059],[-124.3081991,49.21269059],[-124.30968425,49.21268944],[-124.30969854,49.21268943],[-124.31372245,49.21268618],[-124.31372245,49.21268624],[-124.31372351,49.21346852],[-124.31372352,49.21346938],[-124.31373088,49.21886965],[-124.31373108,49.21901166],[-124.31923058,49.21900685],[-124.31923058,49.21900688],[-124.31922971,49.21964207],[-124.31922072,49.22623581],[-124.32261376,49.2262326],[-124.32611932,49.22622917],[-124.32611465,49.23023748],[-124.33113826,49.23023405],[-124.33761081,49.23022927],[-124.34235607,49.23022547],[-124.34348829,49.23022457],[-124.34549893,49.23022295],[-124.34755252,49.23022123],[-124.35039786,49.23021873],[-124.35390678,49.23021564],[-124.36281619,49.23020722],[-124.36296138,49.23020707],[-124.36481411,49.23020523],[-124.36724442,49.23020278],[-124.36810523,49.230202],[-124.36935336,49.23020087],[-124.3693584,49.23020087],[-124.36949868,49.23019946],[-124.36956013,49.23019884],[-124.36981882,49.23019624],[-124.36989093,49.23019552],[-124.37095911,49.23019922],[-124.3721701,49.2301979],[-124.37217055,49.2301979],[-124.37217119,49.2301979],[-124.37362701,49.2301963],[-124.37365583,49.23019627],[-124.37365588,49.23019627],[-124.37645579,49.23019345],[-124.37912678,49.2301907],[-124.3858378,49.23022163],[-124.38585411,49.23022171],[-124.38586431,49.23022175],[-124.38763211,49.23022983],[-124.38876713,49.23023499],[-124.38885636,49.23023541],[-124.38885646,49.23023541],[-124.38885917,49.23243022],[-124.38885922,49.23246628],[-124.38885942,49.23246628],[-124.39999977,49.23254434],[-124.4000003,49.23254434],[-124.40938057,49.23265056],[-124.41385044,49.23269409],[-124.42042615,49.23275813],[-124.42042614,49.23275833],[-124.42042351,49.23512011],[-124.42042351,49.23512015],[-124.4204221,49.23637941],[-124.4264493,49.23638704],[-124.43147748,49.23639315],[-124.43320709,49.23639635],[-124.43320892,49.23639636],[-124.43321221,49.23639636],[-124.43696521,49.23640324],[-124.43697657,49.23640324],[-124.43708152,49.23640395],[-124.43708157,49.23640395],[-124.43709479,49.23640405],[-124.44276665,49.2364459],[-124.44741793,49.23648],[-124.44741793,49.23647979],[-124.44741793,49.23646794],[-124.44741793,49.23646791],[-124.44741793,49.23646787],[-124.44741792,49.23236905],[-124.44794837,49.2325621],[-124.448979,49.23273209],[-124.45001284,49.23269812],[-124.4510589,49.23235214],[-124.45209473,49.2321782],[-124.45312033,49.2321763],[-124.45415427,49.23219827],[-124.45518795,49.23205531],[-124.45622135,49.23174743],[-124.45725779,49.23149147],[-124.45829068,49.23127154],[-124.4593207,49.2311086],[-124.46034779,49.23100266],[-124.46138623,49.23091956],[-124.46241933,49.23091348],[-124.46344745,49.23089446],[-124.46447606,49.23078847],[-124.4655103,49.2304605],[-124.46654526,49.23046635],[-124.4675826,49.23039821],[-124.46860593,49.2303722],[-124.46962957,49.23040815],[-124.47066085,49.22998123],[-124.47169813,49.23021989],[-124.47272808,49.23036569],[-124.47376155,49.23047545],[-124.47479853,49.23054917],[-124.47525244,49.23031348],[-124.47585202,49.23030582],[-124.47652064,49.23056615],[-124.47714727,49.23100492],[-124.4779959,49.2309041],[-124.47809062,49.23085592],[-124.47823864,49.23075307],[-124.47844,49.23059557],[-124.47891296,49.23033463],[-124.47930217,49.23030856],[-124.4799274,49.23026667],[-124.48095192,49.23007662],[-124.48198652,49.22976449],[-124.48209991,49.23039173],[-124.48243177,49.23092422],[-124.48298212,49.23136194],[-124.48320967,49.23148666],[-124.48381074,49.23181608],[-124.48442112,49.23216806],[-124.48481097,49.23234196],[-124.48519852,49.23243993],[-124.48554791,49.23243544],[-124.48581976,49.23249191],[-124.48601407,49.23260936],[-124.48615866,49.23285038],[-124.48638673,49.23312631],[-124.48679942,49.23345084],[-124.48711142,49.23377666],[-124.48732272,49.23410378],[-124.48777972,49.23397196],[-124.48830896,49.23385719],[-124.48912721,49.23381066],[-124.48938982,49.23391522],[-124.48964095,49.23399295],[-124.49039244,49.23385831],[-124.49124813,49.23388925],[-124.49153831,49.23394865],[-124.49220801,49.23408575],[-124.49322178,49.23429754],[-124.49424634,49.23456316],[-124.49530164,49.23493631],[-124.49630348,49.23535813],[-124.49731761,49.2357318],[-124.49834136,49.23612033],[-124.49937247,49.23644879],[-124.500357,49.23675085],[-124.50045584,49.23663762],[-124.50061424,49.23647464],[-124.50089131,49.23624915],[-124.50127177,49.23595934],[-124.50172957,49.23565353],[-124.50247161,49.23529587],[-124.50249681,49.23528372],[-124.50351362,49.2348387],[-124.50424399,49.23451234],[-124.50489486,49.23418201],[-124.5050463,49.23404211],[-124.50523702,49.23383871],[-124.50546702,49.23357185],[-124.5059136,49.23335012],[-124.50664662,49.2330617],[-124.5076715,49.23333619],[-124.5086958,49.23324086],[-124.50971447,49.23321055],[-124.51017646,49.23369527],[-124.51086183,49.23409712],[-124.51177058,49.23441607],[-124.51245727,49.23485986],[-124.51313434,49.23528878],[-124.51380181,49.23570284],[-124.51408305,49.23591504],[-124.51436647,49.23609824],[-124.51465203,49.23625242],[-124.51475552,49.23644197],[-124.51482078,49.236679],[-124.5158514,49.23658852],[-124.51687842,49.23658003],[-124.51790763,49.23669245],[-124.51893508,49.23674791],[-124.51990189,49.23686612],[-124.52059098,49.23698699],[-124.52100233,49.23711052],[-124.52194138,49.23726906],[-124.52246487,49.23746507],[-124.52270222,49.2377378],[-124.52265343,49.23808729],[-124.52285626,49.23827952],[-124.52302072,49.23841528],[-124.52346902,49.23825045],[-124.52416329,49.23804338],[-124.52509946,49.23790908],[-124.52603839,49.23781472],[-124.52688934,49.23778848],[-124.52699269,49.238021],[-124.52707049,49.23831683],[-124.52707854,49.2385776],[-124.52707367,49.23886552],[-124.52707566,49.2390784],[-124.52711335,49.23926081],[-124.52815212,49.23908715],[-124.52918317,49.23896056],[-124.53021322,49.23889994],[-124.53124227,49.23890629],[-124.53227936,49.23907345],[-124.53331127,49.23931963],[-124.5340134,49.23941626],[-124.5345719,49.23940984],[-124.53498678,49.23930037],[-124.53536544,49.23910643],[-124.53582504,49.23930722],[-124.53623591,49.23926577],[-124.53667418,49.23931991],[-124.53711013,49.23939808],[-124.53753706,49.23948035],[-124.53803654,49.23953967],[-124.53860859,49.23957603],[-124.5394645,49.23970855],[-124.53978914,49.23980531],[-124.5397881,49.24062143],[-124.53137598,49.24061646],[-124.5315498,49.24386574],[-124.53043423,49.24389138],[-124.53019354,49.24389672],[-124.53016862,49.24389743],[-124.53017636,49.24404021],[-124.53023443,49.24512723],[-124.53036233,49.2475135],[-124.52968351,49.24752916],[-124.52946755,49.24753415],[-124.52688347,49.24759325],[-124.52702637,49.25027326],[-124.52336375,49.25035657],[-124.52089379,49.25041319],[-124.52012123,49.25043063],[-124.52016885,49.2513286],[-124.52023774,49.25261537],[-124.5202656,49.25314304],[-124.51972482,49.2531555],[-124.51888416,49.25317473],[-124.51897449,49.2548642],[-124.51903767,49.25605199],[-124.51906389,49.25654049],[-124.51907727,49.2567908],[-124.51924764,49.25678546],[-124.52003868,49.25676124],[-124.5231923,49.25666369],[-124.52638433,49.2565647],[-124.52714279,49.2565412],[-124.5275385,49.25652874],[-124.52849881,49.25649919],[-124.53207978,49.2563881],[-124.53829922,49.25619476],[-124.53843554,49.25619085],[-124.54288505,49.25605234],[-124.54627923,49.2559466],[-124.54807186,49.25589105],[-124.55243997,49.25575468],[-124.55595188,49.25564502],[-124.55690015,49.25561547],[-124.55987166,49.25552254],[-124.55972243,49.26169043],[-124.55969607,49.26275859],[-124.56997417,49.26276037],[-124.56996792,49.27240405],[-124.58932359,49.27240796],[-124.58919382,49.27958064],[-124.5897647,49.28109422],[-124.58943438,49.28134737],[-124.59415638,49.28132565],[-124.59416511,49.28223038],[-124.59969111,49.28220474],[-124.59970852,49.28401385],[-124.59999967,49.28401242],[-124.6010902,49.28400744],[-124.6011006,49.28512615],[-124.61691953,49.28504248],[-124.61692507,49.28151614],[-124.61554238,49.28151543],[-124.615544,49.28061105],[-124.61413588,49.28060999],[-124.61413879,49.2788315],[-124.61275637,49.27883044],[-124.61276104,49.2761166],[-124.61137816,49.27611554],[-124.61138455,49.27247419],[-124.61139068,49.26887877],[-124.6210675,49.26888589],[-124.62106234,49.2725041],[-124.62180267,49.27250445],[-124.62382702,49.27250588],[-124.62382445,49.27431498],[-124.63488485,49.27432174],[-124.63488701,49.27251264],[-124.64594704,49.27251834],[-124.64594141,49.277946],[-124.64870678,49.27794707],[-124.64870336,49.28131461],[-124.64870306,49.28156563],[-124.64040638,49.28156136],[-124.64040231,49.28497554],[-124.65705324,49.28507809],[-124.65707379,49.28507844],[-124.66266237,49.28141115],[-124.66260319,49.27983976],[-124.66141684,49.2782458],[-124.66160092,49.27653141],[-124.66071483,49.2745188],[-124.6592959,49.27126103],[-124.66025824,49.26874032],[-124.6573163,49.26478799],[-124.65827165,49.26228691],[-124.6560129,49.25925176],[-124.65384081,49.25994407],[-124.65168674,49.25704865],[-124.64827371,49.25553989],[-124.64897752,49.25369695],[-124.64629643,49.25325807],[-124.64526505,49.25089756],[-124.64708913,49.24822101],[-124.64521069,49.24501082],[-124.64356128,49.24512328],[-124.64182202,49.24214964],[-124.64154684,49.24114152],[-124.63548897,49.23730504],[-124.63405743,49.23798478],[-124.63154299,49.23571471],[-124.63149736,49.23391098],[-124.62852166,49.23259417],[-124.62805808,49.23153154],[-124.63106959,49.23034237],[-124.63308033,49.22839361],[-124.63216487,49.2262956],[-124.63097671,49.21882735],[-124.63586672,49.21849335],[-124.63627449,49.22105426],[-124.63899875,49.22018576],[-124.64255831,49.22497493],[-124.64759891,49.22491968],[-124.65087565,49.22699472],[-124.6496157,49.22784803],[-124.65416124,49.23396102],[-124.65454516,49.23636531],[-124.65266827,49.23627866],[-124.65205463,49.24197449],[-124.65412365,49.2425788],[-124.65537974,49.24472482],[-124.65837596,49.24561833],[-124.65835524,49.24538395],[-124.65830873,49.24503715],[-124.65814536,49.24474733],[-124.65809072,49.24456538],[-124.65810604,49.24439127],[-124.65827684,49.24408756],[-124.65831625,49.24380806],[-124.65820922,49.24351289],[-124.6580942,49.24321737],[-124.65785258,49.24287342],[-124.65783994,49.24270465],[-124.6579053,49.24258039],[-124.65789871,49.24238421],[-124.65767405,49.24212215],[-124.65758966,49.24170308],[-124.65758128,49.24165287],[-124.6577466,49.24137658],[-124.65773367,49.24077343],[-124.65783001,49.24032872],[-124.6577706,49.24001005],[-124.65790312,49.23980674],[-124.65801029,49.23966361],[-124.65803286,49.2393072],[-124.65780271,49.23887638],[-124.6577622,49.23871687],[-124.65790644,49.23822587],[-124.65789793,49.23798375],[-124.65785276,49.23787943],[-124.65760007,49.23762699],[-124.65762294,49.23706478],[-124.65762863,49.23701885],[-124.65758163,49.23686433],[-124.65762864,49.23619673],[-124.65761693,49.23604149],[-124.65777377,49.23551809],[-124.65779925,49.2352393],[-124.65780115,49.2348829],[-124.65763896,49.23449409],[-124.66084153,49.2344828],[-124.66240481,49.23447721],[-124.6634603,49.23447343],[-124.66418598,49.23447083],[-124.6660015,49.23446439],[-124.67239076,49.23444147],[-124.67303838,49.23443915],[-124.67342985,49.23443773],[-124.67351395,49.23174857],[-124.66791453,49.23167308],[-124.66802921,49.22800646],[-124.66243042,49.22793062],[-124.66244263,49.22754715],[-124.66245741,49.22707502],[-124.66254621,49.22426363],[-124.67374353,49.22441424],[-124.67362859,49.22808123],[-124.67922784,49.22800859],[-124.67923093,49.22077112],[-124.67370638,49.2207704],[-124.67370947,49.21534239],[-124.67511448,49.21534274],[-124.67515831,49.21458862],[-124.67500076,49.21402392],[-124.67468752,49.21335383],[-124.67474129,49.21287637],[-124.67500056,49.21268374],[-124.67592662,49.2129312],[-124.6767118,49.21342362],[-124.67742575,49.21365612],[-124.67826348,49.21362586],[-124.67891025,49.21391319],[-124.67971269,49.21433333],[-124.6808294,49.21420017],[-124.68219022,49.21290307],[-124.68283605,49.21165226],[-124.68353532,49.21004077],[-124.68508898,49.20880349],[-124.6866921,49.2080604],[-124.68896037,49.20738853],[-124.68938231,49.20706097],[-124.68976372,49.20676509],[-124.68999145,49.20633889],[-124.68985289,49.2054865],[-124.69011379,49.20451092],[-124.69042854,49.20349012],[-124.69030626,49.20283498],[-124.68992129,49.20265161],[-124.68908331,49.20260995],[-124.68894519,49.20229734],[-124.68868392,49.20204027],[-124.68791488,49.20183554],[-124.68742808,49.20121281],[-124.68531656,49.20083005],[-124.68462013,49.20083112],[-124.68371262,49.20082649],[-124.68294509,49.20127832],[-124.68215861,49.20191067],[-124.68159922,49.20295319],[-124.68174081,49.2040217],[-124.68114481,49.20586534],[-124.68057077,49.2063777],[-124.68025709,49.20638233],[-124.68004793,49.20618721],[-124.67987205,49.20569515],[-124.67924441,49.20534444],[-124.67858294,49.20494032],[-124.67865106,49.20441728],[-124.67900091,49.20371051],[-124.67941983,49.20338971],[-124.67948886,49.20284887],[-124.67877379,49.20249068],[-124.67860168,49.20164755],[-124.67938603,49.20143819],[-124.68020518,49.20096749],[-124.68001502,49.19982776],[-124.6799801,49.19916266],[-124.68052005,49.19883972],[-124.68210865,49.19775518],[-124.68332912,49.19735961],[-124.68353869,49.19698753],[-124.68357499,49.19659125],[-124.68434066,49.19639114],[-124.68545742,49.19642889],[-124.68610406,49.19634735],[-124.68645284,49.19606358],[-124.68671302,49.19604186],[-124.68700993,49.19620849],[-124.68734176,49.19642853],[-124.68774302,49.19635946],[-124.68830075,49.19622558],[-124.68926141,49.1962295],[-124.68969614,49.1959621],[-124.68995847,49.19561637],[-124.69030785,49.1947298],[-124.69032387,49.19373108],[-124.6905526,49.19273805],[-124.69109375,49.19154278],[-124.69193027,49.19093678],[-124.69282019,49.19067188],[-124.69327275,49.1904764],[-124.69379558,49.19003668],[-124.69433742,49.19000178],[-124.69482473,49.19025565],[-124.69534889,49.19060779],[-124.69548812,49.19056079],[-124.69557477,49.19019939],[-124.69545358,49.18951755],[-124.69531308,49.18922274],[-124.69540139,49.18891583],[-124.69592356,49.18879121],[-124.69637768,49.18867656],[-124.69639346,49.18843337],[-124.69606436,49.18788043],[-124.6955761,49.18744675],[-124.69447678,49.18694116],[-124.69416229,49.186667],[-124.69379619,49.18604248],[-124.69241887,49.18538806],[-124.69234904,49.18517336],[-124.69247144,49.18502738],[-124.6933098,49.18501527],[-124.69358921,49.18478633],[-124.6935006,49.18461649],[-124.69203668,49.18387341],[-124.69172147,49.18288857],[-124.69172193,49.18242072],[-124.6914781,49.18206431],[-124.69065929,49.18194147],[-124.69017045,49.18180475],[-124.69016913,49.18142698],[-124.6903797,49.1808929],[-124.69085062,49.17996859],[-124.69165323,49.17914717],[-124.69219294,49.17869855],[-124.69250806,49.17797398],[-124.69334401,49.17746696],[-124.69702217,49.17624357],[-124.69740666,49.17607622],[-124.6974061,49.17582414],[-124.69725053,49.17567353],[-124.69683043,49.17564362],[-124.69559311,49.17603065],[-124.69353607,49.17655582],[-124.69303041,49.17654514],[-124.69282136,49.17635038],[-124.6928745,49.1759808],[-124.69350151,49.17507215],[-124.69432061,49.17409728],[-124.68928996,49.17415069],[-124.68916081,49.17064963],[-124.67262418,49.17068559],[-124.67263805,49.17249398],[-124.66989235,49.17249968],[-124.66990248,49.17382953],[-124.66990669,49.17444621],[-124.66946119,49.17444621],[-124.66944832,49.17447505],[-124.66812111,49.17723695],[-124.66759389,49.17833502],[-124.66583618,49.18199239],[-124.65988729,49.18074051],[-124.65392434,49.17948507],[-124.65566151,49.17584764],[-124.65699088,49.17310034],[-124.6558134,49.1731014],[-124.6518433,49.17310425],[-124.65039822,49.17310568],[-124.64621225,49.17310888],[-124.64621117,49.17129871],[-124.64069867,49.17130405],[-124.64069701,49.16949353],[-124.63512337,49.16949851],[-124.63512017,49.16642863],[-124.63536765,49.16278408],[-124.62981983,49.16262421],[-124.63006766,49.15897966],[-124.62199461,49.15874644],[-124.61342559,49.15849827],[-124.60139139,49.15850575],[-124.5999994,49.15850646],[-124.59138153,49.15851109],[-124.59138056,49.1512697],[-124.59552319,49.15126471],[-124.59552279,49.14764366],[-124.59414234,49.14764473],[-124.59414244,49.14673929],[-124.5900099,49.14674143],[-124.59001005,49.14244387],[-124.58607528,49.1424453],[-124.58607569,49.14163706],[-124.58276863,49.14163528],[-124.58277371,49.14525348],[-124.58139441,49.14525455],[-124.58139989,49.14887275],[-124.56898571,49.14888059],[-124.56898273,49.14707113],[-124.56760358,49.14707184],[-124.56759776,49.14345257],[-124.55794327,49.14345756],[-124.55794214,49.1424898],[-124.55517646,49.14249123],[-124.5538622,49.14249194],[-124.55386084,49.14158686],[-124.55248075,49.14158757],[-124.55247604,49.13796367],[-124.55391045,49.13796295],[-124.55390824,49.1361535],[-124.55528655,49.13615278],[-124.5552813,49.13253387],[-124.55114488,49.13253529],[-124.54976613,49.13253601],[-124.54976124,49.12891709],[-124.54011001,49.12892029],[-124.54010837,49.12711084],[-124.53735046,49.12711155],[-124.53734905,49.12530209],[-124.53321289,49.12530316],[-124.53320318,49.12262173],[-124.53478502,49.12261924],[-124.53477485,49.11990505],[-124.53753157,49.11990078],[-124.53752837,49.11899605],[-124.53890644,49.11899391],[-124.53889642,49.11627972],[-124.54165294,49.11627545],[-124.5416357,49.11175216],[-124.53612315,49.11176071],[-124.53610664,49.10723742],[-124.53472889,49.10723955],[-124.5347122,49.10271627],[-124.53333459,49.1027184],[-124.53332793,49.10090894],[-124.53470603,49.10090681],[-124.53470253,49.09999994],[-124.53474936,49.09913046],[-124.53541664,49.09912939],[-124.53612742,49.09912833],[-124.53612072,49.09731922],[-124.53749837,49.09731673],[-124.53748488,49.09369817],[-124.53559982,49.09370102],[-124.53451627,49.0937028],[-124.53197488,49.09370672],[-124.53193572,49.08285032],[-124.52780453,49.08285673],[-124.52779467,49.08011834],[-124.52778448,49.07713426],[-124.52778201,49.07655959],[-124.52778189,49.07652399],[-124.52773569,49.07652399],[-124.526405,49.07652612],[-124.52640227,49.07568335],[-124.52639877,49.07471667],[-124.52544844,49.07471809],[-124.52532724,49.07471809],[-124.52364474,49.07472058],[-124.52364004,49.07343096],[-124.52363873,49.07291112],[-124.52320244,49.07291184],[-124.52271126,49.07291255],[-124.52226139,49.07291326],[-124.52226082,49.07271636],[-124.52224911,49.0692947],[-124.52092424,49.06929648],[-124.51949537,49.06929862],[-124.51949067,49.06781779],[-124.51947367,49.06279318],[-124.51947021,49.06163673],[-124.51946821,49.06115641],[-124.51973183,49.06095453],[-124.518315,49.05897167],[-124.51956224,49.05754746],[-124.51913812,49.0543672],[-124.51638548,49.05437361],[-124.5163827,49.05346995],[-124.51500641,49.05347316],[-124.51500369,49.0525695],[-124.51225088,49.05257341],[-124.51224774,49.05166868],[-124.51087119,49.05167047],[-124.51086845,49.05076609],[-124.50949192,49.05076787],[-124.50948944,49.04986314],[-124.50536047,49.04986848],[-124.50536586,49.05167794],[-124.50674188,49.05167616],[-124.50674744,49.05348562],[-124.50537138,49.0534874],[-124.50537391,49.05439213],[-124.50399748,49.05439355],[-124.50400037,49.05529864],[-124.4998706,49.05530362],[-124.49986794,49.05439925],[-124.49573825,49.05440423],[-124.49574064,49.05530896],[-124.49161087,49.05531395],[-124.49161322,49.05621868],[-124.48197704,49.05623007],[-124.48197433,49.05532534],[-124.48059787,49.05532677],[-124.48059575,49.05442204],[-124.47508927,49.05442809],[-124.47509771,49.05804665],[-124.47234444,49.05804985],[-124.4723483,49.05985896],[-124.46408824,49.0598675],[-124.46408573,49.05896277],[-124.46270936,49.05896384],[-124.46270322,49.05599579],[-124.46270086,49.05509106],[-124.46407786,49.05508964],[-124.46406459,49.04875689],[-124.46111212,49.04875974],[-124.45855878,49.04876187],[-124.45855675,49.04785714],[-124.45718049,49.04785857],[-124.45716965,49.04243019],[-124.46405067,49.04242414],[-124.46542678,49.04242272],[-124.46542484,49.04151799],[-124.46955362,49.04151372],[-124.46955564,49.04241844],[-124.47368449,49.04241417],[-124.47368661,49.0433189],[-124.477815,49.04331463],[-124.4778128,49.0424099],[-124.48469406,49.04240242],[-124.48469177,49.04149769],[-124.48882039,49.04149271],[-124.48881051,49.03787415],[-124.48330641,49.0378802],[-124.4833041,49.03697583],[-124.48468025,49.03697405],[-124.48467761,49.03606932],[-124.48605354,49.03606789],[-124.48603926,49.03063952],[-124.48741558,49.0306381],[-124.4874131,49.02973337],[-124.49429191,49.02972518],[-124.4943025,49.03334409],[-124.501182,49.03333555],[-124.50117091,49.02971663],[-124.49979551,49.02971841],[-124.49979284,49.02881368],[-124.50254414,49.02881012],[-124.50253879,49.02700067],[-124.49841172,49.02700601],[-124.49840917,49.02610128],[-124.49565747,49.02610484],[-124.49565015,49.02339065],[-124.48464474,49.02340347],[-124.48464749,49.0243082],[-124.48052049,49.02431283],[-124.48051835,49.0234081],[-124.48326951,49.02340525],[-124.48326469,49.02159579],[-124.48051363,49.02159864],[-124.48051159,49.02069391],[-124.47225837,49.02070281],[-124.47225597,49.01979808],[-124.47088049,49.01979951],[-124.47087869,49.01889478],[-124.46400106,49.01890154],[-124.46400499,49.020711],[-124.4653805,49.02070958],[-124.46538461,49.02251904],[-124.46813552,49.02251654],[-124.46814144,49.02523037],[-124.46676581,49.0252318],[-124.46676776,49.02613653],[-124.46401645,49.02613938],[-124.46402034,49.02794883],[-124.46539604,49.02794741],[-124.46539806,49.02885214],[-124.46952525,49.02884787],[-124.46952737,49.02975259],[-124.46677586,49.02975544],[-124.46677742,49.03066017],[-124.46402605,49.03066266],[-124.46402781,49.03156205],[-124.45852424,49.03156739],[-124.45852085,49.02975794],[-124.45714509,49.02975936],[-124.4571395,49.02704517],[-124.45576347,49.02704624],[-124.45575516,49.02251619],[-124.45352007,49.02281527],[-124.45163901,49.02218791],[-124.45127068,49.02206471],[-124.4483405,49.0228434],[-124.44191197,49.02455103],[-124.43180864,49.02417076],[-124.42957278,49.02258989],[-124.42423006,49.02395784],[-124.42154358,49.02454818],[-124.41698654,49.0253023],[-124.41578104,49.02351705],[-124.40858039,49.01463497],[-124.40557349,49.01608695],[-124.40137748,49.01323461],[-124.40071895,49.01279881],[-124.39999965,49.01092633],[-124.39642622,49.00162268],[-124.39576354,49.00000015],[-124.39568669,48.99981358],[-124.3939457,48.99579125],[-124.39326378,48.99513505],[-124.3912456,48.99319456],[-124.39148677,48.99075774],[-124.38666229,48.98459946],[-124.38429269,48.98344229],[-124.37872106,48.98397494],[-124.37580419,48.9860315],[-124.37189141,48.98611448],[-124.37189297,48.9869989],[-124.37464263,48.98699712],[-124.37464527,48.98880693],[-124.37739521,48.9888048],[-124.37739373,48.98790007],[-124.3787684,48.987899],[-124.37876692,48.98699427],[-124.38151651,48.98699224],[-124.38151992,48.98880181],[-124.38289437,48.98880088],[-124.38289818,48.99061034],[-124.38702271,48.99060724],[-124.38702604,48.99241695],[-124.38565097,48.99241801],[-124.38565249,48.99332274],[-124.38290283,48.99332488],[-124.38290136,48.99242015],[-124.38152629,48.99242122],[-124.38152955,48.99423103],[-124.38015443,48.9942321],[-124.38015591,48.99513683],[-124.37878076,48.9951379],[-124.3787795,48.99423281],[-124.37740447,48.99423428],[-124.37740581,48.99513861],[-124.37603066,48.99513968],[-124.3760321,48.99604441],[-124.37465692,48.99604548],[-124.37466169,48.99876002],[-124.34307538,48.99877782],[-124.34165765,48.99877818],[-124.34028346,48.99877858],[-124.34028073,48.99711221],[-124.33890592,48.99711256],[-124.33890515,48.99620694],[-124.33813812,48.99620819],[-124.33460069,48.99618612],[-124.33192367,48.99450004],[-124.33193967,48.99699827],[-124.32900826,48.99699898],[-124.32900826,48.99699906],[-124.32903067,48.99759945],[-124.32906803,49.00062034],[-124.3221929,49.00061478],[-124.32219378,49.00424109],[-124.32081893,49.00424144],[-124.32081877,49.00424144],[-124.3208211,49.0078612],[-124.31531899,49.00786143],[-124.31531805,49.00424216],[-124.31119268,49.00424287],[-124.31115875,48.99981717],[-124.30428119,48.99981714],[-124.3042806,48.99700361],[-124.2907302,48.99700397],[-124.2907289,49.0024448],[-124.29072828,49.00463239],[-124.29347855,49.00463275],[-124.29347687,49.01367327],[-124.28215009,49.01367256],[-124.28215103,49.01087648],[-124.28256197,49.00529612],[-124.27706138,49.00529536],[-124.27706337,49.00167644],[-124.28256357,49.00167715],[-124.28256573,48.99624843],[-124.27577777,48.99618113],[-124.27564521,48.99974693],[-124.2687046,48.99982094],[-124.25089018,48.99981927],[-124.25090027,48.98892906],[-124.24540172,48.98892698],[-124.24539718,48.99345092],[-124.23439841,48.99344594],[-124.23439309,48.99796994],[-124.23989285,48.99798278],[-124.23993332,49.00347344],[-124.23443283,49.00347095],[-124.23438499,49.00691058],[-124.23388648,49.00708951],[-124.2275519,49.00708595],[-124.22755725,49.00346703],[-124.20484364,49.00345137],[-124.20489305,49.00853032],[-124.18357705,49.00888603],[-124.18355655,49.00863121],[-124.17272162,49.0085568],[-124.17244514,49.00139694],[-124.16070917,49.00154364],[-124.15602887,49.00161164],[-124.15604276,49.00215996],[-124.1347069,49.00216637],[-124.12807005,49.00216779],[-124.12806972,49.00100635],[-124.12256881,49.00100706],[-124.12119273,49.00099389],[-124.12119251,48.99839507],[-124.11844247,48.99839542],[-124.11823989,48.99658596],[-124.10540973,48.99658632],[-124.10540974,48.99434889],[-124.10678428,48.99434888],[-124.10678372,48.99072961],[-124.10540908,48.99072961],[-124.10540783,48.98530088],[-124.1040332,48.98530053],[-124.10403296,48.98258634],[-124.10128365,48.98258599],[-124.1012833,48.9798718],[-124.09578478,48.97987144],[-124.09578494,48.98077617],[-124.09028651,48.98077546],[-124.09028661,48.98168019],[-124.08616281,48.98167948],[-124.08616232,48.98439402],[-124.08203884,48.98439331],[-124.08203714,48.98891731],[-124.0847868,48.98891766],[-124.0847861,48.99072748],[-124.08753586,48.99072783],[-124.08753529,48.99344238],[-124.08215287,48.99344131],[-124.08215233,48.9961733],[-124.08215136,48.99858128],[-124.08352636,48.99858164],[-124.08354102,49.00614704],[-124.08216419,49.00614668],[-124.08078878,49.00614668],[-124.08078974,49.00436108],[-124.069218,49.00436535],[-124.06921779,49.00472674],[-124.0664682,49.00472568],[-124.06646705,49.00563041],[-124.06234221,49.00562898],[-124.0623438,49.00381917],[-124.06096865,49.00381881],[-124.06096967,49.00200935],[-124.05547043,49.00200686],[-124.05547081,49.00110213],[-124.0540961,49.00110142],[-124.05409693,49.00019669],[-124.05192469,49.00019562],[-124.0519346,49.00797744],[-124.05330937,49.00797679],[-124.0533085,49.00707206],[-124.05468354,49.00707277],[-124.05468226,49.0079775],[-124.05605752,49.00797801],[-124.05605718,49.00888294],[-124.05880701,49.00888401],[-124.05880818,49.00797928],[-124.06293356,49.00798106],[-124.06293246,49.00888579],[-124.06430775,49.00888615],[-124.06430657,49.01069561],[-124.06018098,49.01069418],[-124.06018046,49.01159891],[-124.05605478,49.01159713],[-124.05605537,49.0106924],[-124.05330544,49.01069112],[-124.05330574,49.00979413],[-124.04918047,49.00979194],[-124.04918173,49.00888722],[-124.04780664,49.0088865],[-124.04780822,49.00798142],[-124.04643281,49.00798035],[-124.04643552,49.00707527],[-124.04368536,49.00707206],[-124.0436828,49.00797679],[-124.04230779,49.00797501],[-124.04231428,49.0061652],[-124.03818878,49.00615807],[-124.03819225,49.00525299],[-124.03681697,49.00525085],[-124.03682014,49.00436001],[-124.03544544,49.00435787],[-124.03545555,49.0007386],[-124.03820537,49.00073831],[-124.03831645,48.99870198],[-124.03556577,48.99872188],[-124.0355387,48.99775759],[-124.03416323,48.99775595],[-124.03411696,48.99688342],[-124.02729508,48.99688006],[-124.02730156,48.99516104],[-124.02043923,48.99513545],[-124.02042748,48.99599883],[-124.01906708,48.99604735],[-124.01901534,48.99692101],[-124.01626524,48.99696338],[-124.01615614,48.99975661],[-124.01615383,48.99981322],[-124.01614766,48.99999529],[-124.01616041,49.00070122],[-124.01696147,49.00070122],[-124.01896682,49.00070122],[-124.01896709,49.00077848],[-124.01896738,49.00305508],[-124.01896818,49.00521726],[-124.02033562,49.00521703],[-124.02033636,49.00612176],[-124.02158387,49.0061214],[-124.02171142,49.0061214],[-124.02171031,49.00521637],[-124.02446024,49.00521489],[-124.02446214,49.00611956],[-124.02583694,49.00611855],[-124.02584102,49.00792798],[-124.02721618,49.00792659],[-124.02721824,49.00883131],[-124.02584305,49.00883274],[-124.02584753,49.01064255],[-124.02543696,49.01064291],[-124.02455066,49.01064373],[-124.02042509,49.01064036],[-124.02043105,49.00702109],[-124.01221276,49.0070146],[-124.01222272,49.0015616],[-124.00672306,49.00155692],[-124.00672563,49.00000006],[-124.00675941,48.98657379],[-124.00680361,48.98589833],[-123.99999964,48.98593085],[-123.99802304,48.98592921],[-123.98725541,48.98593815],[-123.98726223,48.98955704],[-123.97901451,48.98956339],[-123.97902392,48.9949918],[-123.9762744,48.99499379],[-123.9762683,48.99137485],[-123.9736152,48.99137672],[-123.97362113,48.99499567],[-123.97087162,48.99499754],[-123.97086584,48.99137858],[-123.96811651,48.99138037],[-123.96811691,48.9950062],[-123.96127487,48.99501038],[-123.96126843,48.99048666],[-123.95714446,48.99048898],[-123.95714032,48.98739472],[-123.94625369,48.98740009],[-123.94625505,48.98857266],[-123.93657783,48.98857659],[-123.93716001,48.98955954],[-123.93454582,48.99011966],[-123.92906966,48.98859052],[-123.92743801,48.98815163],[-123.92387593,48.98960328],[-123.92205059,48.98920181],[-123.91901526,48.99097047],[-123.91896272,48.99100067],[-123.9120637,48.99533651],[-123.90894479,49.00000005],[-123.90830764,49.00096182],[-123.90308399,49.00068221],[-123.90253703,49.00015],[-123.90237953,48.99998178],[-123.90087019,48.99843811],[-123.90462582,48.99842102],[-123.90371492,48.99666935],[-123.89768561,48.99723541],[-123.89265716,48.99507372],[-123.89035896,48.99402079],[-123.88079096,48.99477854],[-123.8763264,48.99288721],[-123.86813063,48.99455966],[-123.86448778,48.99421258],[-123.86008774,48.99275986],[-123.85797656,48.99386894],[-123.85898937,48.99594734],[-123.85609854,48.9965657],[-123.85459513,48.99414093],[-123.85335909,48.99311541],[-123.85339155,48.9928976],[-123.85372201,48.99098601],[-123.85651702,48.99176703],[-123.85991935,48.99126532],[-123.86107339,48.98962682],[-123.8577912,48.98987793],[-123.85664691,48.98505748],[-123.85151653,48.98439361],[-123.84881349,48.98259103],[-123.85009202,48.98141674],[-123.84962576,48.98062239],[-123.84528405,48.98059782],[-123.83834101,48.98048735],[-123.8355433,48.98046122],[-123.83112379,48.98046249],[-123.82932245,48.98046676],[-123.82886743,48.98046747],[-123.82776074,48.9794035],[-123.82775823,48.9794011],[-123.82595362,48.97773157],[-123.82345627,48.97710207],[-123.82320833,48.97704047],[-123.82269653,48.97691426],[-123.82260625,48.976892],[-123.82186467,48.97669937],[-123.81869493,48.97589434],[-123.81689672,48.97544684],[-123.81549731,48.97509856],[-123.81536094,48.97506331],[-123.81494764,48.97495827],[-123.81145025,48.97408345],[-123.81120269,48.97402221],[-123.8108672,48.97394566],[-123.81087116,48.97377126],[-123.8108771,48.97351021],[-123.81088738,48.97305389],[-123.8109841,48.96874382],[-123.80490618,48.96871597],[-123.80488143,48.96871561],[-123.80481906,48.96871561],[-123.80356959,48.96870956],[-123.80263201,48.96870635],[-123.80249376,48.96870528],[-123.80224108,48.96870422],[-123.80197449,48.96870279],[-123.80170844,48.96870137],[-123.8014283,48.96869994],[-123.80114164,48.96869852],[-123.8008615,48.96869709],[-123.80057484,48.96869567],[-123.80026723,48.96869389],[-123.80012879,48.96869318],[-123.80010512,48.96869282],[-123.80011419,48.96840157],[-123.80011535,48.96832474],[-123.80016414,48.96508922],[-123.80020388,48.96139725],[-123.79530044,48.96140657],[-123.79510692,48.96122534],[-123.79493872,48.96107262],[-123.79453089,48.95843175],[-123.79436271,48.95743409],[-123.79428914,48.95701181],[-123.79425861,48.95683236],[-123.79404602,48.95554737],[-123.79389656,48.95463979],[-123.79375828,48.95376818],[-123.79362229,48.95296848],[-123.79353144,48.95229448],[-123.79349992,48.95212357],[-123.79342437,48.95167423],[-123.79339531,48.95148552],[-123.79338005,48.9514136],[-123.7932594,48.95068583],[-123.79318232,48.95015567],[-123.79304653,48.94927515],[-123.79278802,48.94770247],[-123.79271388,48.94721717],[-123.79268205,48.94705552],[-123.79257788,48.94645344],[-123.79256154,48.94632775],[-123.79244176,48.94564484],[-123.7922152,48.9442071],[-123.79209345,48.94346153],[-123.7918662,48.94209536],[-123.79169934,48.94100833],[-123.79162366,48.94055863],[-123.79136639,48.9389685],[-123.79133729,48.9387887],[-123.79097327,48.93649715],[-123.79094214,48.93629313],[-123.78398963,48.93628067],[-123.77586215,48.93614999],[-123.77551919,48.93615071],[-123.77458192,48.93615284],[-123.77377959,48.93615462],[-123.77062448,48.93616174],[-123.76687267,48.93617029],[-123.76682009,48.93617029],[-123.76192624,48.93617883],[-123.76176207,48.93617777],[-123.76166079,48.93617955],[-123.76164995,48.93617955],[-123.76157184,48.93618061],[-123.76141462,48.93618239],[-123.76118417,48.93618275],[-123.75995543,48.9361856],[-123.75849071,48.9361888],[-123.7569024,48.93619201],[-123.75651046,48.93619308],[-123.75332552,48.93619984],[-123.7517383,48.93620305],[-123.7517007,48.9362034],[-123.75133917,48.9362034],[-123.75129148,48.9362034],[-123.75124161,48.9362034],[-123.75000018,48.93620376],[-123.74445539,48.93620554],[-123.74426507,48.93620376],[-123.74405041,48.93620091],[-123.74322086,48.93618987],[-123.74275598,48.93618382],[-123.74153486,48.93616744],[-123.74066398,48.93615569],[-123.74049041,48.93617029],[-123.74045608,48.93616979],[-123.74044023,48.93616956],[-123.73958889,48.93615711],[-123.73874077,48.93614437],[-123.73871122,48.93614393],[-123.73790668,48.93613184],[-123.73767654,48.93612707],[-123.73767516,48.93612704],[-123.73763184,48.93612614],[-123.73647178,48.93610393],[-123.73634367,48.93610148],[-123.73625539,48.93609979],[-123.73609276,48.93608163],[-123.73606117,48.93607807],[-123.73605088,48.93609119],[-123.73597742,48.93618489],[-123.73596645,48.93619949],[-123.735651,48.93661998],[-123.7355923,48.93660111],[-123.73552745,48.93658545],[-123.73541463,48.93655589],[-123.73568579,48.9361945],[-123.73569326,48.93618321],[-123.73576778,48.93607451],[-123.73559053,48.93607166],[-123.7355555,48.93607131],[-123.73431553,48.93604994],[-123.73430341,48.93605],[-123.73249516,48.93605911],[-123.73249516,48.93605914],[-123.73100519,48.96675806],[-123.730515,48.9768486],[-123.73047953,48.97757861],[-123.73030307,48.98120988],[-123.7296946,48.98906815],[-123.73011186,48.99287371],[-123.73200384,48.99857401],[-123.73389275,49.00403629],[-123.73505152,49.00902717],[-123.73507556,49.01066024],[-123.73510758,49.012835],[-123.7344365,49.01640945],[-123.73021643,49.02476663],[-123.72934197,49.02792022],[-123.72725577,49.03544193],[-123.7267778,49.0371649],[-123.7260342,49.04068701],[-123.72561198,49.04268663],[-123.72504083,49.04806935],[-123.72550129,49.05293328],[-123.72629562,49.05729875],[-123.7262959,49.05731603],[-123.72820453,49.05929639],[-123.72953094,49.06087121],[-123.72994871,49.06133586],[-123.73083154,49.06224593],[-123.73278842,49.06420173],[-123.73550707,49.06668199],[-123.73810877,49.06877095],[-123.73890061,49.06949195],[-123.73917869,49.06979673],[-123.73968328,49.07042944],[-123.73991669,49.07078974],[-123.74000712,49.07092934],[-123.74028462,49.07144597],[-123.74044541,49.07179704],[-123.74058628,49.07215166],[-123.74075001,49.07265068],[-123.74222417,49.07421397],[-123.74682741,49.07712122],[-123.75296848,49.08099883],[-123.76227486,49.08687313],[-123.76575586,49.09011405],[-123.76795385,49.09216016],[-123.77155191,49.09222763],[-123.79928074,49.09279881],[-123.79943759,49.09208414],[-123.79957853,49.09162949],[-123.79974729,49.09127549],[-123.80000763,49.09105205],[-123.80020765,49.09095605],[-123.80072642,49.09100956],[-123.80115569,49.09111843],[-123.80175519,49.09130226],[-123.80224721,49.09146245],[-123.80251842,49.09132386],[-123.80313684,49.0909995],[-123.80313814,49.09099882],[-123.80303879,49.09089849],[-123.80292589,49.09079788],[-123.80280338,49.09070899],[-123.80273144,49.09060327],[-123.80272723,49.09050345],[-123.80272717,49.0905019],[-123.80277291,49.0903956],[-123.80284013,49.09031357],[-123.80298663,49.09025906],[-123.80320514,49.09022132],[-123.80354703,49.09017397],[-123.80380512,49.09013836],[-123.80386786,49.09014477],[-123.80488943,49.09062508],[-123.80580297,49.09121577],[-123.80623641,49.09156684],[-123.806528,49.09171211],[-123.80715558,49.09189334],[-123.80927559,49.09269873],[-123.81025202,49.09288139],[-123.81058199,49.09287569],[-123.81128341,49.09277279],[-123.81158502,49.09270514],[-123.81245168,49.09251109],[-123.81283197,49.09237188],[-123.81440644,49.0913792],[-123.81476576,49.09110077],[-123.81509963,49.09060764],[-123.81622803,49.0904937],[-123.81632208,49.09049395],[-123.81683964,49.09049477],[-123.81761089,49.09053892],[-123.81866742,49.09067849],[-123.81909472,49.09078246],[-123.81941211,49.09093414],[-123.81982136,49.09124604],[-123.82304524,49.09349344],[-123.82315313,49.0935173],[-123.82348398,49.09359064],[-123.82388614,49.09362304],[-123.82428631,49.09362696],[-123.8243344,49.09361877],[-123.82461446,49.09357889],[-123.82475108,49.09356892],[-123.82501057,49.09353083],[-123.82512035,49.09352121],[-123.82516133,49.09352086],[-123.82540719,49.09350127],[-123.82570852,49.09349914],[-123.82598259,49.0935059],[-123.82614739,49.09350484],[-123.82636668,49.09351231],[-123.82665388,49.09351018],[-123.82696918,49.09352584],[-123.82720215,49.09352442],[-123.8273802,49.09352299],[-123.82765416,49.09352121],[-123.82772252,49.0935205],[-123.82803791,49.09352727],[-123.82811986,49.09352655],[-123.8284348,49.09352442],[-123.82866797,49.09352264],[-123.82898424,49.09355112],[-123.82902561,49.09355397],[-123.82914519,49.09355112],[-123.8315721,49.09354685],[-123.83272636,49.09354507],[-123.83386091,49.09356394],[-123.83547806,49.093591],[-123.83589384,49.09359812],[-123.84165593,49.09363871],[-123.8422176,49.09364263],[-123.84307495,49.09364868],[-123.8446182,49.09365331],[-123.84551932,49.09413896],[-123.84608398,49.09370992],[-123.84638228,49.09371419],[-123.84669723,49.09371882],[-123.84694536,49.09372238],[-123.84701544,49.09372345],[-123.84705766,49.09372381],[-123.84755928,49.09368478],[-123.84795138,49.09365418],[-123.85051055,49.09359262],[-123.85051487,49.09333497],[-123.85051564,49.09328965],[-123.85052255,49.09287783],[-123.85052444,49.0927792],[-123.85056423,49.09023271],[-123.85062341,49.08648028],[-123.8506265,49.08637275],[-123.85063181,49.08617479],[-123.85066513,49.08495139],[-123.85068568,49.08418125],[-123.85073109,49.08400393],[-123.85167953,49.08282985],[-123.85183504,49.08282924],[-123.85395062,49.08282108],[-123.85416356,49.08282022],[-123.85909709,49.08280115],[-123.85948199,49.08279999],[-123.859755,49.08279878],[-123.85976186,49.08279875],[-123.85977614,49.08278237],[-123.85992721,49.08260901],[-123.85994329,49.08259056],[-123.85997871,49.08254989],[-123.85998487,49.08254285],[-123.85998999,49.08253692],[-123.86000903,49.08251508],[-123.86002766,49.08249371],[-123.86003559,49.08248463],[-123.86016211,49.08233947],[-123.86016362,49.08233775],[-123.86024063,49.08224935],[-123.8602438,49.08224571],[-123.86024719,49.08224291],[-123.86059372,49.08195741],[-123.86059644,49.08195517],[-123.86104786,49.08158323],[-123.86114152,49.08150606],[-123.86114463,49.08150353],[-123.86114568,49.08150265],[-123.86114686,49.08150166],[-123.86133311,49.08134823],[-123.86177666,49.08098279],[-123.86218515,49.08064618],[-123.86220121,49.08063296],[-123.86240187,49.08046762],[-123.86253372,49.08035901],[-123.86258771,49.08031451],[-123.86260606,49.08031488],[-123.86284023,49.08031947],[-123.86292597,49.08032119],[-123.86293233,49.08032132],[-123.86489958,49.08036009],[-123.86491326,49.08036036],[-123.86518999,49.08036581],[-123.86535394,49.08040508],[-123.86554332,49.08045043],[-123.86580063,49.08051206],[-123.86582293,49.08051741],[-123.86611179,49.08058658],[-123.86629665,49.08063087],[-123.86629765,49.08063109],[-123.86631641,49.08063558],[-123.8664782,49.08067433],[-123.86651574,49.08068332],[-123.86660396,49.08070446],[-123.86660593,49.08070495],[-123.86672339,49.08073307],[-123.86672391,49.0807332],[-123.86692178,49.08083383],[-123.86699177,49.08086945],[-123.86734011,49.0810466],[-123.86760624,49.0811413],[-123.86773352,49.0811866],[-123.86788643,49.08124103],[-123.86813589,49.08132979],[-123.86816616,49.08134055],[-123.86819239,49.0813499],[-123.86859992,49.08143032],[-123.86863914,49.08143805],[-123.86864375,49.08143897],[-123.86865059,49.08144031],[-123.86866574,49.08144331],[-123.86878198,49.08146623],[-123.86887177,49.08148396],[-123.86890324,49.08149018],[-123.86905186,49.0815195],[-123.86915829,49.08154051],[-123.86918307,49.0815454],[-123.86936149,49.0815806],[-123.8695091,49.081649],[-123.87017192,49.08195611],[-123.87034725,49.08203734],[-123.87038274,49.08205378],[-123.8703892,49.08205676],[-123.87049924,49.08210776],[-123.87051717,49.08211604],[-123.87093907,49.08231153],[-123.8709416,49.08231269],[-123.87132327,49.08238999],[-123.87180439,49.08248742],[-123.87221249,49.08257009],[-123.87221254,49.08257008],[-123.87247511,49.08254762],[-123.87292643,49.08250902],[-123.87303946,49.08249934],[-123.87303998,49.0824993],[-123.8730551,49.08249134],[-123.87319519,49.08241757],[-123.87343954,49.08228888],[-123.87345668,49.08227986],[-123.87383517,49.08208053],[-123.87383522,49.0820805],[-123.87384043,49.08207554],[-123.87399793,49.08192577],[-123.87404583,49.08188023],[-123.87411075,49.0818185],[-123.87412221,49.08180761],[-123.87429498,49.08164331],[-123.87430403,49.08163006],[-123.87457238,49.08123756],[-123.87460558,49.08118899],[-123.87464532,49.08099242],[-123.87470756,49.08068451],[-123.87470779,49.0806834],[-123.87469912,49.08063335],[-123.87466837,49.08045608],[-123.87466243,49.08042176],[-123.87465223,49.08036294],[-123.87465223,49.0803629],[-123.87453527,49.08023913],[-123.87452312,49.08022621],[-123.87449695,49.08019851],[-123.87440727,49.08010359],[-123.8744072,49.08010354],[-123.87432547,49.08004792],[-123.87432536,49.08004784],[-123.87429725,49.08003316],[-123.87423943,49.08000291],[-123.8736699,49.07970499],[-123.87311629,49.0792136],[-123.873115,49.07910685],[-123.87311491,49.07909863],[-123.87311323,49.07896389],[-123.87311286,49.07893163],[-123.87311223,49.07888056],[-123.87311221,49.0788789],[-123.87326879,49.07853279],[-123.87326915,49.07853242],[-123.87349449,49.07830456],[-123.87380792,49.07798757],[-123.87393881,49.07785519],[-123.87399655,49.07779679],[-123.87400838,49.0777848],[-123.8743052,49.07748461],[-123.87445393,49.07738952],[-123.87477102,49.07718675],[-123.87479904,49.07716882],[-123.87531474,49.07683904],[-123.8753518,49.07681538],[-123.87539414,49.07678827],[-123.87569213,49.07659771],[-123.87571206,49.07658499],[-123.87571512,49.076583],[-123.87584197,49.0765019],[-123.87588254,49.0764815],[-123.87613966,49.07635217],[-123.87725479,49.0757912],[-123.87741334,49.0756846],[-123.87744701,49.07566201],[-123.87785897,49.07538507],[-123.8780601,49.07524984],[-123.87826529,49.0751119],[-123.87854984,49.07484502],[-123.87867228,49.0747302],[-123.8786742,49.07472684],[-123.87869387,49.07469277],[-123.87875435,49.07458781],[-123.87895313,49.07424291],[-123.87895764,49.07423512],[-123.87895906,49.07423266],[-123.87896859,49.07421611],[-123.87896881,49.07421377],[-123.8790097,49.07379452],[-123.87901038,49.07378723],[-123.87902867,49.07359976],[-123.87902871,49.07359939],[-123.87903093,49.07353235],[-123.87903171,49.07350871],[-123.87904089,49.07323125],[-123.87904296,49.0731684],[-123.879043,49.07316753],[-123.87904301,49.07316733],[-123.87904309,49.07316562],[-123.87904742,49.07303407],[-123.87905389,49.07283805],[-123.8790548,49.07281041],[-123.87905478,49.07281036],[-123.87905096,49.07279789],[-123.87892836,49.0723961],[-123.87890962,49.07233482],[-123.87889483,49.0722864],[-123.87885952,49.07217068],[-123.87883221,49.07208119],[-123.87883221,49.07208117],[-123.87883289,49.07206097],[-123.87883309,49.07205518],[-123.87883746,49.07192548],[-123.87883802,49.07190856],[-123.87884338,49.07174985],[-123.87884372,49.07173976],[-123.87884378,49.07173792],[-123.87888679,49.07164872],[-123.87895716,49.07150273],[-123.87896599,49.07148439],[-123.8793849,49.07105431],[-123.88034739,49.07088786],[-123.88055176,49.07089522],[-123.88066659,49.07089937],[-123.8807831,49.07119156],[-123.88100137,49.0718077],[-123.88109167,49.07223504],[-123.88121508,49.0728461],[-123.88138612,49.07375036],[-123.88157989,49.07478969],[-123.88166235,49.07479606],[-123.8821023,49.07483452],[-123.88234962,49.07490252],[-123.88255415,49.07503248],[-123.88316256,49.07572999],[-123.88370843,49.07636056],[-123.88384024,49.0764631],[-123.88399813,49.07650832],[-123.88422534,49.07650832],[-123.88446466,49.07641859],[-123.88472413,49.07631036],[-123.88477595,49.07628864],[-123.88491641,49.07617256],[-123.88493429,49.07611239],[-123.88495333,49.07604723],[-123.88490577,49.07589413],[-123.88444338,49.07544088],[-123.88430217,49.07524433],[-123.88423444,49.07495237],[-123.88423869,49.07479606],[-123.88424102,49.07472094],[-123.8843299,49.07450659],[-123.88455165,49.07419754],[-123.88472226,49.07405476],[-123.8847557,49.07403483],[-123.88493363,49.07392658],[-123.88552777,49.07370583],[-123.8858759,49.07364993],[-123.88631066,49.073651],[-123.88646699,49.07365136],[-123.88678109,49.07368839],[-123.8877552,49.07397394],[-123.88890154,49.07431003],[-123.88890161,49.07431005],[-123.88921584,49.07440227],[-123.89202138,49.07522477],[-123.89196916,49.07915396],[-123.89196489,49.07930595],[-123.89196769,49.07966173],[-123.89199454,49.08288404],[-123.9030121,49.08277157],[-123.90479972,49.08276215],[-123.90568956,49.08275745],[-123.91392551,49.08267435],[-123.91385803,49.08649344],[-123.91385798,49.08649344],[-123.91354288,49.08649469],[-123.91354283,49.0864966],[-123.91343607,49.09031672],[-123.90939345,49.09028188],[-123.90883657,49.09027706],[-123.90883654,49.09027897],[-123.90878546,49.09398531],[-123.90943328,49.09399286],[-123.91110394,49.0940123],[-123.91110362,49.09408384],[-123.91110062,49.09476624],[-123.9110996,49.094951],[-123.91109664,49.09568545],[-123.91109564,49.09585552],[-123.91109271,49.09655192],[-123.91109209,49.09672919],[-123.91108848,49.09744924],[-123.91127335,49.09745066],[-123.9149209,49.09748424],[-123.91530028,49.09748771],[-123.91529032,49.09791224],[-123.91528821,49.09799391],[-123.91528065,49.09830075],[-123.91526603,49.09890904],[-123.9152457,49.09974569],[-123.91521294,49.10109295],[-123.9152129,49.10109295],[-123.91521253,49.10109295],[-123.91345636,49.10106618],[-123.91328893,49.10106478],[-123.91328628,49.10106476],[-123.91313662,49.10106255],[-123.91250462,49.10105322],[-123.90814955,49.10098937],[-123.90723039,49.10097587],[-123.90695879,49.10097189],[-123.90580701,49.10095494],[-123.90566846,49.10095287],[-123.90556897,49.1009514],[-123.90548328,49.10453197],[-123.90547945,49.10469077],[-123.90544376,49.1068241],[-123.9054394,49.10708699],[-123.90543277,49.10748752],[-123.90542969,49.10767042],[-123.90542147,49.10816803],[-123.90541904,49.10829759],[-123.90581886,49.10830227],[-123.90595891,49.10830391],[-123.90622734,49.10830283],[-123.90639717,49.10830215],[-123.90639867,49.10830215],[-123.90643969,49.10830235],[-123.90650309,49.10830267],[-123.90669917,49.10830356],[-123.90694528,49.10830468],[-123.90753411,49.10830743],[-123.91062744,49.10832175],[-123.91569664,49.10834508],[-123.91929066,49.10836148],[-123.91929358,49.10836147],[-123.91931717,49.10831626],[-123.91932587,49.10815532],[-123.91938393,49.10711778],[-123.91932036,49.1069743],[-123.91932068,49.10695152],[-123.91932681,49.10651606],[-123.91932778,49.10643238],[-123.91933236,49.10610624],[-123.91933595,49.10584917],[-123.91934045,49.10553976],[-123.91934456,49.10524958],[-123.91934804,49.10499856],[-123.91935103,49.10477282],[-123.91935058,49.10414368],[-123.91936664,49.10389159],[-123.91936493,49.10388908],[-123.91929864,49.10379119],[-123.91924264,49.10361174],[-123.91927876,49.10243641],[-123.91936131,49.10115355],[-123.91936494,49.10115351],[-123.91937307,49.10115343],[-123.92020356,49.10114501],[-123.92369373,49.10110905],[-123.92372927,49.10110869],[-123.92397212,49.1011062],[-123.92462817,49.10110192],[-123.92462777,49.10033819],[-123.9246219,49.09749013],[-123.92483274,49.09748942],[-123.92835098,49.09740752],[-123.92884911,49.09739577],[-123.92966225,49.0973769],[-123.93043748,49.09735875],[-123.93086263,49.09734913],[-123.9321122,49.09731994],[-123.93239765,49.09731317],[-123.93321049,49.09729327],[-123.93320664,49.09746272],[-123.93320843,49.0975944],[-123.93320606,49.09788739],[-123.93320535,49.09806792],[-123.93320448,49.09833931],[-123.93320366,49.09861775],[-123.93320277,49.09888657],[-123.93320185,49.09916714],[-123.93320091,49.09944094],[-123.93319986,49.09971688],[-123.93319949,49.099818],[-123.93319768,49.09998997],[-123.93319514,49.10027446],[-123.9331922,49.10053723],[-123.93318942,49.10081922],[-123.93318797,49.10101006],[-123.93627071,49.10106596],[-123.93653698,49.10107023],[-123.93678109,49.10107522],[-123.93717356,49.10108234],[-123.93828815,49.10110228],[-123.93844591,49.10110513],[-123.93860366,49.10110798],[-123.93860441,49.10115248],[-123.93860476,49.1011977],[-123.93861786,49.10233814],[-123.93862098,49.10261159],[-123.93864555,49.10480202],[-123.93802472,49.10479668],[-123.93791515,49.10477567],[-123.93770608,49.10479169],[-123.93415815,49.10476107],[-123.93314862,49.10475253],[-123.93314837,49.10480379],[-123.93314484,49.10553691],[-123.93314259,49.10562486],[-123.93314057,49.10572313],[-123.93313433,49.10600654],[-123.93312878,49.10611799],[-123.93312858,49.10627252],[-123.93312162,49.10657089],[-123.93311382,49.10692836],[-123.9331077,49.10720573],[-123.93310082,49.10749912],[-123.93309454,49.10778752],[-123.93308817,49.10807414],[-123.93308159,49.10836895],[-123.9330752,49.10864098],[-123.93306857,49.10893686],[-123.93306193,49.10924057],[-123.93305412,49.10951019],[-123.93304886,49.10978107],[-123.93304175,49.11014637],[-123.93301841,49.11026244],[-123.93303656,49.11037139],[-123.93300031,49.11198253],[-123.93299699,49.112131],[-123.93297488,49.11312047],[-123.93291842,49.11562637],[-123.9329024,49.11641573],[-123.93288933,49.11706411],[-123.93287782,49.11763842],[-123.93284476,49.11925632],[-123.9328272,49.12012188],[-123.93282068,49.12042951],[-123.93281389,49.12076207],[-123.93280682,49.12111171],[-123.9327959,49.12164899],[-123.93278431,49.12220799],[-123.93278071,49.12238638],[-123.93277076,49.12288093],[-123.9323141,49.12287737],[-123.93190512,49.12287417],[-123.93147982,49.12287096],[-123.93107737,49.12286776],[-123.93065098,49.12286456],[-123.93037777,49.12286277],[-123.92953444,49.12285601],[-123.92550179,49.12282397],[-123.92403177,49.12281222],[-123.92395436,49.1228115],[-123.92377762,49.12282503],[-123.92323147,49.12280438],[-123.92331649,49.12290372],[-123.92344349,49.12304685],[-123.92348615,49.12309136],[-123.92352658,49.12314477],[-123.92372217,49.12335911],[-123.92391747,49.12356491],[-123.92411481,49.12377045],[-123.92417062,49.12382287],[-123.92434002,49.124047],[-123.92442449,49.12415418],[-123.924576,49.12432366],[-123.92474481,49.12452946],[-123.92480246,49.12458322],[-123.9249146,49.12475306],[-123.92502613,49.12493179],[-123.92503947,49.12494105],[-123.9250415,49.12494426],[-123.92506854,49.12498556],[-123.92509278,49.12502116],[-123.92515359,49.12511125],[-123.92515443,49.12511267],[-123.92518206,49.12516465],[-123.92532307,49.12537935],[-123.9254098,49.1255499],[-123.92545106,49.12561257],[-123.92553514,49.12580056],[-123.92562293,49.12602488],[-123.92570804,49.12622177],[-123.92573762,49.1262937],[-123.92583675,49.12648205],[-123.92585222,49.12652655],[-123.92592194,49.12661628],[-123.92605021,49.12684024],[-123.9261211,49.12694741],[-123.92620525,49.1271265],[-123.92629072,49.12732375],[-123.92637625,49.12751211],[-123.92646336,49.12770936],[-123.92656243,49.12790661],[-123.92659168,49.12797818],[-123.92668918,49.12809425],[-123.92680266,49.12828225],[-123.92688656,49.12839832],[-123.92706843,49.12861302],[-123.92712575,49.12866643],[-123.92723847,49.12883627],[-123.92735123,49.12902462],[-123.92747756,49.12919445],[-123.92761798,49.12937319],[-123.92774432,49.12954303],[-123.92787168,49.12972177],[-123.928041,49.12994537],[-123.92805947,49.12996887],[-123.92848909,49.12997029],[-123.92986061,49.12996388],[-123.93060099,49.12996032],[-123.93119405,49.12995747],[-123.93145657,49.12995605],[-123.93266276,49.12996317],[-123.93263244,49.13216785],[-123.93265087,49.13244557],[-123.93267551,49.13285681],[-123.93311688,49.13286357],[-123.93316867,49.13286535],[-123.93347642,49.13286678],[-123.94644543,49.13297751],[-123.95794447,49.13303875],[-123.95830026,49.13304089],[-123.95867785,49.13304285],[-123.95987869,49.13304908],[-123.96020979,49.13305157],[-123.96072987,49.13305477],[-123.96074055,49.13305513],[-123.96372962,49.13307578],[-123.96530721,49.13308646],[-123.96560749,49.1330886],[-123.96590664,49.13309064],[-123.96749135,49.13310142],[-123.96937968,49.13307293],[-123.96983546,49.13298428],[-123.97013437,49.13302646],[-123.97028454,49.13304765],[-123.97063276,49.13300564],[-123.97109991,49.13285727],[-123.97110136,49.13285681],[-123.97150046,49.13273005],[-123.9719403,49.13256034],[-123.97217868,49.13246836],[-123.97294263,49.13212975],[-123.97426227,49.13138049],[-123.97521269,49.13084084],[-123.97531925,49.13078031],[-123.97519246,49.13111607],[-123.97509196,49.13138204],[-123.97506931,49.13151873],[-123.97505306,49.13161643],[-123.97502012,49.13284596],[-123.9748699,49.13353276],[-123.97475759,49.13404531],[-123.97936927,49.13404282],[-123.97936933,49.13437466],[-123.97937024,49.13470401],[-123.97557785,49.13470686],[-123.97480926,49.13470721],[-123.97461855,49.13470472],[-123.97455895,49.13605572],[-123.97454183,49.13644368],[-123.97450924,49.13665802],[-123.97466306,49.13665696],[-123.97600443,49.13666443],[-123.97785068,49.13666194],[-123.97898961,49.13666016],[-123.97927279,49.1366598],[-123.9803388,49.13692542],[-123.98315851,49.13757557],[-123.98314792,49.13757557],[-123.97898726,49.13757794],[-123.97898544,49.13765197],[-123.97860972,49.13832328],[-123.97720304,49.14083742],[-123.97726924,49.1410396],[-123.97805475,49.14104423],[-123.97841811,49.14104459],[-123.98051469,49.14104245],[-123.98032175,49.14439006],[-123.98031626,49.14449402],[-123.98031218,49.14455918],[-123.98030354,49.14471193],[-123.98029672,49.14482907],[-123.9802954,49.14485399],[-123.98008558,49.14850139],[-123.98709127,49.14853526],[-123.98716428,49.14981701],[-123.98718122,49.15218119],[-123.99345806,49.15222606],[-124.00032737,49.15233536],[-124.00011591,49.15594502],[-124.00749598,49.15604828],[-124.01401409,49.15613907],[-124.01461692,49.15614762],[-124.0144645,49.15971348],[-124.01564671,49.15973152],[-124.01900757,49.15978272],[-124.01915886,49.15978503],[-124.02034798,49.15980312],[-124.02047093,49.15980499],[-124.02816507,49.15991098],[-124.03338098,49.15991315],[-124.04127907,49.15991596],[-124.04140584,49.16310229],[-124.04978608,49.16323864],[-124.05520563,49.16324043],[-124.0607404,49.16323587],[-124.06819737,49.16326374],[-124.07040889,49.16327232],[-124.0718112,49.16328513],[-124.07187175,49.16453998],[-124.0718702,49.16681282],[-124.0718682,49.17021514],[-124.07876752,49.1699493],[-124.08234057,49.1699116],[-124.08235955,49.17314174],[-124.08236328,49.17376573],[-124.08250676,49.17763301],[-124.08286714,49.1776415],[-124.08821429,49.17776664],[-124.08817557,49.18213966],[-124.08813581,49.18502971],[-124.08810469,49.18853808],[-124.08810463,49.18853808],[-124.08249387,49.18851693],[-124.08249381,49.18851883],[-124.08249228,49.18856836],[-124.08238418,49.19207208],[-124.08237725,49.19384842],[-124.08235117,49.19474005],[-124.08232576,49.19622763],[-124.08230773,49.19768561],[-124.08229399,49.19879693],[-124.08229287,49.19888862],[-124.08228902,49.19920481],[-124.08236741,49.19932181],[-124.08376881,49.19932079],[-124.08397902,49.19932063],[-124.09077654,49.1993154],[-124.09253715,49.19931433],[-124.0989337,49.19931434],[-124.09969869,49.1993154],[-124.10445563,49.19932039],[-124.13267375,49.19935316],[-124.13616992,49.1993567],[-124.13614645,49.20000072],[-124.13614645,49.2000008],[-124.13614575,49.20022171],[-124.13613965,49.20214424],[-124.12692669,49.20214495],[-124.12692674,49.20270965],[-124.12692687,49.20280436],[-124.126927,49.2033274],[-124.12692709,49.20444505],[-124.12693396,49.21194102],[-124.12693526,49.2130017],[-124.12229016,49.21300205],[-124.1213602,49.21300918],[-124.12135895,49.21341721],[-124.12135739,49.213999],[-124.12135374,49.21496568],[-124.12134726,49.21562972],[-124.12134294,49.22015479],[-124.12134313,49.22032178],[-124.12167428,49.22032457],[-124.12286571,49.2203346],[-124.12289877,49.22033495],[-124.12300794,49.22033566],[-124.12305062,49.22033638],[-124.12324226,49.2203378],[-124.13055455,49.22040331],[-124.13083992,49.22040581],[-124.13253958,49.22042076],[-124.13251264,49.22401831],[-124.13248483,49.22771841],[-124.13523834,49.22771805],[-124.13524048,49.2304123],[-124.13756667,49.23041195],[-124.13756951,49.23331092],[-124.13756962,49.23413875],[-124.13757205,49.23633203],[-124.13757184,49.23639291],[-124.1375731,49.23805995],[-124.13758871,49.23985979],[-124.13758809,49.23991748],[-124.13758382,49.24056513],[-124.13763082,49.2449428],[-124.13763183,49.24500546],[-124.13763278,49.24509305],[-124.13763282,49.24512474],[-124.13835162,49.24512581],[-124.13843105,49.24512617],[-124.13845014,49.24512616],[-124.13942618,49.24512759],[-124.14032967,49.24512901],[-124.14135115,49.24513054],[-124.14175691,49.24513115],[-124.14244149,49.24513209],[-124.14306053,49.24513293],[-124.14304339,49.24549468],[-124.14303857,49.2456047],[-124.14303248,49.24572398],[-124.14319866,49.24573323],[-124.14353229,49.24575139],[-124.14358888,49.2457546],[-124.14450089,49.24580409],[-124.14456746,49.24580801],[-124.14553369,49.24586106],[-124.14564926,49.24586711],[-124.14666757,49.24592265],[-124.14678295,49.24592906],[-124.14792136,49.24599137],[-124.147968,49.24598888],[-124.14832937,49.24597143],[-124.14832797,49.24604051],[-124.14832619,49.24612418],[-124.14832605,49.24615124],[-124.1483271,49.24618507],[-124.14832506,49.24628013],[-124.14833217,49.24639229],[-124.14833076,49.24642019],[-124.14825145,49.24798598],[-124.14825245,49.24845881],[-124.14824607,49.24901461],[-124.14824599,49.24901675],[-124.14824645,49.24975876],[-124.14824144,49.2498225],[-124.14823861,49.24989121],[-124.14823688,49.24995495],[-124.14823265,49.25002224],[-124.14823126,49.25008633],[-124.14822951,49.25014116],[-124.14822501,49.25020596],[-124.14822383,49.2502697],[-124.14822196,49.25034162],[-124.14821903,49.25040357],[-124.14821781,49.25048226],[-124.14821533,49.25055133],[-124.14821315,49.25062682],[-124.1482135,49.25070266],[-124.14821218,49.25077458],[-124.14820923,49.2508465],[-124.1482097,49.25095688],[-124.14820621,49.25119864],[-124.14822881,49.25136705],[-124.14823403,49.25140622],[-124.14607438,49.25111247],[-124.14481314,49.25087036],[-124.14421163,49.25069732],[-124.14388355,49.2505816],[-124.14294581,49.25021237],[-124.14294209,49.25025688],[-124.14287514,49.25108577],[-124.14286214,49.2512435],[-124.14286209,49.25132005],[-124.14286109,49.2513318],[-124.14284799,49.25151552],[-124.14284605,49.2515846],[-124.14283951,49.25181995],[-124.14284044,49.25189472],[-124.1426949,49.25503297],[-124.14234289,49.25493292],[-124.14130022,49.25449924],[-124.14122908,49.25447681],[-124.14087642,49.25439884],[-124.14043805,49.25460998],[-124.13788372,49.25473459],[-124.13674654,49.25472925],[-124.13575702,49.25456832],[-124.1354062,49.25464985],[-124.1345033,49.2547791],[-124.13210063,49.25486989],[-124.13192855,49.25389039],[-124.13194214,49.25341791],[-124.1319677,49.25254345],[-124.13194407,49.25255271],[-124.13160148,49.25262819],[-124.13132806,49.25272076],[-124.13108299,49.25281334],[-124.13082531,49.25296857],[-124.1306659,49.25315942],[-124.13047852,49.25337732],[-124.13024928,49.25356817],[-124.13010229,49.2537761],[-124.1299141,49.25393989],[-124.12979234,49.25402249],[-124.12963145,49.2541763],[-124.12956439,49.25433012],[-124.12956827,49.25447396],[-124.12946307,49.25467335],[-124.12939512,49.25473744],[-124.12932748,49.25473744],[-124.12924142,49.25461211],[-124.12915909,49.25455942],[-124.12903538,49.25454233],[-124.12871856,49.25459075],[-124.12856796,49.25461069],[-124.1283901,49.25462066],[-124.1280589,49.25455229],[-124.12783685,49.25446399],[-124.12761433,49.25431303],[-124.1272935,49.2541464],[-124.12721084,49.25410224],[-124.12691897,49.25401394],[-124.12671149,49.25396267],[-124.12640841,49.25393846],[-124.12618943,49.25393989],[-124.12599843,49.25396979],[-124.12594468,49.25402391],[-124.12594516,49.25408658],[-124.12599162,49.254276],[-124.12574894,49.25447539],[-124.12542664,49.25427173],[-124.12531629,49.25421048],[-124.12497046,49.25406949],[-124.12469269,49.25395555],[-124.12451291,49.25392137],[-124.1242386,49.25392422],[-124.12396322,49.2539171],[-124.12364744,49.25391995],[-124.12330252,49.25392422],[-124.12309663,49.25392564],[-124.12276883,49.25393846],[-124.12246615,49.25394131],[-124.12215037,49.25394416],[-124.12208837,49.25394879],[-124.12214897,49.25706737],[-124.12215871,49.25756877],[-124.11927401,49.25774822],[-124.11925821,49.25778988],[-124.11692832,49.25793558],[-124.11592154,49.25799853],[-124.11503183,49.25819293],[-124.11461214,49.25825773],[-124.11429879,49.25837277],[-124.11415147,49.25842686],[-124.113662,49.25847864],[-124.11350718,49.25849501],[-124.11167063,49.25868927],[-124.10988447,49.25878754],[-124.10785079,49.25849059],[-124.10712621,49.25825632],[-124.1049271,49.25754527],[-124.10441944,49.25767381],[-124.10243584,49.25772045],[-124.09922229,49.25712192],[-124.09833397,49.25694176],[-124.09815959,49.25705249],[-124.09677935,49.25734909],[-124.09479468,49.25734909],[-124.09211264,49.25704003],[-124.09211066,49.25703968],[-124.09164945,49.25751109],[-124.09041369,49.25817762],[-124.09012823,49.25828792],[-124.08946452,49.25854435],[-124.08873544,49.2587619],[-124.08772123,49.25917742],[-124.0869451,49.2593704],[-124.08462348,49.25986958],[-124.08331355,49.26003123],[-124.08224206,49.25991622],[-124.08064449,49.25959827],[-124.07907508,49.25885056],[-124.07868885,49.25843104],[-124.07823756,49.25794084],[-124.07819635,49.25777884],[-124.07623263,49.25759904],[-124.07484408,49.25691257],[-124.07366336,49.25550295],[-124.07307946,49.25543495],[-124.07282519,49.25549548],[-124.07110065,49.25539471],[-124.06882504,49.25499202],[-124.06878263,49.25489767],[-124.06860571,49.25490194],[-124.06727569,49.25484461],[-124.06591893,49.25489624],[-124.06467953,49.25480118],[-124.06340124,49.25455586],[-124.06329993,49.25458826],[-124.06307337,49.25456084],[-124.06293192,49.25454233],[-124.06277148,49.25452559],[-124.06212567,49.25447396],[-124.06163052,49.25436572],[-124.06160575,49.25436216],[-124.06156757,49.25435421],[-124.06108118,49.25425285],[-124.0608178,49.25416455],[-124.06077976,49.25415636],[-124.06018313,49.25401252],[-124.06009559,49.25397834],[-124.05996144,49.25395448],[-124.05951823,49.25377575],[-124.05943521,49.25375118],[-124.05889141,49.25356888],[-124.05819103,49.25326089],[-124.05773008,49.25296786],[-124.05755589,49.25287315],[-124.05700257,49.25263887],[-124.05654629,49.25231166],[-124.05617163,49.25210657],[-124.05605616,49.25204391],[-124.05575873,49.25188974],[-124.05546234,49.25174162],[-124.05528354,49.25167112],[-124.05491452,49.25152514],[-124.05488313,49.25150983],[-124.05461531,49.25137916],[-124.05434354,49.25129228],[-124.05397869,49.25119615],[-124.05318255,49.2509845],[-124.05314563,49.25097468],[-124.0527477,49.25090988],[-124.05228474,49.2508344],[-124.0515416,49.25090703],[-124.05121166,49.25091878],[-124.05077667,49.25092519],[-124.04979771,49.25085861],[-124.04943786,49.25075144],[-124.04876772,49.2507995],[-124.04829035,49.25081944],[-124.04796562,49.25079701],[-124.04763757,49.25084294],[-124.04733868,49.25076176],[-124.0468431,49.25090774],[-124.04646122,49.2509494],[-124.04596162,49.25098394],[-124.04547422,49.25100032],[-124.04479841,49.25100423],[-124.04441267,49.25099747],[-124.04401222,49.25103521],[-124.04373845,49.25108755],[-124.04343629,49.25114487],[-124.0429081,49.25125205],[-124.0424162,49.25138343],[-124.04216872,49.25143755],[-124.04207442,49.2514582],[-124.04168913,49.25152977],[-124.04102239,49.25150734],[-124.04070797,49.25160667],[-124.04039029,49.25166542],[-124.04000575,49.25173663],[-124.0399108,49.25174445],[-124.03947832,49.25178007],[-124.03919494,49.25179147],[-124.03885504,49.25180642],[-124.03855832,49.25181924],[-124.03734615,49.25186695],[-124.03673993,49.25190291],[-124.03661174,49.25190291],[-124.03609389,49.25190327],[-124.03565486,49.25189223],[-124.03517019,49.25185912],[-124.03482552,49.25182636],[-124.03416086,49.25172595],[-124.0338817,49.25166934],[-124.03355152,49.2516202],[-124.03323141,49.25157356],[-124.03189426,49.25124457],[-124.03148538,49.25108791],[-124.03122188,49.25097326],[-124.03042381,49.25053033],[-124.02956113,49.24975663],[-124.0293614,49.24950169],[-124.02889979,49.24928842],[-124.02862265,49.24917875],[-124.02823048,49.24902351],[-124.02795283,49.24889106],[-124.02767674,49.24874295],[-124.02686436,49.24836767],[-124.02662379,49.2482224],[-124.0262289,49.24795251],[-124.02614286,49.24790218],[-124.02604613,49.25017697],[-124.02585146,49.25475411],[-124.02128351,49.36189211],[-124.02309598,49.36228555],[-124.02361905,49.36239735],[-124.02466727,49.36261917],[-124.02545467,49.36278331],[-124.02571746,49.36283743],[-124.02703171,49.36310553],[-124.02834929,49.36336759],[-124.02887708,49.36347084],[-124.02966932,49.36362323],[-124.02993372,49.36367344],[-124.03073409,49.36380802],[-124.0315447,49.36391199],[-124.03290945,49.36403234],[-124.03400636,49.36409678],[-124.03455613,49.36412313],[-124.03510543,49.36414734],[-124.03620469,49.36419755],[-124.03675363,49.36422639],[-124.03730262,49.36425914],[-124.03784231,49.36432679],[-124.03837697,49.3644126],[-124.03864436,49.3644564],[-124.03917839,49.36454434],[-124.03971278,49.36463264],[-124.03997919,49.3646832],[-124.04065597,49.36476509],[-124.04133412,49.36484449],[-124.04201289,49.36492176],[-124.04269186,49.36499866],[-124.04337102,49.36507522],[-124.04404961,49.36515284],[-124.04472741,49.36523188],[-124.04540495,49.36531341],[-124.04608127,49.36539815],[-124.04675581,49.36548717],[-124.04742871,49.36558117],[-124.04810012,49.36568086],[-124.04876956,49.36578518],[-124.04943782,49.36589164],[-124.05010601,49.36600024],[-124.05077342,49.36611026],[-124.05144021,49.36622242],[-124.05210642,49.36633564],[-124.0527724,49.36645029],[-124.0534378,49.36656601],[-124.05410281,49.36668244],[-124.05476778,49.36679993],[-124.05543221,49.36691743],[-124.05609681,49.36703564],[-124.05676175,49.3671542],[-124.05742635,49.36727241],[-124.05809096,49.36739062],[-124.05875596,49.36750812],[-124.05942061,49.36762526],[-124.0600862,49.36774169],[-124.06075163,49.36785741],[-124.06141785,49.3679717],[-124.06208467,49.36808493],[-124.06275171,49.36819673],[-124.06341919,49.36830675],[-124.06408726,49.3684157],[-124.06475611,49.36852323],[-124.06542481,49.36863004],[-124.06609464,49.36873579],[-124.06676432,49.36884082],[-124.06743459,49.36894479],[-124.06810451,49.3690484],[-124.06877517,49.36915166],[-124.06944623,49.3692542],[-124.07011694,49.36935639],[-124.07078784,49.36945822],[-124.07145875,49.36956005],[-124.07213021,49.36966188],[-124.07280133,49.36976336],[-124.07347225,49.36986519],[-124.07414297,49.36996737],[-124.0748137,49.37006956],[-124.07548479,49.3701721],[-124.07615494,49.37027536],[-124.07682545,49.37037897],[-124.07749503,49.37048329],[-124.07816476,49.37058833],[-124.07883446,49.37069443],[-124.07898778,49.370719],[-124.08531992,49.37125308],[-124.0917641,49.37180852],[-124.09784466,49.37221727],[-124.1044589,49.37250425],[-124.1149368,49.37249855],[-124.12464286,49.37265949],[-124.1357213,49.37290089],[-124.14573643,49.37317007],[-124.14964241,49.37339939],[-124.14974967,49.47616125],[-124.14975458,49.48085261],[-124.14981244,49.4809013],[-124.14987023,49.48095002],[-124.14992794,49.48099878],[-124.1499856,49.48104757],[-124.15004317,49.48109639],[-124.15010068,49.48114525],[-124.15015812,49.48119415],[-124.15021548,49.48124308],[-124.15027277,49.48129205],[-124.15033,49.48134106],[-124.15038715,49.48139009],[-124.15044423,49.48143916],[-124.15050124,49.48148827],[-124.15055818,49.48153741],[-124.15061505,49.4815866],[-124.15067185,49.4816358],[-124.15104067,49.48196307],[-124.15139983,49.48229532],[-124.15175087,49.48263176],[-124.15209531,49.4829716],[-124.15243462,49.48331404],[-124.15277037,49.48365827],[-124.15310405,49.4840035],[-124.15343717,49.48434892],[-124.15377125,49.48469373],[-124.15410779,49.48503716],[-124.15444833,49.48537837],[-124.15479438,49.48571658],[-124.15484193,49.48576163],[-124.15514744,49.486051],[-124.15550904,49.48638081],[-124.15588068,49.48670524],[-124.15626389,49.48702345],[-124.15683919,49.4874788],[-124.15742911,49.48792721],[-124.15803272,49.48836893],[-124.15864908,49.48880424],[-124.15927729,49.48923337],[-124.15991642,49.48965662],[-124.16056556,49.49007423],[-124.1612238,49.49048646],[-124.1618902,49.49089358],[-124.16256385,49.49129584],[-124.16324382,49.49169352],[-124.16392922,49.49208687],[-124.1646191,49.49247616],[-124.16531256,49.49286163],[-124.16600866,49.49324357],[-124.16670649,49.49362223],[-124.16724129,49.49390929],[-124.16777925,49.49419453],[-124.16832042,49.49447779],[-124.16886484,49.49475887],[-124.16941254,49.49503762],[-124.16996356,49.49531385],[-124.17051793,49.49558739],[-124.17107571,49.49585807],[-124.1716369,49.4961257],[-124.17220158,49.49639012],[-124.17276975,49.49665115],[-124.17334146,49.49690861],[-124.17391676,49.49716233],[-124.17449566,49.49741214],[-124.17507821,49.49765784],[-124.17566445,49.49789929],[-124.17590027,49.49799252],[-124.17592045,49.49800011],[-124.17614025,49.49808264],[-124.17638356,49.49817024],[-124.17662936,49.4982559],[-124.17687682,49.49834022],[-124.17712512,49.49842379],[-124.17737342,49.4985072],[-124.17762088,49.49859105],[-124.17786669,49.49867592],[-124.17811002,49.49876239],[-124.17835003,49.49885108],[-124.17858588,49.49894256],[-124.17881675,49.49903743],[-124.17904181,49.49913629],[-124.17926023,49.49923971],[-124.17947118,49.49934829],[-124.17986309,49.49957942],[-124.1802233,49.49983103],[-124.18055563,49.50010071],[-124.18086391,49.50038612],[-124.18115197,49.50068485],[-124.18142362,49.50099453],[-124.18168268,49.50131278],[-124.181933,49.50163722],[-124.18217839,49.50196548],[-124.18242265,49.50229517],[-124.18266963,49.5026239],[-124.18292315,49.50294931],[-124.18295598,49.50298909],[-124.18318704,49.503269],[-124.18346509,49.50358062],[-124.18376117,49.50388175],[-124.18407906,49.50417005],[-124.184295,49.50435225],[-124.1845136,49.50453343],[-124.18473477,49.50471357],[-124.18495838,49.50489267],[-124.18518435,49.50507071],[-124.18541259,49.50524769],[-124.18564299,49.50542358],[-124.18587543,49.50559839],[-124.18610983,49.50577209],[-124.18634608,49.50594468],[-124.18658408,49.50611614],[-124.18682373,49.50628647],[-124.18706495,49.50645564],[-124.18730759,49.50662366],[-124.1875516,49.50679051],[-124.18779683,49.50695616],[-124.18832482,49.50730326],[-124.18886382,49.50764351],[-124.18941305,49.50797731],[-124.18997172,49.50830507],[-124.19053904,49.50862718],[-124.19111423,49.50894405],[-124.19169648,49.50925606],[-124.19228502,49.50956363],[-124.19287906,49.50986714],[-124.19347779,49.510167],[-124.19368148,49.51026725],[-124.19408046,49.51046361],[-124.19468624,49.51075736],[-124.19529436,49.51104866],[-124.19590405,49.5113379],[-124.19651448,49.51162548],[-124.19712489,49.5119118],[-124.19746802,49.51206977],[-124.1978149,49.51222448],[-124.19816489,49.51237648],[-124.19851739,49.5125263],[-124.19887177,49.51267447],[-124.19922742,49.51282152],[-124.19958371,49.51296801],[-124.19994004,49.51311444],[-124.20029577,49.51326137],[-124.20065029,49.51340933],[-124.20100299,49.51355885],[-124.20135323,49.51371047],[-124.20170042,49.51386472],[-124.20204391,49.51402215],[-124.2023831,49.51418327],[-124.20271738,49.51434865],[-124.20295944,49.51447571],[-124.2031961,49.51460841],[-124.20342835,49.51474568],[-124.20365713,49.51488645],[-124.20388342,49.5150297],[-124.20410816,49.51517434],[-124.20433232,49.51531932],[-124.20455686,49.5154636],[-124.20478272,49.5156061],[-124.20501088,49.51574578],[-124.20524229,49.51588158],[-124.20547792,49.51601244],[-124.20571871,49.51613731],[-124.20596563,49.51625511],[-124.20621965,49.51636483],[-124.20648171,49.51646537],[-124.2067471,49.51655465],[-124.20701958,49.51663538],[-124.20729837,49.51670849],[-124.2075827,49.51677497],[-124.20787183,49.51683575],[-124.20816495,49.51689178],[-124.20846132,49.51694403],[-124.20876015,49.51699346],[-124.20906069,49.517041],[-124.20966377,49.51713428],[-124.20996478,49.51718193],[-124.21026441,49.51723152],[-124.21056189,49.51728401],[-124.21085645,49.51734035],[-124.21114731,49.5174015],[-124.21153054,49.51748834],[-124.211912,49.51757856],[-124.21229201,49.51767167],[-124.21267077,49.51776715],[-124.21304857,49.51786449],[-124.21342565,49.51796319],[-124.21380229,49.51806274],[-124.21417872,49.51816263],[-124.21455521,49.51826234],[-124.21493202,49.51836139],[-124.21530939,49.51845925],[-124.21568761,49.51855541],[-124.21606689,49.51864938],[-124.21637151,49.51872241],[-124.21644753,49.51874063],[-124.21682976,49.51882868],[-124.21721385,49.51891298],[-124.21775064,49.51902356],[-124.21829074,49.51912726],[-124.21883373,49.519225],[-124.21937915,49.51931768],[-124.21992659,49.51940622],[-124.2204756,49.51949152],[-124.22102575,49.51957447],[-124.22157663,49.519656],[-124.22212777,49.519737],[-124.22267875,49.5198184],[-124.22322916,49.51990107],[-124.22377853,49.51998595],[-124.22432646,49.52007393],[-124.22487249,49.52016592],[-124.22541621,49.52026282],[-124.22595719,49.52036555],[-124.22650958,49.52047336],[-124.22706323,49.52058052],[-124.22761763,49.52068767],[-124.22817228,49.52079537],[-124.22872669,49.52090425],[-124.22928034,49.52101492],[-124.22983274,49.52112797],[-124.2303834,49.521244],[-124.23093181,49.52136362],[-124.23147747,49.52148745],[-124.23201988,49.52161607],[-124.23255853,49.5217501],[-124.23309295,49.52189015],[-124.23362261,49.52203681],[-124.23414703,49.52219069],[-124.23466571,49.52235239],[-124.234871,49.52241874],[-124.23507616,49.52248578],[-124.23528107,49.52255351],[-124.23548565,49.52262201],[-124.2356898,49.52269127],[-124.23589341,49.52276137],[-124.23609638,49.52283229],[-124.23629862,49.52290411],[-124.23650003,49.52297683],[-124.23670051,49.52305052],[-124.23689997,49.52312519],[-124.2370983,49.52320087],[-124.23729539,49.52327761],[-124.23749116,49.52335544],[-124.23768552,49.52343439],[-124.23787834,49.5235145],[-124.23831296,49.52370795],[-124.23873292,49.52391504],[-124.23914028,49.52413385],[-124.23953707,49.52436248],[-124.23992534,49.52459902],[-124.24030709,49.52484154],[-124.24068441,49.52508815],[-124.241031,49.52531816],[-124.24105929,49.52533693],[-124.24143381,49.52558596],[-124.24180997,49.52583335],[-124.24218985,49.52607717],[-124.24257545,49.52631551],[-124.24296882,49.52654647],[-124.243372,49.52676811],[-124.24378704,49.52697856],[-124.24421595,49.52717588],[-124.24460262,49.52734082],[-124.24499483,49.52750142],[-124.24539219,49.52765784],[-124.24579435,49.52781019],[-124.2462009,49.52795862],[-124.24661148,49.52810326],[-124.24702571,49.52824426],[-124.24744324,49.52838174],[-124.24786367,49.52851584],[-124.24828664,49.5286467],[-124.24871174,49.52877446],[-124.24913864,49.52889924],[-124.24956695,49.5290212],[-124.24999629,49.52914045],[-124.25042628,49.52925714],[-124.25085657,49.52937142],[-124.25121436,49.5294672],[-124.25157355,49.52956607],[-124.2519341,49.52966679],[-124.252296,49.52976821],[-124.25265924,49.52986914],[-124.25302379,49.52996838],[-124.25338965,49.53006476],[-124.25375678,49.53015709],[-124.25412519,49.53024418],[-124.25449486,49.53032483],[-124.25486576,49.53039789],[-124.25523789,49.53046213],[-124.25561122,49.5305164],[-124.25598575,49.5305595],[-124.25636143,49.53059024],[-124.25673828,49.53060744],[-124.25696761,49.53061005],[-124.25719766,49.53060619],[-124.25742839,49.53059666],[-124.25765971,49.53058223],[-124.25789158,49.53056366],[-124.2581239,49.53054175],[-124.25835664,49.53051726],[-124.25858973,49.53049098],[-124.2588231,49.53046367],[-124.25905667,49.53043612],[-124.2592904,49.5304091],[-124.25952421,49.53038339],[-124.25975803,49.53035976],[-124.25999182,49.53033898],[-124.26022551,49.53032185],[-124.260459,49.53030913],[-124.26070246,49.53029946],[-124.26094614,49.53029172],[-124.26119,49.53028573],[-124.26143404,49.5302813],[-124.26167822,49.53027826],[-124.26192251,49.53027642],[-124.26216691,49.5302756],[-124.26241139,49.53027562],[-124.26265594,49.53027628],[-124.26290049,49.53027742],[-124.26314508,49.53027884],[-124.26338965,49.53028036],[-124.2636342,49.53028182],[-124.26387869,49.53028301],[-124.2641231,49.53028375],[-124.26436742,49.53028388],[-124.26521501,49.53028281],[-124.26606296,49.53028164],[-124.26691115,49.53028086],[-124.26775951,49.53028095],[-124.26860797,49.5302824],[-124.26945642,49.53028568],[-124.2703048,49.53029129],[-124.271153,49.53029971],[-124.27200096,49.5303114],[-124.27284857,49.53032687],[-124.27369576,49.53034659],[-124.27447554,49.53036912],[-124.27454244,49.53037105],[-124.27538853,49.53040073],[-124.27623394,49.53043612],[-124.27707859,49.53047769],[-124.27792238,49.53052593],[-124.27811448,49.53053779],[-124.27830657,49.53054979],[-124.27849868,49.53056197],[-124.27869079,49.53057432],[-124.27888287,49.5305869],[-124.27907493,49.5305997],[-124.27926697,49.53061275],[-124.27945897,49.53062608],[-124.27965091,49.5306397],[-124.27984279,49.53065362],[-124.28003462,49.53066788],[-124.28022636,49.5306825],[-124.28041803,49.53069748],[-124.28060959,49.53071285],[-124.28080104,49.53072864],[-124.2809924,49.53074485],[-124.28130018,49.53077157],[-124.28160795,49.53079888],[-124.28191569,49.53082684],[-124.28222334,49.53085554],[-124.28253087,49.53088503],[-124.28283821,49.5309154],[-124.28314534,49.53094669],[-124.2834522,49.530979],[-124.28375876,49.53101238],[-124.28406497,49.53104693],[-124.28437077,49.53108268],[-124.28467614,49.53111972],[-124.28498102,49.53115813],[-124.28528537,49.53119796],[-124.28558914,49.53123929],[-124.28589229,49.53128219],[-124.28617431,49.53132429],[-124.28645548,49.53136886],[-124.28673593,49.53141557],[-124.28701574,49.53146411],[-124.28729503,49.53151417],[-124.28757393,49.53156545],[-124.28785252,49.53161761],[-124.28813092,49.53167035],[-124.28840923,49.53172334],[-124.28868759,49.53177631],[-124.28896608,49.5318289],[-124.28924482,49.53188082],[-124.28952392,49.53193175],[-124.28980347,49.53198138],[-124.29008362,49.53202939],[-124.29036444,49.53207549],[-124.29074365,49.53213611],[-124.29112316,49.5321965],[-124.29150296,49.53225646],[-124.29188311,49.53231582],[-124.2922636,49.53237438],[-124.29264449,49.53243197],[-124.29302576,49.5324884],[-124.29340746,49.53254349],[-124.29378959,49.53259704],[-124.2941722,49.53264889],[-124.29455529,49.53269885],[-124.29493889,49.53274672],[-124.29532301,49.53279234],[-124.2957077,49.5328355],[-124.29609295,49.53287605],[-124.29647882,49.53291378],[-124.29665733,49.53292955],[-124.2968364,49.53294363],[-124.29701593,49.53295629],[-124.29719581,49.53296783],[-124.29737593,49.53297855],[-124.29755618,49.53298874],[-124.29773649,49.5329987],[-124.29791672,49.53300873],[-124.29809678,49.53301911],[-124.29827658,49.53303013],[-124.29845599,49.53304211],[-124.29863493,49.53305533],[-124.29881327,49.53307009],[-124.29899094,49.53308667],[-124.29916781,49.53310539],[-124.2993438,49.53312653],[-124.2997526,49.53318546],[-124.30015672,49.5332562],[-124.30055667,49.53333747],[-124.30095299,49.53342799],[-124.30134619,49.53352648],[-124.30173676,49.5336317],[-124.30212523,49.53374234],[-124.30251212,49.53385713],[-124.30289793,49.53397482],[-124.3032832,49.53409413],[-124.30366842,49.53421376],[-124.30405412,49.53433246],[-124.30444079,49.53444895],[-124.30482898,49.53456196],[-124.30521918,49.53467021],[-124.30561192,49.53477243],[-124.30609075,49.53489002],[-124.30657192,49.53500391],[-124.30705498,49.53511479],[-124.30753951,49.53522332],[-124.30802506,49.53533021],[-124.30851119,49.53543611],[-124.30899748,49.53554171],[-124.30948348,49.5356477],[-124.30996876,49.53575475],[-124.31045288,49.53586354],[-124.3109354,49.53597476],[-124.31141589,49.53608908],[-124.31189391,49.53620719],[-124.31236903,49.53632976],[-124.3128408,49.53645748],[-124.3133088,49.53659102],[-124.31353899,49.53665894],[-124.31376892,49.53672757],[-124.31399852,49.53679692],[-124.31422777,49.53686697],[-124.3144566,49.53693773],[-124.31468499,49.53700919],[-124.31491289,49.53708136],[-124.31514027,49.53715422],[-124.31536706,49.53722778],[-124.31559324,49.53730203],[-124.31581875,49.53737698],[-124.31604357,49.53745262],[-124.31626764,49.53752894],[-124.31649093,49.53760594],[-124.31671339,49.53768363],[-124.31693497,49.537762],[-124.31717783,49.53784968],[-124.31741887,49.53793917],[-124.31765814,49.5380304],[-124.31789567,49.53812335],[-124.31813151,49.53821797],[-124.31836571,49.53831421],[-124.3185983,49.53841203],[-124.31882934,49.5385114],[-124.31905887,49.53861225],[-124.31928695,49.53871456],[-124.31951359,49.53881828],[-124.31973886,49.53892336],[-124.3199628,49.53902977],[-124.32018546,49.53913745],[-124.32040686,49.53924637],[-124.32062707,49.53935648],[-124.49000387,49.5393565]]]},"geometry_name":"SHAPE","properties":{"id":289,"slug":"ladysmith-oceanside","name":"Ladysmith-Oceanside","abbreviation":"LAO","gazetteDate":"2023-12-07Z","boundarySet":11},"bbox":[-124.69740666,48.93604994,-123.72504083,49.5393565]}
