{"type":"Feature","id":294,"geometry":{"type":"Polygon","coordinates":[[[-122.37911078,49.35308314],[-122.38478515,49.34971511],[-122.38732144,49.34825815],[-122.38901512,49.3468653],[-122.39060613,49.34473458],[-122.39112067,49.34435802],[-122.39896503,49.34187259],[-122.40162745,49.34120123],[-122.40802226,49.33880179],[-122.40802363,49.33880127],[-122.40802501,49.33880075],[-122.41009871,49.33802253],[-122.4109235,49.33764249],[-122.41803606,49.33452023],[-122.41958398,49.33365054],[-122.42262512,49.33213179],[-122.43128898,49.32817328],[-122.43362498,49.32716419],[-122.44237802,49.32251912],[-122.44642062,49.31893795],[-122.45183578,49.31432084],[-122.45640296,49.30975157],[-122.46274007,49.3057868],[-122.46782146,49.30378551],[-122.46892289,49.30336617],[-122.46985098,49.30311628],[-122.47106017,49.30271194],[-122.47642008,49.30034443],[-122.47886399,49.2980263],[-122.48137082,49.29487612],[-122.48845807,49.28770475],[-122.48877692,49.28673231],[-122.48839594,49.28622101],[-122.4879628,49.28563994],[-122.48757291,49.28542915],[-122.4873913,49.28509874],[-122.48737848,49.28498195],[-122.4873919,49.28493638],[-122.48744881,49.28480108],[-122.48757318,49.28465866],[-122.48767278,49.28450627],[-122.48774229,49.28432682],[-122.48789755,49.28398501],[-122.48795395,49.28380556],[-122.48801022,49.28360759],[-122.48806723,49.2834196],[-122.48811101,49.28321308],[-122.48809945,49.2829966],[-122.48811628,49.28278012],[-122.48818579,49.28260067],[-122.48824281,49.28241268],[-122.48831376,49.28222326],[-122.48839762,49.28209793],[-122.48842489,49.28206232],[-122.48856455,49.2819199],[-122.48884334,49.28163221],[-122.48913379,49.28135449],[-122.48939926,49.28105968],[-122.48968971,49.28078196],[-122.48982876,49.28064808],[-122.49014856,49.28038745],[-122.49045225,49.28012825],[-122.49074502,49.27986904],[-122.49105014,49.27959987],[-122.49132763,49.27934066],[-122.49164674,49.27909997],[-122.49183929,49.2790017],[-122.49207346,49.27892194],[-122.49234961,49.27888634],[-122.49270741,49.27887922],[-122.49303623,49.27888064],[-122.49335367,49.27890912],[-122.49365522,49.27894615],[-122.49395737,49.27897464],[-122.49428777,49.27898461],[-122.49460396,49.27895897],[-122.49512797,49.27883506],[-122.49559705,49.27868552],[-122.49602518,49.27849753],[-122.49646559,49.27831096],[-122.49694844,49.27814147],[-122.49737793,49.2779549],[-122.49777829,49.27775836],[-122.49816615,49.27755328],[-122.49837253,49.27746498],[-122.49856568,49.27735816],[-122.49870554,49.27722286],[-122.49876115,49.27711604],[-122.49876241,49.27701635],[-122.49868128,49.2768369],[-122.4984499,49.27652927],[-122.498301,49.27640251],[-122.49816488,49.27632134],[-122.49793289,49.27617607],[-122.49756259,49.27594962],[-122.49744111,49.27580577],[-122.49735939,49.27563487],[-122.49738934,49.27541839],[-122.49748787,49.2753016],[-122.49751454,49.27527454],[-122.49788833,49.27505236],[-122.49830336,49.27486437],[-122.49873079,49.27469631],[-122.49906085,49.27459804],[-122.49937859,49.27458095],[-122.49981698,49.27470913],[-122.50024133,49.27489143],[-122.50070703,49.27505521],[-122.50099499,49.2751193],[-122.50128328,49.27513782],[-122.50161436,49.27508655],[-122.501861,49.27501534],[-122.50234493,49.27488146],[-122.50278605,49.27470486],[-122.50324207,49.27454392],[-122.50370974,49.27439296],[-122.50416553,49.2742249],[-122.50437334,49.27412663],[-122.50474515,49.27391157],[-122.50507873,49.27366091],[-122.50536927,49.27340171],[-122.50566185,49.27312399],[-122.50570221,49.27308838],[-122.50575786,49.27305277],[-122.50598076,49.27286478],[-122.50629907,49.27261412],[-122.5066033,49.27234637],[-122.50711631,49.27199744],[-122.5073235,49.27190771],[-122.50771072,49.27171117],[-122.50794341,49.27164138],[-122.50820545,49.27158869],[-122.50853626,49.2715716],[-122.50888092,49.27156448],[-122.50922279,49.2715659],[-122.50958151,49.27157587],[-122.50991042,49.27159581],[-122.51019808,49.27162287],[-122.51050094,49.27166132],[-122.51080403,49.2717069],[-122.51111985,49.27172684],[-122.51146315,49.27171829],[-122.51175213,49.27167556],[-122.51201341,49.2716129],[-122.51221976,49.2715246],[-122.51238751,49.27141636],[-122.51266539,49.27113009],[-122.51292798,49.27084383],[-122.51302681,49.27068147],[-122.51306913,49.27048493],[-122.51309844,49.27027699],[-122.51314295,49.27008045],[-122.5131861,49.26988248],[-122.51317441,49.26964749],[-122.51316202,49.26943243],[-122.51308174,49.26925156],[-122.51297383,49.26908065],[-122.51272939,49.26877303],[-122.51262041,49.26863773],[-122.51252574,49.26848534],[-122.51229502,49.26816916],[-122.51221488,49.2680068],[-122.51218882,49.26780029],[-122.5122736,49.26762084],[-122.51239877,49.267477],[-122.51256351,49.26737018],[-122.51301851,49.26719215],[-122.51348831,49.26704119],[-122.5139575,49.26689877],[-122.51437162,49.2667122],[-122.51467606,49.26645156],[-122.51478874,49.26629917],[-122.51487195,49.26611118],[-122.51492835,49.26593173],[-122.51501313,49.26575228],[-122.51511101,49.26557283],[-122.51529306,49.26522247],[-122.51540417,49.26506154],[-122.51552934,49.26491769],[-122.51573991,49.26458585],[-122.51589298,49.26424404],[-122.51595,49.26405604],[-122.5159807,49.26384953],[-122.51598288,49.26362451],[-122.51598433,49.26338951],[-122.51597259,49.26316591],[-122.51597479,49.26294089],[-122.51604648,49.26276144],[-122.51626833,49.26245523],[-122.51635168,49.26228575],[-122.51646363,49.26212339],[-122.51652005,49.26194394],[-122.516523,49.26172889],[-122.51652446,49.26149389],[-122.51650061,49.26128738],[-122.51644621,49.26108087],[-122.51640853,49.26086439],[-122.51636819,49.26067497],[-122.51634217,49.26046846],[-122.51628935,49.2602705],[-122.51622297,49.26009959],[-122.51610068,49.25992726],[-122.51607481,49.25981048],[-122.51607468,49.25979196],[-122.51607589,49.25977487],[-122.51610364,49.25971221],[-122.51621355,49.25956836],[-122.51647715,49.25929918],[-122.51664407,49.25919237],[-122.51686432,49.25910264],[-122.51711225,49.25903286],[-122.51759654,49.25887192],[-122.51807721,49.25872096],[-122.51858842,49.25856999],[-122.51878166,49.25848169],[-122.51897401,49.2583649],[-122.5191277,49.25823957],[-122.51925191,49.25807864],[-122.51940577,49.2577468],[-122.51961562,49.25740499],[-122.51979785,49.25707315],[-122.52002011,49.25675127],[-122.5202449,49.25645504],[-122.52039626,49.25631119],[-122.52074147,49.2560705],[-122.52093614,49.25597223],[-122.52136271,49.25579421],[-122.52163777,49.25574151],[-122.52192689,49.2557059],[-122.52224512,49.25568027],[-122.52253267,49.25563612],[-122.522823,49.25558342],[-122.52312499,49.2555407],[-122.52339944,49.25549655],[-122.52368978,49.25544385],[-122.52396484,49.25539115],[-122.52448789,49.25525728],[-122.52494355,49.25508922],[-122.52538538,49.2549112],[-122.52557711,49.25480296],[-122.5257987,49.25471466],[-122.52619953,49.25450957],[-122.52657344,49.25429451],[-122.52675172,49.25416064],[-122.52709848,49.25392849],[-122.52744449,49.25368638],[-122.52759598,49.25356105],[-122.52790113,49.25331038],[-122.52813552,49.25311384],[-122.52821999,49.25305118],[-122.52835826,49.25290733],[-122.5286645,49.25262107],[-122.52896747,49.25237041],[-122.52925844,49.25208414],[-122.52938422,49.25193175],[-122.52961989,49.25163551],[-122.52984369,49.25132219],[-122.52992849,49.25114274],[-122.52999802,49.25096329],[-122.53009591,49.25078384],[-122.53016626,49.25060296],[-122.53022331,49.25041497],[-122.53025186,49.25020846],[-122.53026876,49.24999198],[-122.53029888,49.24979401],[-122.53032744,49.2495875],[-122.53037066,49.24938954],[-122.53052439,49.24903918],[-122.53076068,49.2487344],[-122.53091496,49.24860052],[-122.53121855,49.24834132],[-122.53159243,49.24812626],[-122.53199167,49.24791263],[-122.53235102,49.24770754],[-122.53240604,49.24768049],[-122.53244858,49.24764488],[-122.53255923,49.24758221],[-122.53272381,49.24745688],[-122.5330983,49.24723328],[-122.53348417,49.24698262],[-122.53365167,49.24686726],[-122.53385879,49.24677754],[-122.53410593,49.24669778],[-122.53439403,49.24664508],[-122.53467062,49.24660093],[-122.53495886,49.24656675],[-122.53524854,49.2465226],[-122.53527472,49.2465226],[-122.53551997,49.24648734],[-122.53552135,49.24648714],[-122.53552234,49.246487],[-122.53577178,49.24642576],[-122.53621136,49.24624773],[-122.53644684,49.246158],[-122.53664051,49.24604264],[-122.53677816,49.24590734],[-122.53686235,49.24573644],[-122.53685224,49.24552138],[-122.53676989,49.24534051],[-122.53666149,49.24517815],[-122.53647129,49.24505139],[-122.53623868,49.24497876],[-122.53597784,49.24492464],[-122.53574449,49.24484204],[-122.53552102,49.24473328],[-122.53551965,49.24473261],[-122.53533478,49.24464265],[-122.5349098,49.24444326],[-122.53456807,49.24419829],[-122.53439097,49.24407154],[-122.53424127,49.24392769],[-122.53416125,49.24376533],[-122.53416352,49.24354031],[-122.53416579,49.24331528],[-122.5341665,49.24308171],[-122.53418199,49.2428752],[-122.53430765,49.2427043],[-122.53459864,49.24241803],[-122.53493277,49.24215882],[-122.53507104,49.24201498],[-122.53525027,49.24189819],[-122.53547051,49.24181042],[-122.53547183,49.24180989],[-122.53566623,49.24176824],[-122.53572599,49.24175535],[-122.53600799,49.24169453],[-122.53631074,49.24165038],[-122.53659834,49.24162475],[-122.53692971,49.24161763],[-122.53727137,49.24161905],[-122.53760212,49.24162047],[-122.53793226,49.24163044],[-122.5382761,49.24163187],[-122.53859145,49.24161478],[-122.53888028,49.24157205],[-122.53916932,49.24153645],[-122.53944444,49.24150226],[-122.53973349,49.24146666],[-122.54003623,49.24142251],[-122.54054537,49.24130857],[-122.54083441,49.24127297],[-122.54127615,49.24109494],[-122.54148168,49.24099667],[-122.54180003,49.24076452],[-122.5420357,49.24046829],[-122.54206645,49.24026178],[-122.54214908,49.24008233],[-122.54220758,49.23988436],[-122.54222294,49.23965934],[-122.54229248,49.23947989],[-122.5423642,49.23930044],[-122.5425857,49.2389686],[-122.54269682,49.23880766],[-122.54289358,49.23846585],[-122.54300409,49.23831346],[-122.54315557,49.23818813],[-122.54339404,49.23788335],[-122.54364403,49.23757002],[-122.54376763,49.23741763],[-122.54389267,49.23725527],[-122.54401919,49.23711285],[-122.54410265,49.23693198],[-122.54414651,49.23672547],[-122.5442258,49.23662319],[-122.5443828,49.23642069],[-122.54452023,49.23627826],[-122.54457511,49.23623269],[-122.5446717,49.23615293],[-122.54492024,49.23606321],[-122.5453079,49.23585812],[-122.54551499,49.2357684],[-122.54599621,49.2356274],[-122.54623104,49.23554622],[-122.54649231,49.23550207],[-122.54682145,49.23549495],[-122.54717834,49.23549637],[-122.54752153,49.23550634],[-122.54781044,49.23555334],[-122.54812685,49.23557186],[-122.54845477,49.23558183],[-122.54879857,49.23558325],[-122.54907353,49.23553055],[-122.54954371,49.23537104],[-122.54974922,49.23527277],[-122.55008063,49.23504063],[-122.5503032,49.23474439],[-122.55048542,49.23441255],[-122.55056887,49.23423168],[-122.55063902,49.23404368],[-122.55071075,49.23386423],[-122.55079337,49.23368478],[-122.55087818,49.23350533],[-122.5510443,49.23338854],[-122.55116946,49.2332447],[-122.55135169,49.23291286],[-122.55147528,49.23276047],[-122.55253832,49.23218936],[-122.55341163,49.23179058],[-122.55484275,49.23131774],[-122.55550155,49.23119384],[-122.55609138,49.23113972],[-122.55696483,49.23114541],[-122.55746414,49.23126932],[-122.55817027,49.23155131],[-122.55886703,49.23181194],[-122.55908605,49.23201276],[-122.55911335,49.23254684],[-122.55900241,49.23406077],[-122.55904507,49.23436982],[-122.55935449,49.23462903],[-122.55995292,49.23492384],[-122.56045922,49.23539953],[-122.56066666,49.23602903],[-122.56089067,49.23637511],[-122.56170804,49.23704734],[-122.56225397,49.23733503],[-122.56288432,49.23737633],[-122.56348572,49.23731366],[-122.564438,49.23714276],[-122.56531023,49.23710573],[-122.56708266,49.23749739],[-122.56777649,49.23769963],[-122.56860257,49.23786199],[-122.56920623,49.23805425],[-122.5698604,49.23831346],[-122.57037938,49.23864388],[-122.57112141,49.2395511],[-122.57159429,49.24062495],[-122.57186166,49.24091549],[-122.57217867,49.24104937],[-122.57297354,49.24124306],[-122.57565939,49.24132851],[-122.57612811,49.24129148],[-122.57665034,49.24116615],[-122.57732195,49.2408101],[-122.57811366,49.24004103],[-122.57842586,49.2394514],[-122.57859876,49.23933035],[-122.57908659,49.23920786],[-122.57954025,49.23917795],[-122.57956769,49.23917623],[-122.58068789,49.23910247],[-122.5811917,49.23911386],[-122.58236154,49.23925913],[-122.58347409,49.23933035],[-122.58372089,49.23932406],[-122.58431761,49.23930899],[-122.5848748,49.23920221],[-122.58563859,49.2390028],[-122.58640201,49.23860421],[-122.58669699,49.23845019],[-122.58690641,49.23827172],[-122.587155,49.23805989],[-122.58749414,49.2374689],[-122.58763137,49.23733788],[-122.58781733,49.23721682],[-122.58805337,49.23714846],[-122.58937102,49.23708437],[-122.58994492,49.23700888],[-122.59035291,49.23682714],[-122.59058514,49.23672547],[-122.59215549,49.23618142],[-122.59315386,49.23591224],[-122.59479154,49.23582002],[-122.59526331,49.23572603],[-122.59557323,49.23560746],[-122.59585576,49.23548534],[-122.59616856,49.23525105],[-122.59632443,49.23466748],[-122.59646607,49.23452506],[-122.59675731,49.23439546],[-122.59816756,49.23417186],[-122.59877767,49.2341804],[-122.59954842,49.23430289],[-122.6011219,49.23435487],[-122.60112261,49.2342947],[-122.60112305,49.23427405],[-122.60112509,49.2341213],[-122.60112814,49.23386921],[-122.60113729,49.23316459],[-122.60113899,49.23297391],[-122.60114111,49.23273661],[-122.60117486,49.23134124],[-122.60118427,49.23075732],[-122.60118579,49.2306642],[-122.60119644,49.23001103],[-122.60121474,49.22932741],[-122.601248,49.22865091],[-122.60126648,49.22788825],[-122.60126935,49.22778172],[-122.60127096,49.22772197],[-122.60129606,49.22678377],[-122.60129856,49.22668942],[-122.60130726,49.22636445],[-122.6013165,49.22601968],[-122.60133566,49.22530679],[-122.60136784,49.22410875],[-122.60136812,49.22402009],[-122.6013691,49.22234985],[-122.60140266,49.22160748],[-122.60138087,49.22046242],[-122.60168954,49.22046313],[-122.6017046,49.21998798],[-122.60170522,49.21996822],[-122.60171934,49.21953134],[-122.60171985,49.21944398],[-122.60172086,49.21927178],[-122.60172123,49.21922074],[-122.60172224,49.21908094],[-122.6017222,49.21902005],[-122.60172139,49.21864722],[-122.60172125,49.21858567],[-122.60169934,49.21836601],[-122.60163582,49.21772936],[-122.60160156,49.21743377],[-122.60158581,49.21729783],[-122.60154299,49.21692896],[-122.60152587,49.21683714],[-122.60152128,49.21681253],[-122.60145404,49.21645796],[-122.60142964,49.21632794],[-122.60144595,49.21602199],[-122.60144868,49.21597082],[-122.60148779,49.21586727],[-122.60163963,49.21546522],[-122.60197507,49.21444585],[-122.60216091,49.2138939],[-122.602299,49.21348379],[-122.60245644,49.2130439],[-122.60257208,49.21272077],[-122.60258698,49.21267728],[-122.60260648,49.21262037],[-122.60284414,49.21222479],[-122.60289549,49.21179717],[-122.60377856,49.20936391],[-122.60352862,49.2092895],[-122.60328088,49.20921223],[-122.6030346,49.20913248],[-122.60279031,49.20905023],[-122.60254843,49.20896478],[-122.60230909,49.20887683],[-122.60207216,49.20878568],[-122.60183852,49.20869169],[-122.60160709,49.20859484],[-122.60137882,49.20849443],[-122.60115576,49.20838975],[-122.60093949,49.20827902],[-122.60072918,49.20816366],[-122.60052505,49.20804331],[-122.60032647,49.20791905],[-122.60000014,49.20769866],[-122.59994891,49.20766305],[-122.59976477,49.20752989],[-122.59958448,49.20739387],[-122.59940584,49.20725501],[-122.59922987,49.20711437],[-122.59905582,49.20697231],[-122.59888281,49.20682846],[-122.5987113,49.20668391],[-122.59853946,49.20653899],[-122.59836838,49.20639372],[-122.59819654,49.20624881],[-122.5980245,49.20610425],[-122.59785109,49.20596112],[-122.59767596,49.20581905],[-122.59749871,49.20567877],[-122.59731914,49.20554062],[-122.59713647,49.20540497],[-122.59695107,49.20527216],[-122.59676299,49.20514113],[-122.59657287,49.20501082],[-122.59638103,49.20488157],[-122.5961877,49.20475303],[-122.59599341,49.20462521],[-122.59579782,49.20449774],[-122.59560202,49.20437063],[-122.59540548,49.20424388],[-122.59520839,49.20411712],[-122.59501164,49.20399073],[-122.5948151,49.20386397],[-122.59461931,49.20373686],[-122.59442428,49.20360939],[-122.59423,49.20348157],[-122.59403668,49.20335304],[-122.59384542,49.20322379],[-122.59365565,49.20309383],[-122.59346815,49.2029628],[-122.59328257,49.20283035],[-122.59309958,49.20269719],[-122.59291927,49.20256224],[-122.59274251,49.20242588],[-122.59256821,49.20228808],[-122.59239789,49.20214815],[-122.59223112,49.2020068],[-122.59206702,49.20186367],[-122.59190409,49.20171947],[-122.59174233,49.2015742],[-122.59158153,49.20142822],[-122.59142244,49.20128117],[-122.59126507,49.20113305],[-122.59110887,49.20098386],[-122.59095471,49.20083397],[-122.59080207,49.20068336],[-122.59065134,49.20053132],[-122.59050246,49.20037893],[-122.59035529,49.20022547],[-122.59021017,49.2000713],[-122.59014482,49.20000009],[-122.59000372,49.19984556],[-122.58986522,49.19969033],[-122.58972877,49.19953437],[-122.5896209,49.19940798],[-122.58959459,49.19937736],[-122.58946299,49.19921962],[-122.58933366,49.19906083],[-122.58920692,49.19890131],[-122.58908298,49.19874073],[-122.58896164,49.19857944],[-122.58884256,49.19841708],[-122.58872771,49.19825401],[-122.58860992,49.19809129],[-122.58848286,49.19793143],[-122.58836508,49.19776871],[-122.58827023,49.1976003],[-122.58818372,49.19742975],[-122.58810219,49.19725813],[-122.58802161,49.1970858],[-122.58793975,49.19691383],[-122.58785399,49.19674292],[-122.58776196,49.19657344],[-122.58766808,49.19640432],[-122.58757346,49.19623555],[-122.58747829,49.19606678],[-122.58738292,49.19589837],[-122.58728667,49.1957296],[-122.58719021,49.19556119],[-122.58709375,49.19539277],[-122.5869973,49.19522436],[-122.5869003,49.19505595],[-122.5868031,49.19488789],[-122.5867061,49.19471948],[-122.58660911,49.19455107],[-122.58651266,49.19438265],[-122.58641567,49.19421424],[-122.58631977,49.19404583],[-122.58622354,49.19387706],[-122.58612819,49.19370865],[-122.58603305,49.19353988],[-122.58593812,49.19337075],[-122.58584461,49.19320198],[-122.58575132,49.19303286],[-122.58565932,49.19286338],[-122.58557436,49.19269212],[-122.58549534,49.19251908],[-122.58541925,49.19234568],[-122.58534391,49.19217192],[-122.58526708,49.19199888],[-122.58518526,49.19182691],[-122.58509621,49.19165707],[-122.58499733,49.19149008],[-122.58488732,49.1913263],[-122.58481805,49.19123195],[-122.58476899,49.19116465],[-122.58464472,49.19100478],[-122.58451547,49.19084599],[-122.58438191,49.19068897],[-122.58424597,49.1905323],[-122.58410799,49.19037635],[-122.58396891,49.1902204],[-122.58383039,49.19006445],[-122.58369316,49.18990814],[-122.58355853,49.18975112],[-122.58342703,49.18959339],[-122.58329726,49.18943459],[-122.58316857,49.18927579],[-122.58303955,49.18911664],[-122.58290956,49.1889582],[-122.58277829,49.18880011],[-122.58264476,49.18864309],[-122.58248833,49.1884964],[-122.58230995,49.18835932],[-122.58213137,49.18822259],[-122.58195033,49.18808729],[-122.58176662,49.18795377],[-122.5815812,49.18782132],[-122.58139332,49.18769029],[-122.58120318,49.18756033],[-122.58101133,49.18743144],[-122.58081832,49.18730362],[-122.58062359,49.18717687],[-122.58042791,49.18705082],[-122.58023072,49.18692549],[-122.58003237,49.18680123],[-122.57983402,49.18667697],[-122.57963417,49.18655342],[-122.57943391,49.18643058],[-122.57923385,49.18630739],[-122.57903284,49.1861849],[-122.57883182,49.18606242],[-122.57862985,49.18594065],[-122.57842617,49.18581995],[-122.57822228,49.1856996],[-122.57801648,49.18558068],[-122.57780972,49.18546247],[-122.57760145,49.18534498],[-122.57739181,49.1852289],[-122.57718046,49.1851139],[-122.57696828,49.18500032],[-122.57675385,49.18488781],[-122.57653804,49.18477672],[-122.57632032,49.18466705],[-122.57610101,49.18455917],[-122.57587979,49.18445271],[-122.57565644,49.18434803],[-122.57543172,49.18424478],[-122.57520446,49.18414401],[-122.57497528,49.18404467],[-122.57474389,49.18394818],[-122.5745088,49.18385525],[-122.57427034,49.18376624],[-122.57402871,49.18368079],[-122.57378467,49.18359854],[-122.57353843,49.18351914],[-122.57329019,49.18344223],[-122.57304092,49.18336711],[-122.57279082,49.1832934],[-122.57253955,49.18322077],[-122.57228766,49.1831492],[-122.57203576,49.18307764],[-122.57178387,49.18300607],[-122.57153274,49.18293415],[-122.57128168,49.18286116],[-122.57103241,49.18278603],[-122.570701,49.18268455],[-122.57044754,49.18261477],[-122.57019461,49.18254498],[-122.56994203,49.18247555],[-122.56968857,49.18240576],[-122.56943565,49.18233598],[-122.56917248,49.18228471],[-122.56890791,49.18223771],[-122.56864252,49.18219213],[-122.56837699,49.18214585],[-122.56811354,49.182096],[-122.56785274,49.18203974],[-122.56759658,49.18197459],[-122.56735091,49.18189519],[-122.56711743,49.18180048],[-122.56689179,49.18169793],[-122.56666711,49.18159468],[-122.56643617,49.18149747],[-122.56619321,49.18141345],[-122.56593802,49.18134758],[-122.56567868,49.18128883],[-122.56541697,49.18123506],[-122.56515333,49.18118557],[-122.56488823,49.18113857],[-122.56462263,49.18109336],[-122.56435663,49.18104885],[-122.56409124,49.18100327],[-122.56382614,49.18095628],[-122.56356292,49.18090607],[-122.56330109,49.1808516],[-122.56304217,49.18079214],[-122.5627872,49.18072591],[-122.56253368,49.18065719],[-122.56228003,49.18058776],[-122.56202714,49.18051798],[-122.56177445,49.18044783],[-122.56152177,49.18037769],[-122.5612695,49.18030684],[-122.56101723,49.18023598],[-122.56076538,49.18016441],[-122.56051407,49.18009285],[-122.56026243,49.18002093],[-122.560011,49.17994865],[-122.55975977,49.17987601],[-122.5595093,49.17980302],[-122.55925828,49.17973003],[-122.55900769,49.17965633],[-122.55875763,49.17958263],[-122.55850758,49.17950892],[-122.5582574,49.17943451],[-122.55800776,49.17936009],[-122.55775779,49.17928532],[-122.55750857,49.17921019],[-122.55725936,49.17913507],[-122.55701055,49.17905923],[-122.55686881,49.1790165],[-122.55676155,49.17898375],[-122.55651241,49.17890755],[-122.55626437,49.17883136],[-122.55601544,49.1787548],[-122.5557676,49.17867825],[-122.55551943,49.17860134],[-122.55527126,49.17852444],[-122.55502384,49.17844717],[-122.55477609,49.17836956],[-122.55452834,49.17829194],[-122.55428079,49.17821396],[-122.5540338,49.17813598],[-122.55378646,49.17805765],[-122.55353967,49.17797932],[-122.55329434,49.1778985],[-122.55305217,49.17781411],[-122.55281263,49.17772617],[-122.55257625,49.17763466],[-122.55234242,49.17754067],[-122.55211134,49.17744382],[-122.55188227,49.17734448],[-122.55165607,49.17724301],[-122.55143187,49.17713904],[-122.5512096,49.17703365],[-122.55098966,49.17692612],[-122.55077185,49.17681681],[-122.55055617,49.17670572],[-122.55034208,49.17659285],[-122.55013066,49.17647821],[-122.54992061,49.17636213],[-122.54981323,49.1763016],[-122.54971303,49.17624463],[-122.54950684,49.17612571],[-122.54930289,49.17600572],[-122.54910054,49.17588395],[-122.5488999,49.17576112],[-122.54870076,49.17563757],[-122.5485028,49.17551295],[-122.54830558,49.17538797],[-122.54811009,49.17526193],[-122.54791596,49.17513446],[-122.54772335,49.17500628],[-122.5475332,49.17487668],[-122.54734552,49.17474565],[-122.54715976,49.1746132],[-122.54697668,49.17447897],[-122.54679715,49.17434331],[-122.5466205,49.17420552],[-122.54644783,49.17406559],[-122.54628815,49.17391926],[-122.54610336,49.17378609],[-122.5459205,49.17365151],[-122.54573805,49.17351621],[-122.54555635,49.17338055],[-122.54537466,49.17324489],[-122.54519201,49.17310995],[-122.54500785,49.17297572],[-122.54482178,49.17284291],[-122.54463337,49.17271224],[-122.54444208,49.1725837],[-122.54426725,49.17247084],[-122.54424696,49.17245802],[-122.54404724,49.17233554],[-122.54384305,49.17221697],[-122.54363311,49.17210268],[-122.54341741,49.17199266],[-122.54319691,49.1718862],[-122.54297311,49.17178259],[-122.54274589,49.17168111],[-122.542516,49.17158142],[-122.54228527,49.17148315],[-122.54205401,49.17138488],[-122.54182253,49.17128696],[-122.54159223,49.17118798],[-122.54136364,49.17108793],[-122.54117291,49.17100556],[-122.54113443,49.17098895],[-122.54089813,49.17089744],[-122.54066046,49.17080736],[-122.54042058,49.17072013],[-122.54017753,49.17063645],[-122.53993165,49.1705567],[-122.53968295,49.17048086],[-122.53943245,49.17040716],[-122.53918029,49.1703363],[-122.53892668,49.17026794],[-122.53867202,49.17020136],[-122.53841579,49.17013656],[-122.53815926,49.17007318],[-122.53790116,49.17001158],[-122.53764297,49.16995105],[-122.53738438,49.16989124],[-122.53712536,49.16983213],[-122.5368656,49.16977338],[-122.53660617,49.16971499],[-122.53634695,49.16965624],[-122.53608752,49.16959785],[-122.53582511,49.16954551],[-122.5355585,49.16950314],[-122.53528995,49.16946504],[-122.53502257,49.16942588],[-122.53475758,49.16937888],[-122.53449795,49.16932084],[-122.53424131,49.16925675],[-122.53398605,49.16919124],[-122.53373128,49.16912394],[-122.53347768,49.16905558],[-122.53322471,49.16898615],[-122.53297236,49.16891565],[-122.53272001,49.16884516],[-122.53246788,49.1687743],[-122.5322154,49.16870309],[-122.53196306,49.16863259],[-122.53171051,49.16856245],[-122.53145754,49.16849302],[-122.53120341,49.16842466],[-122.53094878,49.16835807],[-122.53069394,49.16829185],[-122.53043919,49.16822456],[-122.53018539,49.16815655],[-122.52993064,49.16808926],[-122.52967539,49.16802374],[-122.52941752,49.16796179],[-122.52915749,49.16790446],[-122.52889447,49.16785319],[-122.5286283,49.16781011],[-122.52835961,49.16777415],[-122.52808979,49.16774104],[-122.52781961,49.16771042],[-122.52754839,49.16768158],[-122.52727735,49.16765523],[-122.52700548,49.1676303],[-122.52673365,49.16760716],[-122.526461,49.16758544],[-122.52618881,49.16756479],[-122.52591599,49.16754521],[-122.5256431,49.16752669],[-122.52536979,49.16750889],[-122.52524292,49.16750078],[-122.52509682,49.16749144],[-122.52488705,49.1674786],[-122.52482343,49.16747471],[-122.52455059,49.16745797],[-122.5242772,49.16744124],[-122.52400415,49.16742486],[-122.5237306,49.16741026],[-122.52345731,49.16739709],[-122.52318361,49.16738463],[-122.52290962,49.16737359],[-122.52263575,49.16736327],[-122.52236147,49.16735365],[-122.52208753,49.16734439],[-122.52181371,49.16733585],[-122.52153956,49.16732695],[-122.52126575,49.1673184],[-122.5209916,49.1673095],[-122.52071765,49.16730024],[-122.52044338,49.16729063],[-122.52016985,49.16728066],[-122.51989618,49.16726535],[-122.51962394,49.16724292],[-122.51935176,49.16722227],[-122.51907895,49.16720269],[-122.51880564,49.16718488],[-122.51853301,49.16716779],[-122.51825934,49.16715248],[-122.51798613,49.16713824],[-122.51771209,49.16712542],[-122.51743865,49.16711438],[-122.51716437,49.16710477],[-122.51689035,49.16709658],[-122.51661604,49.16708982],[-122.51634199,49.16708448],[-122.51606765,49.16708056],[-122.51579357,49.16707807],[-122.51551886,49.16707664],[-122.51524462,49.16707629],[-122.5149703,49.167077],[-122.51469624,49.16707913],[-122.51442176,49.16708198],[-122.5141472,49.1670859],[-122.51387331,49.16709053],[-122.513599,49.16709587],[-122.51332462,49.16710228],[-122.51305036,49.1671094],[-122.51277624,49.16711723],[-122.51250245,49.16712542],[-122.51222824,49.16713432],[-122.51195437,49.16714358],[-122.51168029,49.16715319],[-122.51140634,49.16716352],[-122.51113239,49.16717385],[-122.51085877,49.16718453],[-122.51058495,49.16719556],[-122.51031113,49.1672066],[-122.51003731,49.16721764],[-122.50976327,49.16722903],[-122.50948979,49.16724043],[-122.50921596,49.16725146],[-122.50894214,49.1672625],[-122.50866832,49.16727354],[-122.50839416,49.16728422],[-122.50812021,49.16729455],[-122.50784646,49.16730452],[-122.50757238,49.16731413],[-122.50729851,49.16732339],[-122.50702451,49.16733193],[-122.50675017,49.16734012],[-122.50647604,49.16734795],[-122.50620199,49.16735472],[-122.50592815,49.16736113],[-122.50565397,49.16736718],[-122.50537946,49.16737288],[-122.50510515,49.16737822],[-122.50483085,49.16738356],[-122.50455675,49.16738854],[-122.50428265,49.16739353],[-122.50400821,49.16739816],[-122.50373378,49.16740279],[-122.50345968,49.16740777],[-122.50318525,49.1674124],[-122.50291135,49.16741703],[-122.50263726,49.16742201],[-122.50236261,49.167427],[-122.50208831,49.16743234],[-122.50181434,49.16743804],[-122.50153982,49.16744373],[-122.50126564,49.16744979],[-122.5009918,49.16745619],[-122.50071754,49.16746332],[-122.50044328,49.16747044],[-122.50016915,49.16747827],[-122.49989515,49.16748681],[-122.49962148,49.16749572],[-122.49934706,49.16750497],[-122.49907311,49.1675153],[-122.49879928,49.16752634],[-122.49852579,49.16753773],[-122.49825222,49.16755019],[-122.49797823,49.16756337],[-122.49770471,49.16757761],[-122.49743131,49.16759256],[-122.49715838,49.16760859],[-122.49688503,49.16762532],[-122.49661181,49.16764277],[-122.49633893,49.16766057],[-122.49606617,49.16767908],[-122.49579355,49.16769831],[-122.4955205,49.16771825],[-122.49524779,49.16773854],[-122.49497576,49.16775955],[-122.49470297,49.16778091],[-122.49443085,49.16780299],[-122.49415853,49.16782542],[-122.49388654,49.16784821],[-122.49361468,49.16787171],[-122.49334261,49.16789556],[-122.49307088,49.16791977],[-122.49279894,49.16794434],[-122.49252733,49.16796927],[-122.49225585,49.1679949],[-122.49198383,49.16802054],[-122.49171248,49.16804689],[-122.49144113,49.16807323],[-122.49117012,49.16809994],[-122.49089889,49.168127],[-122.49062746,49.16815441],[-122.49035658,49.16818183],[-122.49008548,49.1682096],[-122.48981418,49.16823773],[-122.48954342,49.16826586],[-122.48927245,49.16829434],[-122.48900181,49.16832318],[-122.48873064,49.16835202],[-122.48846,49.16838086],[-122.48818937,49.1684097],[-122.48791832,49.16843926],[-122.48764815,49.16846916],[-122.4873779,49.16850014],[-122.48710744,49.16853147],[-122.48683799,49.16856387],[-122.48656813,49.16859699],[-122.4862986,49.16863045],[-122.48602919,49.16866464],[-122.48575992,49.16869953],[-122.48549098,49.16873478],[-122.48522204,49.16877003],[-122.48495323,49.16880599],[-122.4846842,49.16884231],[-122.48441552,49.16887898],[-122.48414683,49.16891565],[-122.48387869,49.16895233],[-122.48361034,49.16898936],[-122.48334145,49.16902639],[-122.4830731,49.16906341],[-122.48280475,49.16910044],[-122.48253585,49.16913747],[-122.48226771,49.16917415],[-122.48199902,49.16921082],[-122.48173,49.16924714],[-122.48146151,49.16928346],[-122.48119236,49.16931906],[-122.48092342,49.16935431],[-122.48065413,49.1693892],[-122.4803854,49.1694241],[-122.48011624,49.1694597],[-122.47984776,49.16949602],[-122.47957886,49.16953305],[-122.4793105,49.16957008],[-122.47904228,49.16960782],[-122.47877405,49.16964556],[-122.47850582,49.1696833],[-122.47823759,49.16972104],[-122.47796936,49.16975879],[-122.47770113,49.16979653],[-122.47743223,49.16983356],[-122.47716408,49.16987023],[-122.47689505,49.16990655],[-122.4766261,49.1699418],[-122.47635681,49.16997669],[-122.4760876,49.17001051],[-122.47581793,49.17004327],[-122.47554779,49.17007496],[-122.47527745,49.170107],[-122.47500565,49.17012944],[-122.47473112,49.17013513],[-122.47445695,49.17013834],[-122.47418271,49.17014261],[-122.47390813,49.17014653],[-122.47363384,49.17014902],[-122.47335963,49.17015044],[-122.47324895,49.17015116],[-122.47308521,49.17015222],[-122.47308309,49.17015224],[-122.47308303,49.17015224],[-122.47281125,49.17015507],[-122.47253667,49.17015899],[-122.47226222,49.17016362],[-122.4719881,49.1701686],[-122.47171399,49.17017359],[-122.47143987,49.17017857],[-122.47116521,49.17018356],[-122.47089097,49.17018783],[-122.4706168,49.17019103],[-122.47034217,49.17019317],[-122.47006817,49.17019424],[-122.46979357,49.17019352],[-122.46951948,49.17019103],[-122.46924521,49.17018605],[-122.46897109,49.17017893],[-122.46869681,49.17016931],[-122.4684236,49.17015507],[-122.46831044,49.17015115],[-122.46796859,49.17012766],[-122.46769602,49.17010487],[-122.46742411,49.17007816],[-122.46715232,49.17004754],[-122.46688098,49.17001336],[-122.46661084,49.16997527],[-122.46634116,49.16993361],[-122.46607335,49.16988874],[-122.46580741,49.16984068],[-122.46554369,49.16978976],[-122.46528185,49.16973564],[-122.46502276,49.16967867],[-122.46476718,49.1696185],[-122.46451765,49.169548],[-122.4642745,49.16946753],[-122.4640356,49.16937888],[-122.46380058,49.16928452],[-122.46356743,49.16918696],[-122.46333437,49.16908834],[-122.46310027,49.16899149],[-122.46137904,49.1684838],[-122.46131012,49.16846347],[-122.46146097,49.17120756],[-122.46119141,49.17124103],[-122.46092151,49.17127414],[-122.46065182,49.1713069],[-122.46038146,49.17133895],[-122.46011152,49.17137028],[-122.45984111,49.17140054],[-122.45957024,49.17142974],[-122.45929912,49.17145751],[-122.45902794,49.1714835],[-122.4587563,49.17150843],[-122.4584842,49.17153228],[-122.45821218,49.17155507],[-122.45794003,49.17157714],[-122.45766741,49.17159815],[-122.45739501,49.1716188],[-122.45712227,49.1716391],[-122.4568494,49.17165868],[-122.45657619,49.17167791],[-122.45630353,49.17169713],[-122.45603086,49.17171636],[-122.45575766,49.17173559],[-122.45548487,49.1717541],[-122.45521208,49.17177262],[-122.45493895,49.17179078],[-122.4546657,49.17180822],[-122.45446302,49.1718214],[-122.45439299,49.17182567],[-122.4541194,49.17184276],[-122.45384656,49.17185949],[-122.45357284,49.17187587],[-122.45329966,49.17189225],[-122.4530267,49.17190827],[-122.45275339,49.17192394],[-122.45248009,49.17193961],[-122.45220565,49.17193676],[-122.45193166,49.17193035],[-122.45165762,49.17192216],[-122.45138333,49.17191255],[-122.45110953,49.17190115],[-122.45083582,49.17188869],[-122.45056219,49.17187516],[-122.45028884,49.17186021],[-122.45001592,49.17184454],[-122.44974232,49.17182816],[-122.44946935,49.17181072],[-122.44919637,49.17179327],[-122.44892327,49.17177511],[-122.44865017,49.17175695],[-122.44837728,49.17173844],[-122.44810439,49.17171992],[-122.4478313,49.17170176],[-122.44755874,49.1716836],[-122.44728523,49.17166616],[-122.44701205,49.17164907],[-122.44673908,49.17163162],[-122.44646631,49.17161382],[-122.44619322,49.17159566],[-122.44592012,49.1715775],[-122.44564744,49.17155863],[-122.44537455,49.17154011],[-122.44510154,49.17152089],[-122.44482907,49.17150166],[-122.44455626,49.17148208],[-122.44428312,49.17146214],[-122.44401052,49.1714422],[-122.44373813,49.17142191],[-122.44346541,49.17140125],[-122.44319289,49.17138025],[-122.44292038,49.17135924],[-122.44264807,49.17133788],[-122.44237576,49.17131651],[-122.44210312,49.17129479],[-122.44183123,49.17127272],[-122.44155846,49.17125029],[-122.44128637,49.17122857],[-122.44101406,49.17120721],[-122.44074121,49.17118584],[-122.44046924,49.17116484],[-122.44019673,49.17114383],[-122.43992409,49.17112211],[-122.43965166,49.17110003],[-122.43937965,49.17107725],[-122.43910792,49.17105304],[-122.43883628,49.17102776],[-122.43856493,49.17100105],[-122.43829374,49.17097221],[-122.43802359,49.17094159],[-122.43775395,49.17090919],[-122.43748488,49.17087394],[-122.4372166,49.17083549],[-122.43694546,49.17080843],[-122.43667257,49.17078528],[-122.43639947,49.1707625],[-122.43612749,49.17073686],[-122.4358586,49.1707041],[-122.43559283,49.17066138],[-122.43532918,49.17061224],[-122.43506749,49.17055883],[-122.43480692,49.17050258],[-122.43454652,49.17044419],[-122.43428708,49.17038508],[-122.43402689,49.17032633],[-122.4337662,49.17026936],[-122.43350459,49.17021489],[-122.43324178,49.17016433],[-122.4329766,49.17011875],[-122.43270945,49.17007745],[-122.43244152,49.17003935],[-122.43217234,49.17000339],[-122.43190169,49.16996992],[-122.43163096,49.16993752],[-122.43135961,49.16990619],[-122.4310886,49.16987521],[-122.43081725,49.16984388],[-122.43054686,49.16981184],[-122.43027655,49.16977872],[-122.4300075,49.16974348],[-122.42973936,49.16970573],[-122.42947256,49.16966479],[-122.42920763,49.16962064],[-122.42894467,49.16957221],[-122.42868387,49.16951916],[-122.42842483,49.16946219],[-122.42816766,49.16940202],[-122.42791129,49.16933864],[-122.42765713,49.16927242],[-122.42740334,49.1692037],[-122.42715093,49.16913356],[-122.42689923,49.16906128],[-122.42664761,49.16898793],[-122.42639717,49.16891352],[-122.42614639,49.16883875],[-122.42589636,49.16876362],[-122.42564558,49.16868885],[-122.42539514,49.16861443],[-122.42514408,49.16854109],[-122.42489239,49.16846881],[-122.42463965,49.16839831],[-122.42440656,49.1683036],[-122.4241725,49.1682096],[-122.42393824,49.16811596],[-122.42370343,49.16802232],[-122.42346896,49.16792903],[-122.42323416,49.16783539],[-122.4229999,49.16774175],[-122.4227664,49.16764775],[-122.42253298,49.16755268],[-122.42230086,49.16745726],[-122.42206882,49.16736077],[-122.42183883,49.16726357],[-122.42160935,49.16716459],[-122.42138137,49.16706489],[-122.42115423,49.16696377],[-122.42092805,49.16686194],[-122.42070271,49.16675869],[-122.42047908,49.16665436],[-122.42025684,49.16654862],[-122.42003577,49.1664418],[-122.41981662,49.16633356],[-122.4195994,49.1662239],[-122.41938356,49.16611281],[-122.41917019,49.1660003],[-122.41895732,49.165886],[-122.41874713,49.16576993],[-122.41853874,49.16565172],[-122.41833433,49.16553138],[-122.41813431,49.16540818],[-122.41793835,49.16528178],[-122.41774842,49.16515254],[-122.41756363,49.16502008],[-122.41738153,49.16488585],[-122.41720189,49.1647502],[-122.41702473,49.16461312],[-122.41684907,49.16447532],[-122.4166748,49.16433611],[-122.41650182,49.16419654],[-122.41632927,49.16405625],[-122.41615801,49.16391561],[-122.41598642,49.16377461],[-122.41581517,49.16363397],[-122.41564337,49.16349333],[-122.41547083,49.16335305],[-122.41529786,49.16321347],[-122.41512737,49.16307248],[-122.41496086,49.16292935],[-122.41479564,49.16278586],[-122.41463064,49.16264201],[-122.41446672,49.16249817],[-122.41430247,49.16235396],[-122.40831494,49.15726491],[-122.40819904,49.15718408],[-122.40800983,49.15705377],[-122.40781966,49.15692417],[-122.40762832,49.15679563],[-122.40743622,49.15666745],[-122.40724125,49.15654141],[-122.40704305,49.15641715],[-122.40684272,49.15629467],[-122.40664067,49.15617325],[-122.40643616,49.15605326],[-122.40623069,49.15593399],[-122.4060235,49.15581578],[-122.40581611,49.15569792],[-122.40560817,49.15558007],[-122.40540002,49.15546257],[-122.40519209,49.15534472],[-122.40498545,49.15522651],[-122.40477924,49.15510759],[-122.40457419,49.1549876],[-122.40437087,49.15486654],[-122.4041698,49.15474441],[-122.40397142,49.15462051],[-122.40377345,49.15449589],[-122.40357624,49.15437091],[-122.40354318,49.15435026],[-122.40337849,49.15424594],[-122.40318129,49.15412097],[-122.40298375,49.15399564],[-122.40278696,49.15386995],[-122.40259093,49.15374391],[-122.40239511,49.15361751],[-122.40219984,49.15349111],[-122.40200519,49.15336364],[-122.40181164,49.15323618],[-122.4016185,49.153108],[-122.40142667,49.15297946],[-122.401236,49.15284986],[-122.40104664,49.1527199],[-122.40085824,49.15258923],[-122.40067135,49.15245785],[-122.40048563,49.15232539],[-122.40030176,49.15219259],[-122.40011927,49.15205836],[-122.40000005,49.15196934],[-122.39993883,49.15192341],[-122.39976237,49.15178633],[-122.39958859,49.15164747],[-122.39941749,49.15150683],[-122.39924919,49.15136512],[-122.39908283,49.15122199],[-122.39891851,49.15107814],[-122.39875483,49.15093323],[-122.39859278,49.15078832],[-122.3984306,49.15064269],[-122.39826897,49.15049707],[-122.3981068,49.15035144],[-122.39794442,49.15020617],[-122.39778054,49.15006161],[-122.39761569,49.14991777],[-122.3974488,49.14977464],[-122.39727998,49.14963293],[-122.3971089,49.14949229],[-122.39693557,49.14935271],[-122.39676094,49.1492135],[-122.39658459,49.14907535],[-122.39640695,49.14893756],[-122.3962291,49.14880012],[-122.3960505,49.14866304],[-122.39587136,49.14852596],[-122.39569297,49.14838852],[-122.39551513,49.14825109],[-122.39533804,49.1481133],[-122.39516171,49.14797515],[-122.39498743,49.14783629],[-122.39481487,49.14769636],[-122.39464382,49.14755572],[-122.39447612,49.14741401],[-122.39431088,49.14727087],[-122.39414812,49.14712632],[-122.39398926,49.14698069],[-122.39383437,49.14683293],[-122.39368305,49.14668375],[-122.39353344,49.14653349],[-122.39338664,49.14638217],[-122.39324155,49.14622978],[-122.39309852,49.14607668],[-122.392957,49.14592286],[-122.3928172,49.14576798],[-122.39267944,49.14561238],[-122.39254266,49.14545608],[-122.39240771,49.14529941],[-122.39227428,49.14514204],[-122.3921416,49.14498431],[-122.39201043,49.14482586],[-122.39188001,49.14466706],[-122.3917509,49.14450791],[-122.39162199,49.1443484],[-122.39149472,49.14418889],[-122.39136733,49.14402866],[-122.39124081,49.1438688],[-122.39111451,49.14370857],[-122.3909893,49.14354835],[-122.39086334,49.14338848],[-122.39073813,49.14322826],[-122.39061326,49.14306839],[-122.39048935,49.14290781],[-122.39036729,49.14274687],[-122.39024598,49.14258558],[-122.39012597,49.14242393],[-122.39000726,49.14226193],[-122.38988931,49.14209957],[-122.38977211,49.14193686],[-122.38965566,49.14177378],[-122.38954031,49.14161071],[-122.38942517,49.14144728],[-122.38931057,49.14128385],[-122.38919564,49.14112007],[-122.38908159,49.14095664],[-122.38896721,49.14079286],[-122.38885338,49.14062907],[-122.38873879,49.14046565],[-122.38866047,49.14035349],[-122.3884882,49.14021321],[-122.38831627,49.14007328],[-122.38814455,49.13993299],[-122.38797283,49.13979271],[-122.3878009,49.13965278],[-122.38762864,49.13951249],[-122.38745693,49.13937221],[-122.38728501,49.13923228],[-122.3871133,49.139092],[-122.38694104,49.13895171],[-122.38676912,49.13881178],[-122.38659742,49.1386715],[-122.38642571,49.13853121],[-122.3862538,49.13839129],[-122.38608156,49.138251],[-122.38590965,49.13811107],[-122.38573795,49.13797079],[-122.38556571,49.1378305],[-122.38539381,49.13769058],[-122.38522212,49.13755029],[-122.38412368,49.13669149],[-122.38293668,49.13599363],[-122.38156336,49.13541469],[-122.3640107,49.13204999],[-122.35932755,49.13122538],[-122.35871347,49.13114633],[-122.35859003,49.13218227],[-122.35857978,49.13226842],[-122.35846526,49.13322888],[-122.35824658,49.13365971],[-122.35809729,49.13383204],[-122.35790533,49.1339474],[-122.35744149,49.13399582],[-122.35662029,49.13385625],[-122.3562966,49.13390325],[-122.35615589,49.1339944],[-122.35603504,49.13425644],[-122.35585687,49.13475777],[-122.35547735,49.1354656],[-122.35548826,49.1356949],[-122.35564992,49.13585299],[-122.35571601,49.13594414],[-122.35581191,49.13602532],[-122.35600221,49.13617913],[-122.35602847,49.1362418],[-122.35602642,49.13630446],[-122.35598313,49.13646682],[-122.35592748,49.13656509],[-122.35583115,49.13665482],[-122.35558259,49.13677018],[-122.35549919,49.13679724],[-122.35534914,49.13682288],[-122.35518521,49.13681291],[-122.35508862,49.1367773],[-122.35500729,49.13668615],[-122.35490106,49.13649673],[-122.35480654,49.13634292],[-122.35468385,49.13627028],[-122.35449367,49.13619765],[-122.35435519,49.13619622],[-122.35427382,49.13617913],[-122.35409616,49.13617771],[-122.35394531,49.13614922],[-122.35372546,49.13613071],[-122.35339626,49.13612786],[-122.35327367,49.13615492],[-122.35301204,49.1362888],[-122.35287218,49.13636001],[-122.3526802,49.13649388],[-122.35262373,49.13655655],[-122.35261719,49.13658119],[-122.3526055,49.1366259],[-122.3525957,49.13666336],[-122.35258777,49.13667503],[-122.35249799,49.13680721],[-122.35238574,49.13690548],[-122.35234246,49.13703081],[-122.35228542,49.13722023],[-122.35229738,49.13738117],[-122.35236359,49.13755349],[-122.352443,49.13776997],[-122.35238803,49.1378597],[-122.35241292,49.13795797],[-122.35243847,49.13808472],[-122.35243738,49.13824566],[-122.35251816,49.13842653],[-122.35254167,49.13861595],[-122.35249977,49.13866865],[-122.35236194,49.13869571],[-122.35228087,49.13874841],[-122.3522244,49.13881107],[-122.35222371,49.13885665],[-122.35226246,49.13904607],[-122.35237211,49.13910019],[-122.35245401,49.1390831],[-122.35259183,49.13907455],[-122.35276882,49.13908452],[-122.35297547,49.1390774],[-122.35324976,49.13909591],[-122.35350946,49.13914291],[-122.35372645,49.139207],[-122.3539746,49.13924403],[-122.35427485,49.13925542],[-122.35441064,49.13929103],[-122.35443826,49.13931809],[-122.35436804,49.13942633],[-122.3542724,49.13947048],[-122.35421674,49.13960578],[-122.35432231,49.13982226],[-122.35437633,49.13997465],[-122.35444189,49.14017404],[-122.35453713,49.14026377],[-122.35463156,49.14031788],[-122.35469835,49.14038197],[-122.35475373,49.14048024],[-122.35481931,49.1406426],[-122.3549128,49.14081311],[-122.35491386,49.14081493],[-122.35495318,49.14089611],[-122.35499263,49.14105847],[-122.35500313,49.14119235],[-122.35498816,49.14137322],[-122.35494422,49.14152561],[-122.35486179,49.14163243],[-122.3548328,49.141678],[-122.35461049,49.14189306],[-122.35447282,49.14194576],[-122.35432125,49.14196285],[-122.35402098,49.14196997],[-122.35391077,49.14200557],[-122.35385364,49.14207678],[-122.3537705,49.1422662],[-122.35365909,49.14240008],[-122.35344985,49.14257811],[-122.35320142,49.14279316],[-122.35306169,49.14294555],[-122.35303285,49.14303528],[-122.35296212,49.14321473],[-122.35294716,49.14335857],[-122.35290405,49.14354657],[-122.35280637,49.1436719],[-122.35275058,49.14374453],[-122.35264037,49.14378014],[-122.3523367,49.14390404],[-122.35213004,49.14391117],[-122.35187096,49.14389265],[-122.35170702,49.14384565],[-122.35155463,49.14382714],[-122.35136454,49.14383568],[-122.35128197,49.14386132],[-122.35098999,49.14407637],[-122.35068494,49.14427291],[-122.35053352,49.14435267],[-122.35028493,49.14448655],[-122.35006601,49.1445663],[-122.34985934,49.14459194],[-122.34959757,49.1446076],[-122.3493785,49.14464321],[-122.34910449,49.14469448],[-122.34885711,49.14473009],[-122.34852634,49.14473721],[-122.34831668,49.14474178],[-122.34819775,49.14474433],[-122.34802006,49.1447429],[-122.34777271,49.14472296],[-122.34747227,49.14468594],[-122.34723933,49.14464891],[-122.34691061,49.14457485],[-122.34673427,49.14453782],[-122.3464454,49.14447373],[-122.34616023,49.14439967],[-122.34596865,49.14436264],[-122.34578947,49.14433416],[-122.34550209,49.14431564],[-122.34518656,49.14432276],[-122.3449124,49.14432988],[-122.34462464,49.14440821],[-122.3443491,49.14450649],[-122.34415548,49.14453212],[-122.34400405,49.14461188],[-122.34369965,49.14479987],[-122.3435599,49.14495226],[-122.34340792,49.14512174],[-122.34328328,49.14519295],[-122.34313102,49.1452371],[-122.34281427,49.1453425],[-122.3425126,49.14544077],[-122.34218263,49.14550201],[-122.34190779,49.14553619],[-122.34181064,49.14555328],[-122.34148136,49.14558746],[-122.34124855,49.1456131],[-122.34091857,49.14569285],[-122.34065681,49.14569],[-122.34045147,49.14569855],[-122.34028682,49.14573415],[-122.34016301,49.14582245],[-122.34010599,49.14597484],[-122.34008814,49.14616426],[-122.34011315,49.14638074],[-122.34019261,49.1465602],[-122.34022036,49.14666843],[-122.34015014,49.14677667],[-122.3399561,49.1469547],[-122.33970614,49.14712418],[-122.33942922,49.14725806],[-122.33932051,49.14728369],[-122.33926471,49.14733781],[-122.33923722,49.14739193],[-122.33919257,49.1475899],[-122.33915134,49.14765256],[-122.33908114,49.14770526],[-122.33881811,49.14787474],[-122.33849996,49.14807128],[-122.33847899,49.14808138],[-122.33839056,49.14812398],[-122.33818263,49.14830343],[-122.33804357,49.14839173],[-122.33786584,49.14844585],[-122.33771357,49.14849],[-122.33749178,49.1485783],[-122.33717499,49.14872072],[-122.336983,49.14881757],[-122.33676132,49.14900556],[-122.33671723,49.14909529],[-122.33667394,49.14925765],[-122.33665843,49.1494727],[-122.33662823,49.14959803],[-122.33658563,49.14971482],[-122.33647349,49.14991278],[-122.33634897,49.15006517],[-122.33622311,49.15025317],[-122.33617984,49.1503785],[-122.33616336,49.1505138],[-122.33606649,49.15065622],[-122.33599491,49.15080007],[-122.33598129,49.15092682],[-122.33597973,49.15100562],[-122.33597735,49.15113333],[-122.33597628,49.15131278],[-122.33598676,49.15148369],[-122.33601167,49.15160047],[-122.33603944,49.15170871],[-122.33605128,49.1518255],[-122.33608856,49.15202489],[-122.33610055,49.15222285],[-122.33609866,49.15234818],[-122.33610847,49.15254615],[-122.33609488,49.15263587],[-122.33607789,49.15284238],[-122.33604851,49.15302183],[-122.3359647,49.15320128],[-122.33576983,49.15338073],[-122.33567266,49.15343485],[-122.3354242,49.15359437],[-122.33525682,49.15371969],[-122.33496697,49.15391624],[-122.33474666,49.1540316],[-122.33467713,49.15409426],[-122.33437203,49.1542908],[-122.33415089,49.15437056],[-122.33404014,49.15445886],[-122.33387411,49.15454859],[-122.33383154,49.15462834],[-122.33379598,49.15475642],[-122.33378894,49.15478216],[-122.33382926,49.15494309],[-122.33388181,49.15510545],[-122.33391994,49.15532193],[-122.33390363,49.15553841],[-122.33381901,49.15564523],[-122.33369436,49.15571644],[-122.33348779,49.15580474],[-122.33319846,49.15591155],[-122.33310212,49.15598276],[-122.33297544,49.15611664],[-122.33283719,49.15631461],[-122.33279243,49.15643139],[-122.33277749,49.15653821],[-122.33276389,49.15664645],[-122.33276051,49.15676323],[-122.33277455,49.15688002],[-122.3328395,49.15708795],[-122.33285151,49.1572674],[-122.33279369,49.15738419],[-122.33272416,49.15744685],[-122.33251773,49.15761633],[-122.3324343,49.15766191],[-122.33224027,49.15783993],[-122.33215496,49.15801084],[-122.33207048,49.15821735],[-122.33199975,49.15837828],[-122.33192835,49.15856628],[-122.3318712,49.15869303],[-122.33180182,49.15881837],[-122.33159254,49.15901491],[-122.33141209,49.15912172],[-122.33112292,49.15927269],[-122.33092924,49.15933535],[-122.33061513,49.15936953],[-122.33035328,49.1593852],[-122.33002325,49.15942793],[-122.32977731,49.15947208],[-122.32952785,49.15955183],[-122.32927988,49.15965865],[-122.32916845,49.15977401],[-122.3291252,49.15989934],[-122.32913841,49.16001755],[-122.32918896,49.16022406],[-122.32915908,49.16051175],[-122.32919791,49.16071968],[-122.3292912,49.16087207],[-122.32931629,49.16108855],[-122.32934107,49.16116119],[-122.32932749,49.1612324],[-122.32934004,49.16132213],[-122.32928289,49.16144888],[-122.32923965,49.16157421],[-122.32930613,49.16179069],[-122.32932772,49.16183477],[-122.32939942,49.16198011],[-122.32950729,49.16217807],[-122.32961298,49.16237604],[-122.32965183,49.16256546],[-122.32981331,49.16276485],[-122.32998937,49.16295427],[-122.33022123,49.16314511],[-122.33027517,49.16321632],[-122.33036765,49.16337014],[-122.33042108,49.16358662],[-122.33043297,49.1637034],[-122.33043028,49.16383016],[-122.3304291,49.16394694],[-122.33039961,49.16404521],[-122.33038469,49.16420757],[-122.33035588,49.1642973],[-122.33031214,49.16451235],[-122.3302545,49.1646918],[-122.33019686,49.16490828],[-122.3301523,49.16508773],[-122.33011058,49.16524012],[-122.33008059,49.16542812],[-122.33002212,49.16560899],[-122.32995074,49.16581551],[-122.3298395,49.16603056],[-122.32978053,49.16624562],[-122.32977936,49.16638092],[-122.32977752,49.16650625],[-122.32980182,49.16668712],[-122.32981256,49.16690218],[-122.32985278,49.16703748],[-122.32989015,49.16721835],[-122.32989117,49.16729811],[-122.32991547,49.16746047],[-122.32992738,49.16761428],[-122.32991097,49.16771255],[-122.32989541,49.16790197],[-122.32986561,49.16815263],[-122.32982039,49.16835914],[-122.32977802,49.16855711],[-122.32969275,49.16872801],[-122.32966261,49.16885334],[-122.32967519,49.16894307],[-122.32966146,49.16900716],[-122.32967203,49.16915955],[-122.32969902,49.16919515],[-122.32986275,49.16939454],[-122.33008009,49.1695213],[-122.33030985,49.16969363],[-122.33054112,49.16991153],[-122.33075781,49.17008386],[-122.33108493,49.17026474],[-122.33132976,49.1703744],[-122.33145193,49.17045558],[-122.33169762,49.17061936],[-122.33197011,49.1707746],[-122.33225567,49.17089281],[-122.33252968,49.17101957],[-122.33277385,49.17115629],[-122.33308575,49.17135568],[-122.33320945,49.17148243],[-122.33323427,49.17153655],[-122.33335665,49.17173594],[-122.33342305,49.17185273],[-122.33344872,49.17196097],[-122.33344758,49.17207775],[-122.33343187,49.17218599],[-122.33341634,49.1723569],[-122.33342695,49.1725278],[-122.33339817,49.17263604],[-122.3333689,49.17279698],[-122.33331198,49.17296788],[-122.33325639,49.17308467],[-122.33314283,49.17323706],[-122.33296391,49.17335242],[-122.33282686,49.17341509],[-122.33249477,49.17353899],[-122.33223371,49.17360878],[-122.33208207,49.17364438],[-122.33184736,49.17379535],[-122.33179024,49.17388508],[-122.33171959,49.17406453],[-122.33166202,49.17426249],[-122.33162017,49.17437073],[-122.33154951,49.17453167],[-122.33144987,49.17471966],[-122.33133717,49.17492617],[-122.33131206,49.17504122],[-122.33128472,49.17502836],[-122.33106704,49.17494229],[-122.33056796,49.17474494],[-122.33004341,49.17464596],[-122.32959782,49.17465169],[-122.32946225,49.17465344],[-122.32763606,49.17485176],[-122.32696226,49.17495751],[-122.32613673,49.1751277],[-122.32589559,49.17516014],[-122.32575823,49.17517861],[-122.32557416,49.17517847],[-122.32529169,49.17517826],[-122.32515866,49.17515265],[-122.32514002,49.17514906],[-122.32477531,49.17507928],[-122.32472956,49.17505793],[-122.32434793,49.17487989],[-122.32430156,49.17484592],[-122.32414429,49.1747307],[-122.32408852,49.17465737],[-122.32373407,49.17419377],[-122.323687,49.17413909],[-122.32360626,49.1740453],[-122.32349508,49.17391661],[-122.32330297,49.17369423],[-122.32282016,49.17326412],[-122.32172999,49.1726072],[-122.32171641,49.17259902],[-122.32167103,49.17257167],[-122.31996369,49.17154296],[-122.31912489,49.17103773],[-122.31788771,49.1703288],[-122.31746555,49.17008707],[-122.31736771,49.17003094],[-122.31732589,49.17000695],[-122.31628176,49.16938992],[-122.31621478,49.169339],[-122.31596485,49.16914922],[-122.31492139,49.16914418],[-122.31397903,49.16913961],[-122.31285372,49.169134],[-122.31212261,49.16913035],[-122.31194847,49.16912956],[-122.31134543,49.16912679],[-122.30921899,49.16911647],[-122.30859249,49.16911332],[-122.30829704,49.16911184],[-122.30758184,49.16910899],[-122.30580336,49.16910187],[-122.3027943,49.16908936],[-122.3021224,49.16908656],[-122.29925125,49.16908896],[-122.29913208,49.16908875],[-122.29640648,49.16908407],[-122.2957368,49.16908284],[-122.2944721,49.16908051],[-122.29385607,49.16907952],[-122.29314135,49.16907837],[-122.28857509,49.16907002],[-122.28390906,49.16906128],[-122.2833009,49.16906027],[-122.28283351,49.1690595],[-122.28282806,49.16969648],[-122.28281883,49.17079476],[-122.28281347,49.17143259],[-122.28280935,49.17189854],[-122.28280168,49.17276743],[-122.28278353,49.1746246],[-122.28277672,49.17543308],[-122.28276897,49.17635288],[-122.28277057,49.17669898],[-122.28277062,49.17670893],[-122.28231502,49.17674743],[-122.28227769,49.17675059],[-122.28219744,49.17671878],[-122.28212049,49.17668828],[-122.27887776,49.17673593],[-122.27836477,49.17674346],[-122.27781823,49.1767513],[-122.2774481,49.17674874],[-122.2774413,49.1767488],[-122.27596362,49.17673848],[-122.27559364,49.17673599],[-122.27527558,49.17673382],[-122.27527202,49.1767338],[-122.27380216,49.17672378],[-122.27303535,49.17671854],[-122.2727586,49.17670972],[-122.27090226,49.17665053],[-122.27040246,49.17663451],[-122.26965388,49.17666264],[-122.26965319,49.17788141],[-122.26965113,49.18098618],[-122.269649,49.18402046],[-122.26964843,49.18650289],[-122.26964466,49.19125865],[-122.26964417,49.19136404],[-122.2696418,49.19182798],[-122.2696376,49.19245605],[-122.26962752,49.19444384],[-122.26962534,49.19487294],[-122.26961929,49.19598097],[-122.26961865,49.19608387],[-122.26960576,49.19849684],[-122.26959774,49.20000009],[-122.26959726,49.20209902],[-122.26959448,49.20580624],[-122.26962518,49.21296146],[-122.26958053,49.2272794],[-122.2695783,49.23089974],[-122.26957604,49.2345126],[-122.2695762,49.2345977],[-122.26957629,49.23812297],[-122.26957652,49.24179173],[-122.26957647,49.24534763],[-122.26957683,49.24897794],[-122.26956944,49.25011339],[-122.26955695,49.25217814],[-122.26955373,49.25265738],[-122.26955363,49.25269192],[-122.26954966,49.25333317],[-122.26954541,49.25401857],[-122.26953119,49.2563265],[-122.26948484,49.26370106],[-122.27324214,49.26374343],[-122.27327032,49.26600685],[-122.27334049,49.27169337],[-122.27336032,49.27329026],[-122.27345187,49.2805726],[-122.27348297,49.28468785],[-122.2768689,49.28885521],[-122.28592734,49.29999988],[-122.2917236,49.30712485],[-122.29417662,49.31013954],[-122.29417599,49.35294131],[-122.30235086,49.35295214],[-122.32058158,49.35297406],[-122.33036055,49.35298475],[-122.33655299,49.35299085],[-122.34144261,49.35299543],[-122.36023257,49.35304127],[-122.36473443,49.36031646],[-122.37383454,49.35793294],[-122.37088492,49.3530658],[-122.37910927,49.35308403],[-122.37911078,49.35308314]]]},"geometry_name":"SHAPE","properties":{"id":294,"slug":"maple-ridge-east","name":"Maple Ridge East","abbreviation":"MAE","gazetteDate":"2023-12-07Z","boundarySet":11},"bbox":[-122.60377856,49.13114633,-122.26948484,49.36031646]}
