{"type":"Feature","id":298,"geometry":{"type":"Polygon","coordinates":[[[-124.02128351,49.36189211],[-124.02585146,49.25475411],[-124.02604613,49.25017697],[-124.02614286,49.24790218],[-124.0262289,49.24795251],[-124.02662379,49.2482224],[-124.02686436,49.24836767],[-124.02767674,49.24874295],[-124.02795283,49.24889106],[-124.02823048,49.24902351],[-124.02862265,49.24917875],[-124.02889979,49.24928842],[-124.0293614,49.24950169],[-124.02956113,49.24975663],[-124.03042381,49.25053033],[-124.03122188,49.25097326],[-124.03148538,49.25108791],[-124.03189426,49.25124457],[-124.03323141,49.25157356],[-124.03355152,49.2516202],[-124.0338817,49.25166934],[-124.03416086,49.25172595],[-124.03482552,49.25182636],[-124.03517019,49.25185912],[-124.03565486,49.25189223],[-124.03609389,49.25190327],[-124.03661174,49.25190291],[-124.03673993,49.25190291],[-124.03734615,49.25186695],[-124.03855832,49.25181924],[-124.03885504,49.25180642],[-124.03919494,49.25179147],[-124.03947832,49.25178007],[-124.0399108,49.25174445],[-124.04000575,49.25173663],[-124.04039029,49.25166542],[-124.04070797,49.25160667],[-124.04102239,49.25150734],[-124.04168913,49.25152977],[-124.04207442,49.2514582],[-124.04216872,49.25143755],[-124.0424162,49.25138343],[-124.0429081,49.25125205],[-124.04343629,49.25114487],[-124.04373845,49.25108755],[-124.04401222,49.25103521],[-124.04441267,49.25099747],[-124.04479841,49.25100423],[-124.04547422,49.25100032],[-124.04596162,49.25098394],[-124.04646122,49.2509494],[-124.0468431,49.25090774],[-124.04733868,49.25076176],[-124.04763757,49.25084294],[-124.04796562,49.25079701],[-124.04829035,49.25081944],[-124.04876772,49.2507995],[-124.04943786,49.25075144],[-124.04979771,49.25085861],[-124.05077667,49.25092519],[-124.05121166,49.25091878],[-124.0515416,49.25090703],[-124.05228474,49.2508344],[-124.0527477,49.25090988],[-124.05314563,49.25097468],[-124.05318255,49.2509845],[-124.05397869,49.25119615],[-124.05434354,49.25129228],[-124.05461531,49.25137916],[-124.05488313,49.25150983],[-124.05491452,49.25152514],[-124.05528354,49.25167112],[-124.05546234,49.25174162],[-124.05575873,49.25188974],[-124.05605616,49.25204391],[-124.05617163,49.25210657],[-124.05654629,49.25231166],[-124.05700257,49.25263887],[-124.05755589,49.25287315],[-124.05773008,49.25296786],[-124.05819103,49.25326089],[-124.05889141,49.25356888],[-124.05943521,49.25375118],[-124.05951823,49.25377575],[-124.05996144,49.25395448],[-124.06009559,49.25397834],[-124.06018313,49.25401252],[-124.06077976,49.25415636],[-124.0608178,49.25416455],[-124.06108118,49.25425285],[-124.06156757,49.25435421],[-124.06160575,49.25436216],[-124.06163052,49.25436572],[-124.06212567,49.25447396],[-124.06277148,49.25452559],[-124.06293192,49.25454233],[-124.06307337,49.25456084],[-124.06329993,49.25458826],[-124.06340124,49.25455586],[-124.06467953,49.25480118],[-124.06591893,49.25489624],[-124.06727569,49.25484461],[-124.06860571,49.25490194],[-124.06878263,49.25489767],[-124.06882504,49.25499202],[-124.07110065,49.25539471],[-124.07282519,49.25549548],[-124.07307946,49.25543495],[-124.07366336,49.25550295],[-124.07484408,49.25691257],[-124.07623263,49.25759904],[-124.07819635,49.25777884],[-124.07823756,49.25794084],[-124.07868885,49.25843104],[-124.07907508,49.25885056],[-124.08064449,49.25959827],[-124.08224206,49.25991622],[-124.08331355,49.26003123],[-124.08462348,49.25986958],[-124.0869451,49.2593704],[-124.08772123,49.25917742],[-124.08873544,49.2587619],[-124.08946452,49.25854435],[-124.09012823,49.25828792],[-124.09041369,49.25817762],[-124.09164945,49.25751109],[-124.09211066,49.25703968],[-124.09211264,49.25704003],[-124.09479468,49.25734909],[-124.09677935,49.25734909],[-124.09815959,49.25705249],[-124.09833397,49.25694176],[-124.09922229,49.25712192],[-124.10243584,49.25772045],[-124.10441944,49.25767381],[-124.1049271,49.25754527],[-124.10712621,49.25825632],[-124.10785079,49.25849059],[-124.10988447,49.25878754],[-124.11167063,49.25868927],[-124.11350718,49.25849501],[-124.113662,49.25847864],[-124.11415147,49.25842686],[-124.11429879,49.25837277],[-124.11461214,49.25825773],[-124.11503183,49.25819293],[-124.11592154,49.25799853],[-124.11692832,49.25793558],[-124.11925821,49.25778988],[-124.11927401,49.25774822],[-124.12215871,49.25756877],[-124.12214897,49.25706737],[-124.12208837,49.25394879],[-124.12215037,49.25394416],[-124.12246615,49.25394131],[-124.12276883,49.25393846],[-124.12309663,49.25392564],[-124.12330252,49.25392422],[-124.12364744,49.25391995],[-124.12396322,49.2539171],[-124.1242386,49.25392422],[-124.12451291,49.25392137],[-124.12469269,49.25395555],[-124.12497046,49.25406949],[-124.12531629,49.25421048],[-124.12542664,49.25427173],[-124.12574894,49.25447539],[-124.12599162,49.254276],[-124.12594516,49.25408658],[-124.12594468,49.25402391],[-124.12599843,49.25396979],[-124.12618943,49.25393989],[-124.12640841,49.25393846],[-124.12671149,49.25396267],[-124.12691897,49.25401394],[-124.12721084,49.25410224],[-124.1272935,49.2541464],[-124.12761433,49.25431303],[-124.12783685,49.25446399],[-124.1280589,49.25455229],[-124.1283901,49.25462066],[-124.12856796,49.25461069],[-124.12871856,49.25459075],[-124.12903538,49.25454233],[-124.12915909,49.25455942],[-124.12924142,49.25461211],[-124.12932748,49.25473744],[-124.12939512,49.25473744],[-124.12946307,49.25467335],[-124.12956827,49.25447396],[-124.12956439,49.25433012],[-124.12963145,49.2541763],[-124.12979234,49.25402249],[-124.1299141,49.25393989],[-124.13010229,49.2537761],[-124.13024928,49.25356817],[-124.13047852,49.25337732],[-124.1306659,49.25315942],[-124.13082531,49.25296857],[-124.13108299,49.25281334],[-124.13132806,49.25272076],[-124.13160148,49.25262819],[-124.13194407,49.25255271],[-124.1319677,49.25254345],[-124.13194214,49.25341791],[-124.13192855,49.25389039],[-124.13210063,49.25486989],[-124.1345033,49.2547791],[-124.1354062,49.25464985],[-124.13575702,49.25456832],[-124.13674654,49.25472925],[-124.13788372,49.25473459],[-124.14043805,49.25460998],[-124.14087642,49.25439884],[-124.14122908,49.25447681],[-124.14130022,49.25449924],[-124.14234289,49.25493292],[-124.1426949,49.25503297],[-124.14284044,49.25189472],[-124.14283951,49.25181995],[-124.14284605,49.2515846],[-124.14284799,49.25151552],[-124.14286109,49.2513318],[-124.14286209,49.25132005],[-124.14286214,49.2512435],[-124.14287514,49.25108577],[-124.14294209,49.25025688],[-124.14294581,49.25021237],[-124.14388355,49.2505816],[-124.14421163,49.25069732],[-124.14481314,49.25087036],[-124.14607438,49.25111247],[-124.14823403,49.25140622],[-124.14822881,49.25136705],[-124.14820621,49.25119864],[-124.1482097,49.25095688],[-124.14820923,49.2508465],[-124.14821218,49.25077458],[-124.1482135,49.25070266],[-124.14821315,49.25062682],[-124.14821533,49.25055133],[-124.14821781,49.25048226],[-124.14821903,49.25040357],[-124.14822196,49.25034162],[-124.14822383,49.2502697],[-124.14822501,49.25020596],[-124.14822951,49.25014116],[-124.14823126,49.25008633],[-124.14823265,49.25002224],[-124.14823688,49.24995495],[-124.14823861,49.24989121],[-124.14824144,49.2498225],[-124.14824645,49.24975876],[-124.14824599,49.24901675],[-124.14824607,49.24901461],[-124.14825245,49.24845881],[-124.14825145,49.24798598],[-124.14833076,49.24642019],[-124.14833217,49.24639229],[-124.14832506,49.24628013],[-124.1483271,49.24618507],[-124.14832605,49.24615124],[-124.14832619,49.24612418],[-124.14832797,49.24604051],[-124.14832937,49.24597143],[-124.147968,49.24598888],[-124.14792136,49.24599137],[-124.14678295,49.24592906],[-124.14666757,49.24592265],[-124.14564926,49.24586711],[-124.14553369,49.24586106],[-124.14456746,49.24580801],[-124.14450089,49.24580409],[-124.14358888,49.2457546],[-124.14353229,49.24575139],[-124.14319866,49.24573323],[-124.14303248,49.24572398],[-124.14303857,49.2456047],[-124.14304339,49.24549468],[-124.14306053,49.24513293],[-124.14244149,49.24513209],[-124.14175691,49.24513115],[-124.14135115,49.24513054],[-124.14032967,49.24512901],[-124.13942618,49.24512759],[-124.13845014,49.24512616],[-124.13843105,49.24512617],[-124.13835162,49.24512581],[-124.13763282,49.24512474],[-124.13763278,49.24509305],[-124.13763183,49.24500546],[-124.13763082,49.2449428],[-124.13758382,49.24056513],[-124.13758809,49.23991748],[-124.13758871,49.23985979],[-124.1375731,49.23805995],[-124.13757184,49.23639291],[-124.13757205,49.23633203],[-124.13756962,49.23413875],[-124.13756951,49.23331092],[-124.13756667,49.23041195],[-124.13524048,49.2304123],[-124.13523834,49.22771805],[-124.13248483,49.22771841],[-124.13251264,49.22401831],[-124.13253958,49.22042076],[-124.13083992,49.22040581],[-124.13055455,49.22040331],[-124.12324226,49.2203378],[-124.12305062,49.22033638],[-124.12300794,49.22033566],[-124.12289877,49.22033495],[-124.12286571,49.2203346],[-124.12167428,49.22032457],[-124.12134313,49.22032178],[-124.12134294,49.22015479],[-124.12134726,49.21562972],[-124.12135374,49.21496568],[-124.12135739,49.213999],[-124.12135895,49.21341721],[-124.1213602,49.21300918],[-124.12229016,49.21300205],[-124.12693526,49.2130017],[-124.12693396,49.21194102],[-124.12692709,49.20444505],[-124.126927,49.2033274],[-124.12692687,49.20280436],[-124.12692674,49.20270965],[-124.12692669,49.20214495],[-124.13613965,49.20214424],[-124.13614575,49.20022171],[-124.13614645,49.2000008],[-124.13614645,49.20000072],[-124.13616992,49.1993567],[-124.13267375,49.19935316],[-124.10445563,49.19932039],[-124.09969869,49.1993154],[-124.0989337,49.19931434],[-124.09253715,49.19931433],[-124.09077654,49.1993154],[-124.08397902,49.19932063],[-124.08376881,49.19932079],[-124.08236741,49.19932181],[-124.08228902,49.19920481],[-124.08229287,49.19888862],[-124.08195929,49.19904338],[-124.08194762,49.19904872],[-124.08191614,49.19906332],[-124.08120076,49.19960915],[-124.0808901,49.20000614],[-124.08058565,49.20039389],[-124.08011292,49.20078341],[-124.07937168,49.20123488],[-124.07864309,49.20154892],[-124.07825312,49.20181809],[-124.07717503,49.2022539],[-124.07663665,49.20247109],[-124.07618487,49.20259358],[-124.07576427,49.20267832],[-124.07575071,49.20268116],[-124.07530805,49.20274169],[-124.07452094,49.20274703],[-124.07343695,49.20275416],[-124.07210951,49.2027632],[-124.07124078,49.20276911],[-124.0697802,49.20283708],[-124.06973345,49.20283925],[-124.06865915,49.20289009],[-124.06807184,49.20291788],[-124.06759651,49.20294037],[-124.06695627,49.20293183],[-124.06634258,49.20292364],[-124.06586139,49.202898],[-124.06576298,49.20289266],[-124.06574579,49.20289174],[-124.06521618,49.20286346],[-124.06423237,49.20288554],[-124.06383029,49.20292684],[-124.06330792,49.20308137],[-124.06317145,49.20316468],[-124.0631339,49.20319815],[-124.06292954,49.20337974],[-124.06250467,49.20363895],[-124.06210856,49.20382338],[-124.06173933,49.2039601],[-124.0611381,49.20414098],[-124.06111082,49.20414596],[-124.06074857,49.20421183],[-124.06060927,49.20423711],[-124.06006049,49.20433681],[-124.05980576,49.20435105],[-124.05952601,49.20432969],[-124.05924089,49.20425883],[-124.0583851,49.20393162],[-124.05824298,49.20387714],[-124.05805097,49.20385578],[-124.05744814,49.2038629],[-124.05646664,49.20404947],[-124.05470989,49.20453655],[-124.05471209,49.20445858],[-124.05475881,49.20290299],[-124.05156811,49.20290512],[-124.05144605,49.20290512],[-124.05136158,49.20290512],[-124.05128019,49.20290548],[-124.05087584,49.20290548],[-124.04903047,49.2028891],[-124.04793491,49.20289052],[-124.04761409,49.20289124],[-124.04756396,49.20289124],[-124.04740429,49.20289124],[-124.04695487,49.20289195],[-124.04487381,49.2028948],[-124.04215315,49.20289836],[-124.04211174,49.20289836],[-124.04202455,49.20289853],[-124.04193662,49.20289871],[-124.04176184,49.20289943],[-124.04148011,49.20289943],[-124.04126377,49.20289943],[-124.04106584,49.20291936],[-124.0407741,49.20291972],[-124.04077532,49.20283961],[-124.04077608,49.20280472],[-124.04077718,49.20273172],[-124.04085768,49.20273101],[-124.04084438,49.20069048],[-124.04083882,49.19999368],[-124.04083501,49.19926021],[-124.03782902,49.19924704],[-124.03623774,49.1992385],[-124.03536375,49.19923351],[-124.0346666,49.1995917],[-124.03425437,49.19926698],[-124.0341974,49.1992271],[-124.03406785,49.19924953],[-124.03382385,49.19922568],[-124.03274153,49.19921215],[-124.0319292,49.19920111],[-124.03139607,49.19919363],[-124.03135941,49.19919292],[-124.02965945,49.19916907],[-124.02826955,49.19914913],[-124.02807149,49.19914663],[-124.0276497,49.1991477],[-124.027516,49.19914806],[-124.02738413,49.19897351],[-124.02666888,49.19810593],[-124.0266224,49.19804956],[-124.02615314,49.19760798],[-124.02580091,49.19730553],[-124.02534994,49.19695968],[-124.02478856,49.19658246],[-124.02398164,49.19611021],[-124.02350627,49.19587434],[-124.02334686,49.19579524],[-124.02307638,49.19568193],[-124.02234162,49.19537411],[-124.02227816,49.19534753],[-124.02156542,49.19511428],[-124.02050283,49.19478654],[-124.01754389,49.193942],[-124.01416308,49.19294773],[-124.01185643,49.19220151],[-124.01173626,49.19216263],[-124.01132909,49.19200986],[-124.00908141,49.19116644],[-124.0076907,49.19058821],[-124.00567272,49.1896914],[-124.00504393,49.18940788],[-124.00271993,49.18848781],[-124.00247003,49.18839822],[-124.00246827,49.18840026],[-124.00242334,49.18845189],[-124.00198931,49.1889582],[-124.00191964,49.18903973],[-124.00158736,49.18942035],[-124.00109332,49.18998683],[-124.00030299,49.19089156],[-123.99975871,49.19128215],[-123.99955788,49.19138614],[-123.99938754,49.19147002],[-123.99902461,49.19164873],[-123.99833297,49.19186251],[-123.99751425,49.19201622],[-123.99691024,49.19202523],[-123.9965909,49.19201847],[-123.99265097,49.19201419],[-123.99227252,49.19201384],[-123.99216881,49.19201419],[-123.9905608,49.190741],[-123.98997054,49.19015738],[-123.9888349,49.18938428],[-123.9882311,49.18898419],[-123.98724806,49.18824039],[-123.98717474,49.18825179],[-123.986828,49.18831125],[-123.98653063,49.18830128],[-123.9863141,49.18829879],[-123.98563986,49.18829451],[-123.98496905,49.18827814],[-123.98380074,49.18827502],[-123.98363652,49.18827422],[-123.98139565,49.18826835],[-123.98078806,49.18826211],[-123.97889897,49.18826176],[-123.97768703,49.18825357],[-123.97561599,49.18825321],[-123.97408714,49.18824965],[-123.9728027,49.18824645],[-123.97224732,49.1881909],[-123.97133128,49.18809904],[-123.97029865,49.18808088],[-123.96856527,49.18805026],[-123.96550976,49.18801074],[-123.96261491,49.18797229],[-123.96258152,49.18821618],[-123.96257418,49.18826674],[-123.96246408,49.1884348],[-123.9624221,49.18850067],[-123.96384464,49.18940433],[-123.96443068,49.18968347],[-123.96514068,49.18997427],[-123.96569163,49.19013842],[-123.96578166,49.19015948],[-123.96578512,49.19016029],[-123.9657543,49.19020782],[-123.96556643,49.19064539],[-123.96576454,49.19085472],[-123.96571149,49.19087025],[-123.9656991,49.19087523],[-123.96566268,49.19088984],[-123.96500633,49.19115362],[-123.96500624,49.19115365],[-123.96498982,49.19116712],[-123.96493844,49.19120927],[-123.96480435,49.19131747],[-123.96451893,49.19154528],[-123.96451883,49.19154535],[-123.96447863,49.19157225],[-123.96442524,49.19160796],[-123.96433073,49.19170767],[-123.96426493,49.19189717],[-123.96422874,49.19212356],[-123.96420645,49.19234853],[-123.96420644,49.19234857],[-123.96420645,49.19234958],[-123.96420704,49.19246536],[-123.96420695,49.19246567],[-123.96415586,49.19263626],[-123.96414396,49.19270885],[-123.96414393,49.19270895],[-123.96409185,49.19283422],[-123.96409183,49.19283425],[-123.9639433,49.19292534],[-123.96394325,49.19292537],[-123.96384713,49.19294536],[-123.96373604,49.19294537],[-123.96351806,49.19292967],[-123.96328363,49.19287696],[-123.96315835,49.19285135],[-123.96282935,49.19280006],[-123.96255326,49.19280285],[-123.96255315,49.19280285],[-123.96223744,49.19281428],[-123.96207315,49.19281577],[-123.96180065,49.19283566],[-123.96153899,49.19285555],[-123.96153895,49.19285555],[-123.96144226,49.19285707],[-123.96110072,49.19285986],[-123.96101784,49.19285988],[-123.96085421,49.19287986],[-123.96060793,49.19296245],[-123.96051312,49.19297236],[-123.96033436,49.19295677],[-123.96000254,49.19288696],[-123.95983632,49.19285276],[-123.95955024,49.19288126],[-123.95926123,49.19291117],[-123.95911024,49.19287695],[-123.95897123,49.19283287],[-123.95886303,49.19281576],[-123.95875232,49.19280716],[-123.95861604,49.19281716],[-123.95841092,49.19285301],[-123.95839643,49.19285554],[-123.95839633,49.19285556],[-123.9583555,49.19286738],[-123.95820433,49.19291115],[-123.95802723,49.19293965],[-123.95778062,49.19299516],[-123.95761674,49.19302365],[-123.95761666,49.19302555],[-123.95720401,49.20241414],[-123.95705513,49.20580058],[-123.95143985,49.20569401],[-123.94459043,49.20556363],[-123.94182252,49.20551081],[-123.93895706,49.20545606],[-123.93404554,49.20536204],[-123.92695325,49.20522588],[-123.92617718,49.20521095],[-123.91678163,49.1972497],[-123.88011903,49.20370762],[-123.83888495,49.21095368],[-123.83212453,49.21213996],[-123.77356703,49.22239494],[-123.69149102,49.23670729],[-123.58197676,49.25569294],[-123.58197993,49.25569428],[-123.58427579,49.25666377],[-123.58502827,49.25698151],[-123.58533889,49.25711267],[-123.58557198,49.25720792],[-123.59023517,49.25911333],[-123.59234425,49.25995966],[-123.5966984,49.26168474],[-123.59882026,49.26251754],[-123.60194454,49.26373809],[-123.60548845,49.26511779],[-123.60572457,49.26520965],[-123.607142,49.26576153],[-123.60737813,49.2658534],[-123.61233467,49.26779068],[-123.61257043,49.26788325],[-123.62102281,49.27125222],[-123.62195682,49.27163213],[-123.62218994,49.27172755],[-123.62242326,49.27182261],[-123.62430857,49.27255751],[-123.63001761,49.27386564],[-123.63027747,49.27392403],[-123.6344406,49.27485476],[-123.63522141,49.2750278],[-123.63860919,49.27577408],[-123.63939138,49.2759457],[-123.64173804,49.27645948],[-123.64538839,49.27725882],[-123.64851593,49.277946],[-123.65294323,49.27892799],[-123.65839972,49.28016385],[-123.66176841,49.28094681],[-123.66821751,49.28250383],[-123.67052811,49.28308455],[-123.67741327,49.2849022],[-123.68044548,49.28575352],[-123.68270327,49.28641684],[-123.68841098,49.28820031],[-123.69062261,49.28892737],[-123.69695701,49.29109715],[-123.69768364,49.2913528],[-123.70010125,49.29221053],[-123.70058391,49.29238286],[-123.70468062,49.29385763],[-123.70708664,49.29472889],[-123.70949333,49.29560015],[-123.70973411,49.29568738],[-123.7123837,49.29664231],[-123.71442829,49.297374],[-123.71503953,49.29759119],[-123.71794523,49.2986152],[-123.71915979,49.29903747],[-123.7196463,49.29920518],[-123.72133746,49.29980619],[-123.72156893,49.29990339],[-123.72349522,49.300707],[-123.72743108,49.30235838],[-123.73759354,49.30665699],[-123.73782435,49.30675455],[-123.74151818,49.30832012],[-123.74174936,49.30841803],[-123.74452172,49.30959051],[-123.7475278,49.3108577],[-123.75100116,49.31231538],[-123.75285654,49.31308979],[-123.75308838,49.31318664],[-123.75332041,49.31328313],[-123.76357621,49.31748989],[-123.76381058,49.31758424],[-123.76639124,49.31861857],[-123.76686135,49.31880586],[-123.76709613,49.3188995],[-123.76733166,49.31899278],[-123.77351417,49.32134451],[-123.77375953,49.32142605],[-123.78053532,49.3234178],[-123.78856019,49.32578769],[-123.79452983,49.32763596],[-123.79950253,49.32917944],[-123.80969822,49.33225467],[-123.81621911,49.33418269],[-123.82101825,49.33554139],[-123.82152623,49.33567989],[-123.82612115,49.33689189],[-123.8294564,49.3377393],[-123.82971362,49.33780374],[-123.82997104,49.33786783],[-123.83048554,49.33799565],[-123.83616692,49.33936646],[-123.84006216,49.34026228],[-123.8579466,49.34387337],[-123.85821152,49.34392108],[-123.8656621,49.34521568],[-123.87207933,49.34624467],[-123.87583476,49.34681329],[-123.88148122,49.34762758],[-123.88175005,49.34766532],[-123.88741735,49.34841553],[-123.8931022,49.34910556],[-123.90203806,49.35018226],[-123.90555119,49.3506316],[-123.90852156,49.35101862],[-123.90906186,49.35108948],[-123.90933192,49.35112508],[-123.91257061,49.35155199],[-123.91661995,49.352085],[-123.91715973,49.35215586],[-123.91796978,49.35226196],[-123.92058046,49.35228546],[-123.92140696,49.35229329],[-123.92195751,49.35229899],[-123.92581212,49.35233958],[-123.92856541,49.35236913],[-123.93021743,49.35238658],[-123.93517357,49.35243286],[-123.94013015,49.35246348],[-123.94508652,49.35246669],[-123.94811558,49.35243322],[-123.95362076,49.3523321],[-123.95692377,49.35227656],[-123.96132946,49.35224843],[-123.96243098,49.35225413],[-123.96600915,49.35232035],[-123.96683441,49.35234634],[-123.97149982,49.35259131],[-123.9753147,49.3529527],[-123.97747485,49.35323398],[-123.98391625,49.35419888],[-123.98605213,49.35455138],[-123.9865853,49.35464146],[-123.98898083,49.35505768],[-123.99083944,49.35539166],[-123.99110473,49.35544008],[-123.99269468,49.35573383],[-123.99322389,49.35583316],[-123.99375326,49.35593322],[-123.99401722,49.35598306],[-123.99481032,49.35613438],[-123.99533891,49.35623586],[-123.99745036,49.3566471],[-123.99824094,49.35680305],[-123.99876794,49.35690844],[-124.00067602,49.35729796],[-124.00224925,49.35762838],[-124.0027724,49.35773982],[-124.00329606,49.35785234],[-124.00434151,49.35807879],[-124.00538561,49.35830773],[-124.00642909,49.35853881],[-124.00747161,49.35877166],[-124.0079924,49.35888845],[-124.00903376,49.35912344],[-124.01059458,49.35947772],[-124.01163479,49.35971485],[-124.01241446,49.35989287],[-124.0134545,49.36013036],[-124.01397435,49.36024893],[-124.01527444,49.36054552],[-124.01631491,49.36078229],[-124.0176164,49.36107639],[-124.01787663,49.36113514],[-124.01839729,49.36125228],[-124.01917932,49.3614271],[-124.02048285,49.36171657],[-124.0210047,49.36183158],[-124.02128351,49.36189211]]]},"geometry_name":"SHAPE","properties":{"id":298,"slug":"nanaimo-lantzville","name":"Nanaimo-Lantzville","abbreviation":"NAL","gazetteDate":"2023-12-07Z","boundarySet":11},"bbox":[-124.14833217,49.18797229,-123.58197676,49.36189211]}
