{"type":"Feature","id":297,"geometry":{"type":"Polygon","coordinates":[[[-123.69149102,49.23670729],[-123.77356703,49.22239494],[-123.83212453,49.21213996],[-123.83888495,49.21095368],[-123.88011903,49.20370762],[-123.91678163,49.1972497],[-123.92617718,49.20521095],[-123.92695325,49.20522588],[-123.93404554,49.20536204],[-123.93895706,49.20545606],[-123.94182252,49.20551081],[-123.94459043,49.20556363],[-123.95143985,49.20569401],[-123.95705513,49.20580058],[-123.95720401,49.20241414],[-123.95761666,49.19302555],[-123.95761674,49.19302365],[-123.95778062,49.19299516],[-123.95802723,49.19293965],[-123.95820433,49.19291115],[-123.9583555,49.19286738],[-123.95839633,49.19285556],[-123.95839643,49.19285554],[-123.95841092,49.19285301],[-123.95861604,49.19281716],[-123.95875232,49.19280716],[-123.95886303,49.19281576],[-123.95897123,49.19283287],[-123.95911024,49.19287695],[-123.95926123,49.19291117],[-123.95955024,49.19288126],[-123.95983632,49.19285276],[-123.96000254,49.19288696],[-123.96033436,49.19295677],[-123.96051312,49.19297236],[-123.96060793,49.19296245],[-123.96085421,49.19287986],[-123.96101784,49.19285988],[-123.96110072,49.19285986],[-123.96144226,49.19285707],[-123.96153895,49.19285555],[-123.96153899,49.19285555],[-123.96180065,49.19283566],[-123.96207315,49.19281577],[-123.96223744,49.19281428],[-123.96255315,49.19280285],[-123.96255326,49.19280285],[-123.96282935,49.19280006],[-123.96315835,49.19285135],[-123.96328363,49.19287696],[-123.96351806,49.19292967],[-123.96373604,49.19294537],[-123.96384713,49.19294536],[-123.96394325,49.19292537],[-123.9639433,49.19292534],[-123.96409183,49.19283425],[-123.96409185,49.19283422],[-123.96414393,49.19270895],[-123.96414396,49.19270885],[-123.96415586,49.19263626],[-123.96420695,49.19246567],[-123.96420704,49.19246536],[-123.96420645,49.19234958],[-123.96420644,49.19234857],[-123.96420645,49.19234853],[-123.96422874,49.19212356],[-123.96426493,49.19189717],[-123.96433073,49.19170767],[-123.96442524,49.19160796],[-123.96447863,49.19157225],[-123.96451883,49.19154535],[-123.96451893,49.19154528],[-123.96480435,49.19131747],[-123.96493844,49.19120927],[-123.96498982,49.19116712],[-123.96500624,49.19115365],[-123.96500633,49.19115362],[-123.96566268,49.19088984],[-123.9656991,49.19087523],[-123.96571149,49.19087025],[-123.96576454,49.19085472],[-123.96556643,49.19064539],[-123.9657543,49.19020782],[-123.96578512,49.19016029],[-123.96578166,49.19015948],[-123.96569163,49.19013842],[-123.96514068,49.18997427],[-123.96443068,49.18968347],[-123.96384464,49.18940433],[-123.9624221,49.18850067],[-123.96246408,49.1884348],[-123.96257418,49.18826674],[-123.96258152,49.18821618],[-123.96261491,49.18797229],[-123.96550976,49.18801074],[-123.96856527,49.18805026],[-123.97029865,49.18808088],[-123.97133128,49.18809904],[-123.97224732,49.1881909],[-123.9728027,49.18824645],[-123.97408714,49.18824965],[-123.97561599,49.18825321],[-123.97768703,49.18825357],[-123.97889897,49.18826176],[-123.98078806,49.18826211],[-123.98139565,49.18826835],[-123.98363652,49.18827422],[-123.98380074,49.18827502],[-123.98496905,49.18827814],[-123.98563986,49.18829451],[-123.9863141,49.18829879],[-123.98653063,49.18830128],[-123.986828,49.18831125],[-123.98717474,49.18825179],[-123.98724806,49.18824039],[-123.9882311,49.18898419],[-123.9888349,49.18938428],[-123.98997054,49.19015738],[-123.9905608,49.190741],[-123.99216881,49.19201419],[-123.99227252,49.19201384],[-123.99265097,49.19201419],[-123.9965909,49.19201847],[-123.99691024,49.19202523],[-123.99751425,49.19201622],[-123.99833297,49.19186251],[-123.99902461,49.19164873],[-123.99938754,49.19147002],[-123.99955788,49.19138614],[-123.99975871,49.19128215],[-124.00030299,49.19089156],[-124.00109332,49.18998683],[-124.00158736,49.18942035],[-124.00191964,49.18903973],[-124.00198931,49.1889582],[-124.00242334,49.18845189],[-124.00246827,49.18840026],[-124.00247003,49.18839822],[-124.00271993,49.18848781],[-124.00504393,49.18940788],[-124.00567272,49.1896914],[-124.0076907,49.19058821],[-124.00908141,49.19116644],[-124.01132909,49.19200986],[-124.01173626,49.19216263],[-124.01185643,49.19220151],[-124.01416308,49.19294773],[-124.01754389,49.193942],[-124.02050283,49.19478654],[-124.02156542,49.19511428],[-124.02227816,49.19534753],[-124.02234162,49.19537411],[-124.02307638,49.19568193],[-124.02334686,49.19579524],[-124.02350627,49.19587434],[-124.02398164,49.19611021],[-124.02478856,49.19658246],[-124.02534994,49.19695968],[-124.02580091,49.19730553],[-124.02615314,49.19760798],[-124.0266224,49.19804956],[-124.02666888,49.19810593],[-124.02738413,49.19897351],[-124.027516,49.19914806],[-124.0276497,49.1991477],[-124.02807149,49.19914663],[-124.02826955,49.19914913],[-124.02965945,49.19916907],[-124.03135941,49.19919292],[-124.03139607,49.19919363],[-124.0319292,49.19920111],[-124.03274153,49.19921215],[-124.03382385,49.19922568],[-124.03406785,49.19924953],[-124.0341974,49.1992271],[-124.03425437,49.19926698],[-124.0346666,49.1995917],[-124.03536375,49.19923351],[-124.03623774,49.1992385],[-124.03782902,49.19924704],[-124.04083501,49.19926021],[-124.04083882,49.19999368],[-124.04084438,49.20069048],[-124.04085768,49.20273101],[-124.04077718,49.20273172],[-124.04077608,49.20280472],[-124.04077532,49.20283961],[-124.0407741,49.20291972],[-124.04106584,49.20291936],[-124.04126377,49.20289943],[-124.04148011,49.20289943],[-124.04176184,49.20289943],[-124.04193662,49.20289871],[-124.04202455,49.20289853],[-124.04211174,49.20289836],[-124.04215315,49.20289836],[-124.04487381,49.2028948],[-124.04695487,49.20289195],[-124.04740429,49.20289124],[-124.04756396,49.20289124],[-124.04761409,49.20289124],[-124.04793491,49.20289052],[-124.04903047,49.2028891],[-124.05087584,49.20290548],[-124.05128019,49.20290548],[-124.05136158,49.20290512],[-124.05144605,49.20290512],[-124.05156811,49.20290512],[-124.05475881,49.20290299],[-124.05471209,49.20445858],[-124.05470989,49.20453655],[-124.05646664,49.20404947],[-124.05744814,49.2038629],[-124.05805097,49.20385578],[-124.05824298,49.20387714],[-124.0583851,49.20393162],[-124.05924089,49.20425883],[-124.05952601,49.20432969],[-124.05980576,49.20435105],[-124.06006049,49.20433681],[-124.06060927,49.20423711],[-124.06074857,49.20421183],[-124.06111082,49.20414596],[-124.0611381,49.20414098],[-124.06173933,49.2039601],[-124.06210856,49.20382338],[-124.06250467,49.20363895],[-124.06292954,49.20337974],[-124.0631339,49.20319815],[-124.06317145,49.20316468],[-124.06330792,49.20308137],[-124.06383029,49.20292684],[-124.06423237,49.20288554],[-124.06521618,49.20286346],[-124.06574579,49.20289174],[-124.06576298,49.20289266],[-124.06586139,49.202898],[-124.06634258,49.20292364],[-124.06695627,49.20293183],[-124.06759651,49.20294037],[-124.06807184,49.20291788],[-124.06865915,49.20289009],[-124.06973345,49.20283925],[-124.0697802,49.20283708],[-124.07124078,49.20276911],[-124.07210951,49.2027632],[-124.07343695,49.20275416],[-124.07452094,49.20274703],[-124.07530805,49.20274169],[-124.07575071,49.20268116],[-124.07576427,49.20267832],[-124.07618487,49.20259358],[-124.07663665,49.20247109],[-124.07717503,49.2022539],[-124.07825312,49.20181809],[-124.07864309,49.20154892],[-124.07937168,49.20123488],[-124.08011292,49.20078341],[-124.08058565,49.20039389],[-124.0808901,49.20000614],[-124.08120076,49.19960915],[-124.08191614,49.19906332],[-124.08194762,49.19904872],[-124.08195929,49.19904338],[-124.08229287,49.19888862],[-124.08229399,49.19879693],[-124.08230773,49.19768561],[-124.08232576,49.19622763],[-124.08235117,49.19474005],[-124.08237725,49.19384842],[-124.08238418,49.19207208],[-124.08249228,49.18856836],[-124.08249381,49.18851883],[-124.08249387,49.18851693],[-124.08810463,49.18853808],[-124.08810469,49.18853808],[-124.08813581,49.18502971],[-124.08817557,49.18213966],[-124.08821429,49.17776664],[-124.08286714,49.1776415],[-124.08250676,49.17763301],[-124.08236328,49.17376573],[-124.08235955,49.17314174],[-124.08234057,49.1699116],[-124.07876752,49.1699493],[-124.0718682,49.17021514],[-124.0718702,49.16681282],[-124.07187175,49.16453998],[-124.0718112,49.16328513],[-124.07040889,49.16327232],[-124.06819737,49.16326374],[-124.0607404,49.16323587],[-124.05520563,49.16324043],[-124.04978608,49.16323864],[-124.04140584,49.16310229],[-124.04127907,49.15991596],[-124.03338098,49.15991315],[-124.02816507,49.15991098],[-124.02047093,49.15980499],[-124.02034798,49.15980312],[-124.01915886,49.15978503],[-124.01900757,49.15978272],[-124.01564671,49.15973152],[-124.0144645,49.15971348],[-124.01461692,49.15614762],[-124.01401409,49.15613907],[-124.00749598,49.15604828],[-124.00011591,49.15594502],[-124.00032737,49.15233536],[-123.99345806,49.15222606],[-123.98718122,49.15218119],[-123.98716428,49.14981701],[-123.98709127,49.14853526],[-123.98008558,49.14850139],[-123.9802954,49.14485399],[-123.98029672,49.14482907],[-123.98030354,49.14471193],[-123.98031218,49.14455918],[-123.98031626,49.14449402],[-123.98032175,49.14439006],[-123.98051469,49.14104245],[-123.97841811,49.14104459],[-123.97805475,49.14104423],[-123.97726924,49.1410396],[-123.97720304,49.14083742],[-123.97860972,49.13832328],[-123.97898544,49.13765197],[-123.97898726,49.13757794],[-123.98314792,49.13757557],[-123.98315851,49.13757557],[-123.9803388,49.13692542],[-123.97927279,49.1366598],[-123.97898961,49.13666016],[-123.97785068,49.13666194],[-123.97600443,49.13666443],[-123.97466306,49.13665696],[-123.97450924,49.13665802],[-123.97454183,49.13644368],[-123.97455895,49.13605572],[-123.97461855,49.13470472],[-123.97480926,49.13470721],[-123.97557785,49.13470686],[-123.97937024,49.13470401],[-123.97936933,49.13437466],[-123.97936927,49.13404282],[-123.97475759,49.13404531],[-123.9748699,49.13353276],[-123.97502012,49.13284596],[-123.97505306,49.13161643],[-123.97506931,49.13151873],[-123.97509196,49.13138204],[-123.97519246,49.13111607],[-123.97531925,49.13078031],[-123.97521269,49.13084084],[-123.97426227,49.13138049],[-123.97294263,49.13212975],[-123.97217868,49.13246836],[-123.9719403,49.13256034],[-123.97150046,49.13273005],[-123.97110136,49.13285681],[-123.97109991,49.13285727],[-123.97063276,49.13300564],[-123.97028454,49.13304765],[-123.97013437,49.13302646],[-123.96983546,49.13298428],[-123.96937968,49.13307293],[-123.96749135,49.13310142],[-123.96590664,49.13309064],[-123.96560749,49.1330886],[-123.96530721,49.13308646],[-123.96372962,49.13307578],[-123.96074055,49.13305513],[-123.96072987,49.13305477],[-123.96020979,49.13305157],[-123.95987869,49.13304908],[-123.95867785,49.13304285],[-123.95830026,49.13304089],[-123.95794447,49.13303875],[-123.94644543,49.13297751],[-123.93347642,49.13286678],[-123.93316867,49.13286535],[-123.93311688,49.13286357],[-123.93267551,49.13285681],[-123.93265087,49.13244557],[-123.93263244,49.13216785],[-123.93266276,49.12996317],[-123.93145657,49.12995605],[-123.93119405,49.12995747],[-123.93060099,49.12996032],[-123.92986061,49.12996388],[-123.92848909,49.12997029],[-123.92805947,49.12996887],[-123.928041,49.12994537],[-123.92787168,49.12972177],[-123.92774432,49.12954303],[-123.92761798,49.12937319],[-123.92747756,49.12919445],[-123.92735123,49.12902462],[-123.92723847,49.12883627],[-123.92712575,49.12866643],[-123.92706843,49.12861302],[-123.92688656,49.12839832],[-123.92680266,49.12828225],[-123.92668918,49.12809425],[-123.92659168,49.12797818],[-123.92656243,49.12790661],[-123.92646336,49.12770936],[-123.92637625,49.12751211],[-123.92629072,49.12732375],[-123.92620525,49.1271265],[-123.9261211,49.12694741],[-123.92605021,49.12684024],[-123.92592194,49.12661628],[-123.92585222,49.12652655],[-123.92583675,49.12648205],[-123.92573762,49.1262937],[-123.92570804,49.12622177],[-123.92562293,49.12602488],[-123.92553514,49.12580056],[-123.92545106,49.12561257],[-123.9254098,49.1255499],[-123.92532307,49.12537935],[-123.92518206,49.12516465],[-123.92515443,49.12511267],[-123.92515359,49.12511125],[-123.92509278,49.12502116],[-123.92506854,49.12498556],[-123.9250415,49.12494426],[-123.92503947,49.12494105],[-123.92502613,49.12493179],[-123.9249146,49.12475306],[-123.92480246,49.12458322],[-123.92474481,49.12452946],[-123.924576,49.12432366],[-123.92442449,49.12415418],[-123.92434002,49.124047],[-123.92417062,49.12382287],[-123.92411481,49.12377045],[-123.92391747,49.12356491],[-123.92372217,49.12335911],[-123.92352658,49.12314477],[-123.92348615,49.12309136],[-123.92344349,49.12304685],[-123.92331649,49.12290372],[-123.92323147,49.12280438],[-123.92377762,49.12282503],[-123.92395436,49.1228115],[-123.92403177,49.12281222],[-123.92550179,49.12282397],[-123.92953444,49.12285601],[-123.93037777,49.12286277],[-123.93065098,49.12286456],[-123.93107737,49.12286776],[-123.93147982,49.12287096],[-123.93190512,49.12287417],[-123.9323141,49.12287737],[-123.93277076,49.12288093],[-123.93278071,49.12238638],[-123.93278431,49.12220799],[-123.9327959,49.12164899],[-123.93280682,49.12111171],[-123.93281389,49.12076207],[-123.93282068,49.12042951],[-123.9328272,49.12012188],[-123.93284476,49.11925632],[-123.93287782,49.11763842],[-123.93288933,49.11706411],[-123.9329024,49.11641573],[-123.93291842,49.11562637],[-123.93297488,49.11312047],[-123.93299699,49.112131],[-123.93300031,49.11198253],[-123.93303656,49.11037139],[-123.93301841,49.11026244],[-123.93304175,49.11014637],[-123.93304886,49.10978107],[-123.93305412,49.10951019],[-123.93306193,49.10924057],[-123.93306857,49.10893686],[-123.9330752,49.10864098],[-123.93308159,49.10836895],[-123.93308817,49.10807414],[-123.93309454,49.10778752],[-123.93310082,49.10749912],[-123.9331077,49.10720573],[-123.93311382,49.10692836],[-123.93312162,49.10657089],[-123.93312858,49.10627252],[-123.93312878,49.10611799],[-123.93313433,49.10600654],[-123.93314057,49.10572313],[-123.93314259,49.10562486],[-123.93314484,49.10553691],[-123.93314837,49.10480379],[-123.93314862,49.10475253],[-123.93415815,49.10476107],[-123.93770608,49.10479169],[-123.93791515,49.10477567],[-123.93802472,49.10479668],[-123.93864555,49.10480202],[-123.93862098,49.10261159],[-123.93861786,49.10233814],[-123.93860476,49.1011977],[-123.93860441,49.10115248],[-123.93860366,49.10110798],[-123.93844591,49.10110513],[-123.93828815,49.10110228],[-123.93717356,49.10108234],[-123.93678109,49.10107522],[-123.93653698,49.10107023],[-123.93627071,49.10106596],[-123.93318797,49.10101006],[-123.93318942,49.10081922],[-123.9331922,49.10053723],[-123.93319514,49.10027446],[-123.93319768,49.09998997],[-123.93319949,49.099818],[-123.93319986,49.09971688],[-123.93320091,49.09944094],[-123.93320185,49.09916714],[-123.93320277,49.09888657],[-123.93320366,49.09861775],[-123.93320448,49.09833931],[-123.93320535,49.09806792],[-123.93320606,49.09788739],[-123.93320843,49.0975944],[-123.93320664,49.09746272],[-123.93321049,49.09729327],[-123.93239765,49.09731317],[-123.9321122,49.09731994],[-123.93086263,49.09734913],[-123.93043748,49.09735875],[-123.92966225,49.0973769],[-123.92884911,49.09739577],[-123.92835098,49.09740752],[-123.92483274,49.09748942],[-123.9246219,49.09749013],[-123.92462777,49.10033819],[-123.92462817,49.10110192],[-123.92397212,49.1011062],[-123.92372927,49.10110869],[-123.92369373,49.10110905],[-123.92020356,49.10114501],[-123.91937307,49.10115343],[-123.91936494,49.10115351],[-123.91936131,49.10115355],[-123.91927876,49.10243641],[-123.91924264,49.10361174],[-123.91929864,49.10379119],[-123.91936493,49.10388908],[-123.91936664,49.10389159],[-123.91935058,49.10414368],[-123.91935103,49.10477282],[-123.91934804,49.10499856],[-123.91934456,49.10524958],[-123.91934045,49.10553976],[-123.91933595,49.10584917],[-123.91933236,49.10610624],[-123.91932778,49.10643238],[-123.91932681,49.10651606],[-123.91932068,49.10695152],[-123.91932036,49.1069743],[-123.91938393,49.10711778],[-123.91932587,49.10815532],[-123.91931717,49.10831626],[-123.91929358,49.10836147],[-123.91929066,49.10836148],[-123.91569664,49.10834508],[-123.91062744,49.10832175],[-123.90753411,49.10830743],[-123.90694528,49.10830468],[-123.90669917,49.10830356],[-123.90650309,49.10830267],[-123.90643969,49.10830235],[-123.90639867,49.10830215],[-123.90639717,49.10830215],[-123.90622734,49.10830283],[-123.90595891,49.10830391],[-123.90581886,49.10830227],[-123.90541904,49.10829759],[-123.90542147,49.10816803],[-123.90542969,49.10767042],[-123.90543277,49.10748752],[-123.9054394,49.10708699],[-123.90544376,49.1068241],[-123.90547945,49.10469077],[-123.90548328,49.10453197],[-123.90556897,49.1009514],[-123.90566846,49.10095287],[-123.90580701,49.10095494],[-123.90695879,49.10097189],[-123.90723039,49.10097587],[-123.90814955,49.10098937],[-123.91250462,49.10105322],[-123.91313662,49.10106255],[-123.91328628,49.10106476],[-123.91328893,49.10106478],[-123.91345636,49.10106618],[-123.91521253,49.10109295],[-123.9152129,49.10109295],[-123.91521294,49.10109295],[-123.9152457,49.09974569],[-123.91526603,49.09890904],[-123.91528065,49.09830075],[-123.91528821,49.09799391],[-123.91529032,49.09791224],[-123.91530028,49.09748771],[-123.9149209,49.09748424],[-123.91127335,49.09745066],[-123.91108848,49.09744924],[-123.91109209,49.09672919],[-123.91109271,49.09655192],[-123.91109564,49.09585552],[-123.91109664,49.09568545],[-123.9110996,49.094951],[-123.91110062,49.09476624],[-123.91110362,49.09408384],[-123.91110394,49.0940123],[-123.90943328,49.09399286],[-123.90878546,49.09398531],[-123.90883654,49.09027897],[-123.90883657,49.09027706],[-123.90939345,49.09028188],[-123.91343607,49.09031672],[-123.91354283,49.0864966],[-123.91354288,49.08649469],[-123.91385798,49.08649344],[-123.91385803,49.08649344],[-123.91392551,49.08267435],[-123.90568956,49.08275745],[-123.90479972,49.08276215],[-123.9030121,49.08277157],[-123.89199454,49.08288404],[-123.89196769,49.07966173],[-123.89196489,49.07930595],[-123.89196916,49.07915396],[-123.89202138,49.07522477],[-123.88921584,49.07440227],[-123.88890161,49.07431005],[-123.88890154,49.07431003],[-123.8877552,49.07397394],[-123.88678109,49.07368839],[-123.88646699,49.07365136],[-123.88631066,49.073651],[-123.8858759,49.07364993],[-123.88552777,49.07370583],[-123.88493363,49.07392658],[-123.8847557,49.07403483],[-123.88472226,49.07405476],[-123.88455165,49.07419754],[-123.8843299,49.07450659],[-123.88424102,49.07472094],[-123.88423869,49.07479606],[-123.88423444,49.07495237],[-123.88430217,49.07524433],[-123.88444338,49.07544088],[-123.88490577,49.07589413],[-123.88495333,49.07604723],[-123.88493429,49.07611239],[-123.88491641,49.07617256],[-123.88477595,49.07628864],[-123.88472413,49.07631036],[-123.88446466,49.07641859],[-123.88422534,49.07650832],[-123.88399813,49.07650832],[-123.88384024,49.0764631],[-123.88370843,49.07636056],[-123.88316256,49.07572999],[-123.88255415,49.07503248],[-123.88234962,49.07490252],[-123.8821023,49.07483452],[-123.88166235,49.07479606],[-123.88157989,49.07478969],[-123.88138612,49.07375036],[-123.88121508,49.0728461],[-123.88109167,49.07223504],[-123.88100137,49.0718077],[-123.8807831,49.07119156],[-123.88066659,49.07089937],[-123.88055176,49.07089522],[-123.88034739,49.07088786],[-123.8793849,49.07105431],[-123.87896599,49.07148439],[-123.87895716,49.07150273],[-123.87888679,49.07164872],[-123.87884378,49.07173792],[-123.87884372,49.07173976],[-123.87884338,49.07174985],[-123.87883802,49.07190856],[-123.87883746,49.07192548],[-123.87883309,49.07205518],[-123.87883289,49.07206097],[-123.87883221,49.07208117],[-123.87883221,49.07208119],[-123.87885952,49.07217068],[-123.87889483,49.0722864],[-123.87890962,49.07233482],[-123.87892836,49.0723961],[-123.87905096,49.07279789],[-123.87905478,49.07281036],[-123.8790548,49.07281041],[-123.87905389,49.07283805],[-123.87904742,49.07303407],[-123.87904309,49.07316562],[-123.87904301,49.07316733],[-123.879043,49.07316753],[-123.87904296,49.0731684],[-123.87904089,49.07323125],[-123.87903171,49.07350871],[-123.87903093,49.07353235],[-123.87902871,49.07359939],[-123.87902867,49.07359976],[-123.87901038,49.07378723],[-123.8790097,49.07379452],[-123.87896881,49.07421377],[-123.87896859,49.07421611],[-123.87895906,49.07423266],[-123.87895764,49.07423512],[-123.87895313,49.07424291],[-123.87875435,49.07458781],[-123.87869387,49.07469277],[-123.8786742,49.07472684],[-123.87867228,49.0747302],[-123.87854984,49.07484502],[-123.87826529,49.0751119],[-123.8780601,49.07524984],[-123.87785897,49.07538507],[-123.87744701,49.07566201],[-123.87741334,49.0756846],[-123.87725479,49.0757912],[-123.87613966,49.07635217],[-123.87588254,49.0764815],[-123.87584197,49.0765019],[-123.87571512,49.076583],[-123.87571206,49.07658499],[-123.87569213,49.07659771],[-123.87539414,49.07678827],[-123.8753518,49.07681538],[-123.87531474,49.07683904],[-123.87479904,49.07716882],[-123.87477102,49.07718675],[-123.87445393,49.07738952],[-123.8743052,49.07748461],[-123.87400838,49.0777848],[-123.87399655,49.07779679],[-123.87393881,49.07785519],[-123.87380792,49.07798757],[-123.87349449,49.07830456],[-123.87326915,49.07853242],[-123.87326879,49.07853279],[-123.87311221,49.0788789],[-123.87311223,49.07888056],[-123.87311286,49.07893163],[-123.87311323,49.07896389],[-123.87311491,49.07909863],[-123.873115,49.07910685],[-123.87311629,49.0792136],[-123.8736699,49.07970499],[-123.87423943,49.08000291],[-123.87429725,49.08003316],[-123.87432536,49.08004784],[-123.87432547,49.08004792],[-123.8744072,49.08010354],[-123.87440727,49.08010359],[-123.87449695,49.08019851],[-123.87452312,49.08022621],[-123.87453527,49.08023913],[-123.87465223,49.0803629],[-123.87465223,49.08036294],[-123.87466243,49.08042176],[-123.87466837,49.08045608],[-123.87469912,49.08063335],[-123.87470779,49.0806834],[-123.87470756,49.08068451],[-123.87464532,49.08099242],[-123.87460558,49.08118899],[-123.87457238,49.08123756],[-123.87430403,49.08163006],[-123.87429498,49.08164331],[-123.87412221,49.08180761],[-123.87411075,49.0818185],[-123.87404583,49.08188023],[-123.87399793,49.08192577],[-123.87384043,49.08207554],[-123.87383522,49.0820805],[-123.87383517,49.08208053],[-123.87345668,49.08227986],[-123.87343954,49.08228888],[-123.87319519,49.08241757],[-123.8730551,49.08249134],[-123.87303998,49.0824993],[-123.87303946,49.08249934],[-123.87292643,49.08250902],[-123.87247511,49.08254762],[-123.87221254,49.08257008],[-123.87221249,49.08257009],[-123.87180439,49.08248742],[-123.87132327,49.08238999],[-123.8709416,49.08231269],[-123.87093907,49.08231153],[-123.87051717,49.08211604],[-123.87049924,49.08210776],[-123.8703892,49.08205676],[-123.87038274,49.08205378],[-123.87034725,49.08203734],[-123.87017192,49.08195611],[-123.8695091,49.081649],[-123.86936149,49.0815806],[-123.86918307,49.0815454],[-123.86915829,49.08154051],[-123.86905186,49.0815195],[-123.86890324,49.08149018],[-123.86887177,49.08148396],[-123.86878198,49.08146623],[-123.86866574,49.08144331],[-123.86865059,49.08144031],[-123.86864375,49.08143897],[-123.86863914,49.08143805],[-123.86859992,49.08143032],[-123.86819239,49.0813499],[-123.86816616,49.08134055],[-123.86813589,49.08132979],[-123.86788643,49.08124103],[-123.86773352,49.0811866],[-123.86760624,49.0811413],[-123.86734011,49.0810466],[-123.86699177,49.08086945],[-123.86692178,49.08083383],[-123.86672391,49.0807332],[-123.86672339,49.08073307],[-123.86660593,49.08070495],[-123.86660396,49.08070446],[-123.86651574,49.08068332],[-123.8664782,49.08067433],[-123.86631641,49.08063558],[-123.86629765,49.08063109],[-123.86629665,49.08063087],[-123.86611179,49.08058658],[-123.86582293,49.08051741],[-123.86580063,49.08051206],[-123.86554332,49.08045043],[-123.86535394,49.08040508],[-123.86518999,49.08036581],[-123.86491326,49.08036036],[-123.86489958,49.08036009],[-123.86293233,49.08032132],[-123.86292597,49.08032119],[-123.86284023,49.08031947],[-123.86260606,49.08031488],[-123.86258771,49.08031451],[-123.86253372,49.08035901],[-123.86240187,49.08046762],[-123.86220121,49.08063296],[-123.86218515,49.08064618],[-123.86177666,49.08098279],[-123.86133311,49.08134823],[-123.86114686,49.08150166],[-123.86114568,49.08150265],[-123.86114463,49.08150353],[-123.86114152,49.08150606],[-123.86104786,49.08158323],[-123.86059644,49.08195517],[-123.86059372,49.08195741],[-123.86024719,49.08224291],[-123.8602438,49.08224571],[-123.86024063,49.08224935],[-123.86016362,49.08233775],[-123.86016211,49.08233947],[-123.86003559,49.08248463],[-123.86002766,49.08249371],[-123.86000903,49.08251508],[-123.85998999,49.08253692],[-123.85998487,49.08254285],[-123.85997871,49.08254989],[-123.85994329,49.08259056],[-123.85992721,49.08260901],[-123.85977614,49.08278237],[-123.85976186,49.08279875],[-123.859755,49.08279878],[-123.85948199,49.08279999],[-123.85909709,49.08280115],[-123.85416356,49.08282022],[-123.85395062,49.08282108],[-123.85183504,49.08282924],[-123.85167953,49.08282985],[-123.85073109,49.08400393],[-123.85068568,49.08418125],[-123.85066513,49.08495139],[-123.85063181,49.08617479],[-123.8506265,49.08637275],[-123.85062341,49.08648028],[-123.85056423,49.09023271],[-123.85052444,49.0927792],[-123.85052255,49.09287783],[-123.85051564,49.09328965],[-123.85051487,49.09333497],[-123.85051055,49.09359262],[-123.84795138,49.09365418],[-123.84755928,49.09368478],[-123.84705766,49.09372381],[-123.84701544,49.09372345],[-123.84694536,49.09372238],[-123.84669723,49.09371882],[-123.84638228,49.09371419],[-123.84608398,49.09370992],[-123.84551932,49.09413896],[-123.8446182,49.09365331],[-123.84307495,49.09364868],[-123.8422176,49.09364263],[-123.84165593,49.09363871],[-123.83589384,49.09359812],[-123.83547806,49.093591],[-123.83386091,49.09356394],[-123.83272636,49.09354507],[-123.8315721,49.09354685],[-123.82914519,49.09355112],[-123.82902561,49.09355397],[-123.82898424,49.09355112],[-123.82866797,49.09352264],[-123.8284348,49.09352442],[-123.82811986,49.09352655],[-123.82803791,49.09352727],[-123.82772252,49.0935205],[-123.82765416,49.09352121],[-123.8273802,49.09352299],[-123.82720215,49.09352442],[-123.82696918,49.09352584],[-123.82665388,49.09351018],[-123.82636668,49.09351231],[-123.82614739,49.09350484],[-123.82598259,49.0935059],[-123.82570852,49.09349914],[-123.82540719,49.09350127],[-123.82516133,49.09352086],[-123.82512035,49.09352121],[-123.82501057,49.09353083],[-123.82475108,49.09356892],[-123.82461446,49.09357889],[-123.8243344,49.09361877],[-123.82428631,49.09362696],[-123.82388614,49.09362304],[-123.82348398,49.09359064],[-123.82315313,49.0935173],[-123.82304524,49.09349344],[-123.81982136,49.09124604],[-123.81941211,49.09093414],[-123.81909472,49.09078246],[-123.81866742,49.09067849],[-123.81761089,49.09053892],[-123.81683964,49.09049477],[-123.81632208,49.09049395],[-123.81622803,49.0904937],[-123.81509963,49.09060764],[-123.81476576,49.09110077],[-123.81440644,49.0913792],[-123.81283197,49.09237188],[-123.81245168,49.09251109],[-123.81158502,49.09270514],[-123.81128341,49.09277279],[-123.81058199,49.09287569],[-123.81025202,49.09288139],[-123.80927559,49.09269873],[-123.80715558,49.09189334],[-123.806528,49.09171211],[-123.80623641,49.09156684],[-123.80580297,49.09121577],[-123.80488943,49.09062508],[-123.80386786,49.09014477],[-123.80380512,49.09013836],[-123.80354703,49.09017397],[-123.80320514,49.09022132],[-123.80298663,49.09025906],[-123.80284013,49.09031357],[-123.80277291,49.0903956],[-123.80272717,49.0905019],[-123.80272723,49.09050345],[-123.80273144,49.09060327],[-123.80280338,49.09070899],[-123.80292589,49.09079788],[-123.80303879,49.09089849],[-123.80313814,49.09099882],[-123.80313684,49.0909995],[-123.80251842,49.09132386],[-123.80224721,49.09146245],[-123.80175519,49.09130226],[-123.80115569,49.09111843],[-123.80072642,49.09100956],[-123.80020765,49.09095605],[-123.80000763,49.09105205],[-123.79974729,49.09127549],[-123.79957853,49.09162949],[-123.79943759,49.09208414],[-123.79928074,49.09279881],[-123.77155191,49.09222763],[-123.76795385,49.09216016],[-123.76575586,49.09011405],[-123.76227486,49.08687313],[-123.75296848,49.08099883],[-123.74682741,49.07712122],[-123.74222417,49.07421397],[-123.74075001,49.07265068],[-123.74076175,49.07268645],[-123.74089578,49.07322053],[-123.74098895,49.07374998],[-123.74103424,49.07428727],[-123.74103718,49.07465044],[-123.74101807,49.0750161],[-123.74097669,49.07538177],[-123.74087317,49.0759276],[-123.74071998,49.07646417],[-123.74051614,49.07698543],[-123.74035238,49.07732226],[-123.74005997,49.0778193],[-123.73983733,49.0781458],[-123.73946794,49.07862897],[-123.73906449,49.07910501],[-123.73863659,49.07957429],[-123.73774321,49.08049361],[-123.73729418,49.08094438],[-123.7369798,49.08123776],[-123.73648047,49.08166681],[-123.73613332,49.08194595],[-123.73577662,49.08222082],[-123.73541287,49.08249178],[-123.73485921,49.08289269],[-123.73430128,49.08328862],[-123.73373662,49.08367806],[-123.73373493,49.08367921],[-123.73373478,49.08367932],[-123.73296941,49.0841885],[-123.73296478,49.08419157],[-123.73295759,49.08419621],[-123.73237716,49.0845697],[-123.7315934,49.08505967],[-123.73158264,49.08506639],[-123.73156478,49.08507726],[-123.73098199,49.08543172],[-123.73097967,49.08543313],[-123.73097962,49.08543315],[-123.73037026,49.08579488],[-123.729749,49.08614594],[-123.72911518,49.08649096],[-123.72826246,49.08694315],[-123.72816928,49.08699229],[-123.72762111,49.0872814],[-123.7268823,49.08767697],[-123.7264751,49.08791588],[-123.72606516,49.08816469],[-123.72544032,49.08850622],[-123.72480065,49.08885016],[-123.72414006,49.08917132],[-123.72367828,49.08935932],[-123.72318403,49.08951028],[-123.72266506,49.0896317],[-123.72187733,49.08979406],[-123.72133854,49.08986562],[-123.72051863,49.08990337],[-123.71969531,49.08991334],[-123.7186041,49.08986099],[-123.71751646,49.08976486],[-123.71644049,49.08962849],[-123.7153802,49.08944299],[-123.71405262,49.08920087],[-123.71325649,49.08909014],[-123.71217338,49.08901558],[-123.71134718,49.08899614],[-123.71027294,49.08897087],[-123.70973244,49.08901644],[-123.70892572,49.08911969],[-123.70811899,49.08922295],[-123.70784117,49.08924324],[-123.70757923,49.08928846],[-123.7074452,49.0893381],[-123.70734369,49.0893757],[-123.70711102,49.08947402],[-123.70666648,49.08968368],[-123.70622784,49.08990194],[-123.70574388,49.09010703],[-123.70530238,49.09033134],[-123.70515617,49.09046949],[-123.70490371,49.09115525],[-123.70487186,49.09152803],[-123.70490427,49.09207206],[-123.70490446,49.09207528],[-123.70490504,49.09207728],[-123.70505729,49.09260117],[-123.70529756,49.09312243],[-123.70561203,49.09381638],[-123.70582887,49.09434263],[-123.70601555,49.09467981],[-123.70626779,49.0949942],[-123.7065676,49.09529391],[-123.70723872,49.09586404],[-123.70776155,49.09628525],[-123.70828031,49.09671966],[-123.709288,49.09755707],[-123.71031323,49.09840127],[-123.71116706,49.09910447],[-123.71217652,49.09995757],[-123.71298886,49.10068641],[-123.71366273,49.10125431],[-123.71439759,49.10178341],[-123.71521748,49.10225867],[-123.71696769,49.10313854],[-123.7169756,49.10314294],[-123.71780412,49.10360319],[-123.71892492,49.10438651],[-123.72017413,49.10534215],[-123.72188984,49.10675141],[-123.72320588,49.10790608],[-123.72400344,49.10863599],[-123.72445465,49.10908391],[-123.72508092,49.1098836],[-123.72508726,49.10989252],[-123.72577855,49.1108663],[-123.72654047,49.11182373],[-123.72786615,49.11339389],[-123.72786888,49.11339712],[-123.72787279,49.11340104],[-123.72891446,49.11444594],[-123.72891848,49.11444997],[-123.72893233,49.11446288],[-123.73097209,49.11636304],[-123.73195219,49.11723964],[-123.73302849,49.11828038],[-123.73338467,49.11875571],[-123.73347251,49.11911497],[-123.73349668,49.11984274],[-123.7334813,49.12002433],[-123.73346831,49.12010903],[-123.73346828,49.12010921],[-123.73345366,49.12020449],[-123.73341145,49.12038251],[-123.73335348,49.12055662],[-123.73328967,49.12069173],[-123.73327243,49.12072824],[-123.7331676,49.12089665],[-123.73304258,49.12105937],[-123.73290129,49.12121425],[-123.73274382,49.12135917],[-123.73266905,49.12141646],[-123.73256632,49.12149518],[-123.73237658,49.12162585],[-123.73228816,49.12168411],[-123.73218152,49.12175438],[-123.7321811,49.12175459],[-123.73013735,49.12277341],[-123.73013165,49.12277625],[-123.72654742,49.12423077],[-123.72629305,49.12433398],[-123.72202299,49.12574502],[-123.71854953,49.12713825],[-123.71833306,49.12724863],[-123.7181166,49.127359],[-123.71790013,49.12746938],[-123.71785005,49.12749492],[-123.71784941,49.12749524],[-123.71768366,49.12757976],[-123.71747114,49.1276876],[-123.717467,49.1276897],[-123.71746685,49.12768978],[-123.71725142,49.12780122],[-123.71703883,49.12791729],[-123.71695323,49.12796425],[-123.71682658,49.12803372],[-123.71661232,49.12814695],[-123.71639137,49.1282527],[-123.71632594,49.12827948],[-123.71624231,49.12831372],[-123.71624226,49.12831375],[-123.71616178,49.12834669],[-123.71616032,49.12834705],[-123.71564879,49.1284706],[-123.71544677,49.12849893],[-123.71537712,49.1285087],[-123.71537691,49.12850872],[-123.71510701,49.1285411],[-123.71492417,49.12855861],[-123.7148356,49.12856709],[-123.71467541,49.12857835],[-123.714562,49.12858632],[-123.71439505,49.12859326],[-123.71428789,49.12859771],[-123.7141383,49.12859965],[-123.71401384,49.12860127],[-123.7137402,49.1286002],[-123.71346613,49.128597],[-123.71328389,49.12859345],[-123.71319217,49.12859166],[-123.71291846,49.12858489],[-123.71264393,49.1285767],[-123.7124119,49.12856915],[-123.71237033,49.1285678],[-123.71231647,49.12856584],[-123.71209625,49.12855783],[-123.71182237,49.12854751],[-123.71154849,49.12853718],[-123.71136002,49.12852958],[-123.71135973,49.12852956],[-123.711275,49.12852614],[-123.711001,49.12851119],[-123.71072805,49.12849339],[-123.71045461,49.12847452],[-123.7102306,49.12845906],[-123.71018118,49.12845565],[-123.71011775,49.12845176],[-123.70990817,49.12843891],[-123.7097742,49.12843211],[-123.70963466,49.12842502],[-123.70936161,49.12841612],[-123.70908823,49.12841363],[-123.70881477,49.12841612],[-123.70864597,49.12841941],[-123.7085408,49.12842146],[-123.70826672,49.12842894],[-123.70799253,49.12843855],[-123.70786134,49.12844417],[-123.70771823,49.1284503],[-123.70756916,49.12845807],[-123.7074447,49.12846455],[-123.70733106,49.12847119],[-123.70717072,49.12848057],[-123.70702791,49.12849025],[-123.70689752,49.12849908],[-123.70662495,49.12851938],[-123.70639931,49.12853769],[-123.70635301,49.12854145],[-123.70608173,49.12856564],[-123.70608151,49.12856567],[-123.7058121,49.12859486],[-123.70554414,49.12863118],[-123.70527753,49.12867284],[-123.70527746,49.12867285],[-123.70501164,49.12871806],[-123.70474624,49.12876434],[-123.7044947,49.12880782],[-123.7044805,49.12881027],[-123.70448025,49.12881031],[-123.70421398,49.12885371],[-123.70394639,49.12889323],[-123.70386401,49.12890548],[-123.70386378,49.12890551],[-123.70367806,49.12893311],[-123.70340993,49.12897263],[-123.70325042,49.12899479],[-123.70314082,49.12901002],[-123.70305156,49.12902123],[-123.70287153,49.12904384],[-123.70286044,49.12904497],[-123.70260148,49.12907126],[-123.70243213,49.12908171],[-123.70233036,49.129088],[-123.70229772,49.12908689],[-123.7022974,49.12908688],[-123.70205697,49.12907874],[-123.7017821,49.12905951],[-123.70148951,49.12895554],[-123.70095864,49.12905987],[-123.70068892,49.12908619],[-123.70068865,49.12908621],[-123.70058681,49.12910494],[-123.70058543,49.12910519],[-123.70042531,49.12913464],[-123.70028446,49.12916365],[-123.70016258,49.12918876],[-123.69989672,49.12923682],[-123.6997579,49.1292654],[-123.69963033,49.12929166],[-123.69949625,49.12931702],[-123.69936307,49.12934222],[-123.6990956,49.12937568],[-123.69901197,49.12937713],[-123.69882802,49.12938031],[-123.69868409,49.12937165],[-123.6985559,49.12936393],[-123.69828238,49.1293326],[-123.69807585,49.12929779],[-123.69807557,49.12929775],[-123.69801197,49.12928703],[-123.69795238,49.1292736],[-123.6977497,49.12922792],[-123.69749966,49.12915671],[-123.6972571,49.12907519],[-123.69725706,49.12907518],[-123.69715914,49.12903818],[-123.6970196,49.12898545],[-123.69700468,49.1289794],[-123.69678515,49.12889039],[-123.69658542,49.12880582],[-123.69655304,49.12879211],[-123.6964173,49.12873443],[-123.69632058,49.12869349],[-123.69608693,49.128597],[-123.69593407,49.12853798],[-123.69593392,49.12853792],[-123.69584994,49.12850549],[-123.69576605,49.12847604],[-123.6956086,49.12842075],[-123.69545302,49.12837401],[-123.6954529,49.12837397],[-123.69536092,49.12834634],[-123.69524173,49.12831614],[-123.69510655,49.12828189],[-123.69493715,49.12824465],[-123.69484745,49.12822492],[-123.69458459,49.12817365],[-123.69431935,49.12812665],[-123.69412743,49.12809531],[-123.69405121,49.12808286],[-123.69378187,49.1280412],[-123.69361686,49.12801634],[-123.69351248,49.12800061],[-123.69342868,49.12798777],[-123.69324294,49.12795931],[-123.69297475,49.12791658],[-123.69270871,49.12787101],[-123.6924454,49.12782152],[-123.69218565,49.12776669],[-123.69193058,49.12770544],[-123.6917683,49.12766063],[-123.69168046,49.12763637],[-123.69164316,49.12762491],[-123.69164246,49.1276247],[-123.69143359,49.12756053],[-123.69133823,49.12752843],[-123.69118923,49.12747828],[-123.69094788,49.12739069],[-123.69071027,49.12729741],[-123.69055139,49.1272309],[-123.69055119,49.12723082],[-123.69047635,49.12719949],[-123.69024741,49.12709659],[-123.69002379,49.12698907],[-123.68980619,49.12687762],[-123.68980612,49.12687758],[-123.68959513,49.12676226],[-123.68939078,49.12664369],[-123.68925064,49.12655726],[-123.68919278,49.12652157],[-123.68912395,49.12647677],[-123.68899915,49.12639553],[-123.68891135,49.12633558],[-123.68880882,49.12626557],[-123.68862267,49.12613205],[-123.68844138,49.12599568],[-123.68826407,49.12585611],[-123.68809108,49.12571369],[-123.68798222,49.12562004],[-123.68792345,49.12556948],[-123.68785927,49.12551152],[-123.68776103,49.12542279],[-123.68763004,49.12529985],[-123.68763001,49.12529982],[-123.68760322,49.12527467],[-123.68760039,49.12527182],[-123.68746248,49.12513297],[-123.68730469,49.12497417],[-123.68716838,49.12482071],[-123.68716829,49.12482058],[-123.68716251,49.12481237],[-123.68705429,49.1246587],[-123.68695815,49.12448993],[-123.68686225,49.12431298],[-123.68679526,49.12414444],[-123.68679417,49.12414172],[-123.68674116,49.12402698],[-123.6867134,49.12396689],[-123.68669759,49.12393573],[-123.68662614,49.12379492],[-123.686525,49.12362829],[-123.68647577,49.1235636],[-123.68640387,49.12346913],[-123.68628255,49.12333067],[-123.68626598,49.12331176],[-123.68621585,49.12326006],[-123.68611373,49.12315474],[-123.68604186,49.12308913],[-123.68594796,49.12300342],[-123.68576733,49.12286206],[-123.68557157,49.12273602],[-123.6853606,49.12263027],[-123.68513078,49.12254838],[-123.68488006,49.12248821],[-123.68461434,49.12244406],[-123.68433868,49.12240988],[-123.68405898,49.12237997],[-123.68350993,49.12230947],[-123.68350532,49.12230947],[-123.65379853,49.12230698],[-123.5811076,49.1223084],[-123.42948929,49.12215387],[-123.42966766,49.12229024],[-123.42984657,49.12242661],[-123.43002474,49.12256334],[-123.43020365,49.1226997],[-123.43038203,49.12283607],[-123.43163225,49.12379172],[-123.43395386,49.12556592],[-123.43413227,49.12570229],[-123.43431102,49.12583902],[-123.43448943,49.12597538],[-123.4362752,49.12734013],[-123.43681138,49.12774959],[-123.43841893,49.12897797],[-123.44020508,49.13034272],[-123.44127659,49.13116164],[-123.44163364,49.13156576],[-123.44273148,49.13321428],[-123.44393909,49.13502766],[-123.44426842,49.13552222],[-123.44437802,49.13568707],[-123.44602496,49.13815985],[-123.44690367,49.13947867],[-123.44756264,49.14046778],[-123.44888022,49.14244601],[-123.45052769,49.14491879],[-123.45206529,49.14722672],[-123.45217556,49.14739158],[-123.45393268,49.15002886],[-123.45404298,49.15019371],[-123.4542625,49.15052341],[-123.45437226,49.15068827],[-123.45613029,49.1533259],[-123.45624008,49.15349075],[-123.45645986,49.1538201],[-123.45821788,49.15645774],[-123.45887684,49.15744685],[-123.46074554,49.16024898],[-123.46140475,49.1612381],[-123.46184445,49.16189715],[-123.46305324,49.16371052],[-123.46316314,49.16387538],[-123.46393269,49.16502899],[-123.46514184,49.16684236],[-123.46657131,49.16898508],[-123.46745067,49.17030355],[-123.46756064,49.1704684],[-123.46767061,49.17063325],[-123.46953951,49.17343538],[-123.47041959,49.1747542],[-123.47151896,49.17640237],[-123.47184907,49.17689692],[-123.47437867,49.18068781],[-123.47525847,49.18200627],[-123.47613839,49.18332474],[-123.47754708,49.18463501],[-123.47790667,49.18490703],[-123.47844551,49.18531507],[-123.48185963,49.18789858],[-123.48239859,49.18830662],[-123.48455528,49.18993841],[-123.48796996,49.19252192],[-123.48814984,49.19265794],[-123.48994738,49.1940177],[-123.49084603,49.1946974],[-123.49246389,49.19592116],[-123.49444123,49.19741693],[-123.49552005,49.19823265],[-123.49767734,49.19986408],[-123.49920673,49.20102054],[-123.50064529,49.20210828],[-123.5020834,49.20319602],[-123.50226362,49.20333167],[-123.50442112,49.2049631],[-123.50514075,49.20550715],[-123.50532046,49.20564281],[-123.5056224,49.20587104],[-123.50568001,49.20591483],[-123.50891713,49.20836162],[-123.51053596,49.20958538],[-123.51233436,49.21094443],[-123.51251447,49.21108044],[-123.51503306,49.21298354],[-123.51683167,49.21434295],[-123.51701148,49.2144786],[-123.51917029,49.21610968],[-123.51935047,49.21624569],[-123.52348865,49.21937183],[-123.52366832,49.21950784],[-123.52582788,49.22113892],[-123.52618747,49.22141059],[-123.52924688,49.22372101],[-123.53284626,49.22643911],[-123.53320633,49.22671114],[-123.53446587,49.22766215],[-123.53608617,49.22888519],[-123.53626596,49.22902121],[-123.53917509,49.23099943],[-123.54013591,49.23164246],[-123.5433652,49.23385141],[-123.54505935,49.23503066],[-123.54825048,49.23726417],[-123.55145547,49.23948843],[-123.55316939,49.24065593],[-123.55336096,49.24078482],[-123.55665386,49.24295389],[-123.56188152,49.24614091],[-123.56208823,49.24625948],[-123.56229515,49.24637769],[-123.56418272,49.24742377],[-123.56645401,49.24859305],[-123.56742287,49.24909152],[-123.57074334,49.25069055],[-123.57298173,49.2517345],[-123.57320638,49.25183775],[-123.57773837,49.25387366],[-123.58002703,49.25486954],[-123.58197676,49.25569294],[-123.69149102,49.23670729]]]},"geometry_name":"SHAPE","properties":{"id":297,"slug":"nanaimo-gabriola-island","name":"Nanaimo-Gabriola Island","abbreviation":"NAI","gazetteDate":"2023-12-07Z","boundarySet":11},"bbox":[-124.08821429,49.07088786,-123.42948929,49.25569294]}
