{"type":"Feature","id":300,"geometry":{"type":"Polygon","coordinates":[[[-122.87066181,49.24900268],[-122.87147459,49.24899948],[-122.87214979,49.24899681],[-122.87283112,49.24900144],[-122.87296653,49.24900215],[-122.87715056,49.24902316],[-122.88542511,49.2490552],[-122.88575249,49.2490566],[-122.88609055,49.24905805],[-122.88695631,49.24906161],[-122.88727205,49.24906268],[-122.88754723,49.2490641],[-122.88756087,49.2490641],[-122.88963977,49.24907229],[-122.88975608,49.24907585],[-122.89275761,49.24906268],[-122.89284655,49.24906512],[-122.89284513,49.2490149],[-122.89279914,49.24804544],[-122.89268383,49.24599565],[-122.89267773,49.24590378],[-122.89267338,49.24583827],[-122.89265417,49.24464763],[-122.89265051,49.24441584],[-122.89261335,49.24311055],[-122.89260441,49.2428015],[-122.89259951,49.24261457],[-122.89260228,49.24236498],[-122.89260191,49.24228878],[-122.89260128,49.24217414],[-122.89259542,49.24187505],[-122.89258122,49.24109245],[-122.8925763,49.24084962],[-122.89257345,49.24068762],[-122.89254299,49.23907684],[-122.89254087,49.23897144],[-122.89252758,49.23873467],[-122.89252401,49.23867165],[-122.89249885,49.23822979],[-122.89250135,49.23816],[-122.89250197,49.23814754],[-122.89250612,49.23805212],[-122.89250904,49.23797749],[-122.89251034,49.23794423],[-122.89251278,49.23788303],[-122.89251533,49.2378189],[-122.89251678,49.23778223],[-122.89268166,49.2377952],[-122.8932363,49.23780228],[-122.89324025,49.23762129],[-122.89348258,49.23762094],[-122.89348303,49.23757749],[-122.89348547,49.23754113],[-122.89420303,49.23755241],[-122.89420047,49.23765848],[-122.89419397,49.23792679],[-122.89419361,49.23793718],[-122.89419272,49.2379631],[-122.89419281,49.23796959],[-122.89419285,49.23797236],[-122.8941922,49.23799415],[-122.89419098,49.23803538],[-122.89481231,49.23803503],[-122.8948498,49.23803431],[-122.89485329,49.23800547],[-122.89485338,49.23797307],[-122.89486778,49.23747852],[-122.8948828,49.23687572],[-122.89493927,49.2361743],[-122.89537197,49.23618427],[-122.89561681,49.23618427],[-122.89561776,49.23615883],[-122.89561882,49.2361305],[-122.89563326,49.23571463],[-122.89576139,49.23568309],[-122.89636946,49.2355334],[-122.89683358,49.23541947],[-122.89704192,49.23535965],[-122.89723446,49.23528274],[-122.8973867,49.23522186],[-122.89841381,49.23470914],[-122.89906006,49.23435807],[-122.89919963,49.23428223],[-122.89989503,49.23390446],[-122.90026309,49.23370436],[-122.90073968,49.23344444],[-122.90134187,49.23311688],[-122.90151103,49.23302466],[-122.90232308,49.23258244],[-122.90232457,49.23258173],[-122.9032549,49.23208361],[-122.90425265,49.23154597],[-122.9052452,49.23101261],[-122.90610746,49.23054938],[-122.90905203,49.2289621],[-122.90935228,49.22879832],[-122.91051078,49.22817412],[-122.91164165,49.22756478],[-122.91193812,49.22740504],[-122.91214684,49.22729257],[-122.9121294,49.22727833],[-122.91212113,49.22727146],[-122.9117011,49.22692513],[-122.91139365,49.22667104],[-122.9113448,49.22663067],[-122.90980714,49.22537717],[-122.9094434,49.22508077],[-122.90887194,49.22461826],[-122.90847974,49.22430102],[-122.90898602,49.22402543],[-122.9094595,49.22376801],[-122.91022449,49.2233517],[-122.91055604,49.22317127],[-122.91127775,49.22277035],[-122.91188433,49.22243351],[-122.911892,49.22242925],[-122.91194456,49.22240326],[-122.91156483,49.22209829],[-122.91007772,49.22090392],[-122.90878739,49.2198618],[-122.90841792,49.21956339],[-122.90845726,49.21954238],[-122.90856683,49.21948386],[-122.90862326,49.21945372],[-122.90889765,49.21930661],[-122.90958952,49.21893567],[-122.91002114,49.21870459],[-122.91002395,49.21870312],[-122.9100375,49.21869604],[-122.91010404,49.21866028],[-122.91015742,49.2186316],[-122.91063866,49.21837449],[-122.91094116,49.21821288],[-122.91175452,49.21777638],[-122.91212541,49.21757733],[-122.91397711,49.21659818],[-122.91405012,49.21655937],[-122.91410998,49.21652733],[-122.91411905,49.21652248],[-122.91417133,49.21649457],[-122.91418818,49.21648521],[-122.91421299,49.21647143],[-122.91630716,49.21533028],[-122.91701253,49.21495427],[-122.91778726,49.21454127],[-122.91899536,49.213884],[-122.9190302,49.21386513],[-122.91909496,49.21383023],[-122.91917274,49.21378786],[-122.9191831,49.21378217],[-122.9203329,49.21315801],[-122.92186064,49.21235048],[-122.92227641,49.21212401],[-122.92299763,49.21173149],[-122.92310968,49.21167051],[-122.92342049,49.21150129],[-122.92402178,49.21117408],[-122.92453262,49.21089138],[-122.92453647,49.21088924],[-122.92564868,49.21027363],[-122.92688535,49.20962525],[-122.92716758,49.20947243],[-122.92862254,49.20868456],[-122.92867679,49.20865504],[-122.92920525,49.20836875],[-122.92959991,49.20815468],[-122.93060473,49.20760964],[-122.93129444,49.20723757],[-122.93210567,49.20680105],[-122.93323962,49.20619184],[-122.93365198,49.20597038],[-122.93474216,49.2053804],[-122.93695306,49.20419646],[-122.93706654,49.20413564],[-122.93964134,49.20273356],[-122.94029634,49.20237683],[-122.94034592,49.20234983],[-122.94045797,49.2022888],[-122.94067804,49.20217237],[-122.94082306,49.20209546],[-122.94142737,49.20184053],[-122.94151596,49.20179708],[-122.94157839,49.20176647],[-122.94189487,49.20161075],[-122.94244387,49.20134063],[-122.94253193,49.20128793],[-122.94396951,49.20042522],[-122.94434013,49.20027817],[-122.94455975,49.20021566],[-122.94464768,49.20019058],[-122.94499214,49.20012131],[-122.94483811,49.20000439],[-122.94475366,49.19994029],[-122.94442953,49.19969424],[-122.94431034,49.19960391],[-122.94418853,49.19951159],[-122.94394998,49.19933036],[-122.94393059,49.19931544],[-122.94376521,49.19918829],[-122.94369744,49.1991364],[-122.94368197,49.19912456],[-122.94360636,49.19906652],[-122.94186739,49.19773106],[-122.94172687,49.19772077],[-122.94078773,49.19765198],[-122.93570805,49.19727976],[-122.92764477,49.19725172],[-122.92548001,49.19720878],[-122.92333675,49.19716623],[-122.92135565,49.19705354],[-122.92092866,49.19703873],[-122.92061657,49.19703403],[-122.92042466,49.1967912],[-122.91981829,49.19626055],[-122.91886547,49.19542666],[-122.91854601,49.19514707],[-122.91650173,49.19356572],[-122.91442531,49.19195936],[-122.91431269,49.19211427],[-122.91169079,49.19572034],[-122.90770077,49.1981593],[-122.90468922,49.20000009],[-122.90403774,49.20039816],[-122.90152612,49.20193282],[-122.90091145,49.20230838],[-122.89945194,49.20320029],[-122.89739659,49.20466331],[-122.89559881,49.20594296],[-122.89404912,49.20752241],[-122.89403124,49.20754021],[-122.89401643,49.20755552],[-122.88883742,49.21283186],[-122.88412174,49.21763465],[-122.87721021,49.21978129],[-122.87587607,49.21991517],[-122.87636938,49.22490845],[-122.87640962,49.22627818],[-122.8764139,49.22856403],[-122.87639996,49.22872844],[-122.87637798,49.22898738],[-122.87637709,49.22899557],[-122.87637734,49.22906144],[-122.87637793,49.22924231],[-122.87637887,49.2294652],[-122.87637907,49.22957665],[-122.87637914,49.22963148],[-122.87637944,49.22976642],[-122.87637985,49.22982446],[-122.87638699,49.22990849],[-122.87639395,49.22999038],[-122.87594503,49.23009399],[-122.87561265,49.23019119],[-122.87556346,49.23021347],[-122.87543419,49.23027202],[-122.87515885,49.23047853],[-122.87503494,49.23059531],[-122.87503493,49.23059548],[-122.87503463,49.23062237],[-122.87503387,49.23095528],[-122.87506099,49.23107207],[-122.87513177,49.23115985],[-122.87518444,49.23122517],[-122.87531931,49.23131397],[-122.87532084,49.23131498],[-122.87532125,49.23131525],[-122.87548609,49.23139643],[-122.87556194,49.23142584],[-122.87602148,49.23160401],[-122.87615174,49.231682],[-122.8761717,49.23169395],[-122.87617193,49.23169409],[-122.87636371,49.23193692],[-122.87655562,49.232189],[-122.87656012,49.23219573],[-122.87676056,49.23249521],[-122.87682021,49.23253437],[-122.87713099,49.23273839],[-122.87727048,49.23279498],[-122.87730914,49.23281067],[-122.87732183,49.23281731],[-122.87744661,49.23288259],[-122.87757141,49.23293494],[-122.87759771,49.23294597],[-122.87762183,49.23295864],[-122.87773463,49.23301789],[-122.8777894,49.23304495],[-122.87794591,49.23309644],[-122.87817361,49.23317135],[-122.87839571,49.23326846],[-122.87850341,49.23331555],[-122.87871358,49.23338469],[-122.87888762,49.23344195],[-122.87927401,49.23349441],[-122.87935445,49.23350533],[-122.87984854,49.23356871],[-122.87995729,49.23359854],[-122.88001337,49.23361393],[-122.88020573,49.23372217],[-122.88030027,49.23385355],[-122.88030839,49.2338648],[-122.88032879,49.23389307],[-122.88008291,49.23397518],[-122.87953341,49.23415868],[-122.87935213,49.23421921],[-122.87891639,49.23436458],[-122.87859972,49.23447023],[-122.87845926,49.23451723],[-122.87832793,49.23456636],[-122.87819558,49.23461158],[-122.87778637,49.23475138],[-122.8774212,49.23487613],[-122.87654925,49.2351624],[-122.87585076,49.23539169],[-122.87439233,49.23586987],[-122.87312814,49.23628717],[-122.87312883,49.23634093],[-122.87310845,49.23685115],[-122.87310781,49.23687216],[-122.8731071,49.23690563],[-122.87310526,49.23696188],[-122.87307049,49.23782318],[-122.87306614,49.23794922],[-122.87303776,49.23871224],[-122.87303281,49.2388924],[-122.87300302,49.2397366],[-122.8729603,49.24073604],[-122.87295833,49.24087027],[-122.87293939,49.24169952],[-122.87293091,49.24216462],[-122.87292242,49.24263059],[-122.87287654,49.24361579],[-122.87287609,49.24401386],[-122.8728756,49.24419865],[-122.87286793,49.24449738],[-122.87286301,49.24468151],[-122.87286154,49.2447427],[-122.87285746,49.24490434],[-122.8728506,49.24515845],[-122.87284519,49.24535902],[-122.87283544,49.24548034],[-122.87282296,49.24563568],[-122.87276612,49.24580424],[-122.87276358,49.24581192],[-122.87274555,49.24586604],[-122.87266894,49.24597327],[-122.87260564,49.24606187],[-122.87259731,49.24606954],[-122.87258593,49.24608003],[-122.87241144,49.24623694],[-122.87237014,49.24627408],[-122.87183749,49.24671843],[-122.87130061,49.24716635],[-122.8712598,49.24720034],[-122.87077703,49.24760251],[-122.87035228,49.24795599],[-122.87034705,49.24796034],[-122.87013782,49.24813445],[-122.86968948,49.24851187],[-122.86951473,49.2486588],[-122.86940112,49.24875434],[-122.86940013,49.24875553],[-122.86923829,49.24895042],[-122.86920228,49.24900195],[-122.87066181,49.24900268]]]},"geometry_name":"SHAPE","properties":{"id":300,"slug":"new-westminster-coquitlam","name":"New Westminster-Coquitlam","abbreviation":"NMC","gazetteDate":"2023-12-07Z","boundarySet":11},"bbox":[-122.94499214,49.19195936,-122.86920228,49.24907585]}
