{"type":"Feature","id":304,"geometry":{"type":"Polygon","coordinates":[[[-122.91810957,49.54664149],[-122.99999976,49.54667046],[-123.02265708,49.5466733],[-123.0922406,49.54665194],[-123.09850363,49.54664802],[-123.09850138,49.54348236],[-123.0984693,49.50000018],[-123.09845653,49.48296415],[-123.11095461,49.48296343],[-123.11625492,49.4829321],[-123.12211173,49.48292462],[-123.12131534,49.48213668],[-123.12105464,49.48162432],[-123.12119736,49.48121094],[-123.1215911,49.48108419],[-123.12207504,49.48129497],[-123.12270521,49.48151857],[-123.12360919,49.48155988],[-123.12432107,49.48126934],[-123.12466816,49.48091044],[-123.12463353,49.48075805],[-123.12442741,49.48058714],[-123.12430161,49.48046039],[-123.12424584,49.48040769],[-123.12416361,49.4803436],[-123.12401054,49.48016415],[-123.12390096,49.48002031],[-123.12376315,49.4798138],[-123.12362316,49.47960728],[-123.12358134,49.47955317],[-123.12348528,49.47937371],[-123.12343007,49.47923841],[-123.12336074,49.47905042],[-123.12326205,49.47887951],[-123.12319405,49.47870861],[-123.1231229,49.47852773],[-123.12302728,49.47833974],[-123.1229855,49.47814177],[-123.12288858,49.47797941],[-123.12276419,49.47785408],[-123.12241833,49.47770169],[-123.12234811,49.47767463],[-123.12206752,49.47758918],[-123.12190502,49.47756639],[-123.12019063,49.4778758],[-123.12010882,49.47784305],[-123.12003836,49.47759203],[-123.12012496,49.47729864],[-123.12026766,49.47689417],[-123.12013834,49.47640851],[-123.11988827,49.47605531],[-123.11886745,49.47540159],[-123.11883603,49.47525917],[-123.11862947,49.47506975],[-123.11846281,49.47487179],[-123.11838039,49.47468379],[-123.11832347,49.47453995],[-123.11824142,49.47435907],[-123.11821321,49.47429641],[-123.11817164,49.47415256],[-123.1181015,49.47398166],[-123.11806022,49.47377515],[-123.11804495,49.4736313],[-123.11803253,49.47356009],[-123.11800513,49.473496],[-123.11790746,49.47333507],[-123.11779767,49.47265572],[-123.11820148,49.47220424],[-123.11901549,49.47172108],[-123.1193827,49.47118202],[-123.11922127,49.47075155],[-123.11858226,49.4703955],[-123.11824551,49.47019611],[-123.1173821,49.46964067],[-123.11708819,49.4693188],[-123.1164872,49.4682364],[-123.11600103,49.46800283],[-123.1152156,49.4677365],[-123.11507056,49.46757414],[-123.11500557,49.46726224],[-123.11462376,49.46652165],[-123.11439033,49.46603457],[-123.11432788,49.46561728],[-123.11428651,49.46443589],[-123.1136774,49.46374586],[-123.1135073,49.46339124],[-123.11351281,49.46317191],[-123.11371613,49.46302237],[-123.11436578,49.46298854],[-123.11575889,49.46319327],[-123.11609213,49.46303483],[-123.11611908,49.46260579],[-123.11574828,49.46213508],[-123.11434287,49.46133325],[-123.11391969,49.46077496],[-123.11383472,49.46018819],[-123.11397386,49.45982929],[-123.11415834,49.45925818],[-123.11380049,49.45886368],[-123.11331193,49.45866571],[-123.11180433,49.45831678],[-123.11113844,49.4578354],[-123.11076151,49.45744374],[-123.11054243,49.45703641],[-123.11054109,49.45596826],[-123.11042577,49.45553245],[-123.10998543,49.45480325],[-123.10996339,49.45396582],[-123.11049787,49.45351469],[-123.11078005,49.4532765],[-123.11094661,49.45298169],[-123.11055337,49.45203744],[-123.10999386,49.4508525],[-123.11001773,49.45022869],[-123.10988459,49.44996806],[-123.1095913,49.44978149],[-123.10906446,49.44969034],[-123.10755196,49.4496939],[-123.10675881,49.4493966],[-123.1066042,49.44902381],[-123.10682873,49.4479172],[-123.10644831,49.44653999],[-123.10646901,49.44610418],[-123.10663986,49.44577092],[-123.10774917,49.44478109],[-123.10787206,49.44427692],[-123.10762866,49.44375424],[-123.10717982,49.44312616],[-123.10706576,49.44292108],[-123.10681798,49.44252052],[-123.10649027,49.44203664],[-123.10638504,49.44159514],[-123.10667521,49.44122911],[-123.10800619,49.44082749],[-123.10900382,49.44040236],[-123.10933189,49.43981915],[-123.1094039,49.43960267],[-123.10944399,49.43939616],[-123.10943967,49.43925658],[-123.10938113,49.43899595],[-123.10936136,49.43894183],[-123.10927819,49.43880226],[-123.10900213,49.43823685],[-123.10855923,49.4379278],[-123.10769051,49.43729118],[-123.10735185,49.43687531],[-123.1072905,49.4364338],[-123.10750414,49.43583136],[-123.10873399,49.43513207],[-123.10934018,49.43491987],[-123.11008898,49.43441285],[-123.11079671,49.43366087],[-123.11162746,49.43237765],[-123.11222478,49.43186351],[-123.11283245,49.43137465],[-123.11323758,49.43050624],[-123.11326549,49.42907064],[-123.11374377,49.42843402],[-123.1149233,49.42799394],[-123.11572039,49.428021],[-123.11606656,49.42798966],[-123.11708853,49.42768488],[-123.11804953,49.42738722],[-123.11852004,49.42721347],[-123.11932803,49.42679333],[-123.11943086,49.42673636],[-123.11985995,49.42643158],[-123.11986225,49.42582344],[-123.11961002,49.42548733],[-123.1192848,49.42522705],[-123.11916161,49.42510706],[-123.11912115,49.42443911],[-123.11885658,49.42348026],[-123.11878022,49.42314878],[-123.11879198,49.42287248],[-123.11911651,49.42261612],[-123.11970228,49.4224292],[-123.12031623,49.42232986],[-123.12096291,49.42215041],[-123.12181609,49.4219852],[-123.12264446,49.42165478],[-123.12358338,49.42109792],[-123.12436733,49.42043566],[-123.12458985,49.42016221],[-123.12473305,49.41984319],[-123.12513567,49.41808999],[-123.12584582,49.4170318],[-123.12715398,49.4161317],[-123.12728693,49.41595082],[-123.12734466,49.41546944],[-123.12778951,49.41495388],[-123.12862401,49.41433577],[-123.12975427,49.41364467],[-123.13038192,49.41324518],[-123.13130075,49.41239279],[-123.13172046,49.41177362],[-123.13262361,49.41072255],[-123.13320374,49.41026965],[-123.13413914,49.40977687],[-123.13609211,49.4088782],[-123.13690596,49.40840679],[-123.13740878,49.4079667],[-123.13917195,49.40708227],[-123.14086283,49.40665037],[-123.12345964,49.40666071],[-123.09832761,49.40726528],[-123.09119563,49.40743868],[-123.08687449,49.40754371],[-123.06989999,49.40795424],[-123.0697047,49.40124016],[-123.069705,49.40000003],[-123.06968108,49.39860787],[-123.06963853,49.39286296],[-123.06961868,49.39021394],[-123.06959927,49.38757131],[-123.0695871,49.38595626],[-123.06958139,49.38522137],[-123.06953493,49.3789577],[-123.06926557,49.37179891],[-123.06926137,49.3709985],[-123.06924821,49.3684513],[-123.06922781,49.3681686],[-123.06926742,49.36806036],[-123.0693233,49.36793503],[-123.06940555,49.36775558],[-123.06944693,49.36762882],[-123.06957073,49.36744937],[-123.06965244,49.36730553],[-123.06970778,49.3672158],[-123.06976168,49.36715171],[-123.06983075,49.36699932],[-123.06985937,49.36691814],[-123.06995384,49.36672872],[-123.07000966,49.36663045],[-123.07014659,49.366451],[-123.07017514,49.36639688],[-123.07027181,49.36620746],[-123.07032667,49.36612628],[-123.07036629,49.36601804],[-123.07045012,49.36590126],[-123.07062867,49.36569475],[-123.07070983,49.36558651],[-123.0709026,49.36545121],[-123.07104146,49.36538],[-123.07120703,49.36526179],[-123.07134322,49.36519912],[-123.07143957,49.365145],[-123.07152151,49.36510085],[-123.07161786,49.36504673],[-123.07172862,49.36498264],[-123.07179751,49.36491143],[-123.07183966,49.36484877],[-123.07186609,49.36476759],[-123.07187982,49.36470492],[-123.0718932,49.36459668],[-123.07190663,49.36446138],[-123.07191995,49.3643802],[-123.07198895,49.36425487],[-123.07204388,49.36414663],[-123.07207202,49.364074],[-123.07214145,49.36396718],[-123.07225069,49.36381337],[-123.07227706,49.36375925],[-123.0723609,49.36364246],[-123.07238775,49.3635798],[-123.07242811,49.36335477],[-123.07237395,49.36313829],[-123.07230513,49.36304002],[-123.07216645,49.36288763],[-123.07201582,49.36277939],[-123.07190565,49.36259994],[-123.07186423,49.36254582],[-123.07186224,49.36246464],[-123.07187562,49.3623564],[-123.07187623,49.36229373],[-123.07194606,49.36216698],[-123.07200134,49.36210431],[-123.07230283,49.36188926],[-123.07234361,49.36182517],[-123.07245322,49.36171693],[-123.07248062,49.36161866],[-123.07249468,49.36142069],[-123.07249591,49.36129536],[-123.07252187,49.36122273],[-123.07255043,49.36116861],[-123.0725768,49.36111449],[-123.0726325,49.36107034],[-123.07271483,49.36100625],[-123.07303102,49.36085386],[-123.07312785,49.36079119],[-123.07319577,49.36073707],[-123.07336223,49.36062883],[-123.07345687,49.36056617],[-123.07359442,49.36046647],[-123.07366453,49.36041235],[-123.0738288,49.36030411],[-123.07407726,49.36012466],[-123.07426961,49.35997085],[-123.07444754,49.359827],[-123.07448922,49.35977288],[-123.07453043,49.35958489],[-123.07465377,49.35941398],[-123.07473699,49.35935986],[-123.07492927,49.35923311],[-123.07505418,49.35912487],[-123.07517725,49.3590622],[-123.07541197,49.35894542],[-123.07564566,49.35887278],[-123.07576867,49.35883718],[-123.07589289,49.35881866],[-123.07620838,49.358756],[-123.07643059,49.35871897],[-123.07651294,49.35869333],[-123.07667714,49.35861215],[-123.07691144,49.35847685],[-123.07696576,49.35843128],[-123.07710276,49.35822477],[-123.0772414,49.35805386],[-123.07733788,49.35794562],[-123.0775443,49.35777472],[-123.07769538,49.35769354],[-123.07776282,49.35764796],[-123.07805268,49.35752263],[-123.07832859,49.35736027],[-123.07860266,49.35724349],[-123.07876808,49.3571794],[-123.0789743,49.35708967],[-123.07911315,49.35701846],[-123.07918011,49.35698143],[-123.07927686,49.35694583],[-123.07945691,49.35682904],[-123.07952435,49.35678347],[-123.07963436,49.35669374],[-123.07969093,49.35662111],[-123.07975933,49.35655844],[-123.07978734,49.35653993],[-123.07981454,49.35652284],[-123.07984036,49.35650432],[-123.07986975,49.35648723],[-123.07993725,49.3564146],[-123.08000544,49.35625224],[-123.08012973,49.35606424],[-123.08023953,49.35587482],[-123.0803492,49.35573952],[-123.08041766,49.3556498],[-123.08047423,49.35557716],[-123.08070792,49.35536211],[-123.08087128,49.3552439],[-123.08113278,49.35509151],[-123.08124442,49.35503739],[-123.08132587,49.35500178],[-123.08165547,49.35485651],[-123.08190412,49.35477676],[-123.08211108,49.35471267],[-123.08230198,49.35462294],[-123.08250942,49.35455031],[-123.08273052,49.35444207],[-123.08289567,49.3543438],[-123.08312798,49.35412732],[-123.08329285,49.35395641],[-123.08339028,49.35383108],[-123.08356943,49.35370433],[-123.08381575,49.35349782],[-123.08391194,49.35331694],[-123.08409083,49.35315601],[-123.0841172,49.35310189],[-123.08414569,49.35307483],[-123.08415558,49.35305453],[-123.08415222,49.35305275],[-123.08401576,49.35297834],[-123.08371224,49.35281313],[-123.08327988,49.35257742],[-123.08219931,49.35199243],[-123.08180333,49.35172254],[-123.08135426,49.35102859],[-123.07964003,49.3500815],[-123.07862083,49.34941283],[-123.07805475,49.3491173],[-123.07768182,49.34902722],[-123.07728619,49.34897132],[-123.07700786,49.34890617],[-123.076748,49.3487787],[-123.07635009,49.34849315],[-123.07608498,49.34822397],[-123.07519468,49.34717397],[-123.07488558,49.34673033],[-123.07467113,49.34642306],[-123.07444984,49.3457875],[-123.07416917,49.34550444],[-123.07384645,49.34535882],[-123.0735116,49.34526624],[-123.07349887,49.34526268],[-123.07185128,49.34520571],[-123.07187129,49.34419203],[-123.07187984,49.34327449],[-123.07190103,49.34239148],[-123.07191839,49.34146432],[-123.07191943,49.34014407],[-123.07192958,49.33928065],[-123.07195092,49.33833996],[-123.07197257,49.33745161],[-123.07199134,49.33652516],[-123.07200095,49.33613457],[-123.07201005,49.33565746],[-123.07204547,49.33412358],[-123.07206081,49.33346845],[-123.07206888,49.3332833],[-123.07208875,49.33231769],[-123.07209927,49.33203605],[-123.0721019,49.33192674],[-123.07200594,49.33192639],[-123.07057067,49.33191824],[-123.06891303,49.33191286],[-123.06821733,49.33190813],[-123.06752669,49.33190487],[-123.06585945,49.33189933],[-123.0643977,49.33190645],[-123.06285917,49.33192878],[-123.06220132,49.33194723],[-123.06143339,49.33198517],[-123.0609911,49.33200452],[-123.06067755,49.33201701],[-123.06033175,49.33202706],[-123.05998588,49.33200786],[-123.05949208,49.33195833],[-123.05906077,49.33188969],[-123.05851131,49.33178829],[-123.05800989,49.33166865],[-123.05783443,49.33162678],[-123.05711757,49.33140232],[-123.05657351,49.33117477],[-123.05612212,49.33096512],[-123.05540915,49.33056235],[-123.05495736,49.33024653],[-123.05440735,49.32978081],[-123.05420421,49.32958392],[-123.05396252,49.32931182],[-123.05359642,49.32889923],[-123.05357092,49.3288711],[-123.05354535,49.32884404],[-123.05342376,49.32872058],[-123.05332629,49.32862044],[-123.05321016,49.32851256],[-123.05296839,49.32826748],[-123.05203421,49.32756749],[-123.05150784,49.327318],[-123.05098735,49.32705488],[-123.0502901,49.3267971],[-123.0494954,49.32653682],[-123.04667288,49.32568372],[-123.0461662,49.32543769],[-123.04580067,49.32526037],[-123.04548673,49.32505386],[-123.04518126,49.32484593],[-123.0446079,49.32426628],[-123.04163704,49.32052559],[-123.04143977,49.32027457],[-123.03931571,49.31757036],[-123.03891237,49.31706191],[-123.03842199,49.31647621],[-123.03764695,49.31569716],[-123.03762096,49.31568016],[-123.03755633,49.3156379],[-123.03762547,49.3155963],[-123.03801861,49.31536026],[-123.03803343,49.31535071],[-123.03842294,49.31509956],[-123.0396035,49.31440381],[-123.04007562,49.31405422],[-123.04031908,49.31362359],[-123.04034185,49.31336018],[-123.04034486,49.31329345],[-123.03912815,49.31327886],[-123.03846105,49.31327067],[-123.03815033,49.31326675],[-123.0381827,49.31203022],[-123.03818273,49.31202932],[-123.03818279,49.31202693],[-123.03819504,49.31155877],[-123.03820057,49.31134407],[-123.03820146,49.31131665],[-123.03821044,49.3109752],[-123.03821184,49.31091431],[-123.03821324,49.31086589],[-123.03821899,49.31065368],[-123.03822261,49.31051803],[-123.03828328,49.30893836],[-123.03836776,49.30673889],[-123.03850609,49.30178834],[-123.03849407,49.30122257],[-123.03846746,49.29999988],[-123.03842575,49.29809358],[-123.03850263,49.29563611],[-123.03004517,49.29507354],[-123.02880604,49.29499094],[-123.02875819,49.29498774],[-123.02633251,49.29482609],[-123.02614998,49.29481398],[-123.02329816,49.29462421],[-123.02058708,49.29478657],[-123.01384842,49.29518997],[-123.00256003,49.29586505],[-122.99999805,49.29601851],[-122.99726295,49.29618158],[-122.99107658,49.29828834],[-122.9869625,49.29968905],[-122.97893279,49.29823424],[-122.97491727,49.29750646],[-122.9694653,49.29651805],[-122.96943703,49.29651306],[-122.96854509,49.29635142],[-122.96445812,49.29561047],[-122.960178,49.29483428],[-122.94730853,49.29724902],[-122.94393844,49.29788102],[-122.94053168,49.30565684],[-122.94022822,49.30634937],[-122.93832007,49.31070246],[-122.93674294,49.31430001],[-122.93517974,49.31786525],[-122.93390429,49.32077376],[-122.93137318,49.32654507],[-122.93043987,49.32867278],[-122.92912071,49.33168],[-122.92815397,49.33388289],[-122.89482829,49.35597381],[-122.89260987,49.35744323],[-122.87655367,49.38184172],[-122.87661405,49.38256664],[-122.8766217,49.38265566],[-122.87747266,49.39281027],[-122.87747702,49.39286296],[-122.87778733,49.3965652],[-122.87779051,49.3966008],[-122.87807527,49.40000003],[-122.87923353,49.41380454],[-122.87754656,49.41400927],[-122.87575171,49.41426776],[-122.87449867,49.41460103],[-122.87281508,49.4150874],[-122.87101009,49.4156464],[-122.86969752,49.41624207],[-122.86882697,49.41680642],[-122.86819607,49.41744375],[-122.86783909,49.41795789],[-122.86744033,49.41869385],[-122.86708361,49.41965056],[-122.86659293,49.42079598],[-122.86582807,49.42184064],[-122.86554566,49.42234695],[-122.86535157,49.42268413],[-122.86515241,49.4230206],[-122.86484412,49.42352334],[-122.86473841,49.42369033],[-122.8644132,49.42418916],[-122.86407456,49.42468372],[-122.86384074,49.42501093],[-122.86347817,49.42549659],[-122.8632274,49.42581703],[-122.86283829,49.42629165],[-122.86270474,49.42644796],[-122.86227605,49.42690655],[-122.86196123,49.42720208],[-122.86162961,49.42749155],[-122.8612853,49.42777639],[-122.86075745,49.42819867],[-122.86040442,49.42847959],[-122.86022945,49.42862023],[-122.85924091,49.4294833],[-122.85868255,49.43028229],[-122.85858732,49.43083096],[-122.85848733,49.43118844],[-122.85813836,49.43207145],[-122.85818654,49.43241682],[-122.85833722,49.43275721],[-122.85865458,49.43326316],[-122.8589784,49.43377124],[-122.85906792,49.4339425],[-122.85919417,49.4342893],[-122.85923731,49.43464357],[-122.85923491,49.43482338],[-122.85918696,49.43536707],[-122.85916447,49.43572989],[-122.85919625,49.43627109],[-122.85922826,49.43663533],[-122.85933108,49.43717297],[-122.85939074,49.43734672],[-122.8595687,49.4376807],[-122.85984003,49.43799402],[-122.86030707,49.43845191],[-122.86067091,49.43893329],[-122.86080367,49.43927937],[-122.86088792,49.43963756],[-122.86094518,49.4400018],[-122.86097056,49.44018481],[-122.86106421,49.44072815],[-122.86116822,49.44107957],[-122.8612407,49.44125012],[-122.86156063,49.44173471],[-122.86169597,49.44188817],[-122.86199837,49.44218654],[-122.86233023,49.44247743],[-122.86250208,49.44262164],[-122.86284783,49.44290933],[-122.86318498,49.44320058],[-122.86349721,49.44350002],[-122.86363874,49.44365419],[-122.86389906,49.44397072],[-122.86414396,49.44429223],[-122.86437766,49.44461802],[-122.86449162,49.44478216],[-122.86471468,49.44511222],[-122.86493461,49.44544299],[-122.86504447,49.44560856],[-122.86537968,49.44610312],[-122.86549495,49.4462669],[-122.86573149,49.44659162],[-122.86598089,49.44691207],[-122.86611221,49.4470698],[-122.86653918,49.44753124],[-122.86684343,49.44783139],[-122.86715493,49.44812941],[-122.86731106,49.44827824],[-122.86761902,49.44857768],[-122.86791599,49.44888104],[-122.86819146,49.44919329],[-122.86844558,49.44951517],[-122.86869281,49.44983953],[-122.86895036,49.45015926],[-122.86923308,49.45046654],[-122.86938881,49.45061323],[-122.8695558,49.45075458],[-122.8699044,49.45103088],[-122.87008429,49.45116689],[-122.8704533,49.45143429],[-122.87083228,49.4516967],[-122.87102515,49.4518263],[-122.87141581,49.45208266],[-122.87181103,49.45233581],[-122.87220912,49.45258683],[-122.87260748,49.45283642],[-122.87301565,49.45307747],[-122.87345774,49.45329359],[-122.87390706,49.45350473],[-122.87433241,49.45373296],[-122.87491279,49.45411785],[-122.87528392,49.45438454],[-122.87558739,49.4546854],[-122.87588807,49.45498733],[-122.87618896,49.45528891],[-122.87663973,49.45574181],[-122.87678905,49.45589313],[-122.87693838,49.45604445],[-122.87738153,49.4565002],[-122.87752806,49.45665259],[-122.87781349,49.45696022],[-122.87806219,49.45728138],[-122.87830919,49.45760361],[-122.87854451,49.45792904],[-122.87875067,49.45826337],[-122.8788518,49.45843107],[-122.87906412,49.45876327],[-122.87944528,49.45924145],[-122.87959124,49.45939491],[-122.88005495,49.45984745],[-122.88021095,49.4599977],[-122.88051019,49.46030141],[-122.88077773,49.46061367],[-122.88089315,49.46077461],[-122.88108409,49.46110787],[-122.88123104,49.46145396],[-122.88139481,49.46198697],[-122.88152713,49.46252425],[-122.88164287,49.46305797],[-122.88167257,49.46323671],[-122.88172262,49.46359525],[-122.88176644,49.46395416],[-122.88181226,49.46431341],[-122.88183794,49.46449251],[-122.88191327,49.46467196],[-122.8819706,49.46483396],[-122.88203329,49.46500771],[-122.88213579,49.46517506],[-122.88225996,49.46533706],[-122.88239389,49.46549444],[-122.88254722,49.46564469],[-122.88272638,49.46578035],[-122.88293119,49.46590176],[-122.88312633,49.46602958],[-122.8833126,49.46616239],[-122.88349472,49.46629769],[-122.88368191,49.4664337],[-122.88374065,49.46650278],[-122.88381295,49.46658752],[-122.88387779,49.46676234],[-122.88393,49.46694108],[-122.88399911,49.46704006],[-122.88405399,49.46713904],[-122.88418746,49.46727897],[-122.88430182,49.46742745],[-122.88442547,49.46758945],[-122.88445315,49.46765247],[-122.88452161,49.46784118],[-122.8845485,49.46804805],[-122.88463235,49.46821646],[-122.88470932,49.46839021],[-122.88474474,49.46856575],[-122.88472239,49.46874555],[-122.88466708,49.46892358],[-122.88462106,49.4690171],[-122.88458316,49.46909413],[-122.88447949,49.46926183],[-122.88440004,49.46943416],[-122.88432655,49.46960756],[-122.8842379,49.46977775],[-122.88413642,49.46994545],[-122.88402239,49.47010923],[-122.88388149,49.4702634],[-122.88373126,49.47041473],[-122.88360466,49.47057459],[-122.88347716,49.4707341],[-122.88308905,49.47102998],[-122.88294196,49.47180155],[-122.88304015,49.47251187],[-122.8831646,49.47317128],[-122.88316542,49.47354727],[-122.88332939,49.47407566],[-122.88343381,49.47445449],[-122.88354273,49.47477921],[-122.88359073,49.47488745],[-122.88391282,49.47568501],[-122.88466035,49.47650536],[-122.88489077,49.47707504],[-122.8848269,49.4777729],[-122.88422183,49.47909457],[-122.88424488,49.47972834],[-122.88448544,49.48022254],[-122.88496862,49.48079508],[-122.88632435,49.48173363],[-122.88832197,49.48332447],[-122.88897742,49.4841263],[-122.88876838,49.48483698],[-122.8880628,49.48535682],[-122.88614924,49.48593932],[-122.88465068,49.48634522],[-122.88391226,49.48674542],[-122.88354738,49.48705163],[-122.88346908,49.48738204],[-122.88356093,49.48767543],[-122.88397876,49.48804715],[-122.88449724,49.48833057],[-122.88603741,49.48899567],[-122.88643376,49.48925488],[-122.88661915,49.48936454],[-122.88863512,49.49058509],[-122.8897004,49.49132995],[-122.88997494,49.49150655],[-122.89184471,49.4924679],[-122.89189474,49.49270004],[-122.89152917,49.49393341],[-122.89058819,49.49560828],[-122.89060148,49.4961096],[-122.89087905,49.49646423],[-122.89126333,49.49652404],[-122.89233542,49.49659383],[-122.89310599,49.49732445],[-122.89293661,49.49831712],[-122.89281235,49.49935395],[-122.89288823,49.50017465],[-122.89290395,49.50131936],[-122.8935111,49.50211122],[-122.8955485,49.5034044],[-122.89899306,49.50542535],[-122.90037101,49.50686096],[-122.90178795,49.50791914],[-122.90247971,49.50891039],[-122.9028599,49.5097165],[-122.90289488,49.51040439],[-122.90272868,49.51065078],[-122.90262719,49.5108701],[-122.90236592,49.51173387],[-122.90229075,49.51198241],[-122.90220401,49.51211202],[-122.90102378,49.51254497],[-122.89915716,49.5143879],[-122.89813815,49.51490774],[-122.89725508,49.5151997],[-122.8972388,49.51521679],[-122.89713273,49.51555433],[-122.89741966,49.5157879],[-122.89828717,49.51608271],[-122.8985259,49.51623795],[-122.89885713,49.51631913],[-122.89906598,49.51639176],[-122.89914841,49.51643591],[-122.89943749,49.51657976],[-122.89967266,49.51670651],[-122.89999072,49.51689593],[-122.9002798,49.51712096],[-122.90033371,49.51719217],[-122.90054036,49.51740011],[-122.90065223,49.51750835],[-122.90087331,49.51778749],[-122.90103702,49.51792421],[-122.90111413,49.51812075],[-122.90123959,49.52079115],[-122.90143592,49.52146195],[-122.90134568,49.52226663],[-122.90105095,49.52299867],[-122.90081995,49.52344445],[-122.90115666,49.5242121],[-122.90176591,49.52480884],[-122.90217515,49.52534434],[-122.90243847,49.52592827],[-122.90251486,49.52618036],[-122.90280722,49.52686398],[-122.90299286,49.52743793],[-122.90327687,49.52789653],[-122.90422317,49.52886641],[-122.90464955,49.52968533],[-122.90479601,49.53025502],[-122.90584423,49.53106967],[-122.90590283,49.53111239],[-122.90632002,49.53139439],[-122.90659299,49.53170629],[-122.90664742,49.53176895],[-122.90675944,49.53195837],[-122.90686925,49.53212073],[-122.90695054,49.53228309],[-122.90700723,49.532454],[-122.90721272,49.53268757],[-122.90740548,49.53288553],[-122.90743452,49.53295817],[-122.90753026,49.53313762],[-122.90762692,49.53329998],[-122.90773753,49.53343385],[-122.90780655,49.533525],[-122.90791546,49.53370445],[-122.90798533,49.53387536],[-122.90806839,49.53407332],[-122.90813562,49.53425277],[-122.90817828,49.53431686],[-122.90821916,49.53446925],[-122.90826007,49.53467576],[-122.90831507,49.53486518],[-122.90832782,49.53492785],[-122.90832752,49.53515287],[-122.90831393,49.53521554],[-122.90821707,49.53544057],[-122.90821759,49.5355132],[-122.90817512,49.53571971],[-122.90814667,49.53582795],[-122.9081059,49.53598889],[-122.90803538,49.53621391],[-122.90799627,49.53647062],[-122.90799388,49.53648451],[-122.90817015,49.53664972],[-122.90932047,49.53708268],[-122.90979888,49.53720658],[-122.91003806,49.53730343],[-122.91009343,49.53734901],[-122.91024538,49.53742164],[-122.91053473,49.53756549],[-122.91078243,49.53776345],[-122.91100378,49.53793436],[-122.91114128,49.53811381],[-122.91119669,49.5382135],[-122.91130786,49.53839295],[-122.91143048,49.53859092],[-122.9115401,49.5389783],[-122.91156076,49.53908512],[-122.91141866,49.53943262],[-122.91111796,49.53977728],[-122.91123189,49.54005643],[-122.91167159,49.54046945],[-122.91179998,49.54064178],[-122.91180493,49.54065531],[-122.91186866,49.54082265],[-122.91188414,49.54093089],[-122.91191142,49.54106477],[-122.91206262,49.54128979],[-122.91211715,49.54140658],[-122.91221437,49.54158745],[-122.91224208,49.54168572],[-122.91230987,49.54188369],[-122.91240658,49.54201899],[-122.912545,49.54215429],[-122.91279319,49.54231665],[-122.91290251,49.54235225],[-122.91304253,49.5423608],[-122.91331827,49.54236222],[-122.91362257,49.54248755],[-122.91381593,49.54267697],[-122.91399518,49.54285642],[-122.91418855,49.54304584],[-122.91443491,49.54331217],[-122.91488455,49.54423078],[-122.91480809,49.5444316],[-122.91480725,49.54450281],[-122.91480751,49.54471929],[-122.91483391,49.54477341],[-122.91486251,49.54482753],[-122.91498566,49.54501695],[-122.91509725,49.54510667],[-122.91522156,49.54520494],[-122.91541311,49.54530464],[-122.9154412,49.54531318],[-122.91545485,49.5453317],[-122.91548293,49.54534024],[-122.91549785,49.54534879],[-122.91569111,49.54542997],[-122.91580183,49.545467],[-122.91595241,49.54551115],[-122.91602143,49.54554818],[-122.91611759,49.54558378],[-122.9162696,49.54565642],[-122.91643611,49.5457732],[-122.91654771,49.54586293],[-122.91660094,49.54593556],[-122.91685052,49.54614207],[-122.91702986,49.54634858],[-122.9172233,49.54656506],[-122.91730875,49.5466409],[-122.91810957,49.54664149]]]},"geometry_name":"SHAPE","properties":{"id":304,"slug":"north-vancouver-seymour","name":"North Vancouver-Seymour","abbreviation":"NVS","gazetteDate":"2023-12-07Z","boundarySet":11},"bbox":[-123.14086283,49.29462421,-122.85813836,49.5466733]}
