{"type":"Feature","id":303,"geometry":{"type":"Polygon","coordinates":[[[-123.07295177,49.33565603],[-123.07358054,49.33565532],[-123.07439604,49.3356539],[-123.07513812,49.33565283],[-123.07620244,49.33565105],[-123.07709607,49.33564962],[-123.07758606,49.33564891],[-123.07829337,49.33564749],[-123.0785463,49.33564856],[-123.07875004,49.33564963],[-123.07962301,49.33562114],[-123.08141206,49.335619],[-123.08385169,49.3356393],[-123.08449779,49.33564464],[-123.08544754,49.33564927],[-123.0876999,49.33566066],[-123.08809862,49.33566672],[-123.09092982,49.3357085],[-123.09113845,49.33571158],[-123.09113884,49.33570802],[-123.09117289,49.33437638],[-123.09118274,49.33397938],[-123.09119465,49.33351438],[-123.09122908,49.33216209],[-123.09123224,49.33204602],[-123.09123486,49.33194241],[-123.0912367,49.33189114],[-123.09125857,49.33102522],[-123.09176456,49.33103376],[-123.09239136,49.33103958],[-123.0926767,49.33104222],[-123.09326187,49.33104765],[-123.09351366,49.33105548],[-123.09398307,49.33106972],[-123.09812411,49.33105807],[-123.10143201,49.33104864],[-123.10165422,49.331048],[-123.10202106,49.33104373],[-123.10202167,49.33074465],[-123.10202214,49.33049292],[-123.10212144,49.32980965],[-123.10215054,49.3286386],[-123.10219185,49.32648697],[-123.10220701,49.32569049],[-123.10222926,49.32471917],[-123.10214696,49.32417014],[-123.10214543,49.32405656],[-123.10214241,49.32386394],[-123.10214255,49.32384542],[-123.10214212,49.3238116],[-123.10299988,49.3238383],[-123.10489967,49.32381551],[-123.10776973,49.32384542],[-123.11057371,49.32387818],[-123.11336815,49.32389313],[-123.11477718,49.32390916],[-123.11615203,49.32392091],[-123.11754406,49.323938],[-123.11890751,49.32395829],[-123.1200837,49.32395722],[-123.1200981,49.32395687],[-123.12027378,49.32395437],[-123.12097625,49.3239679],[-123.12103628,49.32396897],[-123.1215969,49.32406297],[-123.12244261,49.32429939],[-123.12421619,49.32482385],[-123.12593148,49.32531734],[-123.12892617,49.32615727],[-123.13151585,49.32675722],[-123.13188621,49.32685157],[-123.13192636,49.32681454],[-123.13225273,49.32651012],[-123.13227368,49.32649054],[-123.13231193,49.32645493],[-123.13264521,49.3261441],[-123.133056,49.32576027],[-123.13306271,49.32575422],[-123.13320226,49.3256239],[-123.13336073,49.32567482],[-123.13355836,49.32573855],[-123.13490266,49.3261708],[-123.13493182,49.32618006],[-123.13494058,49.32618291],[-123.13529401,49.32629649],[-123.13531633,49.32630367],[-123.13630511,49.32662192],[-123.13712824,49.32688682],[-123.13747059,49.32699684],[-123.13756342,49.32702675],[-123.13932273,49.32694557],[-123.14036954,49.32690017],[-123.14053072,49.32689318],[-123.14104672,49.3268708],[-123.14220613,49.32681906],[-123.14256624,49.32680298],[-123.14493889,49.32669704],[-123.1449624,49.32666429],[-123.14502482,49.32657741],[-123.14565371,49.32571577],[-123.14614018,49.32504923],[-123.14618633,49.32498621],[-123.14630233,49.32482706],[-123.14633253,49.3247854],[-123.14636085,49.32474801],[-123.14653412,49.32450626],[-123.14658878,49.32443113],[-123.14693372,49.32396007],[-123.14695068,49.32393693],[-123.14719925,49.32359619],[-123.14721007,49.32358194],[-123.14754716,49.32312086],[-123.14755048,49.32311694],[-123.1478521,49.32270392],[-123.14785386,49.32270178],[-123.14785541,49.3227],[-123.14786055,49.32269288],[-123.14797514,49.32253622],[-123.14802489,49.3224707],[-123.14685875,49.32209614],[-123.14267681,49.32075168],[-123.14233589,49.32064309],[-123.14204705,49.32055051],[-123.14204383,49.32054944],[-123.14186157,49.32049141],[-123.14144447,49.32035825],[-123.14112039,49.32025463],[-123.14048134,49.32005062],[-123.13824329,49.31933424],[-123.13705549,49.32062849],[-123.13650891,49.32042518],[-123.13640101,49.32054304],[-123.13630228,49.32065341],[-123.13441645,49.3199584],[-123.13576245,49.31852137],[-123.13721662,49.31696791],[-123.13813635,49.31598521],[-123.13888048,49.3151905],[-123.138821,49.31517021],[-123.13878663,49.31515668],[-123.13872371,49.31513282],[-123.13602989,49.31409742],[-123.13491392,49.31366857],[-123.12777564,49.31092499],[-123.11803465,49.30717932],[-123.11074267,49.30437461],[-123.10571234,49.3024393],[-123.10479135,49.30208493],[-123.1046721,49.30203903],[-123.10267671,49.30127099],[-123.10245616,49.30118612],[-123.10067361,49.30050014],[-123.0993738,49.29999988],[-123.09832788,49.29959755],[-123.09512467,49.29938545],[-123.09487362,49.29936967],[-123.09212776,49.29918844],[-123.08926769,49.29899973],[-123.08722551,49.29886479],[-123.08715082,49.2988598],[-123.08570059,49.29876403],[-123.08234709,49.29854256],[-123.08099281,49.29845284],[-123.07886022,49.29831184],[-123.07715629,49.2981992],[-123.06615887,49.29747156],[-123.06484998,49.29738468],[-123.06395986,49.29732558],[-123.05438553,49.29669073],[-123.05172627,49.29651427],[-123.04708017,49.29620579],[-123.0421154,49.29587609],[-123.03850263,49.29563611],[-123.03842575,49.29809358],[-123.03846746,49.29999988],[-123.03849407,49.30122257],[-123.03850609,49.30178834],[-123.03836776,49.30673889],[-123.03828328,49.30893836],[-123.03822261,49.31051803],[-123.03821899,49.31065368],[-123.03821324,49.31086589],[-123.03821184,49.31091431],[-123.03821044,49.3109752],[-123.03820146,49.31131665],[-123.03820057,49.31134407],[-123.03819504,49.31155877],[-123.03818279,49.31202693],[-123.03818273,49.31202932],[-123.0381827,49.31203022],[-123.03815033,49.31326675],[-123.03846105,49.31327067],[-123.03912815,49.31327886],[-123.04034486,49.31329345],[-123.04034185,49.31336018],[-123.04031908,49.31362359],[-123.04007562,49.31405422],[-123.0396035,49.31440381],[-123.03842294,49.31509956],[-123.03803343,49.31535071],[-123.03801861,49.31536026],[-123.03762547,49.3155963],[-123.03755633,49.3156379],[-123.03762096,49.31568016],[-123.03764695,49.31569716],[-123.03842199,49.31647621],[-123.03891237,49.31706191],[-123.03931571,49.31757036],[-123.04143977,49.32027457],[-123.04163704,49.32052559],[-123.0446079,49.32426628],[-123.04518126,49.32484593],[-123.04548673,49.32505386],[-123.04580067,49.32526037],[-123.0461662,49.32543769],[-123.04667288,49.32568372],[-123.0494954,49.32653682],[-123.0502901,49.3267971],[-123.05098735,49.32705488],[-123.05150784,49.327318],[-123.05203421,49.32756749],[-123.05296839,49.32826748],[-123.05321016,49.32851256],[-123.05332629,49.32862044],[-123.05342376,49.32872058],[-123.05354535,49.32884404],[-123.05357092,49.3288711],[-123.05359642,49.32889923],[-123.05396252,49.32931182],[-123.05420421,49.32958392],[-123.05440735,49.32978081],[-123.05495736,49.33024653],[-123.05540915,49.33056235],[-123.05612212,49.33096512],[-123.05657351,49.33117477],[-123.05711757,49.33140232],[-123.05783443,49.33162678],[-123.05800989,49.33166865],[-123.05851131,49.33178829],[-123.05906077,49.33188969],[-123.05949208,49.33195833],[-123.05998588,49.33200786],[-123.06033175,49.33202706],[-123.06067755,49.33201701],[-123.0609911,49.33200452],[-123.06143339,49.33198517],[-123.06220132,49.33194723],[-123.06285917,49.33192878],[-123.0643977,49.33190645],[-123.06585945,49.33189933],[-123.06752669,49.33190487],[-123.06821733,49.33190813],[-123.06891303,49.33191286],[-123.07057067,49.33191824],[-123.07200594,49.33192639],[-123.0721019,49.33192674],[-123.07209927,49.33203605],[-123.07208875,49.33231769],[-123.07206888,49.3332833],[-123.07206081,49.33346845],[-123.07204547,49.33412358],[-123.07201005,49.33565746],[-123.07295177,49.33565603]]]},"geometry_name":"SHAPE","properties":{"id":303,"slug":"north-vancouver-lonsdale","name":"North Vancouver-Lonsdale","abbreviation":"NVL","gazetteDate":"2023-12-07Z","boundarySet":11},"bbox":[-123.14802489,49.29563611,-123.03755633,49.33571158]}
