{"type":"Feature","id":305,"geometry":{"type":"Polygon","coordinates":[[[-123.19122214,48.50278101],[-123.27119001,48.50280023],[-123.30668211,48.50278944],[-123.33688474,48.50277091],[-123.33704797,48.5029144],[-123.33721493,48.50305611],[-123.33738529,48.50319568],[-123.33755917,48.50333383],[-123.33773571,48.5034702],[-123.33791544,48.50360479],[-123.33809783,48.5037376],[-123.3382832,48.50386898],[-123.33847048,48.50399894],[-123.33866381,48.50412498],[-123.33886669,48.5042439],[-123.33907604,48.5043582],[-123.33928792,48.50447],[-123.33949939,48.50458251],[-123.33970684,48.50469822],[-123.33990379,48.50482178],[-123.34008545,48.50495494],[-123.3402635,48.5050906],[-123.34045705,48.50521628],[-123.34066737,48.50532986],[-123.34088391,48.50543739],[-123.34118526,48.5055798],[-123.34300935,48.50275952],[-123.34351064,48.50198439],[-123.34336142,48.50183165],[-123.34330788,48.5017964],[-123.34282062,48.50147381],[-123.34253894,48.501226],[-123.34239156,48.50109676],[-123.34194237,48.50079269],[-123.34069882,48.50003252],[-123.34049621,48.49990861],[-123.33942705,48.49914345],[-123.33929598,48.49904055],[-123.33842138,48.49835622],[-123.33561397,48.49550389],[-123.33543179,48.49516065],[-123.33542078,48.49514],[-123.33545513,48.49489041],[-123.33560149,48.49444855],[-123.33656388,48.4926017],[-123.33798841,48.4907456],[-123.33810234,48.49059321],[-123.33817359,48.49051096],[-123.33823674,48.49043797],[-123.33857074,48.49007943],[-123.33957258,48.48900593],[-123.33979989,48.48871219],[-123.34040797,48.48792496],[-123.34047002,48.48778503],[-123.34047263,48.4877512],[-123.34048136,48.48765186],[-123.34026491,48.4869159],[-123.34011508,48.48640568],[-123.33998397,48.48596168],[-123.33988613,48.48562877],[-123.3396611,48.48499108],[-123.33934075,48.48413549],[-123.33922837,48.48384673],[-123.33922651,48.48381504],[-123.33915267,48.48267069],[-123.33925642,48.48226106],[-123.33929921,48.48209211],[-123.33968963,48.48054862],[-123.33974394,48.48033392],[-123.33992268,48.4796738],[-123.339917,48.4795652],[-123.33989194,48.47952294],[-123.33984756,48.47944806],[-123.3375915,48.47693682],[-123.33699572,48.47650707],[-123.3369386,48.47645971],[-123.33627501,48.47591104],[-123.33591817,48.47561623],[-123.33553212,48.47529151],[-123.33538201,48.47516546],[-123.3353257,48.47507823],[-123.33479652,48.47419486],[-123.33449668,48.47363693],[-123.33442996,48.4733585],[-123.33443682,48.47307366],[-123.33486687,48.47167437],[-123.33487679,48.47137885],[-123.33481081,48.47087468],[-123.33486231,48.47055494],[-123.33512057,48.46950209],[-123.33531893,48.46869172],[-123.33533043,48.46864828],[-123.33534448,48.46859772],[-123.3355325,48.46777204],[-123.33613501,48.46547051],[-123.3362314,48.46500373],[-123.33630067,48.46466477],[-123.33640491,48.46415348],[-123.33646819,48.46399147],[-123.33661284,48.46362011],[-123.33698436,48.4626666],[-123.33658585,48.46252845],[-123.33504154,48.46199366],[-123.33494614,48.46195948],[-123.33295819,48.46126838],[-123.33296609,48.46031808],[-123.33297087,48.45920008],[-123.33297348,48.4584869],[-123.33301044,48.4573746],[-123.33302523,48.45692455],[-123.33304535,48.45620817],[-123.33303823,48.45598136],[-123.33306257,48.45507201],[-123.33305584,48.4543008],[-123.33307718,48.45281997],[-123.3331372,48.45056225],[-123.33315622,48.44968422],[-123.3331895,48.44814964],[-123.33240417,48.44814323],[-123.33240543,48.44805599],[-123.33240993,48.44789185],[-123.33241464,48.44772736],[-123.33241882,48.44756286],[-123.33242353,48.44739837],[-123.33242507,48.44734816],[-123.33242825,48.44723387],[-123.33243296,48.44706937],[-123.33243747,48.44690523],[-123.33244219,48.44674074],[-123.33244495,48.44663356],[-123.33244691,48.44657624],[-123.3324599,48.44610305],[-123.33246535,48.44598947],[-123.3324588,48.44587802],[-123.33247843,48.44525813],[-123.33252845,48.44377874],[-123.33251692,48.44368403],[-123.33253292,48.44359822],[-123.33254158,48.44334471],[-123.33254296,48.44327101],[-123.33254612,48.44316134],[-123.33254654,48.44316063],[-123.33258022,48.44206506],[-123.33255471,48.44198779],[-123.33258545,48.44188418],[-123.33259601,48.44152777],[-123.33259913,48.44139532],[-123.3326039,48.44125824],[-123.33260729,48.44112259],[-123.33261152,48.44098551],[-123.33263934,48.44008113],[-123.33259763,48.43998393],[-123.33264376,48.43989527],[-123.33266794,48.43908953],[-123.33267033,48.43900408],[-123.33267043,48.43899019],[-123.33254231,48.43897986],[-123.33099084,48.43890652],[-123.32907017,48.43881572],[-123.32811758,48.43877086],[-123.32830891,48.43784512],[-123.32849798,48.43686384],[-123.3287035,48.43592956],[-123.32885645,48.43519823],[-123.32896212,48.43469371],[-123.3290122,48.43445301],[-123.32919303,48.43364406],[-123.32946851,48.43230103],[-123.32959026,48.43157362],[-123.32979584,48.4308049],[-123.33006541,48.42978374],[-123.3301632,48.42955872],[-123.33020969,48.42916243],[-123.33022505,48.42838695],[-123.33022852,48.42643934],[-123.33017419,48.42515684],[-123.33014827,48.4245569],[-123.33013544,48.4241923],[-123.33009532,48.42324021],[-123.33008271,48.42293009],[-123.33011763,48.4227866],[-123.33039055,48.422469],[-123.3306227,48.42219983],[-123.3310411,48.42171311],[-123.33184596,48.42077669],[-123.33193657,48.42060507],[-123.33203459,48.42041992],[-123.33237351,48.41948671],[-123.33193618,48.41852608],[-123.33149692,48.41759073],[-123.33106215,48.41666428],[-123.33045892,48.41547222],[-123.33156448,48.415171],[-123.33216102,48.41499475],[-123.3324171,48.41488758],[-123.33251642,48.41480071],[-123.33330241,48.41401347],[-123.33352552,48.41378346],[-123.33409469,48.41319633],[-123.33428356,48.41300086],[-123.33456543,48.41281144],[-123.33489502,48.41263484],[-123.33529993,48.41250808],[-123.33611204,48.41233647],[-123.33634859,48.41228626],[-123.33707339,48.41220117],[-123.3371087,48.41029771],[-123.33711235,48.4102139],[-123.33711483,48.41016312],[-123.33716516,48.41002177],[-123.33695496,48.40684044],[-123.34033924,48.34663218],[-123.34492032,48.2648775],[-123.33628287,48.26662712],[-123.33440869,48.26700477],[-123.32561185,48.26878506],[-123.24880706,48.2842972],[-123.16292228,48.37301182],[-123.13129798,48.40557374],[-123.11422922,48.42312337],[-123.13278383,48.4354989],[-123.14273156,48.44212989],[-123.16025174,48.45380157],[-123.16283786,48.45797759],[-123.17651684,48.48005237],[-123.18115099,48.48752558],[-123.1906158,48.50278064],[-123.19122214,48.50278101]]]},"geometry_name":"SHAPE","properties":{"id":305,"slug":"oak-bay-gordon-head","name":"Oak Bay-Gordon Head","abbreviation":"OBG","gazetteDate":"2023-12-07Z","boundarySet":11},"bbox":[-123.34492032,48.2648775,-123.11422922,48.5055798]}
