{"type":"Feature","id":318,"geometry":{"type":"Polygon","coordinates":[[[-123.13664667,49.15557936],[-123.13734441,49.15558541],[-123.13973164,49.15560642],[-123.14034377,49.15561176],[-123.14229448,49.15560784],[-123.14371704,49.15560499],[-123.1460858,49.15559882],[-123.14647265,49.1555978],[-123.14723686,49.1555958],[-123.14780083,49.15559431],[-123.14895111,49.15559451],[-123.14991841,49.15559467],[-123.15086446,49.15558826],[-123.15293484,49.15559081],[-123.15434519,49.15559253],[-123.15548376,49.15559397],[-123.15575812,49.15559431],[-123.15615579,49.15559467],[-123.15850232,49.15558203],[-123.15893106,49.15557971],[-123.16144553,49.15558577],[-123.16505695,49.15560428],[-123.16983579,49.15561105],[-123.16993824,49.15561307],[-123.16998006,49.15561389],[-123.17029039,49.15561959],[-123.17169135,49.15563739],[-123.17226312,49.15563526],[-123.17321696,49.15564665],[-123.17333537,49.15564807],[-123.1742453,49.15565057],[-123.17481088,49.15565164],[-123.17551999,49.15565306],[-123.17553142,49.15565306],[-123.17629116,49.15565448],[-123.17771788,49.15565769],[-123.17955325,49.15566125],[-123.18107783,49.15566374],[-123.18300941,49.15565804],[-123.18336934,49.15565698],[-123.18544376,49.15565092],[-123.18761217,49.15565092],[-123.18976826,49.15564772],[-123.19185453,49.1556438],[-123.19241779,49.15564131],[-123.19676747,49.15557971],[-123.19712446,49.15557615],[-123.198892,49.15555835],[-123.2000002,49.15554731],[-123.2013118,49.15553378],[-123.2019393,49.15553414],[-123.20219246,49.15553414],[-123.20464624,49.15554731],[-123.22582017,49.15566766],[-123.22578761,49.14834722],[-123.22581862,49.14135186],[-123.22581189,49.13891071],[-123.22579841,49.13402023],[-123.22579804,49.13388865],[-123.225308,49.12957685],[-123.2250398,49.12953769],[-123.22477215,49.12949852],[-123.22423812,49.12941699],[-123.22370715,49.12932726],[-123.22317908,49.12922863],[-123.22264069,49.12913571],[-123.22237179,49.12908728],[-123.2218467,49.12897299],[-123.22135641,49.12881775],[-123.22113055,49.12871877],[-123.2206909,49.12850727],[-123.22025398,49.12829293],[-123.21981977,49.12807574],[-123.21938775,49.1278557],[-123.21895783,49.12763388],[-123.21852914,49.12740992],[-123.21810277,49.12718383],[-123.21767701,49.12695666],[-123.21746515,49.12684273],[-123.21704116,49.12661343],[-123.21661813,49.12638342],[-123.2164071,49.12626806],[-123.21598448,49.12603734],[-123.21556208,49.12580626],[-123.21513988,49.12557483],[-123.21471729,49.1253441],[-123.21429415,49.12511338],[-123.21387041,49.12488373],[-123.21344573,49.12465479],[-123.2130199,49.12442691],[-123.2123779,49.12408795],[-123.21194747,49.12386435],[-123.21173184,49.12375326],[-123.2112985,49.12353287],[-123.21086285,49.12331461],[-123.21042449,49.12309919],[-123.20998321,49.12288699],[-123.20976163,49.12278159],[-123.20931384,49.12257508],[-123.20886008,49.12237427],[-123.20840042,49.12217809],[-123.20816866,49.12208195],[-123.20770146,49.12189324],[-123.20722986,49.12170845],[-123.20675419,49.12152794],[-123.20627485,49.12135098],[-123.20579315,49.12117722],[-123.20555094,49.12109177],[-123.20482248,49.12083862],[-123.20457885,49.12075566],[-123.20409023,49.12059116],[-123.20384579,49.12050963],[-123.20335719,49.12034798],[-123.20286567,49.12018953],[-123.20261879,49.12011227],[-123.20212231,49.11996059],[-123.20162272,49.11981247],[-123.2011211,49.11966792],[-123.20086968,49.11959671],[-123.20036439,49.11945571],[-123.19985843,49.11931685],[-123.1996045,49.11924813],[-123.19909678,49.11911141],[-123.19858865,49.1189754],[-123.19808013,49.1188401],[-123.19757146,49.11870408],[-123.1970641,49.11856772],[-123.19655755,49.11842992],[-123.19605202,49.11829035],[-123.19579946,49.11822021],[-123.19529462,49.1180785],[-123.19504268,49.11800729],[-123.19453865,49.11786416],[-123.19403484,49.11772067],[-123.1937831,49.1176491],[-123.19327874,49.11750561],[-123.19302701,49.11743405],[-123.19252225,49.11729127],[-123.19201743,49.11714956],[-123.19176489,49.11707942],[-123.19125865,49.1169402],[-123.19085838,49.1168316],[-123.1907514,49.11680276],[-123.19049763,49.11673476],[-123.18973371,49.11653537],[-123.18947866,49.11647057],[-123.1889668,49.1163431],[-123.18819542,49.11615867],[-123.18793766,49.11609956],[-123.18741997,49.1159842],[-123.18689896,49.1158756],[-123.18583746,49.11569437],[-123.18502855,49.11558222],[-123.18448575,49.11551457],[-123.18394146,49.11545048],[-123.18312475,49.11535577],[-123.18231138,49.11525714],[-123.18177294,49.11518379],[-123.18150542,49.11514748],[-123.18123959,49.11510724],[-123.18071169,49.1150193],[-123.18045014,49.11497159],[-123.17967843,49.1148078],[-123.17942688,49.11474265],[-123.17893566,49.11458491],[-123.17846251,49.11439656],[-123.17823297,49.11429295],[-123.17778851,49.11406971],[-123.17736533,49.11383115],[-123.1771617,49.11370796],[-123.17677286,49.11345694],[-123.17623356,49.11305638],[-123.17606311,49.1129161],[-123.17573411,49.11262805],[-123.17557331,49.11248136],[-123.17525703,49.11218441],[-123.17510039,49.11203522],[-123.17478603,49.11173685],[-123.17446596,49.11144275],[-123.1741355,49.11115542],[-123.17369431,49.11094179],[-123.17347392,49.11083462],[-123.17303328,49.11062098],[-123.1728129,49.11051381],[-123.17237152,49.11030054],[-123.17193151,49.11008584],[-123.17171262,49.10997795],[-123.17127609,49.10976005],[-123.17105857,49.10965074],[-123.17062415,49.10943106],[-123.17019048,49.10921102],[-123.16997392,49.109101],[-123.16953951,49.10888131],[-123.16932255,49.108772],[-123.16888625,49.10855374],[-123.16866759,49.1084455],[-123.16822837,49.10823045],[-123.1677861,49.10801788],[-123.16733901,49.10780995],[-123.16688519,49.10760807],[-123.16665655,49.10750873],[-123.1661973,49.10731254],[-123.1659671,49.10721499],[-123.16550616,49.10701987],[-123.16504767,49.10682333],[-123.16481925,49.10672363],[-123.16436736,49.10652033],[-123.16414356,49.10641636],[-123.1637027,49.10620237],[-123.16326932,49.10598198],[-123.16305566,49.10586982],[-123.16263147,49.10564195],[-123.16242074,49.10552659],[-123.16200301,49.10529408],[-123.16179514,49.10517659],[-123.16138048,49.10494159],[-123.16096624,49.10470589],[-123.16075892,49.10458839],[-123.1603468,49.1043509],[-123.15993883,49.10411092],[-123.15953297,49.10386916],[-123.15933042,49.10374811],[-123.15892573,49.10350528],[-123.15851968,49.10326387],[-123.1581112,49.10302389],[-123.15790526,49.10290497],[-123.15749086,49.10266962],[-123.15707532,49.10243534],[-123.15665829,49.10220177],[-123.15582193,49.10173677],[-123.15519308,49.1013889],[-123.15477321,49.10115747],[-123.1543537,49.10092639],[-123.15414377,49.10081067],[-123.15351434,49.10046388],[-123.15288554,49.10011601],[-123.15267583,49.09999994],[-123.15209505,49.09974572],[-123.15164034,49.09954384],[-123.15141316,49.09944308],[-123.15095744,49.09924297],[-123.15026808,49.09894959],[-123.14956514,49.09867044],[-123.14932552,49.09858285],[-123.14883771,49.09841693],[-123.14808784,49.09819689],[-123.14731403,49.09801673],[-123.14705217,49.09796225],[-123.14652913,49.09785401],[-123.14600984,49.0977383],[-123.14549239,49.09761368],[-123.14523972,49.09754318],[-123.14499869,49.09746093],[-123.14477664,49.09735697],[-123.14457513,49.09723235],[-123.14421109,49.09696353],[-123.14403903,49.0968236],[-123.14369948,49.09654054],[-123.14352689,49.09640061],[-123.14317307,49.09612538],[-123.14281789,49.09585158],[-123.14263966,49.09571485],[-123.1422828,49.09544212],[-123.14210383,49.09530575],[-123.14174568,49.09503337],[-123.14156651,49.09489736],[-123.14120912,49.09462462],[-123.14085099,49.09435224],[-123.14067183,49.09421623],[-123.14031126,49.09394527],[-123.13994825,49.09367574],[-123.1395847,49.09340621],[-123.13922286,49.09313561],[-123.13904038,49.09300066],[-123.13867175,49.09273434],[-123.13848356,49.09260367],[-123.13809807,49.09234873],[-123.13769858,49.09210306],[-123.13749448,49.09198307],[-123.13708024,49.091747],[-123.13665763,49.09151699],[-123.13644382,49.09140448],[-123.1362283,49.09129304],[-123.13679488,49.11064769],[-123.13678908,49.11145664],[-123.1367329,49.1189843],[-123.13672539,49.12618056],[-123.13672437,49.12715997],[-123.13658478,49.13352405],[-123.13660228,49.13396812],[-123.13663524,49.13480446],[-123.13664575,49.13507132],[-123.13665691,49.13535452],[-123.13664494,49.13699948],[-123.13665182,49.13753106],[-123.13665727,49.13791596],[-123.13666119,49.13847175],[-123.1366638,49.13863162],[-123.13666584,49.13874876],[-123.13668831,49.13998604],[-123.13670454,49.14088543],[-123.13669366,49.14361956],[-123.13668436,49.14558212],[-123.13668224,49.14596523],[-123.13667353,49.14828562],[-123.13667146,49.15065943],[-123.13667161,49.15113368],[-123.13667176,49.1515873],[-123.13666848,49.15188887],[-123.13666813,49.15364848],[-123.13664667,49.15557936]]]},"geometry_name":"SHAPE","properties":{"id":318,"slug":"richmond-steveston","name":"Richmond-Steveston","abbreviation":"RCS","gazetteDate":"2023-12-07Z","boundarySet":11},"bbox":[-123.22582017,49.09129304,-123.1362283,49.15566766]}
