{"type":"Feature","id":315,"geometry":{"type":"Polygon","coordinates":[[[-123.31084352,49.29737293],[-123.42923428,49.2973861],[-123.45391314,49.29737257],[-123.51114041,49.29738272],[-123.57201321,49.29736024],[-123.60000019,49.29733839],[-123.68166808,49.29737542],[-123.70296135,49.29737542],[-123.70324089,49.29737542],[-123.71442829,49.297374],[-123.7123837,49.29664231],[-123.70973411,49.29568738],[-123.70949333,49.29560015],[-123.70708664,49.29472889],[-123.70468062,49.29385763],[-123.70058391,49.29238286],[-123.70010125,49.29221053],[-123.69768364,49.2913528],[-123.69695701,49.29109715],[-123.69062261,49.28892737],[-123.68841098,49.28820031],[-123.68270327,49.28641684],[-123.68044548,49.28575352],[-123.67741327,49.2849022],[-123.67052811,49.28308455],[-123.66821751,49.28250383],[-123.66176841,49.28094681],[-123.65839972,49.28016385],[-123.65294323,49.27892799],[-123.64851593,49.277946],[-123.64538839,49.27725882],[-123.64173804,49.27645948],[-123.63939138,49.2759457],[-123.63860919,49.27577408],[-123.63522141,49.2750278],[-123.6344406,49.27485476],[-123.63027747,49.27392403],[-123.63001761,49.27386564],[-123.62430857,49.27255751],[-123.62242326,49.27182261],[-123.62218994,49.27172755],[-123.62195682,49.27163213],[-123.62102281,49.27125222],[-123.61257043,49.26788325],[-123.61233467,49.26779068],[-123.60737813,49.2658534],[-123.607142,49.26576153],[-123.60572457,49.26520965],[-123.60548845,49.26511779],[-123.60194454,49.26373809],[-123.59882026,49.26251754],[-123.5966984,49.26168474],[-123.59234425,49.25995966],[-123.59023517,49.25911333],[-123.58557198,49.25720792],[-123.58533889,49.25711267],[-123.58502827,49.25698151],[-123.58427579,49.25666377],[-123.58197993,49.25569428],[-123.58197676,49.25569294],[-123.58002703,49.25486954],[-123.57773837,49.25387366],[-123.57320638,49.25183775],[-123.57298173,49.2517345],[-123.57074334,49.25069055],[-123.56742287,49.24909152],[-123.56645401,49.24859305],[-123.56418272,49.24742377],[-123.56229515,49.24637769],[-123.56208823,49.24625948],[-123.56188152,49.24614091],[-123.55665386,49.24295389],[-123.55336096,49.24078482],[-123.55316939,49.24065593],[-123.55145547,49.23948843],[-123.54825048,49.23726417],[-123.54505935,49.23503066],[-123.5433652,49.23385141],[-123.54013591,49.23164246],[-123.53917509,49.23099943],[-123.53626596,49.22902121],[-123.53608617,49.22888519],[-123.53446587,49.22766215],[-123.53320633,49.22671114],[-123.53284626,49.22643911],[-123.52924688,49.22372101],[-123.52618747,49.22141059],[-123.52582788,49.22113892],[-123.52366832,49.21950784],[-123.52348865,49.21937183],[-123.51935047,49.21624569],[-123.51917029,49.21610968],[-123.51701148,49.2144786],[-123.51683167,49.21434295],[-123.51503306,49.21298354],[-123.51251447,49.21108044],[-123.51233436,49.21094443],[-123.51053596,49.20958538],[-123.50891713,49.20836162],[-123.50568001,49.20591483],[-123.5056224,49.20587104],[-123.50532046,49.20564281],[-123.50514075,49.20550715],[-123.50442112,49.2049631],[-123.50226362,49.20333167],[-123.5020834,49.20319602],[-123.50064529,49.20210828],[-123.49920673,49.20102054],[-123.49767734,49.19986408],[-123.49552005,49.19823265],[-123.49444123,49.19741693],[-123.49246389,49.19592116],[-123.49084603,49.1946974],[-123.48994738,49.1940177],[-123.48814984,49.19265794],[-123.48796996,49.19252192],[-123.48455528,49.18993841],[-123.48239859,49.18830662],[-123.48185963,49.18789858],[-123.47844551,49.18531507],[-123.47790667,49.18490703],[-123.47754708,49.18463501],[-123.47613839,49.18332474],[-123.47525847,49.18200627],[-123.47437867,49.18068781],[-123.47184907,49.17689692],[-123.47151896,49.17640237],[-123.47041959,49.1747542],[-123.46953951,49.17343538],[-123.46767061,49.17063325],[-123.46756064,49.1704684],[-123.46745067,49.17030355],[-123.46657131,49.16898508],[-123.46514184,49.16684236],[-123.46393269,49.16502899],[-123.46316314,49.16387538],[-123.46305324,49.16371052],[-123.46184445,49.16189715],[-123.46140475,49.1612381],[-123.46074554,49.16024898],[-123.45887684,49.15744685],[-123.45821788,49.15645774],[-123.45645986,49.1538201],[-123.45624008,49.15349075],[-123.45613029,49.1533259],[-123.45437226,49.15068827],[-123.4542625,49.15052341],[-123.45404298,49.15019371],[-123.45393268,49.15002886],[-123.45217556,49.14739158],[-123.45206529,49.14722672],[-123.45052769,49.14491879],[-123.44888022,49.14244601],[-123.44756264,49.14046778],[-123.44690367,49.13947867],[-123.44602496,49.13815985],[-123.44437802,49.13568707],[-123.44426842,49.13552222],[-123.44393909,49.13502766],[-123.44273148,49.13321428],[-123.44163364,49.13156576],[-123.44127659,49.13116164],[-123.44020508,49.13034272],[-123.43841893,49.12897797],[-123.43681138,49.12774959],[-123.4362752,49.12734013],[-123.43448943,49.12597538],[-123.43431102,49.12583902],[-123.43413227,49.12570229],[-123.43395386,49.12556592],[-123.43163225,49.12379172],[-123.43038203,49.12283607],[-123.43020365,49.1226997],[-123.43002474,49.12256334],[-123.42984657,49.12242661],[-123.42966766,49.12229024],[-123.42948929,49.12215387],[-123.32429045,49.12192114],[-123.31607369,49.12189863],[-123.31707515,49.09933768],[-123.30858097,49.0990621],[-123.25627139,49.12171591],[-123.24724513,49.12562004],[-123.23936952,49.12807146],[-123.23044841,49.12992757],[-123.22951797,49.13003901],[-123.22824429,49.13003972],[-123.225308,49.12957685],[-123.22579804,49.13388865],[-123.22579841,49.13402023],[-123.22581189,49.13891071],[-123.22581862,49.14135186],[-123.22578761,49.14834722],[-123.22582017,49.15566766],[-123.20464624,49.15554731],[-123.20219246,49.15553414],[-123.2019393,49.15553414],[-123.2013118,49.15553378],[-123.2000002,49.15554731],[-123.198892,49.15555835],[-123.19712446,49.15557615],[-123.19676747,49.15557971],[-123.19241779,49.15564131],[-123.19185453,49.1556438],[-123.18976826,49.15564772],[-123.18761217,49.15565092],[-123.18544376,49.15565092],[-123.18336934,49.15565698],[-123.18300941,49.15565804],[-123.18107783,49.15566374],[-123.17955325,49.15566125],[-123.17771788,49.15565769],[-123.17629116,49.15565448],[-123.17553142,49.15565306],[-123.17551999,49.15565306],[-123.17481088,49.15565164],[-123.1742453,49.15565057],[-123.17333537,49.15564807],[-123.17321696,49.15564665],[-123.17226312,49.15563526],[-123.17169135,49.15563739],[-123.17029039,49.15561959],[-123.16998006,49.15561389],[-123.16993824,49.15561307],[-123.16983579,49.15561105],[-123.16505695,49.15560428],[-123.16144553,49.15558577],[-123.15893106,49.15557971],[-123.15891594,49.15638238],[-123.15890073,49.15718978],[-123.15888264,49.16020163],[-123.15888109,49.16060296],[-123.15887919,49.16109354],[-123.1588542,49.16269008],[-123.15885357,49.1627531],[-123.15885338,49.162762],[-123.15885318,49.16278025],[-123.15885297,49.16279796],[-123.15885248,49.16281936],[-123.15884776,49.16302334],[-123.15884241,49.16321877],[-123.1588296,49.16379064],[-123.15881029,49.1646181],[-123.15879479,49.16526932],[-123.15879597,49.16650696],[-123.15879546,49.16840042],[-123.15879452,49.16882376],[-123.15879592,49.16921505],[-123.15879416,49.17010309],[-123.15879418,49.17014119],[-123.15869922,49.17014154],[-123.15251774,49.17017679],[-123.15115364,49.17017857],[-123.14770571,49.17017038],[-123.14462063,49.17018],[-123.14272252,49.17018996],[-123.14026154,49.17020243],[-123.14020687,49.17020278],[-123.14014425,49.17020278],[-123.1379766,49.17020758],[-123.1366169,49.17021062],[-123.13654636,49.17021023],[-123.13654634,49.17021058],[-123.13654373,49.17024901],[-123.1365383,49.17049308],[-123.13653985,49.17068331],[-123.13655072,49.17201794],[-123.1367383,49.173816],[-123.13674038,49.17385907],[-123.13674286,49.17391053],[-123.13675205,49.1754056],[-123.13676011,49.17636354],[-123.13675802,49.17637582],[-123.13659306,49.17734368],[-123.1365876,49.17737408],[-123.13652154,49.17737261],[-123.13395529,49.17735231],[-123.12871618,49.17732098],[-123.12465499,49.17729855],[-123.12456846,49.177297],[-123.12447218,49.17729528],[-123.12128253,49.1772735],[-123.11845015,49.17727076],[-123.11400335,49.1772868],[-123.11225016,49.17729497],[-123.10836058,49.17728039],[-123.10584814,49.17727078],[-123.10364645,49.1771312],[-123.10293546,49.17712586],[-123.09972627,49.17710551],[-123.09710518,49.17708882],[-123.09659983,49.1770856],[-123.09644297,49.17708377],[-123.09643391,49.17708367],[-123.0964343,49.1770839],[-123.09628629,49.17708599],[-123.09163525,49.1771102],[-123.09163531,49.17716147],[-123.09163397,49.17736549],[-123.09162714,49.17841442],[-123.09162511,49.17859778],[-123.09161384,49.17964885],[-123.09159607,49.18053151],[-123.09157426,49.18167975],[-123.09156156,49.18234844],[-123.09155516,49.18265464],[-123.09155177,49.18281665],[-123.0915424,49.18324605],[-123.0915293,49.18397702],[-123.09151895,49.18456807],[-123.09151893,49.18459762],[-123.09151749,49.18583169],[-123.09151572,49.18735703],[-123.09151478,49.18755286],[-123.09151089,49.18830698],[-123.0915119,49.18921349],[-123.09151353,49.18951435],[-123.09150578,49.19012106],[-123.09150214,49.19035499],[-123.09148049,49.19197538],[-123.09577419,49.19197253],[-123.09897843,49.19199034],[-123.10233221,49.19200672],[-123.10270549,49.1920085],[-123.10270772,49.19365559],[-123.10270899,49.19438439],[-123.10271063,49.19531694],[-123.10271054,49.19533901],[-123.10271042,49.19534684],[-123.10271042,49.19537751],[-123.1027123,49.19663184],[-123.10575577,49.19731544],[-123.10781527,49.19777797],[-123.11386033,49.19913631],[-123.11400794,49.19913511],[-123.11460376,49.19913026],[-123.11467665,49.19912968],[-123.1151938,49.19912563],[-123.11581184,49.19912064],[-123.11632606,49.1991163],[-123.11640209,49.19911566],[-123.11660461,49.19911404],[-123.11711316,49.19910996],[-123.11726339,49.19909785],[-123.11729973,49.19909473],[-123.11733788,49.19909145],[-123.11904863,49.19880767],[-123.11943656,49.19874287],[-123.12037234,49.19858691],[-123.12184192,49.19834196],[-123.12216287,49.1983181],[-123.1233759,49.19833412],[-123.12343871,49.1983286],[-123.12376888,49.19829959],[-123.12407103,49.19822659],[-123.12410506,49.19821663],[-123.12412616,49.19821022],[-123.12464223,49.19878075],[-123.12552684,49.19975869],[-123.12560236,49.19972949],[-123.12597885,49.19958458],[-123.12645475,49.19940584],[-123.12693892,49.19923743],[-123.12744065,49.19909073],[-123.12795044,49.19895472],[-123.12820452,49.19888672],[-123.12871458,49.19874928],[-123.12922978,49.19862288],[-123.12949111,49.19856983],[-123.13029905,49.19847085],[-123.13057405,49.19845589],[-123.13112298,49.19844023],[-123.13167563,49.19844094],[-123.13195043,49.19845304],[-123.13248758,49.19851428],[-123.13274947,49.1985652],[-123.13300996,49.1986243],[-123.13326916,49.19868661],[-123.13352944,49.19874607],[-123.13405778,49.1988447],[-123.13432429,49.1988885],[-123.13512205,49.19902201],[-123.13564918,49.19912278],[-123.13581778,49.19915482],[-123.13588259,49.19916729],[-123.13594542,49.19917939],[-123.13670365,49.19932395],[-123.13723295,49.19941901],[-123.137763,49.19951372],[-123.13829455,49.19960487],[-123.13882115,49.19970564],[-123.13933402,49.19983809],[-123.13971995,49.20000009],[-123.13979955,49.20003819],[-123.13997826,49.20016993],[-123.14005355,49.2003387],[-123.14010095,49.20070329],[-123.1401856,49.20106184],[-123.14033479,49.20120426],[-123.14074169,49.20144602],[-123.14077875,49.20147796],[-123.1409086,49.20158987],[-123.14096893,49.20162832],[-123.14130973,49.20183412],[-123.141732,49.20206519],[-123.14216488,49.2022863],[-123.14261787,49.20249032],[-123.14331228,49.20278122],[-123.1437629,49.20298559],[-123.14396702,49.20310629],[-123.1443631,49.2033566],[-123.14480035,49.20357201],[-123.14526825,49.20376143],[-123.14550213,49.20385578],[-123.14597186,49.204042],[-123.14644486,49.20422536],[-123.14668282,49.20431545],[-123.14713498,49.20451911],[-123.14756059,49.20474734],[-123.1483412,49.20492073],[-123.1491604,49.20489759],[-123.1496775,49.20483564],[-123.14970494,49.20483243],[-123.14997456,49.20483172],[-123.15024321,49.20487089],[-123.15050466,49.2049332],[-123.15075233,49.2050101],[-123.15098319,49.2051098],[-123.15119556,49.20522374],[-123.15140618,49.20533981],[-123.15161428,49.20545837],[-123.15181633,49.20558086],[-123.15198886,49.20569436],[-123.15201009,49.20570832],[-123.15206208,49.20574617],[-123.15219298,49.20584149],[-123.15236288,49.20598213],[-123.15252285,49.20612775],[-123.15267807,49.20627694],[-123.15283125,49.20642684],[-123.15298742,49.20657531],[-123.15315108,49.20672022],[-123.15332133,49.20686122],[-123.15349627,49.20699972],[-123.15367306,49.20713787],[-123.15384801,49.20727638],[-123.15401902,49.20741702],[-123.15418438,49.20756086],[-123.15434526,49.20770684],[-123.15450559,49.20785283],[-123.15466872,49.20799774],[-123.1548377,49.20813909],[-123.15501245,49.20827795],[-123.15519116,49.20841468],[-123.15537251,49.20854962],[-123.15555666,49.2086835],[-123.15574291,49.20881559],[-123.15593331,49.20894519],[-123.15612881,49.20907159],[-123.15632636,49.20919728],[-123.15652112,49.20932403],[-123.15671003,49.20945435],[-123.15688242,49.20959357],[-123.15703618,49.20974346],[-123.15718553,49.20989443],[-123.15732685,49.21004896],[-123.15747844,49.21019885],[-123.15764628,49.21034128],[-123.15781747,49.21048263],[-123.1579928,49.21062149],[-123.15817343,49.21075679],[-123.15836162,49.21088746],[-123.1585585,49.21101243],[-123.15876313,49.21113242],[-123.15897286,49.21124921],[-123.15918565,49.2113635],[-123.15939904,49.21147673],[-123.1596134,49.21158924],[-123.15983006,49.21169962],[-123.16004862,49.21180857],[-123.16026909,49.21191609],[-123.16049017,49.21202255],[-123.16071234,49.21212901],[-123.16093437,49.21223476],[-123.16115831,49.21233909],[-123.16138455,49.21244127],[-123.16161412,49.21253954],[-123.16184892,49.21263247],[-123.16208854,49.21272077],[-123.16233032,49.21280623],[-123.16257231,49.21289132],[-123.16281275,49.2129782],[-123.16305182,49.2130665],[-123.16329104,49.21315551],[-123.16353012,49.21324381],[-123.16377035,49.21333105],[-123.16401235,49.21341614],[-123.16425652,49.21349839],[-123.16450245,49.2135785],[-123.1647496,49.21365648],[-123.16499825,49.21373374],[-123.16524676,49.21381029],[-123.16549568,49.21388613],[-123.16574521,49.2139609],[-123.16599548,49.21403532],[-123.16624562,49.21410902],[-123.16649671,49.21418201],[-123.1667476,49.21425536],[-123.16699883,49.21432906],[-123.16725033,49.21440134],[-123.1675042,49.21447041],[-123.16776057,49.21453415],[-123.16802039,49.21459183],[-123.16828272,49.21464417],[-123.16854761,49.21469295],[-123.16881318,49.21473959],[-123.16907862,49.21478552],[-123.16934425,49.2148311],[-123.1696105,49.2148756],[-123.16987776,49.21491833],[-123.17014514,49.21495892],[-123.17041402,49.21499595],[-123.17068363,49.21502977],[-123.17095431,49.21506075],[-123.17122574,49.21508852],[-123.1714979,49.21511309],[-123.17177046,49.2151341],[-123.17204401,49.21515047],[-123.17231762,49.21516294],[-123.17259231,49.21517255],[-123.17286672,49.21518074],[-123.17314134,49.21518857],[-123.17341581,49.21519569],[-123.17369001,49.21520139],[-123.17396481,49.21520602],[-123.17423927,49.21521029],[-123.17451374,49.21521456],[-123.17478834,49.21521955],[-123.17506308,49.21522525],[-123.17533713,49.21523023],[-123.175612,49.21523379],[-123.17588645,49.21523521],[-123.17616169,49.21522952],[-123.17643717,49.2152167],[-123.17671271,49.21520281],[-123.17698713,49.21519569],[-123.17725948,49.21520175],[-123.17752866,49.21522774],[-123.17779518,49.21527082],[-123.17805935,49.2153228],[-123.17832442,49.21537514],[-123.17859122,49.21541965],[-123.1788613,49.21544885],[-123.17913458,49.2154638],[-123.17940974,49.21547163],[-123.1796849,49.21547947],[-123.17995873,49.21549442],[-123.18023035,49.21551899],[-123.18050152,49.21554818],[-123.18077209,49.2155813],[-123.18104098,49.21561833],[-123.18130852,49.21565963],[-123.18157403,49.21570449],[-123.18183915,49.21575291],[-123.18210238,49.21580561],[-123.18236298,49.21586294],[-123.18261958,49.21592631],[-123.18287234,49.21599646],[-123.1831213,49.21607229],[-123.18336667,49.21615347],[-123.18360927,49.21623857],[-123.18384936,49.21632616],[-123.18408674,49.2164166],[-123.18432005,49.21651131],[-123.1845512,49.21660886],[-123.18478024,49.2167082],[-123.18500868,49.21680861],[-123.18523637,49.21690937],[-123.1854629,49.2170112],[-123.18568754,49.21711446],[-123.18591082,49.21721914],[-123.18613159,49.21732631],[-123.18634721,49.21743775],[-123.18655665,49.21755525],[-123.18676515,49.21767346],[-123.18697676,49.21778811],[-123.18719218,49.21789991],[-123.18740604,49.21801349],[-123.18762201,49.21812529],[-123.1877409,49.21818262],[-123.18807178,49.21833002],[-123.1883106,49.21841797],[-123.1885558,49.2184995],[-123.18880256,49.21857926],[-123.18904695,49.21866222],[-123.18928477,49.21875194],[-123.18951845,49.21884701],[-123.18974616,49.21894777],[-123.18996696,49.21905494],[-123.19017989,49.21916924],[-123.19039105,49.21928567],[-123.19060514,49.21939889],[-123.19082702,49.21950321],[-123.19106375,49.21959294],[-123.19131581,49.21966629],[-123.19137065,49.2196791],[-123.19164763,49.21973358],[-123.19191352,49.2197788],[-123.19197694,49.21978806],[-123.19205965,49.21979981],[-123.19218143,49.21981761],[-123.19244988,49.21985642],[-123.19271544,49.21990128],[-123.19297912,49.21995326],[-123.19324286,49.22000418],[-123.19350949,49.22004619],[-123.19377861,49.22008002],[-123.19404955,49.22011064],[-123.19432095,49.22013948],[-123.19459242,49.22016725],[-123.19486349,49.22019574],[-123.19513443,49.22022636],[-123.19540409,49.22026018],[-123.1956718,49.22029935],[-123.19593817,49.22034279],[-123.19620408,49.220388],[-123.19647052,49.22043322],[-123.1967375,49.22047559],[-123.19700475,49.22051654],[-123.1972724,49.22055677],[-123.19754046,49.22059629],[-123.19780831,49.22063617],[-123.1980715,49.22068139],[-123.19834423,49.22071557],[-123.19861154,49.22075545],[-123.1988794,49.22079533],[-123.19914705,49.22083556],[-123.19941491,49.22087544],[-123.19968311,49.22091567],[-123.19995043,49.22095555],[-123.20021863,49.22099579],[-123.20051671,49.22105631],[-123.20077851,49.22110972],[-123.20104065,49.22116349],[-123.20130238,49.22121796],[-123.20156324,49.22127493],[-123.20181789,49.22134187],[-123.20207212,49.22140952],[-123.20233096,49.22147005],[-123.20257925,49.22154624],[-123.20280952,49.22164451],[-123.20302711,49.22175453],[-123.20324165,49.22186705],[-123.20345449,49.22198063],[-123.20353131,49.22202478],[-123.20366068,49.22209919],[-123.20386437,49.22222025],[-123.20407036,49.22233917],[-123.20428416,49.22245204],[-123.20450657,49.22255743],[-123.2047357,49.22265677],[-123.20496714,49.22275397],[-123.20519844,49.22285046],[-123.20542778,49.22294945],[-123.20565366,49.22305163],[-123.20587894,49.22315489],[-123.20610442,49.22325779],[-123.20632525,49.22335926],[-123.22619323,49.22980167],[-123.22627568,49.22983407],[-123.22635813,49.22986647],[-123.22643984,49.22989923],[-123.22652209,49.22993199],[-123.22660359,49.2299651],[-123.22668543,49.22999857],[-123.22676673,49.23003204],[-123.22684803,49.23006551],[-123.22692913,49.23009933],[-123.22701003,49.23013351],[-123.22709037,49.23016769],[-123.22717072,49.23020188],[-123.22725122,49.23023677],[-123.22733136,49.23027131],[-123.22741131,49.2303062],[-123.22749105,49.23034145],[-123.2275708,49.2303767],[-123.22764979,49.2304123],[-123.22772934,49.23044791],[-123.22780813,49.23048387],[-123.22788692,49.23051983],[-123.22796552,49.23055615],[-123.22804356,49.23059246],[-123.22812195,49.23062914],[-123.22820014,49.23066617],[-123.22827799,49.23070284],[-123.22835543,49.23074023],[-123.22843287,49.23077761],[-123.22850976,49.230815],[-123.228587,49.23085274],[-123.2286637,49.23089048],[-123.22874019,49.23092858],[-123.22881668,49.23096668],[-123.22889297,49.23100513],[-123.22896871,49.23104358],[-123.22904426,49.23108239],[-123.22912014,49.23112156],[-123.22919514,49.23116037],[-123.22927028,49.23119989],[-123.22934507,49.23123906],[-123.22942001,49.23127893],[-123.2294946,49.23131846],[-123.22956879,49.23135869],[-123.22964264,49.23139857],[-123.22971663,49.23143916],[-123.22979027,49.23147939],[-123.22986371,49.23151998],[-123.22993695,49.23156093],[-123.23000965,49.23160187],[-123.23008268,49.23164317],[-123.23015518,49.23168448],[-123.23022713,49.23172578],[-123.23029942,49.23176744],[-123.23037096,49.23180945],[-123.2304425,49.23185147],[-123.23051405,49.23189348],[-123.23995018,49.23749703],[-123.24011173,49.23759281],[-123.25385917,49.24573751],[-123.25493731,49.24637595],[-123.25693659,49.24755978],[-123.26342005,49.25152799],[-123.26559959,49.25286639],[-123.2675351,49.25407269],[-123.26803432,49.25438139],[-123.26958234,49.25500804],[-123.2863373,49.26192187],[-123.28983441,49.25914573],[-123.30995982,49.25914323],[-123.308845,49.28407852],[-123.3082502,49.29737119],[-123.31084352,49.29737293]]]},"geometry_name":"SHAPE","properties":{"id":315,"slug":"richmond-bridgeport","name":"Richmond-Bridgeport","abbreviation":"RCB","gazetteDate":"2023-12-07Z","boundarySet":11},"bbox":[-123.71442829,49.0990621,-123.09148049,49.2973861]}
