{"type":"Feature","id":317,"geometry":{"type":"Polygon","coordinates":[[[-123.07722669,49.20791122],[-123.0774088,49.20788345],[-123.07776933,49.20782861],[-123.07904924,49.20762139],[-123.08042946,49.20733975],[-123.08060558,49.20731107],[-123.0808877,49.20726512],[-123.08160556,49.2071482],[-123.08326209,49.20687795],[-123.0847269,49.20660273],[-123.08603249,49.20632572],[-123.08684985,49.20614484],[-123.08778078,49.20591305],[-123.08841848,49.20576137],[-123.08912635,49.20557943],[-123.0897299,49.2054217],[-123.09032377,49.20529139],[-123.09094449,49.20513793],[-123.09129129,49.20507562],[-123.0913613,49.20506565],[-123.09283594,49.20477689],[-123.09418332,49.20460776],[-123.09605731,49.20446784],[-123.0972772,49.2043806],[-123.09862135,49.20427236],[-123.09953556,49.20417552],[-123.10016208,49.20413101],[-123.10075492,49.20410253],[-123.10130988,49.20406977],[-123.1015307,49.20405597],[-123.10211295,49.20401957],[-123.10258356,49.20401138],[-123.10303849,49.20402206],[-123.10354066,49.20405304],[-123.10417125,49.20408722],[-123.10487139,49.20414846],[-123.10553664,49.20418015],[-123.1063221,49.20422465],[-123.10693821,49.20427272],[-123.10756501,49.2043126],[-123.10814058,49.20435532],[-123.10912448,49.20443116],[-123.11016253,49.20453335],[-123.11110846,49.20462129],[-123.11198541,49.20469357],[-123.11259264,49.20472384],[-123.11316899,49.20469179],[-123.11403768,49.20457252],[-123.11456432,49.20447104],[-123.1152736,49.20429693],[-123.11597884,49.20412033],[-123.11658496,49.20393696],[-123.11706938,49.20376819],[-123.11747822,49.20363539],[-123.11805238,49.20345166],[-123.1184076,49.20334307],[-123.11905005,49.20315044],[-123.11954143,49.20298951],[-123.12003411,49.20283106],[-123.12077118,49.20259108],[-123.12119851,49.20245258],[-123.12158915,49.20232298],[-123.12157504,49.20198615],[-123.12158261,49.20142252],[-123.12180213,49.20131392],[-123.12246902,49.20099739],[-123.12293339,49.20080548],[-123.12316575,49.2007097],[-123.12363135,49.2005185],[-123.12409763,49.20032802],[-123.12456527,49.20013895],[-123.12503442,49.19995202],[-123.12527005,49.19985909],[-123.12550166,49.19976937],[-123.12552684,49.19975869],[-123.12464223,49.19878075],[-123.12412616,49.19821022],[-123.12410506,49.19821663],[-123.12407103,49.19822659],[-123.12376888,49.19829959],[-123.12343871,49.1983286],[-123.1233759,49.19833412],[-123.12216287,49.1983181],[-123.12184192,49.19834196],[-123.12037234,49.19858691],[-123.11943656,49.19874287],[-123.11904863,49.19880767],[-123.11733788,49.19909145],[-123.11729973,49.19909473],[-123.11726339,49.19909785],[-123.11711316,49.19910996],[-123.11660461,49.19911404],[-123.11640209,49.19911566],[-123.11632606,49.1991163],[-123.11581184,49.19912064],[-123.1151938,49.19912563],[-123.11467665,49.19912968],[-123.11460376,49.19913026],[-123.11400794,49.19913511],[-123.11386033,49.19913631],[-123.10781527,49.19777797],[-123.10575577,49.19731544],[-123.1027123,49.19663184],[-123.10271042,49.19537751],[-123.10271042,49.19534684],[-123.10271054,49.19533901],[-123.10271063,49.19531694],[-123.10270899,49.19438439],[-123.10270772,49.19365559],[-123.10270549,49.1920085],[-123.10233221,49.19200672],[-123.09897843,49.19199034],[-123.09577419,49.19197253],[-123.09148049,49.19197538],[-123.09150214,49.19035499],[-123.09150578,49.19012106],[-123.09151353,49.18951435],[-123.0915119,49.18921349],[-123.09151089,49.18830698],[-123.09151478,49.18755286],[-123.09151572,49.18735703],[-123.09151749,49.18583169],[-123.09151893,49.18459762],[-123.09151895,49.18456807],[-123.0915293,49.18397702],[-123.0915424,49.18324605],[-123.09155177,49.18281665],[-123.09155516,49.18265464],[-123.09156156,49.18234844],[-123.09157426,49.18167975],[-123.09159607,49.18053151],[-123.09161384,49.17964885],[-123.09162511,49.17859778],[-123.09162714,49.17841442],[-123.09163397,49.17736549],[-123.09163531,49.17716147],[-123.09163525,49.1771102],[-123.09628629,49.17708599],[-123.0964343,49.1770839],[-123.09643391,49.17708367],[-123.09644297,49.17708377],[-123.09659983,49.1770856],[-123.09710518,49.17708882],[-123.09972627,49.17710551],[-123.10293546,49.17712586],[-123.10364645,49.1771312],[-123.10584814,49.17727078],[-123.10836058,49.17728039],[-123.11225016,49.17729497],[-123.11400335,49.1772868],[-123.11400246,49.1772398],[-123.11400201,49.1770397],[-123.11399225,49.17074291],[-123.1139913,49.17038294],[-123.11399133,49.17019637],[-123.11399091,49.1701419],[-123.11399031,49.17009632],[-123.11398624,49.16862084],[-123.11399118,49.16816118],[-123.11400712,49.16670421],[-123.11401053,49.1663624],[-123.11401755,49.16572792],[-123.11403257,49.16443545],[-123.11405101,49.16282894],[-123.11406153,49.16128615],[-123.11406567,49.16089985],[-123.1140789,49.15916391],[-123.11408596,49.15822091],[-123.11410119,49.15649512],[-123.11410456,49.15549284],[-123.11637994,49.15549141],[-123.11692797,49.15549177],[-123.11980152,49.15548393],[-123.12082835,49.15547717],[-123.12255584,49.15546756],[-123.12533964,49.15546435],[-123.12805826,49.15549593],[-123.12828333,49.15549853],[-123.12995648,49.15551803],[-123.12998803,49.15551839],[-123.13005106,49.15551913],[-123.1309512,49.15552951],[-123.13277617,49.15554553],[-123.13413162,49.15555732],[-123.13435329,49.15555925],[-123.13580765,49.15557188],[-123.13664667,49.15557936],[-123.13666813,49.15364848],[-123.13666848,49.15188887],[-123.13667176,49.1515873],[-123.13667161,49.15113368],[-123.13667146,49.15065943],[-123.13667353,49.14828562],[-123.13668224,49.14596523],[-123.13668436,49.14558212],[-123.13669366,49.14361956],[-123.13670454,49.14088543],[-123.13668831,49.13998604],[-123.13666584,49.13874876],[-123.1366638,49.13863162],[-123.13666119,49.13847175],[-123.13665727,49.13791596],[-123.13665182,49.13753106],[-123.13664494,49.13699948],[-123.13665691,49.13535452],[-123.13664575,49.13507132],[-123.13663524,49.13480446],[-123.13660228,49.13396812],[-123.13658478,49.13352405],[-123.13672437,49.12715997],[-123.13672539,49.12618056],[-123.1367329,49.1189843],[-123.13678908,49.11145664],[-123.13679488,49.11064769],[-123.1362283,49.09129304],[-123.13601163,49.09118266],[-123.13557182,49.09096939],[-123.13511903,49.09076644],[-123.13488984,49.09066745],[-123.13443032,49.09047056],[-123.13397502,49.0902701],[-123.13375102,49.09016684],[-123.13331117,49.08995179],[-123.13288352,49.08972498],[-123.13247953,49.08948251],[-123.13229132,49.08935291],[-123.13194496,49.08907448],[-123.13161187,49.08878714],[-123.13144183,49.08864579],[-123.13111372,49.08835454],[-123.13094504,49.08821176],[-123.13056089,49.08796039],[-123.13034249,49.08785215],[-123.12987323,49.08766095],[-123.12938356,49.08749966],[-123.12886991,49.08737255],[-123.12860699,49.08731914],[-123.12807759,49.08722799],[-123.12780942,49.08719131],[-123.12727027,49.08712473],[-123.12700162,49.08708984],[-123.12659245,49.08704498],[-123.126052,49.08698445],[-123.12550868,49.0869403],[-123.12523578,49.08692606],[-123.12468841,49.08690505],[-123.1241398,49.08689757],[-123.12386641,49.08689935],[-123.12331972,49.08691787],[-123.12304644,49.0869346],[-123.12250019,49.08697412],[-123.12195396,49.0870108],[-123.12140822,49.08703145],[-123.12086218,49.08702611],[-123.12058873,49.08701756],[-123.12004226,49.08699121],[-123.11922272,49.08693389],[-123.11867859,49.08688831],[-123.11813726,49.08683597],[-123.1176012,49.0867612],[-123.11733495,49.08671741],[-123.11680518,49.08662412],[-123.11654255,49.08657214],[-123.11601995,49.0864607],[-123.11575923,49.08640444],[-123.11523541,49.08629798],[-123.11497134,49.08625134],[-123.11416706,49.08614951],[-123.11362131,49.08610678],[-123.11334719,49.08609182],[-123.11307301,49.08608079],[-123.11279875,49.08607367],[-123.11225245,49.08606975],[-123.11170436,49.08608221],[-123.11115637,49.08610963],[-123.11061121,49.08614915],[-123.10980019,49.08623318],[-123.10953121,49.08626985],[-123.10899766,49.08635352],[-123.10820655,49.08650129],[-123.10794501,49.08655719],[-123.10708656,49.08670103],[-123.10622103,49.0869033],[-123.10452377,49.08729991],[-123.10324359,49.08758986],[-123.10307357,49.08762836],[-123.10216875,49.08783328],[-123.09542865,49.08998099],[-123.09549721,49.09196491],[-123.09549319,49.09359848],[-123.09595998,49.09799608],[-123.09585324,49.098162],[-123.09564337,49.0984942],[-123.09543812,49.09882782],[-123.09523715,49.09916251],[-123.09513701,49.09933021],[-123.09493747,49.09966525],[-123.09483698,49.0998326],[-123.09455237,49.10026841],[-123.09432471,49.10059562],[-123.09409487,49.10092283],[-123.09386469,49.10124969],[-123.09375015,49.10141311],[-123.09363615,49.10157654],[-123.09340971,49.10190447],[-123.09329782,49.10206896],[-123.09307817,49.10239831],[-123.09297077,49.10256352],[-123.09276091,49.10289572],[-123.09265955,49.1030627],[-123.09247559,49.10340095],[-123.09231032,49.10374454],[-123.09215436,49.10408992],[-123.09207637,49.1042626],[-123.09191362,49.10460655],[-123.09173286,49.10494586],[-123.09152553,49.10527842],[-123.0912968,49.10560563],[-123.09117853,49.10576799],[-123.09098217,49.10603788],[-123.09094177,49.10609307],[-123.09071447,49.10642063],[-123.09049552,49.10675069],[-123.09038758,49.1069159],[-123.09016986,49.10724667],[-123.08994793,49.10757531],[-123.08971513,49.1079011],[-123.08946282,49.10822012],[-123.08932824,49.10837679],[-123.08905216,49.10868798],[-123.08891765,49.10884357],[-123.08878103,49.10900095],[-123.0885273,49.10931961],[-123.08840264,49.10947984],[-123.08815652,49.10980135],[-123.08791394,49.11012429],[-123.08767421,49.11044794],[-123.08743767,49.11077266],[-123.08732138,49.11093538],[-123.08720542,49.11109845],[-123.0869801,49.11142637],[-123.08687216,49.11159158],[-123.08666071,49.11192378],[-123.08645123,49.11225633],[-123.08623604,49.11258746],[-123.08612437,49.1127516],[-123.08589036,49.11307668],[-123.08576836,49.11323797],[-123.08551939,49.11355877],[-123.08527097,49.11387957],[-123.08502983,49.11420287],[-123.08488791,49.11440546],[-123.08480418,49.11453044],[-123.08459151,49.11486192],[-123.08438775,49.1151959],[-123.08418861,49.1155313],[-123.08398839,49.1158667],[-123.08378375,49.11620032],[-123.08357925,49.11653466],[-123.08338073,49.11687184],[-123.08328129,49.11704025],[-123.08307639,49.1173753],[-123.0829688,49.11754086],[-123.08273718,49.11786558],[-123.08261138,49.11802402],[-123.08233307,49.11833343],[-123.08217967,49.11848404],[-123.08201832,49.11863145],[-123.08167055,49.11891309],[-123.08129349,49.11917372],[-123.08089258,49.11941619],[-123.08068516,49.11953297],[-123.08025898,49.11975978],[-123.08004109,49.11987016],[-123.07959894,49.12008592],[-123.07937609,49.12019167],[-123.07892782,49.12040103],[-123.07870423,49.12050428],[-123.07825045,49.12070617],[-123.07802136,49.12080479],[-123.07732775,49.12109462],[-123.0768629,49.12128546],[-123.0763975,49.12147631],[-123.07593448,49.12166964],[-123.07564795,49.12179248],[-123.07558787,49.12181847],[-123.07553153,49.12184268],[-123.07547594,49.12186654],[-123.07524596,49.12196481],[-123.07478463,49.12215993],[-123.0740914,49.12245189],[-123.07363109,49.12264808],[-123.07317314,49.12284675],[-123.07294662,49.12294752],[-123.07227485,49.12325799],[-123.07183721,49.1234734],[-123.07140657,49.12369558],[-123.07098109,49.12392203],[-123.07076943,49.12403668],[-123.07035061,49.12426954],[-123.06993647,49.1245056],[-123.0695266,49.12474558],[-123.06912088,49.12498876],[-123.06872005,49.1252348],[-123.06832411,49.12548368],[-123.06793219,49.12573505],[-123.06773921,49.12586358],[-123.06754718,49.12599141],[-123.0673574,49.12612101],[-123.06698123,49.12638378],[-123.06660907,49.12664904],[-123.06642445,49.12678291],[-123.06587269,49.12718561],[-123.06550576,49.12745407],[-123.0651376,49.12772182],[-123.06495264,49.12785534],[-123.06458034,49.12811989],[-123.064393,49.12825092],[-123.06382214,49.12863759],[-123.06343291,49.12888896],[-123.06303539,49.12913392],[-123.0628297,49.12925142],[-123.06239549,49.12946933],[-123.06193708,49.12966872],[-123.0614627,49.12985422],[-123.06098017,49.13003118],[-123.06025458,49.13028647],[-123.05975555,49.13043814],[-123.05950155,49.130509],[-123.05899022,49.13064608],[-123.05848025,49.13078458],[-123.05798066,49.13093341],[-123.05749983,49.13110076],[-123.05726865,49.1311944],[-123.05681892,49.13139664],[-123.05637883,49.13161241],[-123.05594954,49.13184063],[-123.05553403,49.1320799],[-123.05513362,49.13232985],[-123.05493953,49.13245839],[-123.05456596,49.13272222],[-123.05421128,49.13299389],[-123.05403867,49.13313239],[-123.05370024,49.13341367],[-123.05353388,49.13355645],[-123.05320837,49.13384557],[-123.05304779,49.13399155],[-123.05273152,49.13428636],[-123.05257549,49.13443483],[-123.05226676,49.13473356],[-123.05196082,49.13503407],[-123.05180866,49.13518432],[-123.05150503,49.13548554],[-123.05135342,49.1356358],[-123.05104932,49.13593595],[-123.05089703,49.13608549],[-123.05059422,49.13638529],[-123.05044369,49.13653554],[-123.0501451,49.13683747],[-123.04999634,49.13698844],[-123.04970128,49.1372918],[-123.04926079,49.1377479],[-123.04911469,49.13789993],[-123.04882316,49.13820471],[-123.04867774,49.13835746],[-123.04838655,49.1386626],[-123.04824133,49.13881499],[-123.04794981,49.13911977],[-123.04765828,49.13942455],[-123.04751197,49.13957694],[-123.04721779,49.13988065],[-123.0469344,49.14009072],[-123.04657393,49.14036204],[-123.04621556,49.14063442],[-123.04603709,49.14077078],[-123.04568029,49.14104423],[-123.04514501,49.14145405],[-123.0447863,49.14172607],[-123.0444246,49.14199667],[-123.04424279,49.14213126],[-123.04387531,49.14239865],[-123.04350313,49.14266285],[-123.04331521,49.14279387],[-123.04293433,49.14305237],[-123.04274116,49.14318019],[-123.04234356,49.143428],[-123.0417171,49.14377765],[-123.04150211,49.14388945],[-123.04106664,49.14410842],[-123.04084737,49.1442163],[-123.04040625,49.14442993],[-123.03996526,49.14464428],[-123.03952862,49.14486147],[-123.03909606,49.14508293],[-123.0386654,49.14530582],[-123.03844973,49.14541691],[-123.03801512,49.14563624],[-123.03734988,49.14595384],[-123.03689298,49.14615323],[-123.03642336,49.14633873],[-123.03593886,49.1465075],[-123.03544417,49.14666274],[-123.03519323,49.14673573],[-123.03468712,49.14687388],[-123.03417524,49.14700312],[-123.03365915,49.14712454],[-123.0333995,49.14718329],[-123.03287954,49.14729722],[-123.03261847,49.14735277],[-123.0320964,49.14746279],[-123.03077529,49.14770348],[-123.03024114,49.1477843],[-123.02970488,49.14786121],[-123.02916869,49.14793705],[-123.02863378,49.14801538],[-123.02809982,49.1480987],[-123.02756444,49.14817596],[-123.02675828,49.14828491],[-123.02649021,49.1483223],[-123.02595584,49.14840348],[-123.02542676,49.14849819],[-123.02490656,49.14861248],[-123.02440055,49.14875134],[-123.02415325,49.14882932],[-123.02366823,49.14899702],[-123.02342915,49.14908532],[-123.02295472,49.14926584],[-123.02271767,49.14935627],[-123.0222412,49.14953466],[-123.02200028,49.14962046],[-123.02150988,49.1497814],[-123.02100453,49.14992097],[-123.02047896,49.1500228],[-123.01966599,49.1501047],[-123.01911995,49.15014173],[-123.01830644,49.15022077],[-123.01752635,49.15038847],[-123.01727951,49.15046751],[-123.01657275,49.15074345],[-123.01611324,49.15093964],[-123.01540681,49.15121594],[-123.01516567,49.1513021],[-123.01468699,49.15147763],[-123.01418529,49.15162219],[-123.01364641,49.15168557],[-123.01282413,49.15168699],[-123.01227755,49.15165673],[-123.0117331,49.15161329],[-123.01064634,49.15151609],[-123.01010656,49.15145129],[-123.00956923,49.15137936],[-123.00903171,49.1513078],[-123.00849172,49.15124335],[-123.00767541,49.15117855],[-123.00712718,49.15116822],[-123.00630554,49.151196],[-123.00603279,49.15121309],[-123.0052166,49.15128252],[-123.00468014,49.15135586],[-123.00415785,49.15146517],[-123.00390786,49.15153923],[-123.00343268,49.15171904],[-123.00298799,49.15192911],[-123.0023881,49.15229833],[-123.00200526,49.15255612],[-123.00180765,49.15268109],[-123.00138464,49.15290932],[-123.00090998,49.15308913],[-123.00040701,49.15323297],[-123.00014961,49.15329528],[-122.99962824,49.15340673],[-122.99910158,49.15350749],[-122.9985735,49.15360505],[-122.99804778,49.15370795],[-122.9975199,49.15380515],[-122.99698686,49.15388953],[-122.99619086,49.15402697],[-122.99593108,49.15408394],[-122.99542232,49.15421888],[-122.99517035,49.15428973],[-122.99464337,49.15444497],[-122.99442182,49.15451405],[-122.99393179,49.15467605],[-122.99369081,49.15476186],[-122.9934112,49.15486966],[-122.9927614,49.15514355],[-122.99234004,49.15537356],[-122.99195803,49.1556317],[-122.99177679,49.155767],[-122.99142415,49.15604223],[-122.99107042,49.15631745],[-122.99089706,49.15645703],[-122.99039614,49.156885],[-122.99023209,49.1570292],[-122.98990189,49.15731654],[-122.98973328,49.15745824],[-122.98938445,49.15773632],[-122.98902269,49.15800657],[-122.98865305,49.15827254],[-122.98846656,49.15840463],[-122.98809344,49.15866811],[-122.98772223,49.15893301],[-122.98739568,49.15918652],[-122.98721864,49.15932396],[-122.98650749,49.15987228],[-122.9861377,49.16014039],[-122.98596365,49.16027925],[-122.98580741,49.16042594],[-122.98553426,49.16073713],[-122.9852943,49.16106256],[-122.9850808,49.16139405],[-122.98489907,49.16173372],[-122.98473143,49.16207731],[-122.98464459,49.16224822],[-122.98433213,49.16274989],[-122.98418753,49.16290478],[-122.98400675,49.16303545],[-122.98355966,49.16324481],[-122.98331715,49.16333418],[-122.98282691,49.16349547],[-122.98232213,49.16363753],[-122.98206624,49.16370376],[-122.98155237,49.16382945],[-122.98103374,49.1639473],[-122.98025325,49.16411998],[-122.97999403,49.16417873],[-122.97947818,49.16430122],[-122.97871519,49.1645031],[-122.97846304,49.16457324],[-122.97820555,49.16464702],[-122.97770873,49.16478936],[-122.97720794,49.16493677],[-122.97670864,49.16508631],[-122.97621002,49.16523656],[-122.97546364,49.16546444],[-122.97521786,49.16554526],[-122.97472948,49.16571083],[-122.97423785,49.16587069],[-122.97347877,49.16607614],[-122.97296201,49.16619541],[-122.97270183,49.16625203],[-122.97217862,49.16636169],[-122.97165399,49.16646815],[-122.97112901,49.16657425],[-122.97060532,49.16668285],[-122.97008454,49.16679679],[-122.96956505,49.16691322],[-122.96904536,49.16703],[-122.96826771,49.16720803],[-122.96800909,49.16726856],[-122.96749366,49.16739211],[-122.96698156,49.16752028],[-122.96647462,49.16765558],[-122.96622916,49.16773676],[-122.96554283,49.1680362],[-122.9653325,49.16815192],[-122.9647582,49.16853966],[-122.96439198,49.16880991],[-122.9642136,49.1689477],[-122.9638735,49.16922934],[-122.96361829,49.16954231],[-122.9634335,49.1698834],[-122.96302317,49.17035054],[-122.96272721,49.1706539],[-122.96243478,49.17095868],[-122.96216189,49.17127023],[-122.96205037,49.17143472],[-122.96183374,49.17176585],[-122.96170059,49.17192252],[-122.9614096,49.17222765],[-122.96125727,49.17237791],[-122.96095213,49.17267735],[-122.96064045,49.17297394],[-122.9603079,49.17325949],[-122.95992188,49.17351585],[-122.95949745,49.17374337],[-122.95906207,49.17396341],[-122.9588507,49.17407806],[-122.95864695,49.1741984],[-122.95825141,49.17444764],[-122.95817916,49.17449464],[-122.95809329,49.17455018],[-122.95786069,49.17470079],[-122.95766387,49.17482612],[-122.95725289,49.17506432],[-122.95533922,49.17565003],[-122.95517009,49.17570166],[-122.95085377,49.17702225],[-122.94625513,49.17842902],[-122.94334213,49.17931986],[-122.93851684,49.18144993],[-122.93560584,49.18273476],[-122.93407772,49.18384528],[-122.93177414,49.18551944],[-122.93041472,49.18650713],[-122.92818695,49.1881261],[-122.9235338,49.19150646],[-122.92008345,49.19401307],[-122.91854601,49.19514707],[-122.91886547,49.19542666],[-122.91981829,49.19626055],[-122.92042466,49.1967912],[-122.92061657,49.19703403],[-122.92092866,49.19703873],[-122.92135565,49.19705354],[-122.92333675,49.19716623],[-122.92548001,49.19720878],[-122.92764477,49.19725172],[-122.93570805,49.19727976],[-122.94078773,49.19765198],[-122.94172687,49.19772077],[-122.94186739,49.19773106],[-122.94374959,49.19786891],[-122.94632247,49.19670819],[-122.94638392,49.19667324],[-122.94705077,49.19630459],[-122.94711201,49.19627435],[-122.94973311,49.19498019],[-122.95092702,49.1943207],[-122.95134706,49.19411699],[-122.95194789,49.19382559],[-122.95724293,49.19125723],[-122.95724408,49.19100692],[-122.95755277,49.19082249],[-122.95775584,49.19070143],[-122.9581611,49.19045896],[-122.9585671,49.19021613],[-122.95897269,49.18997401],[-122.95917609,49.18985331],[-122.9595829,49.18961191],[-122.96001652,49.18939116],[-122.96024694,49.1892936],[-122.96071375,49.18910418],[-122.96116675,49.18890087],[-122.96139084,49.18879726],[-122.96183887,49.18858933],[-122.96228486,49.18837925],[-122.96250724,49.18827386],[-122.9629503,49.1880613],[-122.96335206,49.18781634],[-122.96355512,49.18769528],[-122.96395878,49.18745174],[-122.96435292,49.18720108],[-122.96472663,49.1869376],[-122.96507075,49.18665739],[-122.9653973,49.18636792],[-122.96555837,49.18622229],[-122.96588417,49.18593317],[-122.96604823,49.18578897],[-122.96637532,49.1854995],[-122.96669657,49.1852079],[-122.96685375,49.18506049],[-122.96716002,49.18476176],[-122.96730713,49.18461008],[-122.96759094,49.1843021],[-122.96773152,49.18414757],[-122.96817183,49.18369147],[-122.96831949,49.18353979],[-122.96861303,49.18323572],[-122.96875803,49.18308298],[-122.96903741,49.18277321],[-122.96928093,49.18245098],[-122.96955038,49.18213766],[-122.96989761,49.18185958],[-122.9701031,49.18173995],[-122.97057333,49.18155587],[-122.97082527,49.1814843],[-122.97134688,49.18137286],[-122.9721334,49.1812137],[-122.97265453,49.18110119],[-122.97317376,49.1809844],[-122.97368728,49.18085765],[-122.97419033,49.18071309],[-122.97469779,49.18057601],[-122.97521953,49.18046528],[-122.97601567,49.1803282],[-122.97628506,49.18029259],[-122.97682803,49.18024061],[-122.97710094,49.18022352],[-122.97764878,49.18020287],[-122.9781977,49.18019361],[-122.97902079,49.18019824],[-122.9792951,49.18020714],[-122.97936598,49.18021255],[-122.98011227,49.18026945],[-122.98038192,49.18030256],[-122.98091768,49.18038161],[-122.98145024,49.18046813],[-122.98198183,49.18055821],[-122.98250265,49.18067179],[-122.98275424,49.180743],[-122.98325051,49.18089646],[-122.98374216,49.18105704],[-122.98422815,49.18122367],[-122.98446971,49.18130948],[-122.98494937,49.1814843],[-122.98518706,49.18157403],[-122.98566005,49.18175668],[-122.98611498,49.18195749],[-122.98655288,49.18217469],[-122.98699195,49.18239081],[-122.98721738,49.18249335],[-122.98768787,49.1826785],[-122.98793027,49.18276288],[-122.98841705,49.18292916],[-122.988893,49.18310861],[-122.98911694,49.18321187],[-122.98953533,49.18344508],[-122.98993982,49.18368827],[-122.99034166,49.18393323],[-122.99074215,49.18417962],[-122.99094137,49.18430317],[-122.99133866,49.18455134],[-122.99173501,49.18480022],[-122.99193329,49.18492448],[-122.99230955,49.18518653],[-122.99250061,49.18531578],[-122.99292061,49.18554721],[-122.99335459,49.18576761],[-122.99378898,49.1859873],[-122.99421241,49.18621659],[-122.99441547,49.18633729],[-122.99480124,49.1865933],[-122.99516678,49.18686176],[-122.99552198,49.18713592],[-122.99587868,49.18740937],[-122.99605955,49.18754502],[-122.99641796,49.1878174],[-122.99677489,49.1880905],[-122.99695502,49.18822651],[-122.9973206,49.18849497],[-122.99751191,49.18862386],[-122.99791272,49.18886989],[-122.99829875,49.18912554],[-122.99867948,49.18938475],[-122.99906021,49.18964395],[-122.99924963,49.18977427],[-122.99962696,49.19003561],[-123.00000015,49.19029945],[-123.00005,49.19033505],[-123.00041679,49.19060245],[-123.00095116,49.19101262],[-123.00129835,49.19129141],[-123.00164236,49.19157198],[-123.00181463,49.19171226],[-123.00233849,49.19212849],[-123.00269545,49.19240265],[-123.00306066,49.19267289],[-123.0034476,49.19292711],[-123.00365306,49.19304568],[-123.00430439,49.19337752],[-123.00453199,49.19347935],[-123.00499864,49.19366877],[-123.00547197,49.19385036],[-123.00618857,49.19411597],[-123.00642892,49.1942032],[-123.0071535,49.19446063],[-123.00763816,49.19463011],[-123.00788089,49.19471414],[-123.00861026,49.19496515],[-123.00910371,49.19512217],[-123.00935395,49.19519694],[-123.00985489,49.19534471],[-123.01035087,49.19549923],[-123.01059403,49.19558255],[-123.01107319,49.1957588],[-123.01155454,49.19593219],[-123.01229956,49.19616078],[-123.01254987,49.19623448],[-123.01305186,49.19638046],[-123.01330354,49.19645274],[-123.01380717,49.19659587],[-123.01431217,49.19673758],[-123.01481799,49.19687787],[-123.01532463,49.19701673],[-123.01557836,49.19708545],[-123.01608623,49.19722217],[-123.01659839,49.19735142],[-123.01685825,49.19740945],[-123.01764062,49.19757965],[-123.01840292,49.19778295],[-123.01890482,49.19792822],[-123.01940549,49.19807563],[-123.01990515,49.19822481],[-123.0204042,49.19837507],[-123.02065332,49.19845091],[-123.02115102,49.19860259],[-123.02139993,49.19867878],[-123.02189798,49.19883081],[-123.02239548,49.19898285],[-123.0226446,49.19905869],[-123.02314327,49.19920965],[-123.02339301,49.19928443],[-123.02339193,49.20000009],[-123.02437184,49.20026784],[-123.02501159,49.20042273],[-123.02619038,49.20064205],[-123.02757302,49.20091835],[-123.02893278,49.2011804],[-123.03061563,49.20153574],[-123.03223565,49.20189144],[-123.03339134,49.20216738],[-123.03493698,49.20255975],[-123.036584,49.20300731],[-123.03756891,49.20334556],[-123.03866115,49.20371051],[-123.03963035,49.204042],[-123.04014725,49.20417943],[-123.04066967,49.20431865],[-123.04120718,49.20442297],[-123.04187777,49.20444719],[-123.04229947,49.204446],[-123.04276748,49.20444469],[-123.04407126,49.20442903],[-123.0451321,49.20441793],[-123.04520486,49.20441717],[-123.04594295,49.20440944],[-123.04778661,49.20436173],[-123.04979834,49.2043393],[-123.05212356,49.20436992],[-123.05446859,49.20438879],[-123.05471314,49.20439093],[-123.05607756,49.20443116],[-123.0564449,49.20444194],[-123.05759539,49.20447567],[-123.05944848,49.20455044],[-123.05997439,49.20457038],[-123.06059091,49.20459388],[-123.06174463,49.20471565],[-123.06200265,49.20474378],[-123.0635833,49.20491468],[-123.06461386,49.20515074],[-123.06477182,49.20518706],[-123.06535965,49.20532165],[-123.06628358,49.20561487],[-123.06651634,49.20568874],[-123.06748885,49.20609678],[-123.0684744,49.20646778],[-123.06914401,49.20672236],[-123.06938382,49.20680995],[-123.07036242,49.20715888],[-123.07108316,49.20741559],[-123.07266212,49.20791834],[-123.07369212,49.20811274],[-123.07477246,49.20823345],[-123.07526287,49.20822312],[-123.07564251,49.20821493],[-123.07674513,49.20798421],[-123.07722669,49.20791122]]]},"geometry_name":"SHAPE","properties":{"id":317,"slug":"richmond-queensborough","name":"Richmond-Queensborough","abbreviation":"RCQ","gazetteDate":"2023-12-07Z","boundarySet":11},"bbox":[-123.13679488,49.08606975,-122.91854601,49.20823345]}
