{"type":"Feature","id":320,"geometry":{"type":"Polygon","coordinates":[[[-123.36663744,48.5831718],[-123.36919761,48.58323457],[-123.36935326,48.58323838],[-123.3710978,48.58328111],[-123.3712249,48.58328005],[-123.37131991,48.58327919],[-123.37615728,48.58323554],[-123.38966006,48.58327933],[-123.38982368,48.58327933],[-123.38993294,48.58327933],[-123.39525491,48.58328396],[-123.39750974,48.58327898],[-123.39759693,48.58327898],[-123.39772739,48.58327862],[-123.39786754,48.58327827],[-123.40028441,48.58328432],[-123.40050343,48.58328254],[-123.40056574,48.58328183],[-123.40062991,48.58328254],[-123.40083932,48.58328432],[-123.40310898,48.58329279],[-123.40332107,48.58329358],[-123.40344333,48.58330176],[-123.40344429,48.58327791],[-123.40346588,48.58193168],[-123.4045211,48.58194592],[-123.40551541,48.5819566],[-123.40683521,48.58195449],[-123.40899803,48.58191956],[-123.40901045,48.58190497],[-123.40912411,48.58182984],[-123.40932262,48.58169953],[-123.41012122,48.58115192],[-123.41010689,48.58113768],[-123.40957099,48.5806239],[-123.40925839,48.58022868],[-123.4089359,48.5796978],[-123.41075141,48.57971133],[-123.41203005,48.57972166],[-123.41373623,48.57973626],[-123.41548479,48.57974088],[-123.41694643,48.57974658],[-123.41699721,48.57796027],[-123.41701852,48.57719725],[-123.41702485,48.5767885],[-123.41703487,48.57611342],[-123.41706569,48.57411205],[-123.41709316,48.57232574],[-123.4170964,48.57213703],[-123.41711796,48.57071531],[-123.41711959,48.57060707],[-123.41714197,48.56872356],[-123.41714702,48.56852809],[-123.41714885,48.56844726],[-123.41716875,48.56766217],[-123.41722884,48.56513633],[-123.41723441,48.56337387],[-123.41723764,48.56251044],[-123.41723791,48.56237408],[-123.41723335,48.56199737],[-123.41722677,48.56141986],[-123.41723672,48.56065684],[-123.41723855,48.56050765],[-123.41723852,48.56026091],[-123.41723862,48.55966737],[-123.41723872,48.55960435],[-123.4172383,48.55900155],[-123.41723822,48.55782337],[-123.41723778,48.55656366],[-123.41723776,48.55607343],[-123.41723772,48.55516295],[-123.41723258,48.55439565],[-123.41723197,48.55431448],[-123.41721628,48.55204749],[-123.41720692,48.55066316],[-123.4173544,48.55067776],[-123.42333341,48.55067278],[-123.42375235,48.55067242],[-123.42402472,48.55067206],[-123.42742506,48.55066672],[-123.42744281,48.55066672],[-123.42893009,48.55066387],[-123.43083861,48.55065995],[-123.43083318,48.55176443],[-123.43082943,48.55248899],[-123.43082637,48.55319113],[-123.43082413,48.55357211],[-123.43082098,48.55422546],[-123.4308207,48.55426107],[-123.4308161,48.55431519],[-123.43160816,48.55431661],[-123.4316956,48.55431519],[-123.43184584,48.55431305],[-123.43226327,48.55431305],[-123.43325291,48.55431234],[-123.43474022,48.554313],[-123.43490676,48.55431091],[-123.4367094,48.55430745],[-123.43852548,48.55430392],[-123.43870007,48.55430273],[-123.43886165,48.55430237],[-123.43889446,48.55430237],[-123.4414336,48.55430486],[-123.44444675,48.55430807],[-123.44443583,48.55795333],[-123.44457119,48.55795369],[-123.44548588,48.55795618],[-123.44551741,48.55795653],[-123.44645771,48.55795938],[-123.44722575,48.55796152],[-123.44728008,48.55796152],[-123.44837726,48.55796472],[-123.44947477,48.55796828],[-123.45057195,48.55797149],[-123.45135128,48.55797363],[-123.45159535,48.55798039],[-123.45177494,48.55798146],[-123.45482651,48.55799392],[-123.45579794,48.55799784],[-123.45677958,48.55800175],[-123.45790949,48.55800603],[-123.45791111,48.55800603],[-123.45792741,48.55847495],[-123.45792831,48.55850023],[-123.45793807,48.55878329],[-123.45793824,48.55879041],[-123.45794217,48.55890216],[-123.4579426,48.55891432],[-123.45796487,48.55890933],[-123.45798511,48.55890318],[-123.45800472,48.55889723],[-123.45801153,48.55890381],[-123.45814217,48.55903003],[-123.45821902,48.55900333],[-123.45832765,48.55896915],[-123.45837529,48.5589631],[-123.4584331,48.55896452],[-123.45847654,48.55897306],[-123.4585209,48.55898837],[-123.45861839,48.55903537],[-123.45869875,48.5590813],[-123.45872677,48.55909234],[-123.45879248,48.55909127],[-123.45887222,48.55909199],[-123.45905658,48.55910338],[-123.45911426,48.55911335],[-123.4592022,48.55914717],[-123.45923725,48.55915536],[-123.45927056,48.55915358],[-123.45931,48.55914682],[-123.45933409,48.55911833],[-123.45935437,48.55910196],[-123.45939306,48.5590724],[-123.45943337,48.55903359],[-123.45946321,48.55899799],[-123.45951333,48.55895526],[-123.45957483,48.55892998],[-123.45965681,48.55892037],[-123.45985068,48.55893853],[-123.45992604,48.55893568],[-123.46001344,48.55892322],[-123.46011524,48.5589193],[-123.46027589,48.55890114],[-123.46039523,48.55886981],[-123.46045019,48.5588456],[-123.46062102,48.55879789],[-123.46070875,48.55878578],[-123.46077571,48.55878721],[-123.46083658,48.55879539],[-123.46092145,48.55880394],[-123.46102905,48.55879468],[-123.46112447,48.55879433],[-123.46120596,48.55877724],[-123.46125272,48.55878934],[-123.46130407,48.55880465],[-123.46140342,48.55884845],[-123.46147059,48.5588634],[-123.46151217,48.55888904],[-123.46156323,48.55893354],[-123.46161603,48.5589695],[-123.46167169,48.55900333],[-123.46172188,48.55903822],[-123.46178428,48.55908914],[-123.46183576,48.55912367],[-123.46189589,48.55915536],[-123.461958,48.55919845],[-123.46198816,48.559228],[-123.46203761,48.55925399],[-123.46216954,48.55930562],[-123.46222908,48.55934015],[-123.46229438,48.5593722],[-123.46235029,48.55939356],[-123.46239341,48.55941564],[-123.46243169,48.55944234],[-123.46247845,48.55947759],[-123.46252484,48.55949219],[-123.46256283,48.5594694],[-123.46259374,48.5594338],[-123.46261555,48.55941386],[-123.46262139,48.55938715],[-123.46262776,48.55934656],[-123.46264552,48.55924936],[-123.46265462,48.55921518],[-123.46267453,48.55915501],[-123.46267549,48.55912189],[-123.46269365,48.55910306],[-123.4626985,48.55909804],[-123.46273959,48.55908843],[-123.4627412,48.5590886],[-123.46276947,48.55909163],[-123.46278974,48.55909839],[-123.46283146,48.55912011],[-123.46285066,48.55913151],[-123.46287586,48.5591372],[-123.46295287,48.55913151],[-123.46301283,48.55912367],[-123.46307648,48.55911228],[-123.46316297,48.55910231],[-123.46323497,48.55908949],[-123.4632992,48.55907525],[-123.46340282,48.55903858],[-123.46343225,48.5590222],[-123.46359691,48.55893141],[-123.4636079,48.55892025],[-123.46365199,48.55887551],[-123.46369776,48.55884951],[-123.46374514,48.55884667],[-123.4637816,48.55885984],[-123.46377817,48.55888334],[-123.4637506,48.5589104],[-123.46375755,48.55892693],[-123.46376347,48.55894102],[-123.46380113,48.55897805],[-123.46385546,48.55900119],[-123.46390922,48.55902718],[-123.4639837,48.55905638],[-123.46400941,48.55907067],[-123.46403046,48.55908237],[-123.4640874,48.55911121],[-123.46416073,48.55914148],[-123.46424035,48.55918314],[-123.46433176,48.5591721],[-123.46447126,48.55915042],[-123.46451509,48.55914361],[-123.46480903,48.5591988],[-123.46507424,48.55924509],[-123.46530925,48.55926467],[-123.46570681,48.55928319],[-123.46599185,48.55928888],[-123.46634956,48.55930099],[-123.46649626,48.55930313],[-123.46660464,48.55930455],[-123.46671344,48.55930526],[-123.46682215,48.55930704],[-123.46693044,48.55930953],[-123.46703845,48.55931345],[-123.4671463,48.5593195],[-123.46725406,48.55932662],[-123.46736215,48.5593341],[-123.46746982,48.55934229],[-123.46757762,48.55935119],[-123.46768555,48.5593608],[-123.46779286,48.55937149],[-123.46789987,48.55938359],[-123.46800606,48.55939712],[-123.46811216,48.55941172],[-123.46821777,48.5594281],[-123.46832255,48.5594459],[-123.46842725,48.55946477],[-123.46853133,48.55948471],[-123.4686352,48.55950501],[-123.4687392,48.55952601],[-123.46884299,48.55954738],[-123.46894678,48.55956874],[-123.46905023,48.55958975],[-123.46915423,48.55961075],[-123.4692581,48.55963105],[-123.46936272,48.55965099],[-123.46946742,48.55966986],[-123.4695722,48.55968766],[-123.46967802,48.55970368],[-123.469784,48.55971757],[-123.46989081,48.55973003],[-123.46999824,48.55974143],[-123.47010588,48.55975246],[-123.47021331,48.55976386],[-123.47031999,48.55977561],[-123.47042714,48.55978842],[-123.47053291,48.55980267],[-123.47063832,48.5598194],[-123.47074248,48.55983827],[-123.47084635,48.55985857],[-123.47094961,48.55987993],[-123.47105277,48.55990236],[-123.47115553,48.5599255],[-123.47125787,48.55994936],[-123.4713598,48.55997393],[-123.47146173,48.55999849],[-123.47156399,48.56002342],[-123.47166551,48.5600487],[-123.47176723,48.56007362],[-123.47186916,48.56009819],[-123.47197109,48.56012276],[-123.47207356,48.56014732],[-123.4721757,48.56017154],[-123.47227763,48.5601961],[-123.47237956,48.56022067],[-123.47248128,48.56024559],[-123.4725828,48.56027087],[-123.47268444,48.56029687],[-123.47278534,48.56032322],[-123.47288549,48.56034992],[-123.47298556,48.56037769],[-123.47308501,48.56040653],[-123.47318392,48.56043537],[-123.4732835,48.56046492],[-123.47338381,48.56049412],[-123.47348298,48.56052438],[-123.47358247,48.56055501],[-123.47368026,48.56058669],[-123.47377756,48.56062016],[-123.47387209,48.5606547],[-123.47396538,48.56069137],[-123.47405527,48.56073018],[-123.47414318,48.56077148],[-123.47422802,48.56081528],[-123.4743113,48.56086085],[-123.47439259,48.56090892],[-123.47447197,48.56095841],[-123.47454945,48.56100933],[-123.47462537,48.56106202],[-123.47469904,48.56111579],[-123.47477102,48.56117062],[-123.47484044,48.56122616],[-123.47490816,48.56128278],[-123.47497319,48.56133939],[-123.47503611,48.56139778],[-123.47509605,48.5614576],[-123.47515301,48.56151884],[-123.47520753,48.5615815],[-123.47526002,48.56164488],[-123.47531028,48.56170933],[-123.47535872,48.56177413],[-123.47540567,48.56183964],[-123.47545046,48.56190516],[-123.47549418,48.56197067],[-123.47553696,48.56203689],[-123.4755777,48.56210383],[-123.47561641,48.56217148],[-123.4756531,48.56223984],[-123.47568689,48.56230856],[-123.47571779,48.56237764],[-123.47574558,48.56244742],[-123.47577014,48.56251721],[-123.47579107,48.56258771],[-123.47580876,48.56265821],[-123.47582356,48.56272906],[-123.47583633,48.56280063],[-123.47584695,48.56287219],[-123.47585595,48.56294376],[-123.47586421,48.56301568],[-123.47587173,48.56308796],[-123.47587838,48.56315988],[-123.47588536,48.56323216],[-123.47589308,48.56330408],[-123.47590134,48.56337601],[-123.47591122,48.56344793],[-123.47592238,48.5635195],[-123.47593569,48.56359106],[-123.47594954,48.56366263],[-123.47596392,48.5637342],[-123.47597852,48.56380541],[-123.47599291,48.56387697],[-123.47600622,48.56394854],[-123.47601792,48.56402011],[-123.476028,48.56409167],[-123.47603594,48.56416324],[-123.47604043,48.56423516],[-123.47604245,48.56430673],[-123.47604124,48.56437829],[-123.4760382,48.56445022],[-123.47603302,48.56452214],[-123.47602642,48.56459371],[-123.47601801,48.56466563],[-123.47600906,48.56473755],[-123.47599957,48.56480947],[-123.47599008,48.5648814],[-123.47598005,48.56495332],[-123.47597077,48.56502489],[-123.47596236,48.56509681],[-123.47595449,48.56516873],[-123.47594823,48.56524065],[-123.47594251,48.56531258],[-123.47593712,48.56538485],[-123.47593086,48.56545678],[-123.47592406,48.5655287],[-123.47591565,48.56560062],[-123.47590583,48.56567219],[-123.47589299,48.5657434],[-123.47587767,48.56581425],[-123.47585912,48.56588511],[-123.47583754,48.56595561],[-123.47581262,48.56602539],[-123.47578554,48.56609518],[-123.47575685,48.56616497],[-123.47572675,48.5662344],[-123.47569579,48.56630347],[-123.47566428,48.56637254],[-123.47563244,48.56644126],[-123.47560007,48.56650998],[-123.47556716,48.5665787],[-123.47553337,48.56664706],[-123.47549872,48.56671507],[-123.475463,48.56678307],[-123.47542619,48.56685108],[-123.47538873,48.56691837],[-123.47535019,48.56698567],[-123.47531078,48.5670526],[-123.47526975,48.56711954],[-123.47524138,48.56716461],[-123.47522806,48.56718577],[-123.4751853,48.56725199],[-123.47514113,48.56731786],[-123.47509555,48.56738338],[-123.47504877,48.56744818],[-123.47500059,48.56751262],[-123.47495099,48.56757671],[-123.47489933,48.56763973],[-123.47484518,48.5677024],[-123.47479004,48.567764],[-123.47473383,48.56782559],[-123.47467707,48.56788719],[-123.47461999,48.56794843],[-123.47456377,48.56801003],[-123.47450842,48.56807198],[-123.47445448,48.56813429],[-123.47440141,48.56819696],[-123.47434813,48.56825998],[-123.47429539,48.568323],[-123.47424232,48.56838566],[-123.47418785,48.56844797],[-123.47413217,48.56850957],[-123.47407475,48.56857046],[-123.47401559,48.56863063],[-123.47395503,48.56869044],[-123.4738936,48.56874991],[-123.47383183,48.56880901],[-123.4737692,48.56886776],[-123.4737069,48.56892686],[-123.47364513,48.56898597],[-123.47358424,48.56904543],[-123.47352421,48.56910525],[-123.47346626,48.56916613],[-123.47340896,48.56922773],[-123.47335241,48.56928897],[-123.47329533,48.56935021],[-123.47323737,48.56941109],[-123.47317735,48.56947091],[-123.47314586,48.56950011],[-123.47311471,48.56952966],[-123.47304794,48.56958627],[-123.473004,48.56962117],[-123.47297823,48.56964146],[-123.47290611,48.56969522],[-123.47283259,48.56974863],[-123.47275907,48.56980204],[-123.47268728,48.56985616],[-123.47261724,48.56991099],[-123.472551,48.5699676],[-123.47248977,48.57002671],[-123.47243202,48.57008724],[-123.47237668,48.57014919],[-123.47232414,48.57021186],[-123.47227261,48.57027559],[-123.47222214,48.57033932],[-123.47217201,48.57040341],[-123.47212188,48.5704675],[-123.47207001,48.57053088],[-123.47201781,48.5705939],[-123.47201722,48.5705946],[-123.47196507,48.57065692],[-123.47191254,48.57071959],[-123.4718598,48.57078261],[-123.4718076,48.57084563],[-123.4717489,48.57090224],[-123.47168999,48.57095921],[-123.47088597,48.57173683],[-123.47075162,48.57188851],[-123.47063904,48.57204624],[-123.47054782,48.57221073],[-123.47050009,48.57233927],[-123.47048219,48.57238769],[-123.47046846,48.572403],[-123.47041843,48.57255682],[-123.4703747,48.57273591],[-123.47034169,48.57291785],[-123.47032835,48.57301764],[-123.47031722,48.57310087],[-123.47029825,48.57328459],[-123.47028555,48.57342879],[-123.47028239,48.5734676],[-123.47026669,48.57364847],[-123.47025508,48.5737528],[-123.47024615,48.57382935],[-123.47021597,48.57401663],[-123.47018459,48.57420783],[-123.47016332,48.57439832],[-123.47016187,48.57458525],[-123.47019068,48.57476363],[-123.47026054,48.57493062],[-123.47038115,48.57508158],[-123.47052783,48.57522472],[-123.47067964,48.57536643],[-123.47083692,48.57550707],[-123.47099933,48.57564628],[-123.47116559,48.57578443],[-123.47133645,48.57592116],[-123.47151096,48.57605717],[-123.47168931,48.57619211],[-123.47187044,48.57632599],[-123.47205447,48.57645951],[-123.47224127,48.57659196],[-123.4724301,48.5767237],[-123.47262075,48.57685508],[-123.47281323,48.57698611],[-123.47300645,48.57711678],[-123.47320063,48.57724674],[-123.47339534,48.5773767],[-123.47359006,48.57750666],[-123.47378498,48.57763626],[-123.4739271,48.57773101],[-123.47397937,48.57776586],[-123.47417248,48.57789582],[-123.47436472,48.57802542],[-123.47443869,48.5780761],[-123.47443928,48.57807624],[-123.47444012,48.57807644],[-123.47444004,48.57807614],[-123.47855934,48.57904363],[-123.50131449,48.5843845],[-123.50131233,48.57787624],[-123.50132633,48.57773239],[-123.50133958,48.5775889],[-123.5013525,48.57744506],[-123.50136542,48.57730121],[-123.50137781,48.57715737],[-123.50139053,48.57701388],[-123.50140399,48.57687004],[-123.50141779,48.57672655],[-123.50143286,48.5765827],[-123.50144881,48.57643921],[-123.50146584,48.57629572],[-123.50148481,48.57615259],[-123.50150702,48.57600946],[-123.50153493,48.57586668],[-123.50156836,48.57572462],[-123.50160501,48.57558255],[-123.50164361,48.57544084],[-123.50168275,48.57529913],[-123.50172524,48.57515814],[-123.50177042,48.57501714],[-123.50181702,48.5748765],[-123.50186307,48.57473586],[-123.5019061,48.57459486],[-123.50194525,48.57445315],[-123.50198083,48.57431109],[-123.50201479,48.57416902],[-123.50204897,48.5740266],[-123.50208596,48.57388489],[-123.50212792,48.5737439],[-123.50217539,48.57360361],[-123.50222641,48.57346368],[-123.50228046,48.57332411],[-123.50233733,48.57318525],[-123.50239635,48.57304639],[-123.5024569,48.5729086],[-123.50252209,48.57277116],[-123.50258956,48.57263444],[-123.5026581,48.57249771],[-123.50272611,48.57236099],[-123.5027913,48.57222355],[-123.50285628,48.57208647],[-123.50292147,48.57194904],[-123.50298667,48.5718116],[-123.50305078,48.57167416],[-123.5031149,48.57153673],[-123.50317848,48.57139929],[-123.50324085,48.57126114],[-123.50330195,48.57112335],[-123.50336184,48.57098485],[-123.50341979,48.57084599],[-123.5034772,48.57070713],[-123.50353462,48.57056827],[-123.50359203,48.5704294],[-123.50365031,48.5702909],[-123.50371021,48.5701524],[-123.50377184,48.5700146],[-123.50383596,48.56987717],[-123.50390398,48.56974044],[-123.50397568,48.56960479],[-123.50405073,48.56946984],[-123.50412826,48.56933526],[-123.50420721,48.56920102],[-123.50428702,48.56906715],[-123.50436737,48.56893327],[-123.50444859,48.56879975],[-123.50453069,48.56866659],[-123.50461332,48.56853343],[-123.50469628,48.56840062],[-123.50477978,48.56826781],[-123.50486382,48.568135],[-123.50494819,48.56800255],[-123.50503222,48.56786974],[-123.50511626,48.56773694],[-123.50520064,48.56760449],[-123.50528554,48.56747203],[-123.50537045,48.56733958],[-123.5054559,48.56720713],[-123.50554168,48.56707503],[-123.50562746,48.56694294],[-123.50571291,48.56681049],[-123.50579869,48.56667839],[-123.50588413,48.56654594],[-123.50596938,48.56641385],[-123.50605429,48.56628139],[-123.50613974,48.56614894],[-123.50622519,48.56601649],[-123.50631043,48.5658844],[-123.50639588,48.56575194],[-123.50648112,48.56561985],[-123.50656657,48.5654874],[-123.50665202,48.56535495],[-123.50673553,48.56522214],[-123.50681816,48.56508898],[-123.50690047,48.56495546],[-123.50698311,48.56482229],[-123.50706574,48.56468913],[-123.50714945,48.56455596],[-123.5072347,48.56442387],[-123.50732156,48.56429177],[-123.50741103,48.56416075],[-123.50750311,48.56403079],[-123.50759887,48.5639019],[-123.50769777,48.56377407],[-123.50779896,48.56364696],[-123.50790296,48.56352057],[-123.50800816,48.56339488],[-123.50811564,48.5632699],[-123.50822453,48.56314529],[-123.50833428,48.56302102],[-123.50844511,48.56289676],[-123.50855607,48.56277321],[-123.50866723,48.5626493],[-123.50877819,48.56252575],[-123.50888881,48.56240185],[-123.50899944,48.56227794],[-123.5091106,48.56215404],[-123.50922242,48.56203084],[-123.50933479,48.56190765],[-123.50944889,48.56178517],[-123.50956386,48.56166304],[-123.50968003,48.56154163],[-123.50979795,48.56142092],[-123.5099176,48.56130093],[-123.51003986,48.56118201],[-123.51016331,48.5610638],[-123.51028905,48.56094631],[-123.51041599,48.56082952],[-123.51054413,48.56071345],[-123.510674,48.56059809],[-123.51080475,48.56048308],[-123.51093582,48.56036843],[-123.51106843,48.56025485],[-123.51120299,48.56014163],[-123.511338,48.56002947],[-123.51147408,48.55991731],[-123.51161104,48.55980551],[-123.51174832,48.55969407],[-123.51188474,48.55958227],[-123.5120217,48.55947047],[-123.51215691,48.55935796],[-123.51229027,48.55924402],[-123.51242242,48.55912937],[-123.51255457,48.55901472],[-123.51268759,48.55890043],[-123.51282214,48.5587872],[-123.5092015,48.55871421],[-123.50353206,48.55859992],[-123.50341909,48.55859992],[-123.50327384,48.55859992],[-123.50323511,48.55859992],[-123.50312967,48.55859992],[-123.50312321,48.55859992],[-123.49454756,48.55859992],[-123.49423756,48.55139841],[-123.48925234,48.55134393],[-123.48910914,48.55133859],[-123.48909543,48.55124459],[-123.48915082,48.55091774],[-123.48899649,48.55064358],[-123.48867037,48.55033737],[-123.48850097,48.55022343],[-123.48876083,48.54628122],[-123.48869135,48.54409969],[-123.47790238,48.54410895],[-123.47791258,48.54330035],[-123.47799251,48.53704131],[-123.47374742,48.53682625],[-123.47395229,48.52968028],[-123.47395554,48.52956563],[-123.47405202,48.52228401],[-123.46609721,48.52234916],[-123.46625534,48.51515619],[-123.46136047,48.51516332],[-123.45831466,48.51516759],[-123.45832562,48.51461535],[-123.45834277,48.51336133],[-123.4583544,48.51254135],[-123.45836189,48.51202009],[-123.45836714,48.51163092],[-123.45836827,48.51156256],[-123.45837273,48.51126241],[-123.45837427,48.51113245],[-123.45837835,48.51082375],[-123.45838844,48.51006465],[-123.45839725,48.50938067],[-123.45840335,48.50892279],[-123.45841086,48.50837945],[-123.45841306,48.50821424],[-123.45842031,48.50764741],[-123.45842557,48.50742808],[-123.45843224,48.50714359],[-123.45843862,48.50686053],[-123.45845303,48.50624456],[-123.45847456,48.50530743],[-123.45847758,48.50519065],[-123.45849499,48.50442941],[-123.45849588,48.50440021],[-123.4585039,48.50404522],[-123.45852225,48.50298917],[-123.45853115,48.50247503],[-123.4585353,48.50224752],[-123.45854576,48.50168923],[-123.45856874,48.50045942],[-123.45858154,48.49941868],[-123.45759014,48.49897896],[-123.45612306,48.49832845],[-123.45615459,48.49679493],[-123.45616329,48.49637906],[-123.45620131,48.49463369],[-123.45622393,48.49360791],[-123.45622733,48.49344911],[-123.4562281,48.49342383],[-123.45630675,48.48981061],[-123.45631309,48.48890517],[-123.4563327,48.48616606],[-123.45633903,48.48525349],[-123.45636371,48.48179267],[-123.45638994,48.47813387],[-123.45641592,48.47447543],[-123.45643832,48.47128592],[-123.45641218,48.4712727],[-123.45630204,48.47115596],[-123.45619259,48.47103063],[-123.45602879,48.47080703],[-123.45591935,48.4706817],[-123.4557413,48.47051934],[-123.45556602,48.47036695],[-123.4553062,48.47015331],[-123.45515678,48.46998241],[-123.45514116,48.46990977],[-123.45519441,48.46971181],[-123.45518012,48.4696406],[-123.45515157,48.46958648],[-123.45501573,48.46940703],[-123.45498799,48.46926318],[-123.45494521,48.46911934],[-123.45488954,48.46893134],[-123.45486689,48.46887244],[-123.45464352,48.46865362],[-123.4545885,48.46860805],[-123.4543716,48.46850123],[-123.45422207,48.46841151],[-123.45411188,48.46831324],[-123.45408402,48.46825057],[-123.45408346,48.46817794],[-123.45411145,48.46811527],[-123.45412503,48.46810673],[-123.45438034,48.46791588],[-123.45449937,48.46780764],[-123.45457981,48.46768089],[-123.45466024,48.46746583],[-123.45468628,48.46734762],[-123.45469659,48.46714966],[-123.45470967,48.46696166],[-123.45470918,48.46682636],[-123.4547071,48.46680785],[-123.45469428,48.46670103],[-123.45462505,48.46656573],[-123.45461008,48.46654722],[-123.45455645,48.4664404],[-123.45443353,48.4663051],[-123.45409366,48.4660815],[-123.45397061,48.46598323],[-123.45394345,48.46595617],[-123.45388994,48.46589422],[-123.45380612,48.46578669],[-123.45375048,48.46564284],[-123.45372207,48.46546339],[-123.45373393,48.46525546],[-123.45375922,48.46512016],[-123.45380017,48.46503898],[-123.45382525,48.46495922],[-123.45389143,48.46480541],[-123.45393176,48.46467011],[-123.45390204,48.46444508],[-123.45384842,48.46438242],[-123.45368318,48.46425709],[-123.45347928,48.46413176],[-123.45319439,48.4640164],[-123.45292453,48.46394519],[-123.45273977,48.46387077],[-123.452708,48.46390495],[-123.45266644,48.46394946],[-123.45238396,48.4642521],[-123.45212051,48.4645341],[-123.45189547,48.46477514],[-123.45182587,48.46485205],[-123.45173288,48.46494142],[-123.45163547,48.46504112],[-123.451517,48.46516217],[-123.45137958,48.46530281],[-123.45124257,48.46544274],[-123.45110598,48.46558196],[-123.45097067,48.46572082],[-123.45083545,48.46585861],[-123.45070172,48.46599569],[-123.45056798,48.46613277],[-123.45043487,48.46626878],[-123.45030218,48.46640408],[-123.45017023,48.46653903],[-123.45003828,48.46667397],[-123.44990729,48.4668082],[-123.44977576,48.46694243],[-123.44964402,48.46707702],[-123.44951281,48.46721161],[-123.44936602,48.46736186],[-123.44903587,48.46769682],[-123.44874663,48.46799486],[-123.44850197,48.46824487],[-123.44792686,48.46799742],[-123.44735424,48.46775032],[-123.44722384,48.46769406],[-123.44668578,48.46746227],[-123.44619582,48.46725113],[-123.44569081,48.46703358],[-123.44553431,48.46696593],[-123.44533006,48.46687799],[-123.44508985,48.46677438],[-123.44484997,48.46667112],[-123.44461062,48.46656787],[-123.44440562,48.46647978],[-123.44437643,48.46646642],[-123.44428212,48.46637453],[-123.44408464,48.46675408],[-123.44391792,48.46727882],[-123.44383791,48.46753063],[-123.44361712,48.468226],[-123.44359289,48.46827763],[-123.44335049,48.46879391],[-123.44322398,48.46877788],[-123.44320299,48.4687697],[-123.44282098,48.46860449],[-123.44248067,48.46845708],[-123.44238991,48.46841756],[-123.44224326,48.46835418],[-123.44214091,48.46830968],[-123.44180114,48.46816227],[-123.44141817,48.46799599],[-123.44099729,48.46781369],[-123.44075263,48.46770759],[-123.44045143,48.46757692],[-123.44016702,48.46745337],[-123.44006566,48.46740993],[-123.44000232,48.46738323],[-123.43985972,48.46732305],[-123.43971658,48.46726288],[-123.43957398,48.46720271],[-123.43802621,48.46655113],[-123.43780779,48.46645714],[-123.43757418,48.46636065],[-123.43673012,48.46600566],[-123.43597378,48.46640693],[-123.43580463,48.46649701],[-123.43560432,48.46660276],[-123.4335109,48.46771364],[-123.43160739,48.46872733],[-123.42790819,48.47069772],[-123.42774774,48.47065891],[-123.4272428,48.46971323],[-123.42668779,48.4686732],[-123.42604415,48.46893383],[-123.42531502,48.46922865],[-123.42461104,48.46951349],[-123.42448077,48.46955906],[-123.42395597,48.468529],[-123.42378484,48.46821532],[-123.42354752,48.46778058],[-123.42340939,48.46751888],[-123.42332961,48.46736685],[-123.42326439,48.46793796],[-123.42294226,48.46934116],[-123.42280706,48.46933083],[-123.42225813,48.46928597],[-123.42211216,48.46927386],[-123.42164594,48.46923541],[-123.4212759,48.46920515],[-123.42077215,48.46916384],[-123.42055701,48.46914604],[-123.42048214,48.46913999],[-123.4202243,48.46911898],[-123.42003117,48.46948073],[-123.41997753,48.46958078],[-123.41869282,48.46928241],[-123.42044693,48.46591344],[-123.42028813,48.46576711],[-123.42032219,48.46567667],[-123.42096921,48.46443369],[-123.42106281,48.46425424],[-123.42111029,48.46411146],[-123.42113344,48.46406909],[-123.41844293,48.46415419],[-123.41737939,48.46413461],[-123.41665424,48.46403491],[-123.41581579,48.46383695],[-123.41521294,48.46361441],[-123.41140761,48.46174371],[-123.40981256,48.46096111],[-123.40929494,48.46073253],[-123.40859495,48.46049539],[-123.40788391,48.46032307],[-123.40480946,48.4597041],[-123.40474236,48.45969045],[-123.40467722,48.45967719],[-123.40191507,48.45911961],[-123.40091557,48.45891915],[-123.39834325,48.45840252],[-123.39758431,48.45828467],[-123.3967155,48.45820135],[-123.39483565,48.45820349],[-123.39243728,48.45821915],[-123.39178091,48.45822699],[-123.39083897,48.45816681],[-123.39040477,48.45809133],[-123.38968753,48.45795639],[-123.38661422,48.45724765],[-123.38656866,48.45723714],[-123.38322137,48.4564651],[-123.38201649,48.45618716],[-123.38081331,48.45590481],[-123.37847573,48.45537216],[-123.37804882,48.45524398],[-123.37789595,48.45519057],[-123.37743812,48.45500151],[-123.37720214,48.45486347],[-123.37718956,48.45490437],[-123.37717794,48.45492505],[-123.37704671,48.45515857],[-123.37702991,48.45518804],[-123.37700371,48.45527211],[-123.37697969,48.45540847],[-123.37702728,48.45557475],[-123.37721243,48.45589484],[-123.37747248,48.45635842],[-123.37651828,48.4573251],[-123.37680943,48.45746147],[-123.37701493,48.45755796],[-123.37765267,48.45785705],[-123.37797216,48.45806605],[-123.37799166,48.45808777],[-123.37830048,48.45842139],[-123.37851668,48.45890313],[-123.37858927,48.45910928],[-123.37871535,48.45946712],[-123.37849937,48.45956823],[-123.37874955,48.46002683],[-123.37898783,48.46067183],[-123.37904185,48.46081806],[-123.3793545,48.46166431],[-123.3796403,48.46243815],[-123.38038411,48.46445193],[-123.38069196,48.46528537],[-123.38147223,48.46774355],[-123.38148523,48.46780301],[-123.38151201,48.46790591],[-123.38137723,48.46792977],[-123.38126063,48.46794365],[-123.37897579,48.46827015],[-123.37749422,48.46844996],[-123.37719906,48.4684845],[-123.37694131,48.46851476],[-123.37494281,48.46875474],[-123.37324575,48.46895769],[-123.37191727,48.46912361],[-123.37101946,48.46923541],[-123.36975459,48.46939172],[-123.36869804,48.46952239],[-123.36845316,48.46955265],[-123.36757655,48.46966125],[-123.36615937,48.46983643],[-123.36459408,48.47002976],[-123.36360848,48.47014655],[-123.36172716,48.47036873],[-123.36120487,48.47043068],[-123.35930748,48.47068027],[-123.35911728,48.4707052],[-123.35791703,48.47086293],[-123.35741736,48.47092844],[-123.35735907,48.47093627],[-123.35698564,48.47098612],[-123.35667468,48.47102742],[-123.35642824,48.4710851],[-123.3550898,48.47139807],[-123.35397939,48.47155367],[-123.35291879,48.47170214],[-123.3526165,48.47174238],[-123.35115992,48.47192966],[-123.34924099,48.47211409],[-123.34868406,48.47216821],[-123.34806252,48.47214009],[-123.34685617,48.47192396],[-123.34528397,48.47165123],[-123.34472917,48.47148994],[-123.34448168,48.47136603],[-123.34436582,48.47130621],[-123.34426902,48.47125601],[-123.34400546,48.4710908],[-123.34379409,48.47095657],[-123.3426645,48.47008887],[-123.34247051,48.46993968],[-123.34115067,48.46894772],[-123.34081694,48.46879141],[-123.34043979,48.46870098],[-123.34015194,48.46867534],[-123.33966072,48.46867142],[-123.33533043,48.46864828],[-123.33531893,48.46869172],[-123.33512057,48.46950209],[-123.33486231,48.47055494],[-123.33481081,48.47087468],[-123.33487679,48.47137885],[-123.33486687,48.47167437],[-123.33443682,48.47307366],[-123.33442996,48.4733585],[-123.33449668,48.47363693],[-123.33479652,48.47419486],[-123.3353257,48.47507823],[-123.33538201,48.47516546],[-123.33553212,48.47529151],[-123.33591817,48.47561623],[-123.33627501,48.47591104],[-123.3369386,48.47645971],[-123.33699572,48.47650707],[-123.3375915,48.47693682],[-123.33984756,48.47944806],[-123.33989194,48.47952294],[-123.339917,48.4795652],[-123.33992268,48.4796738],[-123.33974394,48.48033392],[-123.33968963,48.48054862],[-123.33929921,48.48209211],[-123.33925642,48.48226106],[-123.33915267,48.48267069],[-123.33922651,48.48381504],[-123.33922837,48.48384673],[-123.33934075,48.48413549],[-123.3396611,48.48499108],[-123.33988613,48.48562877],[-123.33998397,48.48596168],[-123.34011508,48.48640568],[-123.34026491,48.4869159],[-123.34048136,48.48765186],[-123.34047263,48.4877512],[-123.34047002,48.48778503],[-123.34040797,48.48792496],[-123.33979989,48.48871219],[-123.33957258,48.48900593],[-123.33857074,48.49007943],[-123.33823674,48.49043797],[-123.33817359,48.49051096],[-123.33810234,48.49059321],[-123.33798841,48.4907456],[-123.33656388,48.4926017],[-123.33560149,48.49444855],[-123.33545513,48.49489041],[-123.33542078,48.49514],[-123.33543179,48.49516065],[-123.33561397,48.49550389],[-123.33842138,48.49835622],[-123.33929598,48.49904055],[-123.33942705,48.49914345],[-123.34049621,48.49990861],[-123.34069882,48.50003252],[-123.34194237,48.50079269],[-123.34239156,48.50109676],[-123.34253894,48.501226],[-123.34282062,48.50147381],[-123.34330788,48.5017964],[-123.34336142,48.50183165],[-123.34351064,48.50198439],[-123.34300935,48.50275952],[-123.34118526,48.5055798],[-123.34129304,48.50563001],[-123.3413258,48.50564568],[-123.34154637,48.50575],[-123.34176366,48.50585718],[-123.3419761,48.50596898],[-123.34218356,48.50608469],[-123.34238837,48.50620219],[-123.34259107,48.50632147],[-123.34279165,48.50644253],[-123.34299074,48.5065643],[-123.34318867,48.50668713],[-123.34338681,48.50680962],[-123.34353904,48.50691964],[-123.34356998,48.50694207],[-123.34374615,48.50707915],[-123.34395106,48.50719558],[-123.3441802,48.50729171],[-123.34441766,48.50737823],[-123.34465993,48.50745834],[-123.34565617,48.50774069],[-123.3459064,48.50780905],[-123.34615987,48.50787279],[-123.34629318,48.50790305],[-123.34641635,48.50793047],[-123.34667128,48.50799171],[-123.34691627,48.50806719],[-123.34714426,48.5081644],[-123.34735789,48.50827513],[-123.34756348,48.50839227],[-123.34776334,48.50851368],[-123.3479596,48.50863759],[-123.34815586,48.50876149],[-123.34835403,48.50888398],[-123.34855676,48.50900325],[-123.34876871,48.50911505],[-123.34899239,48.50921689],[-123.34922198,48.50931231],[-123.34945019,48.50940915],[-123.34967168,48.50951383],[-123.34984388,48.50964949],[-123.34997664,48.50980758],[-123.35010341,48.50992258],[-123.35013558,48.50995213],[-123.35031614,48.51008637],[-123.3504982,48.51021988],[-123.35068557,48.51034984],[-123.35088015,48.51047482],[-123.35108386,48.51059338],[-123.351301,48.51070091],[-123.35152986,48.51079669],[-123.35177307,48.51088998],[-123.35199907,48.51097685],[-123.35222826,48.51107299],[-123.35244329,48.51118229],[-123.35262322,48.51131581],[-123.35277145,48.51146678],[-123.35292606,48.51161419],[-123.35310101,48.51175162],[-123.35328446,48.51188372],[-123.35347238,48.51201368],[-123.35366433,48.51214043],[-123.35386064,48.51226434],[-123.35406034,48.51238611],[-123.35426237,48.51250574],[-123.3544661,48.51262431],[-123.35467079,48.51274216],[-123.35487548,48.51286001],[-123.35507942,48.51297822],[-123.35528199,48.51309786],[-123.35548213,48.51321891],[-123.35567919,48.51334246],[-123.35587211,48.51346851],[-123.35606122,48.5135974],[-123.35624693,48.51372842],[-123.35643019,48.51386088],[-123.35661102,48.51399475],[-123.35679035,48.51412934],[-123.35690797,48.51421871],[-123.35696853,48.514265],[-123.3571467,48.51440065],[-123.35732434,48.51453631],[-123.35750252,48.51467196],[-123.35768166,48.51480691],[-123.35786196,48.51494078],[-123.35804449,48.51507359],[-123.35822981,48.51520533],[-123.35841554,48.51533636],[-123.35860168,48.51546667],[-123.35879198,48.5155945],[-123.35898886,48.5157184],[-123.35919358,48.51583625],[-123.35941639,48.5159388],[-123.35967037,48.51599719],[-123.3599366,48.5160328],[-123.36019748,48.51608122],[-123.36045466,48.51613783],[-123.36070468,48.51620762],[-123.36092078,48.51631336],[-123.36109911,48.51644973],[-123.36125954,48.51659465],[-123.36139012,48.51675202],[-123.36149069,48.51691937],[-123.36158066,48.5170892],[-123.36166153,48.51726082],[-123.36173984,48.51743315],[-123.3618189,48.51760512],[-123.36189849,48.5177771],[-123.36197573,48.51794943],[-123.36204912,48.51812282],[-123.36211544,48.51829729],[-123.36217287,48.51847318],[-123.36221817,48.51865049],[-123.36225264,48.51882887],[-123.36227702,48.51900797],[-123.36229346,48.51918778],[-123.36230399,48.51936758],[-123.36230968,48.51954739],[-123.36231215,48.51972719],[-123.36231387,48.51990736],[-123.36231312,48.52008716],[-123.36230753,48.52026697],[-123.36229441,48.52044678],[-123.36227666,48.52062623],[-123.36225569,48.52080568],[-123.36223278,48.52098477],[-123.36220966,48.52116422],[-123.36218514,48.52134332],[-123.36215901,48.52152241],[-123.3621318,48.52170151],[-123.36210211,48.52188024],[-123.36207028,48.52205898],[-123.36203542,48.52223736],[-123.36199702,48.52241539],[-123.361957,48.52259342],[-123.3619145,48.52277109],[-123.36187039,48.52294876],[-123.36182488,48.52312607],[-123.36177775,48.52330338],[-123.36172976,48.52348034],[-123.3616807,48.5236573],[-123.36163056,48.52383426],[-123.36158063,48.52401086],[-123.36152908,48.52418746],[-123.36147399,48.52436371],[-123.36141641,48.5245396],[-123.36135689,48.52471513],[-123.36129683,48.52489067],[-123.36123839,48.5250662],[-123.36117888,48.52524173],[-123.36111386,48.52541655],[-123.36106406,48.52559387],[-123.36108576,48.52577118],[-123.36116865,48.52594316],[-123.36124648,48.52611549],[-123.36131083,48.52629066],[-123.36133944,48.52646905],[-123.36130429,48.52664707],[-123.36123907,48.52682225],[-123.36121004,48.52699992],[-123.36123641,48.52717937],[-123.36126515,48.52735846],[-123.36126713,48.52753827],[-123.36123855,48.52771701],[-123.36118595,48.52789361],[-123.36112592,48.52806915],[-123.36106695,48.52824468],[-123.36103892,48.52834331],[-123.36101684,48.52842164],[-123.36098417,48.52860002],[-123.36096788,48.52877982],[-123.36096287,48.52895963],[-123.36097508,48.52913944],[-123.36100908,48.52931782],[-123.36106895,48.52949335],[-123.36114917,48.52966533],[-123.36124128,48.52983445],[-123.36126152,48.52986792],[-123.36134163,48.53000144],[-123.36144615,48.53016772],[-123.36154981,48.53033364],[-123.36164995,48.53050098],[-123.36174058,48.53067082],[-123.36180774,48.53084493],[-123.36183824,48.53102474],[-123.36178514,48.53119671],[-123.36159822,48.53135017],[-123.36143649,48.53147336],[-123.36131369,48.53163394],[-123.36122226,48.53180342],[-123.36113806,48.53197433],[-123.36106035,48.53214701],[-123.36098587,48.5323197],[-123.36091171,48.53249274],[-123.36083454,48.53266542],[-123.36075229,48.53283669],[-123.36066615,48.53300723],[-123.3605784,48.53317778],[-123.3604914,48.53334798],[-123.36040666,48.53351888],[-123.36032669,48.53369086],[-123.36025361,48.5338639],[-123.36018918,48.53403872],[-123.36014352,48.53421639],[-123.36014864,48.53439548],[-123.36019783,48.5345728],[-123.36023928,48.53475047],[-123.36023452,48.53492992],[-123.36018142,48.53510652],[-123.36010955,48.53528027],[-123.36003735,48.53545367],[-123.35997594,48.53562885],[-123.3599209,48.53580509],[-123.35986392,48.53598098],[-123.35979863,48.53615545],[-123.3597192,48.53632742],[-123.35962973,48.53649726],[-123.35953496,48.53666603],[-123.35943284,48.53683266],[-123.3593225,48.5369968],[-123.35920199,48.53715809],[-123.35906338,48.53731262],[-123.35890382,48.53745789],[-123.35873906,48.53760102],[-123.35858331,48.53774807],[-123.35845412,48.5379058],[-123.3583613,48.53807493],[-123.35829085,48.53824904],[-123.35823441,48.53842493],[-123.35818898,48.53860224],[-123.35815065,48.53878027],[-123.35811676,48.53895901],[-123.35808307,48.53913739],[-123.35805186,48.53931613],[-123.35803852,48.53949558],[-123.35804359,48.53967574],[-123.35803166,48.53985555],[-123.35796907,48.54003001],[-123.3578503,48.54019201],[-123.35771116,48.54034654],[-123.35756648,48.54049858],[-123.35740813,48.54064456],[-123.35724684,48.54078911],[-123.35709576,48.5409383],[-123.35696864,48.5410971],[-123.3568834,48.54126801],[-123.35684261,48.54144568],[-123.35683284,48.54162548],[-123.3568406,48.54180564],[-123.35685632,48.54198509],[-123.35686968,48.5421649],[-123.3568755,48.54234471],[-123.35687864,48.54252451],[-123.3568805,48.54270468],[-123.35688311,48.54288448],[-123.35688733,48.54306429],[-123.35689478,48.5432441],[-123.35690653,48.5434239],[-123.35692548,48.54360335],[-123.35695163,48.54378245],[-123.3569866,48.54396118],[-123.35705328,48.54413351],[-123.35723469,48.54426775],[-123.35744492,48.54438026],[-123.35753278,48.54447853],[-123.35758277,48.54453479],[-123.35765433,48.5447089],[-123.35770722,48.5448855],[-123.35774981,48.54506317],[-123.35779531,48.54524048],[-123.35785056,48.54541673],[-123.35790711,48.54559262],[-123.35796365,48.54576851],[-123.35801999,48.54594475],[-123.35807601,48.54612064],[-123.35813202,48.54629653],[-123.35818836,48.54647278],[-123.35824438,48.54664867],[-123.3583004,48.54682456],[-123.35831718,48.5468769],[-123.35835621,48.5470008],[-123.35840751,48.54717741],[-123.35846117,48.54735365],[-123.35852771,48.54752812],[-123.35860753,48.54770009],[-123.35870429,48.54786886],[-123.35885697,48.54801092],[-123.35911278,48.54807395],[-123.35931409,48.54819536],[-123.35949501,48.54832959],[-123.35966657,48.54846881],[-123.35983249,48.54861123],[-123.35998947,48.54875792],[-123.36013941,48.54890746],[-123.36029224,48.54906128],[-123.36044369,48.54920548],[-123.36061451,48.54934505],[-123.3607983,48.54947715],[-123.36096594,48.5496185],[-123.36111001,48.54976982],[-123.36106301,48.55030212],[-123.36101846,48.55041998],[-123.36100676,48.55044731],[-123.36094439,48.55059302],[-123.36091358,48.55065782],[-123.36086235,48.55076499],[-123.36077274,48.55093518],[-123.36067717,48.5511036],[-123.3605829,48.55123569],[-123.36056052,48.55126667],[-123.36055174,48.55130476],[-123.36050993,48.55136814],[-123.36046657,48.55143508],[-123.36042671,48.55149418],[-123.36040245,48.55156896],[-123.36036849,48.55163732],[-123.36033506,48.55170568],[-123.36030163,48.55177404],[-123.360268,48.55184276],[-123.36023457,48.55191112],[-123.36020114,48.55197948],[-123.36016804,48.5520482],[-123.36013462,48.55211656],[-123.36010173,48.55218493],[-123.36006863,48.55225364],[-123.3600352,48.55232201],[-123.36000221,48.5523905],[-123.36000211,48.55239072],[-123.35996868,48.55245909],[-123.35993525,48.55252745],[-123.35990216,48.55259617],[-123.35986873,48.55266453],[-123.35983563,48.55273325],[-123.35980221,48.55280161],[-123.35976911,48.55287033],[-123.35973622,48.55293869],[-123.35970313,48.55300741],[-123.35967078,48.55307577],[-123.35963768,48.55314449],[-123.35960512,48.55321321],[-123.35957256,48.55328192],[-123.35954021,48.55335029],[-123.35950819,48.553419],[-123.35947564,48.55348772],[-123.35944395,48.5535568],[-123.35941247,48.55362551],[-123.35938045,48.55369423],[-123.3593493,48.55376331],[-123.35931781,48.55383202],[-123.35927533,48.55389932],[-123.35926874,48.5539392],[-123.35925518,48.55396982],[-123.35924562,48.55399082],[-123.35924149,48.55404031],[-123.35919255,48.55410761],[-123.35916194,48.55417668],[-123.35913079,48.55424576],[-123.35909964,48.55431483],[-123.35906923,48.55438355],[-123.35903862,48.55445262],[-123.35900801,48.5545217],[-123.3589774,48.55459077],[-123.35894732,48.55465985],[-123.35891704,48.55472928],[-123.35888697,48.55479835],[-123.35885689,48.55486742],[-123.35882736,48.5549365],[-123.35879761,48.55500593],[-123.35876808,48.555075],[-123.35873833,48.55514443],[-123.35870934,48.55521351],[-123.35868013,48.55528294],[-123.35865093,48.55535237],[-123.35862226,48.5554218],[-123.35859413,48.55549123],[-123.358566,48.55556066],[-123.35853874,48.55563044],[-123.35851115,48.55569988],[-123.35848389,48.55576966],[-123.3584563,48.55583909],[-123.35844783,48.55589143],[-123.35844342,48.55591742],[-123.3583962,48.55599469],[-123.35835616,48.55606056],[-123.35834888,48.55611824],[-123.35832215,48.55618802],[-123.35829543,48.55625781],[-123.35826871,48.5563276],[-123.35824166,48.55639703],[-123.3582144,48.55646681],[-123.35818768,48.5565366],[-123.35816009,48.55660603],[-123.35813283,48.55667581],[-123.3581047,48.55674524],[-123.35807691,48.55681503],[-123.35804878,48.55688446],[-123.35802012,48.55695389],[-123.35799112,48.55702297],[-123.35796138,48.5570924],[-123.35791543,48.55715827],[-123.35790124,48.55723054],[-123.35788211,48.55727256],[-123.35788139,48.55729962],[-123.35783862,48.55736834],[-123.3578066,48.55743705],[-123.35777405,48.55750577],[-123.3577415,48.55757449],[-123.35770895,48.55764321],[-123.35767607,48.55771157],[-123.35764351,48.55778029],[-123.35761042,48.55784901],[-123.35757754,48.55791737],[-123.35754499,48.55798609],[-123.35751244,48.55805481],[-123.35748043,48.55812352],[-123.35744841,48.55819224],[-123.35741673,48.55826132],[-123.35738418,48.55833003],[-123.35735163,48.55839875],[-123.35731908,48.55846747],[-123.35728653,48.55853619],[-123.35725398,48.55860491],[-123.35722196,48.55867362],[-123.35719049,48.55874234],[-123.35715988,48.55881142],[-123.35713015,48.55888085],[-123.35710169,48.55894992],[-123.3570739,48.55901971],[-123.35704718,48.55908949],[-123.35701856,48.5591607],[-123.35699059,48.55923263],[-123.35696586,48.55930455],[-123.35694671,48.55937612],[-123.35693497,48.55944697],[-123.35693408,48.55951676],[-123.35694639,48.55958512],[-123.35697794,48.55965277],[-123.35702432,48.55971899],[-123.35708087,48.55978344],[-123.35714298,48.55984575],[-123.35720514,48.55990521],[-123.3572687,48.55996503],[-123.35733677,48.56002449],[-123.35741057,48.56007968],[-123.35749228,48.56012774],[-123.35758279,48.56016442],[-123.35767969,48.5601929],[-123.35777817,48.5602196],[-123.35787855,48.56024488],[-123.35798051,48.56026838],[-123.35808363,48.56029081],[-123.35818791,48.56031218],[-123.35829282,48.56033247],[-123.35839835,48.5603517],[-123.35850429,48.56037021],[-123.35861065,48.56038802],[-123.35871743,48.56040511],[-123.35882366,48.5604222],[-123.35893031,48.56043858],[-123.35903589,48.56045495],[-123.35914147,48.56047133],[-123.35924713,48.56048664],[-123.359353,48.5605016],[-123.35946867,48.56051726],[-123.35956577,48.56052973],[-123.35967268,48.5605429],[-123.35977926,48.56055572],[-123.35988658,48.56056818],[-123.35999345,48.56057957],[-123.36010086,48.56059097],[-123.36020815,48.56060165],[-123.36031564,48.56061197],[-123.36042301,48.56062159],[-123.36053038,48.5606312],[-123.36063816,48.5606401],[-123.36071817,48.56064511],[-123.36074612,48.56064687],[-123.36085499,48.56065114],[-123.36096478,48.56065292],[-123.36107486,48.56065328],[-123.36118556,48.56065256],[-123.36129552,48.56065221],[-123.36140485,48.56065292],[-123.36151356,48.5606547],[-123.36162135,48.56065897],[-123.36172782,48.56066645],[-123.36183254,48.56067784],[-123.3619351,48.56069387],[-123.36203834,48.56071701],[-123.3621412,48.56074727],[-123.36224128,48.56078323],[-123.36233555,48.56082454],[-123.36242282,48.56087047],[-123.36249941,48.56091996],[-123.3625637,48.56097301],[-123.36261233,48.56103354],[-123.36264712,48.56110119],[-123.36267297,48.56117311],[-123.3626936,48.56124753],[-123.36271282,48.56132159],[-123.36273457,48.56139315],[-123.3627577,48.56146329],[-123.36278061,48.56153379],[-123.36280373,48.56160394],[-123.36282611,48.56167443],[-123.36284848,48.56174493],[-123.36287032,48.56181543],[-123.36289142,48.56188628],[-123.36291218,48.56195678],[-123.36293273,48.56202764],[-123.36295221,48.56209849],[-123.36297116,48.56216935],[-123.36298956,48.5622402],[-123.36300668,48.56231141],[-123.36302294,48.56238227],[-123.36303844,48.56245348],[-123.36305288,48.56252469],[-123.36306549,48.56259625],[-123.36307702,48.56266782],[-123.36308748,48.56273939],[-123.36309686,48.56281095],[-123.3631055,48.56288287],[-123.36311381,48.56295444],[-123.36312191,48.56302636],[-123.36312947,48.56309829],[-123.3631365,48.56317021],[-123.3631446,48.56324213],[-123.36315237,48.5633137],[-123.36316047,48.56338562],[-123.36316985,48.56345719],[-123.36317903,48.56352911],[-123.36318788,48.56360068],[-123.36319652,48.5636726],[-123.36320483,48.56374417],[-123.36321347,48.56381609],[-123.36322211,48.56388801],[-123.36323042,48.56395958],[-123.3632396,48.5640315],[-123.36324899,48.56410307],[-123.36325892,48.56417463],[-123.36326938,48.5642462],[-123.36328092,48.56431777],[-123.363293,48.56438933],[-123.36330615,48.5644609],[-123.36332005,48.56453211],[-123.36333428,48.56460368],[-123.36334872,48.56467489],[-123.36336424,48.5647461],[-123.36337975,48.56481731],[-123.36339527,48.56488852],[-123.36341132,48.56495973],[-123.36342737,48.56503094],[-123.36344343,48.56510215],[-123.36346002,48.56517336],[-123.36347608,48.56524457],[-123.36349213,48.56531578],[-123.36350819,48.56538699],[-123.3635237,48.5654582],[-123.36353922,48.56552941],[-123.3635542,48.56560062],[-123.36356864,48.56567183],[-123.36359742,48.56573414],[-123.36360527,48.5658139],[-123.3636123,48.56588582],[-123.36361539,48.56591466],[-123.36362384,48.56595739],[-123.36362613,48.56597839],[-123.36363142,48.56602931],[-123.36363818,48.5660934],[-123.36364528,48.56617351],[-123.36365334,48.56627321],[-123.36366279,48.56645266],[-123.36366418,48.56663211],[-123.36365803,48.56681156],[-123.36364932,48.56699172],[-123.36363717,48.56717224],[-123.36362233,48.56735276],[-123.36360286,48.56753292],[-123.36357909,48.56771308],[-123.36355002,48.56789218],[-123.36351578,48.56807091],[-123.36347484,48.56824823],[-123.36342719,48.56842412],[-123.36336465,48.56859787],[-123.36328333,48.56876878],[-123.36318926,48.56893755],[-123.36308807,48.5691056],[-123.36298527,48.56927366],[-123.3628871,48.56944207],[-123.36279899,48.56961262],[-123.36271208,48.56978388],[-123.36261946,48.56995479],[-123.36252468,48.57012569],[-123.36243078,48.57029695],[-123.36234097,48.57046857],[-123.36225828,48.5706409],[-123.36218594,48.57081394],[-123.36212676,48.57098841],[-123.36208471,48.57116394],[-123.36206067,48.5713409],[-123.36204354,48.57151892],[-123.36203159,48.57169731],[-123.3620246,48.5718764],[-123.36202117,48.57205585],[-123.36202238,48.57223566],[-123.36202695,48.57241618],[-123.36203474,48.5725967],[-123.36204576,48.57277721],[-123.36205981,48.57295809],[-123.36207567,48.57313861],[-123.36209403,48.57331948],[-123.36211366,48.5735],[-123.36213492,48.57368052],[-123.36215746,48.57386068],[-123.36218074,48.57404049],[-123.36220423,48.57421994],[-123.36222794,48.57439903],[-123.36224994,48.57457919],[-123.36227174,48.57475971],[-123.36227662,48.57480151],[-123.36229292,48.5749413],[-123.36231518,48.57512289],[-123.3623383,48.57530483],[-123.36236325,48.57548642],[-123.3623911,48.57566765],[-123.36242239,48.57584852],[-123.36245732,48.57602868],[-123.36249739,48.57620742],[-123.36254239,48.57638509],[-123.36259381,48.57656098],[-123.36265198,48.57673545],[-123.36271806,48.57690742],[-123.36279218,48.57707761],[-123.36287495,48.57724496],[-123.36297421,48.57740803],[-123.36309177,48.57756647],[-123.36322453,48.577721],[-123.36336939,48.57787232],[-123.3635241,48.57802151],[-123.36354612,48.57804158],[-123.36368577,48.57816891],[-123.36385109,48.57831561],[-123.36401716,48.57846194],[-123.36419492,48.57862146],[-123.36421031,48.5786357],[-123.3643413,48.57875818],[-123.36449337,48.57890915],[-123.36463497,48.57906332],[-123.36476298,48.5792214],[-123.36488127,48.57938234],[-123.36499326,48.57954577],[-123.36509937,48.57971098],[-123.36520142,48.57987761],[-123.36529004,48.58005991],[-123.36531648,48.58007736],[-123.36533486,48.58011047],[-123.36535638,48.58014928],[-123.36539282,48.58021515],[-123.36548419,48.58038534],[-123.36557246,48.58055625],[-123.36565945,48.58072751],[-123.36574482,48.58089877],[-123.36582966,48.58107003],[-123.36591492,48.58124058],[-123.36599868,48.58141184],[-123.36608096,48.58158381],[-123.36616013,48.5817565],[-123.36623586,48.58192954],[-123.36630721,48.58210365],[-123.36637438,48.58227847],[-123.36643542,48.58245365],[-123.36649013,48.58262954],[-123.36653796,48.58280614],[-123.36658605,48.58298417],[-123.36663513,48.58316326],[-123.36663744,48.5831718]]]},"geometry_name":"SHAPE","properties":{"id":320,"slug":"saanich-south","name":"Saanich South","abbreviation":"SAS","gazetteDate":"2023-12-07Z","boundarySet":11},"bbox":[-123.51282214,48.45486347,-123.33442996,48.5843845]}
