{"type":"Feature","id":325,"geometry":{"type":"Polygon","coordinates":[[[-122.79250097,49.18432453],[-122.79258384,49.18432346],[-122.79407444,49.18429391],[-122.79540935,49.18426792],[-122.79817017,49.18421309],[-122.80000604,49.18420062],[-122.8003352,49.18419849],[-122.8008395,49.18419493],[-122.80091195,49.18419493],[-122.80093755,49.18419493],[-122.80103581,49.18419457],[-122.80117275,49.18419422],[-122.80148822,49.18419315],[-122.80391299,49.18418531],[-122.8065302,49.18422056],[-122.80821304,49.18421273],[-122.80935864,49.18420703],[-122.80973165,49.18420632],[-122.81013394,49.1842049],[-122.81045452,49.18420347],[-122.81084033,49.18420134],[-122.81207755,49.18420205],[-122.81210622,49.1830253],[-122.81214163,49.18160892],[-122.81216652,49.18046528],[-122.81222598,49.17867968],[-122.81228438,49.17692719],[-122.81228296,49.17687876],[-122.81228185,49.17682322],[-122.81225361,49.17599789],[-122.8122557,49.17567495],[-122.81225688,49.17547699],[-122.81225686,49.17546666],[-122.81225737,49.17541396],[-122.81225781,49.17533314],[-122.81225825,49.17525232],[-122.81227027,49.17344856],[-122.81231555,49.17037369],[-122.81231645,49.170342],[-122.81231646,49.17033915],[-122.81231713,49.17031351],[-122.81231718,49.17028603],[-122.81231947,49.17009383],[-122.81369614,49.17009668],[-122.81510127,49.17010024],[-122.81645481,49.17010166],[-122.81790154,49.17010202],[-122.82339665,49.1701184],[-122.8234017,49.16867603],[-122.82340283,49.16818147],[-122.82340378,49.16743483],[-122.82340474,49.16692176],[-122.82340578,49.16600457],[-122.82340611,49.1655595],[-122.82340914,49.16512298],[-122.8234255,49.16291297],[-122.82342775,49.16285635],[-122.82771003,49.16283784],[-122.83096747,49.16281509],[-122.83457845,49.16279048],[-122.83464019,49.16279013],[-122.83464296,49.16273173],[-122.8346392,49.16197222],[-122.83464354,49.16044994],[-122.83464101,49.15853281],[-122.83461575,49.15551456],[-122.83460998,49.15446919],[-122.83460425,49.15365466],[-122.83459148,49.15183771],[-122.83458902,49.1514876],[-122.83458399,49.15105393],[-122.83457794,49.14999147],[-122.83457733,49.14991065],[-122.83457636,49.14976645],[-122.83457504,49.14953252],[-122.83457454,49.14941573],[-122.83457331,49.14925694],[-122.83456588,49.14819982],[-122.83414574,49.1481959],[-122.83251112,49.14817988],[-122.82949653,49.14814351],[-122.82899963,49.14813751],[-122.82835804,49.14812967],[-122.82831732,49.14805704],[-122.82827786,49.14785053],[-122.82825005,49.14770668],[-122.82826578,49.14756284],[-122.82828016,49.14736487],[-122.82827872,49.14717545],[-122.82823826,49.14700455],[-122.82819772,49.14695043],[-122.8280474,49.14681513],[-122.82795102,49.14677098],[-122.82782833,49.14676101],[-122.82754016,49.14675104],[-122.82722505,49.14674249],[-122.82691076,49.14673252],[-122.82662177,49.14672398],[-122.8263336,49.14671401],[-122.82622474,49.14671401],[-122.82610046,49.14669549],[-122.8259643,49.14665989],[-122.82582721,49.1465958],[-122.82556644,49.14645195],[-122.82544317,49.14639783],[-122.82537592,49.14635226],[-122.8252118,49.14615429],[-122.82503435,49.1460546],[-122.82478774,49.14601045],[-122.82451265,49.14600048],[-122.82425355,49.14600048],[-122.82414251,49.14600048],[-122.82404654,49.14598197],[-122.82388174,49.14590933],[-122.82380061,49.14586518],[-122.82355374,49.14571991],[-122.8234167,49.14568395],[-122.82326543,49.14563873],[-122.82296406,49.14555755],[-122.82269198,49.14549346],[-122.82244363,49.14542225],[-122.82226752,49.14537668],[-122.82200651,49.1453311],[-122.82175915,49.14527698],[-122.82148524,49.14524992],[-122.82115614,49.14521289],[-122.82095131,49.14519438],[-122.82060873,49.14518441],[-122.82040308,49.14516732],[-122.82014105,49.14515735],[-122.81992333,49.14515735],[-122.81973115,49.14516589],[-122.81944198,49.14519153],[-122.81916698,49.14526416],[-122.819086,49.14529122],[-122.81888047,49.14539804],[-122.81859062,49.14549631],[-122.81850863,49.14555898],[-122.81824785,49.14566722],[-122.81821686,49.14567926],[-122.81804274,49.14574697],[-122.81789025,49.14581106],[-122.81772552,49.14587373],[-122.81752041,49.14595348],[-122.81728584,49.14599763],[-122.81706625,49.14608736],[-122.81673812,49.14626681],[-122.816613,49.14630241],[-122.81642189,49.14641065],[-122.81621567,49.1465901],[-122.81602253,49.14676955],[-122.8158712,49.14686925],[-122.81574739,49.14701167],[-122.81570608,49.14714697],[-122.81571862,49.14729081],[-122.81573343,49.14731787],[-122.81573301,49.14734493],[-122.81573318,49.14736345],[-122.81573276,49.14739051],[-122.81574498,49.14744463],[-122.81578548,49.14755144],[-122.81578639,49.14763262],[-122.81578487,49.14775938],[-122.8157632,49.14782358],[-122.81575747,49.14784056],[-122.81569013,49.14791177],[-122.81555067,49.14802855],[-122.81553761,49.14802856],[-122.81552396,49.1480371],[-122.81549641,49.14804707],[-122.81546969,49.14805561],[-122.81523585,49.14816243],[-122.81516652,49.14819946],[-122.81494675,49.14827067],[-122.81472815,49.14837749],[-122.81461669,49.14840455],[-122.81452105,49.14842306],[-122.8142606,49.14842164],[-122.81391934,49.14841309],[-122.81364424,49.14840312],[-122.81353537,49.14840312],[-122.81320467,49.14835755],[-122.81294598,49.14833049],[-122.81284942,49.14832052],[-122.81256127,49.14825785],[-122.8124658,49.14823554],[-122.81228701,49.14819376],[-122.81201352,49.14813964],[-122.811739,49.14812113],[-122.81157412,49.14811258],[-122.81130077,49.14812967],[-122.81117765,49.14814676],[-122.81086109,49.14820088],[-122.81053087,49.14826355],[-122.81042299,49.14828064],[-122.81014805,49.14828919],[-122.80991491,49.14827067],[-122.80966712,49.14824361],[-122.80939422,49.14818095],[-122.80905216,49.14802713],[-122.80896984,49.14800007],[-122.80869635,49.14794595],[-122.80842151,49.14789041],[-122.80816193,49.14778217],[-122.80803842,49.14777362],[-122.80783214,49.14781777],[-122.807613,49.14801574],[-122.80754231,49.14805134],[-122.80743259,49.14810546],[-122.80733837,49.14811401],[-122.80713264,49.14801431],[-122.80703637,49.14790607],[-122.80702402,49.14778074],[-122.80703704,49.14764544],[-122.80703733,49.14754717],[-122.80703802,49.14747454],[-122.80705253,49.14741187],[-122.80702564,49.14721391],[-122.80701184,49.14715124],[-122.80690294,49.14701594],[-122.80671156,49.14683507],[-122.80656057,49.1466371],[-122.80648014,49.14652032],[-122.80635617,49.14640353],[-122.8061651,49.14631238],[-122.80605449,49.14628532],[-122.80573921,49.14625826],[-122.80550608,49.14623975],[-122.80527398,49.14618563],[-122.80501383,49.14608593],[-122.80479449,49.14594209],[-122.804521,49.14575267],[-122.80445377,49.14570709],[-122.80435838,49.14554473],[-122.8041662,49.14536528],[-122.80386542,49.14532825],[-122.80378371,49.14529265],[-122.80353635,49.14510323],[-122.80345594,49.14498644],[-122.80340133,49.14483263],[-122.80334559,49.14477851],[-122.80312771,49.14475999],[-122.8028801,49.14475145],[-122.80261884,49.14475145],[-122.80227686,49.14473293],[-122.80197505,49.14473151],[-122.80178346,49.14473151],[-122.80148095,49.14480272],[-122.80138456,49.14481127],[-122.80123432,49.14481127],[-122.80117452,49.14481104],[-122.80121433,49.14772607],[-122.80122109,49.14830848],[-122.80117196,49.14830984],[-122.79971585,49.14828918],[-122.79831298,49.14829595],[-122.7964132,49.148281],[-122.79599822,49.14827696],[-122.7955715,49.14827281],[-122.79547396,49.1482719],[-122.79518798,49.14826911],[-122.79399721,49.14825759],[-122.79282447,49.1482461],[-122.79208599,49.14824361],[-122.7920011,49.14824326],[-122.79008386,49.14823649],[-122.78860514,49.14823966],[-122.78581853,49.14824575],[-122.78444678,49.1482486],[-122.78172557,49.14823934],[-122.78012169,49.14824886],[-122.7788432,49.14825643],[-122.77592415,49.1482429],[-122.77511574,49.14824397],[-122.77453917,49.14824126],[-122.77314952,49.14823471],[-122.77304618,49.14823445],[-122.77202292,49.14823241],[-122.77200534,49.14823186],[-122.77122037,49.14823256],[-122.77021746,49.14823274],[-122.76981486,49.14823293],[-122.76848513,49.1482267],[-122.76768794,49.14822296],[-122.7677278,49.15001319],[-122.76773783,49.15044705],[-122.76773856,49.15047829],[-122.76773929,49.15051196],[-122.76774791,49.15090902],[-122.7677581,49.15140936],[-122.76776666,49.15182977],[-122.76776491,49.15226642],[-122.76776376,49.15255505],[-122.76776254,49.15292997],[-122.76776227,49.15298302],[-122.76850768,49.1532773],[-122.7694732,49.15365845],[-122.77007305,49.15389533],[-122.77194789,49.15463565],[-122.77216163,49.15472003],[-122.77347234,49.15523755],[-122.77344191,49.15528348],[-122.77331442,49.15547717],[-122.77330491,49.15631864],[-122.77330349,49.15644492],[-122.77329377,49.1573176],[-122.77329306,49.15736674],[-122.77325875,49.15887565],[-122.77325436,49.15907223],[-122.77323264,49.16001933],[-122.77322277,49.16045549],[-122.77322208,49.16047356],[-122.773221,49.16050178],[-122.7732097,49.16090034],[-122.77320018,49.16123596],[-122.77320138,49.1615507],[-122.77320306,49.16199506],[-122.77320426,49.1623439],[-122.77320459,49.16243933],[-122.77320573,49.16277055],[-122.77322426,49.16448779],[-122.77320965,49.16611198],[-122.77320636,49.16647776],[-122.77320892,49.1665493],[-122.77323067,49.16715782],[-122.77323001,49.16720445],[-122.77322965,49.1672301],[-122.77322423,49.16789663],[-122.77321133,49.17009846],[-122.77299635,49.17009917],[-122.77226746,49.17010197],[-122.77206742,49.17010273],[-122.77141905,49.1701127],[-122.77110544,49.17011777],[-122.7709122,49.17012089],[-122.77074723,49.17012334],[-122.77062492,49.17012516],[-122.77057813,49.17012546],[-122.77056862,49.17012552],[-122.76999231,49.17012766],[-122.76941981,49.17012954],[-122.76912805,49.1701305],[-122.76879851,49.17013157],[-122.76825289,49.17013361],[-122.76774847,49.17013549],[-122.76773556,49.17097292],[-122.76775064,49.17227358],[-122.76775226,49.17252222],[-122.76775463,49.17288635],[-122.76775702,49.17320288],[-122.76774693,49.17386727],[-122.76773158,49.17486992],[-122.76772647,49.17527938],[-122.76772287,49.17553295],[-122.76772137,49.17563899],[-122.76771768,49.17591895],[-122.76770374,49.17694855],[-122.77196819,49.17694321],[-122.77284157,49.17693609],[-122.77302921,49.17693466],[-122.77385698,49.17692826],[-122.7744628,49.17692327],[-122.77495476,49.17692113],[-122.7760573,49.17691615],[-122.77639513,49.17691401],[-122.77804146,49.17690298],[-122.77886752,49.17689763],[-122.78007247,49.1768898],[-122.78028332,49.17688873],[-122.78206287,49.17689407],[-122.78446692,49.17690262],[-122.78572508,49.17689977],[-122.78727068,49.17689621],[-122.78923787,49.17690013],[-122.79001317,49.17690155],[-122.7899717,49.17819509],[-122.78994556,49.17882958],[-122.78991449,49.17999137],[-122.78989645,49.18067784],[-122.78989018,49.18151065],[-122.78988285,49.1824282],[-122.78987821,49.18310292],[-122.78987614,49.18335322],[-122.7898708,49.18387662],[-122.78986545,49.18436049],[-122.79250097,49.18432453]]]},"geometry_name":"SHAPE","properties":{"id":325,"slug":"surrey-fleetwood","name":"Surrey-Fleetwood","abbreviation":"SRF","gazetteDate":"2023-12-07Z","boundarySet":11},"bbox":[-122.83464354,49.14473151,-122.76768794,49.18436049]}
