{"type":"Feature","id":324,"geometry":{"type":"Polygon","coordinates":[[[-122.67911381,49.16287985],[-122.68114065,49.16286917],[-122.68177195,49.16286597],[-122.68282267,49.16286024],[-122.68314352,49.16285849],[-122.68588647,49.16284389],[-122.68624126,49.16284208],[-122.68679193,49.16283926],[-122.68758775,49.16283499],[-122.68831617,49.16283099],[-122.68901398,49.16282716],[-122.69058906,49.16281897],[-122.69197735,49.16282395],[-122.69323941,49.16282858],[-122.69324271,49.16282859],[-122.69426799,49.1628325],[-122.69522804,49.16283606],[-122.69582573,49.16283808],[-122.69628447,49.16283962],[-122.69680874,49.16284166],[-122.69710752,49.16284282],[-122.69799918,49.16284603],[-122.69885545,49.16284923],[-122.69941085,49.16284639],[-122.69964465,49.16284603],[-122.69978921,49.16284581],[-122.69989895,49.16284565],[-122.70185335,49.16284282],[-122.70186513,49.16284263],[-122.70216849,49.16284211],[-122.70220195,49.16284211],[-122.7023057,49.16284211],[-122.70360336,49.16283994],[-122.70400673,49.16283926],[-122.70534852,49.16283713],[-122.70643458,49.16283748],[-122.70729869,49.16283793],[-122.70781991,49.1628382],[-122.70838605,49.16283832],[-122.70946626,49.16283855],[-122.71032581,49.16283891],[-122.71059106,49.16283784],[-122.71276026,49.16282858],[-122.71281242,49.16282805],[-122.73051833,49.16264486],[-122.73126072,49.16263881],[-122.73259206,49.1626251],[-122.73399134,49.16261068],[-122.73462082,49.16260328],[-122.73462784,49.1626032],[-122.73471516,49.16260285],[-122.73471816,49.16186706],[-122.73477446,49.14805455],[-122.73477111,49.1471085],[-122.73475314,49.14272111],[-122.73474919,49.14173649],[-122.73474241,49.14002662],[-122.73473974,49.13936102],[-122.73473508,49.1381978],[-122.73473835,49.13814631],[-122.73473795,49.13814613],[-122.73474085,49.13809387],[-122.73476868,49.13334377],[-122.73480437,49.1272497],[-122.73493022,49.12337656],[-122.73493307,49.11880277],[-122.73493398,49.11876457],[-122.73493503,49.11872046],[-122.73491617,49.1157225],[-122.73489335,49.1137563],[-122.73486711,49.11149438],[-122.73488049,49.11000296],[-122.73494309,49.10970817],[-122.73504503,49.10949359],[-122.73506986,49.10944132],[-122.73515648,49.10932948],[-122.73528918,49.10915815],[-122.73540836,49.1090559],[-122.73553237,49.10894952],[-122.73575263,49.10881737],[-122.73589508,49.10873191],[-122.73589676,49.1087309],[-122.73676629,49.10834602],[-122.73685747,49.10830578],[-122.73717983,49.10815189],[-122.73747411,49.10797759],[-122.73751799,49.1079516],[-122.73757143,49.10791395],[-122.73761548,49.10788291],[-122.73762777,49.10787425],[-122.73769284,49.1078284],[-122.73792906,49.10760041],[-122.73814089,49.10724591],[-122.73821366,49.10695662],[-122.73821837,49.10693789],[-122.73823304,49.10687957],[-122.73823573,49.10598803],[-122.73829163,49.10415044],[-122.73829414,49.1041129],[-122.73829648,49.10409098],[-122.73830187,49.10402482],[-122.73830788,49.10396352],[-122.73831652,49.10322354],[-122.73824206,49.10273006],[-122.73797525,49.10210932],[-122.73710797,49.10061222],[-122.73697185,49.1006115],[-122.73597927,49.10060625],[-122.73505479,49.10061706],[-122.734972,49.10061594],[-122.734972,49.10061505],[-122.73393892,49.10059002],[-122.73240905,49.10047449],[-122.73063529,49.10022176],[-122.72975521,49.10003919],[-122.72734272,49.09958698],[-122.7258941,49.09932432],[-122.72540175,49.09923615],[-122.72473307,49.09913931],[-122.72443666,49.09905988],[-122.7241471,49.09898921],[-122.72393169,49.09895147],[-122.72379077,49.09892528],[-122.72357654,49.09889517],[-122.72340473,49.09886484],[-122.72320621,49.09883341],[-122.72303583,49.09880561],[-122.72287426,49.09878187],[-122.72270548,49.0987516],[-122.72248551,49.09871829],[-122.72230752,49.09869098],[-122.72210176,49.09865442],[-122.72193718,49.098627],[-122.72170594,49.09858143],[-122.72148453,49.09851805],[-122.72126824,49.09848138],[-122.72099355,49.09844506],[-122.72074655,49.09839949],[-122.72052832,49.09834465],[-122.72032244,49.09829944],[-122.72010318,49.09825386],[-122.71989751,49.09820829],[-122.7196663,49.09818977],[-122.71944732,49.0981353],[-122.71928277,49.09809008],[-122.71910371,49.09810717],[-122.71880317,49.09805269],[-122.71856976,49.09800712],[-122.71835185,49.09797044],[-122.71811878,49.09792522],[-122.71791423,49.09786185],[-122.71763946,49.09780702],[-122.71735381,49.09775218],[-122.71712075,49.09770696],[-122.71684708,49.09767919],[-122.71664061,49.09762472],[-122.71639609,49.09757024],[-122.71616295,49.09753357],[-122.71594265,49.09749725],[-122.71568341,49.09746058],[-122.7154655,49.0974239],[-122.71521934,49.09736943],[-122.71501254,49.0973146],[-122.7147395,49.09727828],[-122.71449357,49.09725051],[-122.71425959,49.09719567],[-122.71404259,49.09714155],[-122.71379532,49.09710488],[-122.71349392,49.09707711],[-122.71326109,49.09705859],[-122.71305543,49.09701302],[-122.71281198,49.09698987],[-122.71278177,49.09698525],[-122.71259084,49.09694893],[-122.71228867,49.09693932],[-122.71208466,49.0969208],[-122.71186508,49.09690193],[-122.71164481,49.09689267],[-122.71141444,49.09686526],[-122.71112636,49.09684639],[-122.7108799,49.09684567],[-122.7106454,49.09684496],[-122.71041254,49.09684425],[-122.7101795,49.09682609],[-122.70991945,49.09682538],[-122.70966053,49.09683392],[-122.70945323,49.09683321],[-122.70924923,49.09684176],[-122.70902883,49.09683179],[-122.70882349,49.09683143],[-122.70856457,49.09683998],[-122.70834367,49.09683926],[-122.70808362,49.09683855],[-122.70786469,49.0968382],[-122.70761823,49.09683748],[-122.70739846,49.09684603],[-122.70716694,49.09685422],[-122.70693408,49.09685351],[-122.70671351,49.09685315],[-122.70646789,49.09684354],[-122.70624896,49.09684318],[-122.70601609,49.09684247],[-122.70578243,49.09683286],[-122.70550824,49.09683214],[-122.70528931,49.09683179],[-122.70504306,49.09683072],[-122.70482413,49.09683036],[-122.70459126,49.09682965],[-122.70435874,49.0968293],[-122.70409735,49.09684674],[-122.70387858,49.09683677],[-122.70363246,49.09683642],[-122.70337157,49.09684461],[-122.70312574,49.09683535],[-122.70285126,49.09684354],[-122.70263254,49.09684283],[-122.70239967,49.09684211],[-122.70215321,49.0968414],[-122.70189316,49.09684069],[-122.70187936,49.09684105],[-122.70168782,49.09684033],[-122.70142777,49.09683962],[-122.70119441,49.09684817],[-122.70096071,49.09685636],[-122.70075508,49.0968649],[-122.70052222,49.09686419],[-122.70026247,49.09688164],[-122.70000158,49.09688982],[-122.69979624,49.09688947],[-122.69956443,49.09690656],[-122.69934382,49.09692401],[-122.69909716,49.09692365],[-122.69886563,49.09693184],[-122.6986598,49.09694074],[-122.69844074,49.09693967],[-122.6982218,49.09693932],[-122.69800203,49.09694786],[-122.69778247,49.09695605],[-122.6975768,49.09695534],[-122.69737013,49.0970002],[-122.69711142,49.09700839],[-122.69683694,49.09701658],[-122.69657688,49.09701587],[-122.6963024,49.09702406],[-122.69600019,49.09703225],[-122.69571294,49.09703153],[-122.69544009,49.09703972],[-122.69513872,49.09706607],[-122.69478133,49.09706536],[-122.69457699,49.09707355],[-122.69433083,49.09709099],[-122.69412407,49.09709028],[-122.69390593,49.09709883],[-122.69368503,49.09712518],[-122.69339775,49.09714227],[-122.69319212,49.09715081],[-122.69293186,49.09715045],[-122.69264344,49.09715829],[-122.69237013,49.09715793],[-122.69215136,49.09717502],[-122.69185049,49.09719211],[-122.6915891,49.09720956],[-122.69114822,49.09722952],[-122.69114229,49.09703409],[-122.69114159,49.0967655],[-122.69113897,49.0957619],[-122.69113827,49.0954617],[-122.69112907,49.09533566],[-122.69110276,49.09497676],[-122.69092957,49.09262966],[-122.69021585,49.09253602],[-122.68734862,49.09216038],[-122.68578641,49.09222305],[-122.68532295,49.09227005],[-122.68499598,49.09230332],[-122.68460217,49.09234339],[-122.68454502,49.09234909],[-122.68443778,49.09236796],[-122.68437371,49.092379],[-122.68397894,49.09244807],[-122.68103363,49.09296279],[-122.67965335,49.09320397],[-122.6796792,49.09333963],[-122.67973192,49.09505402],[-122.67973257,49.09509675],[-122.67973379,49.09511704],[-122.67979502,49.09710061],[-122.67980374,49.09749333],[-122.67980958,49.09776785],[-122.6798993,49.0998326],[-122.67990129,49.09999994],[-122.67990449,49.10024019],[-122.67991368,49.10092958],[-122.67993676,49.10266108],[-122.67994476,49.10326423],[-122.67994344,49.10439114],[-122.67994329,49.10441285],[-122.67994759,49.10462328],[-122.67995373,49.10492415],[-122.67994565,49.10600583],[-122.67994344,49.10636153],[-122.67993308,49.10791214],[-122.67993266,49.1079894],[-122.67993169,49.10811616],[-122.67993116,49.10817775],[-122.67992633,49.10882355],[-122.67992054,49.10959733],[-122.67992763,49.10973548],[-122.67992969,49.10977881],[-122.67993169,49.10982093],[-122.67999655,49.1111338],[-122.68000168,49.11123767],[-122.67998548,49.11258212],[-122.67997392,49.11356198],[-122.67996339,49.11383222],[-122.67996001,49.11390058],[-122.67995638,49.113975],[-122.67995287,49.11405012],[-122.67995201,49.11406935],[-122.679942,49.114278],[-122.67986389,49.11588593],[-122.67986003,49.1162783],[-122.67985861,49.11642927],[-122.67985781,49.11649229],[-122.67985595,49.11668135],[-122.67985372,49.11684585],[-122.67985203,49.11701034],[-122.67985055,49.11717448],[-122.67984886,49.11733898],[-122.67984718,49.11750348],[-122.67984495,49.11766797],[-122.67984375,49.11778867],[-122.67984326,49.11783247],[-122.67990164,49.11813298],[-122.67997591,49.11841461],[-122.67996767,49.11859691],[-122.67994676,49.11907189],[-122.67991922,49.12029635],[-122.67987407,49.12228277],[-122.67987172,49.12238775],[-122.6798622,49.12281235],[-122.67984209,49.12370947],[-122.67978182,49.1263382],[-122.67975071,49.1274441],[-122.67974155,49.12766735],[-122.6795774,49.12837838],[-122.6795455,49.13001302],[-122.67954618,49.13005112],[-122.67954702,49.13008708],[-122.67953899,49.13093199],[-122.67949901,49.13360559],[-122.67951983,49.13360566],[-122.67960165,49.13360594],[-122.67959686,49.13396518],[-122.679596,49.13403027],[-122.6795911,49.13440556],[-122.67957444,49.13567354],[-122.67956054,49.13615848],[-122.67954624,49.1372975],[-122.67953688,49.13804297],[-122.67952796,49.13875378],[-122.67951846,49.13951043],[-122.6795014,49.1408687],[-122.67950022,49.14097551],[-122.67949204,49.14269418],[-122.67949226,49.14270878],[-122.67948384,49.14440465],[-122.679484,49.14440999],[-122.67948306,49.14452108],[-122.67948275,49.14459087],[-122.67947629,49.1451812],[-122.67946866,49.14589616],[-122.67946565,49.14620735],[-122.67946427,49.14630704],[-122.67944519,49.14812647],[-122.67944163,49.14824397],[-122.67931392,49.1519373],[-122.67931224,49.15282209],[-122.67928593,49.15380266],[-122.67928313,49.1539554],[-122.67926635,49.1547202],[-122.67924723,49.15561923],[-122.67924083,49.156164],[-122.67923142,49.15660906],[-122.67919231,49.15836297],[-122.67917349,49.15922142],[-122.67911381,49.16287985]]]},"geometry_name":"SHAPE","properties":{"id":324,"slug":"surrey-cloverdale","name":"Surrey-Cloverdale","abbreviation":"SRD","gazetteDate":"2023-12-07Z","boundarySet":11},"bbox":[-122.73831652,49.09216038,-122.67911381,49.16287985]}
