{"type":"Feature","id":328,"geometry":{"type":"Polygon","coordinates":[[[-122.86404457,49.22077753],[-122.86677731,49.22082773],[-122.87423756,49.22007966],[-122.87587607,49.21991517],[-122.87721021,49.21978129],[-122.88412174,49.21763465],[-122.88883742,49.21283186],[-122.89401643,49.20755552],[-122.89403124,49.20754021],[-122.89404912,49.20752241],[-122.89559881,49.20594296],[-122.89739659,49.20466331],[-122.89945194,49.20320029],[-122.90091145,49.20230838],[-122.90152612,49.20193282],[-122.90403774,49.20039816],[-122.90468922,49.20000009],[-122.90770077,49.1981593],[-122.91169079,49.19572034],[-122.91431269,49.19211427],[-122.91442531,49.19195936],[-122.92281648,49.17712195],[-122.91696683,49.17712302],[-122.91576913,49.17712302],[-122.91482409,49.17712408],[-122.91401466,49.17712515],[-122.91350329,49.17712411],[-122.91336055,49.17712382],[-122.91329115,49.17712366],[-122.9131897,49.17712343],[-122.91298498,49.17712296],[-122.91214679,49.17712088],[-122.9101983,49.17711661],[-122.90999268,49.17711606],[-122.90967775,49.17711533],[-122.90954234,49.17711411],[-122.90859816,49.17712124],[-122.9067972,49.17712088],[-122.90119217,49.17712373],[-122.8965079,49.17713833],[-122.89568277,49.17713263],[-122.89404914,49.17713583],[-122.89332195,49.1771369],[-122.89021959,49.1771426],[-122.89016601,49.17714295],[-122.89018217,49.17610043],[-122.89018459,49.17504687],[-122.89020052,49.17402002],[-122.89023024,49.17296931],[-122.89024443,49.17137241],[-122.89027718,49.17045166],[-122.89028169,49.16917771],[-122.89028276,49.16818076],[-122.89028388,49.16681281],[-122.89033871,49.16325656],[-122.89033901,49.16320885],[-122.8903426,49.16206165],[-122.89034322,49.16202284],[-122.89034447,49.16197726],[-122.89034642,49.16157563],[-122.89035624,49.15958459],[-122.89036827,49.15742015],[-122.89037776,49.15598205],[-122.89037923,49.15439762],[-122.89038062,49.15225988],[-122.89038041,49.14860144],[-122.89030952,49.14860073],[-122.88815541,49.14857082],[-122.88803784,49.14856842],[-122.88667759,49.14854056],[-122.88551264,49.14851332],[-122.88468339,49.14849392],[-122.88414244,49.14848145],[-122.88321143,49.14846009],[-122.88185649,49.14844798],[-122.88147204,49.14844144],[-122.88049704,49.14842484],[-122.87990326,49.14841808],[-122.87910408,49.14840882],[-122.8783919,49.14838894],[-122.87813445,49.14838176],[-122.87753174,49.14836502],[-122.87696923,49.14834936],[-122.87628841,49.14833058],[-122.87553651,49.14830984],[-122.87521061,49.14830283],[-122.87485799,49.14829524],[-122.87465197,49.14829097],[-122.87419974,49.14828135],[-122.87376091,49.14827209],[-122.87325268,49.14826141],[-122.87278745,49.14825166],[-122.87213132,49.14823791],[-122.87080123,49.14820729],[-122.86994965,49.14818415],[-122.86803369,49.14813217],[-122.86797231,49.14813288],[-122.86791441,49.14813323],[-122.86599949,49.14815104],[-122.86571465,49.14815355],[-122.86531394,49.14815709],[-122.86530094,49.14815722],[-122.86517649,49.14815851],[-122.86450753,49.14816472],[-122.86440868,49.14816563],[-122.8642686,49.14816693],[-122.86228044,49.14818522],[-122.86101335,49.14818088],[-122.85896549,49.14817382],[-122.856952,49.14816664],[-122.85677199,49.14816599],[-122.85669635,49.14816574],[-122.85555851,49.14816198],[-122.85537246,49.14816136],[-122.85485428,49.14815941],[-122.85433069,49.14815745],[-122.85397804,49.14815638],[-122.85265379,49.14815994],[-122.85128065,49.14815673],[-122.8506352,49.14815501],[-122.84995127,49.14815317],[-122.845787,49.14815994],[-122.84574081,49.14815967],[-122.84566385,49.14815923],[-122.84559177,49.14815897],[-122.84556499,49.14815887],[-122.84500621,49.14816314],[-122.84449934,49.14816706],[-122.84417021,49.14816955],[-122.84367532,49.1481733],[-122.84332279,49.14817596],[-122.84307912,49.14817845],[-122.84275828,49.14818166],[-122.84114473,49.14819697],[-122.84022154,49.1481954],[-122.84009683,49.14819519],[-122.83947666,49.14819426],[-122.83819983,49.14819234],[-122.83648132,49.14821406],[-122.83533301,49.14821],[-122.83527101,49.14820979],[-122.83456588,49.14819982],[-122.83457331,49.14925694],[-122.83457454,49.14941573],[-122.83457504,49.14953252],[-122.83457636,49.14976645],[-122.83457733,49.14991065],[-122.83457794,49.14999147],[-122.83458399,49.15105393],[-122.83458902,49.1514876],[-122.83459148,49.15183771],[-122.83460425,49.15365466],[-122.83460998,49.15446919],[-122.83461575,49.15551456],[-122.83464101,49.15853281],[-122.83464354,49.16044994],[-122.8346392,49.16197222],[-122.83464296,49.16273173],[-122.83464019,49.16279013],[-122.83470232,49.16279191],[-122.83753277,49.16278692],[-122.83893391,49.16279796],[-122.84098629,49.16277411],[-122.84167739,49.16277482],[-122.84568732,49.1627442],[-122.84578363,49.16274612],[-122.84590899,49.16274598],[-122.847622,49.16274028],[-122.84855397,49.16272462],[-122.84900187,49.16271724],[-122.84931039,49.16271209],[-122.85058775,49.1627017],[-122.8527945,49.1626853],[-122.85423668,49.16266128],[-122.85426083,49.16266104],[-122.85533066,49.16265037],[-122.85572834,49.1626464],[-122.85651046,49.16263858],[-122.85680504,49.16263562],[-122.85691772,49.16263453],[-122.85691685,49.16299237],[-122.85691632,49.16313657],[-122.85691641,49.16315619],[-122.85691654,49.16318143],[-122.85691386,49.16399548],[-122.85691219,49.1645031],[-122.85691192,49.1646733],[-122.85691172,49.16476862],[-122.85691064,49.16538255],[-122.85690925,49.16618084],[-122.85690908,49.16627339],[-122.85690837,49.16648075],[-122.85690457,49.167589],[-122.85690388,49.16774479],[-122.85690314,49.16791301],[-122.85690295,49.16799478],[-122.85690297,49.16801303],[-122.85690279,49.16806264],[-122.85690234,49.16825482],[-122.85690084,49.168606],[-122.85690046,49.16869561],[-122.85689617,49.16991296],[-122.85688654,49.17117267],[-122.85687136,49.17234871],[-122.8568471,49.17585369],[-122.85683842,49.17709524],[-122.85683005,49.17724853],[-122.85673618,49.17896701],[-122.85673114,49.17919273],[-122.85672752,49.17935475],[-122.85672321,49.17953491],[-122.85669458,49.18076508],[-122.85667625,49.18121869],[-122.85664984,49.18170897],[-122.85664938,49.18172108],[-122.85662451,49.18227733],[-122.85661037,49.18259376],[-122.85656877,49.18341054],[-122.85654073,49.1843936],[-122.85654433,49.18535495],[-122.85651756,49.18605104],[-122.85651163,49.18620555],[-122.85649816,49.18680293],[-122.85649772,49.18682233],[-122.85647811,49.18769207],[-122.85652163,49.18984405],[-122.85650226,49.19070107],[-122.85647355,49.19161114],[-122.85647152,49.19165244],[-122.85646941,49.19169481],[-122.85642809,49.19224242],[-122.8564439,49.19326714],[-122.8564417,49.19447523],[-122.85645031,49.19491112],[-122.85645941,49.19537212],[-122.85646063,49.19574417],[-122.85646225,49.19623911],[-122.85647629,49.19676157],[-122.85648296,49.19700996],[-122.8564787,49.19792715],[-122.85647213,49.19884132],[-122.85647138,49.19894511],[-122.85647066,49.19912052],[-122.85646701,49.19999867],[-122.85646311,49.20089271],[-122.85645517,49.20218696],[-122.85643175,49.20279083],[-122.85641576,49.20337333],[-122.85626997,49.20366209],[-122.85598693,49.20392211],[-122.85589018,49.20398147],[-122.85450066,49.20489592],[-122.85442624,49.2049472],[-122.85450713,49.2050012],[-122.85636408,49.20622389],[-122.85641111,49.20634744],[-122.85641147,49.20634847],[-122.85644137,49.20643404],[-122.8564763,49.20653401],[-122.85643345,49.20672556],[-122.85638534,49.20686478],[-122.85637792,49.20707806],[-122.8563679,49.207328],[-122.85635009,49.20772555],[-122.85634972,49.2077339],[-122.85634122,49.20839548],[-122.85633642,49.20875506],[-122.85633132,49.20914708],[-122.85632562,49.20950356],[-122.8563208,49.20980542],[-122.85631274,49.21058153],[-122.85630453,49.21134178],[-122.85701454,49.21135531],[-122.85909714,49.21124743],[-122.86015111,49.21120791],[-122.86179493,49.21123532],[-122.86186697,49.21123744],[-122.86184237,49.2131515],[-122.86184047,49.21321944],[-122.86184,49.21329204],[-122.8618305,49.21444492],[-122.86181781,49.21579104],[-122.86148398,49.22073041],[-122.862593,49.22075082],[-122.86404457,49.22077753]]]},"geometry_name":"SHAPE","properties":{"id":328,"slug":"surrey-north","name":"Surrey North","abbreviation":"SUN","gazetteDate":"2023-12-07Z","boundarySet":11},"bbox":[-122.92281648,49.14813217,-122.83456588,49.22082773]}
