{"type":"Feature","id":332,"geometry":{"type":"Polygon","coordinates":[[[-122.8903432,49.07729484],[-122.89038286,49.06758316],[-122.89038324,49.06252686],[-122.89385366,49.05976211],[-122.89503542,49.05882462],[-122.90510332,49.05079636],[-122.91893017,49.03977084],[-122.92209217,49.03724821],[-122.92898115,49.03175147],[-122.93159407,49.02966607],[-122.95698523,49.00938818],[-122.95698234,49.00215035],[-122.8680304,49.0021653],[-122.86200379,49.00216352],[-122.85481919,49.00216139],[-122.84560742,49.00215747],[-122.8310156,49.00214964],[-122.81960761,49.00214252],[-122.81280187,49.00213753],[-122.80416402,49.00213041],[-122.79024737,49.00211795],[-122.78865906,49.00211652],[-122.75778038,49.00208341],[-122.75714796,49.0020827],[-122.75694335,49.0020827],[-122.7564536,49.00208305],[-122.75716886,49.00313377],[-122.75734649,49.00401962],[-122.7574049,49.0045537],[-122.75745815,49.00535518],[-122.75749343,49.00589175],[-122.75759767,49.00748757],[-122.75758443,49.00932302],[-122.75753325,49.01262755],[-122.75765957,49.01318512],[-122.75800416,49.01389153],[-122.75953786,49.01673425],[-122.76157735,49.02026138],[-122.76357092,49.02371786],[-122.76551572,49.02710449],[-122.76620607,49.02811867],[-122.76746815,49.0293734],[-122.76826754,49.03010473],[-122.76924721,49.03100064],[-122.76932071,49.03106785],[-122.76939052,49.03113084],[-122.77388455,49.03518489],[-122.77735077,49.03831103],[-122.77931478,49.04008203],[-122.78407351,49.04437246],[-122.78537356,49.04554423],[-122.78540061,49.0455752],[-122.78554816,49.04557556],[-122.78745441,49.04558375],[-122.78839678,49.04558767],[-122.79019002,49.04559123],[-122.79352489,49.04559479],[-122.79359279,49.04559479],[-122.79368113,49.04559514],[-122.79570627,49.0456044],[-122.79760129,49.04561508],[-122.79983458,49.0456279],[-122.80120544,49.04563573],[-122.80362454,49.04563823],[-122.80368149,49.04563758],[-122.80475807,49.04562541],[-122.80671792,49.04563858],[-122.80773111,49.04564214],[-122.80909596,49.04564682],[-122.81038516,49.04565123],[-122.8108538,49.04565282],[-122.81221186,49.04565745],[-122.81238636,49.04565817],[-122.8175717,49.04567526],[-122.82312839,49.04568116],[-122.8232567,49.04568131],[-122.82600235,49.04569769],[-122.82659041,49.04570126],[-122.82887633,49.04571478],[-122.82893043,49.04571508],[-122.83162993,49.04572404],[-122.83424005,49.04573285],[-122.83433918,49.04573318],[-122.83438516,49.04573329],[-122.83508835,49.0457358],[-122.83708966,49.04574291],[-122.83957703,49.04574291],[-122.83991382,49.04574291],[-122.84063012,49.04574326],[-122.84132923,49.04574326],[-122.84143787,49.04574326],[-122.84447609,49.04574789],[-122.84546174,49.04574931],[-122.84708945,49.04575697],[-122.8509659,49.04577495],[-122.85232654,49.04577139],[-122.85498532,49.04578492],[-122.85511853,49.04578563],[-122.85642729,49.0457835],[-122.85922462,49.0457689],[-122.86112677,49.04575893],[-122.86205089,49.04576414],[-122.86270561,49.04576783],[-122.86460413,49.04576035],[-122.86643389,49.04577517],[-122.86741996,49.04578314],[-122.86739605,49.04712902],[-122.86737958,49.04807184],[-122.86736174,49.04939529],[-122.86736361,49.04971502],[-122.86739901,49.05112286],[-122.86739427,49.05138099],[-122.86738032,49.05213155],[-122.86736314,49.05304127],[-122.86679983,49.05309823],[-122.86490049,49.05329015],[-122.86470771,49.05335459],[-122.86448116,49.05343043],[-122.86443003,49.05360585],[-122.86463793,49.05421644],[-122.86465985,49.054226],[-122.86473713,49.05428475],[-122.86503183,49.0544658],[-122.86533195,49.05470053],[-122.86559667,49.0550591],[-122.86578174,49.05552833],[-122.86574662,49.0570073],[-122.8657467,49.05700733],[-122.868544,49.05807396],[-122.86969651,49.05850707],[-122.86965809,49.06012493],[-122.87007523,49.06186088],[-122.87103719,49.0745934],[-122.87118091,49.07764322],[-122.8903432,49.07729484]]]},"geometry_name":"SHAPE","properties":{"id":332,"slug":"surrey-white-rock","name":"Surrey-White Rock","abbreviation":"SWR","gazetteDate":"2023-12-07Z","boundarySet":11},"bbox":[-122.95698523,49.0020827,-122.7564536,49.07764322]}
