{"type":"Feature","id":329,"geometry":{"type":"Polygon","coordinates":[[[-122.86783255,49.12659136],[-122.86890127,49.12659279],[-122.86942988,49.12659349],[-122.87003302,49.12659439],[-122.8706313,49.12659527],[-122.87314435,49.12661058],[-122.87337259,49.12661201],[-122.87389996,49.12661771],[-122.87462381,49.12662554],[-122.87492762,49.12662901],[-122.8753092,49.12663337],[-122.87577533,49.12663835],[-122.87622024,49.12664334],[-122.87683116,49.1266501],[-122.87742215,49.12665651],[-122.87787287,49.12665616],[-122.87830927,49.12665561],[-122.87901141,49.12665473],[-122.88040436,49.12665651],[-122.8808704,49.1266594],[-122.88189854,49.12666577],[-122.88320544,49.12668464],[-122.88430911,49.12668935],[-122.88470889,49.12669105],[-122.88554312,49.12669461],[-122.88567069,49.12669537],[-122.88608373,49.12669781],[-122.88693312,49.12670244],[-122.88757268,49.12670672],[-122.88884082,49.1267117],[-122.88901595,49.12671277],[-122.88996536,49.12671756],[-122.89028544,49.12671918],[-122.89036555,49.12671989],[-122.89036159,49.12487768],[-122.89036688,49.12411822],[-122.89036783,49.12300484],[-122.89037994,49.12194096],[-122.89040815,49.11938486],[-122.89040909,49.11932112],[-122.89040946,49.11927626],[-122.89042911,49.11559503],[-122.89043555,49.11447561],[-122.89041787,49.11290221],[-122.89040522,49.11185079],[-122.89042669,49.10963747],[-122.8904398,49.10828564],[-122.89044344,49.10823045],[-122.89039998,49.10823223],[-122.88408944,49.10820446],[-122.88265992,49.10820672],[-122.88144313,49.10820507],[-122.87912268,49.10821087],[-122.87351748,49.10817668],[-122.87218752,49.10817597],[-122.87020506,49.10817976],[-122.86789195,49.1081118],[-122.86784001,49.10811046],[-122.86779078,49.10811188],[-122.86207451,49.10815486],[-122.85671907,49.10819484],[-122.85433382,49.10819342],[-122.85152538,49.10820015],[-122.84836726,49.10820659],[-122.84153606,49.10819692],[-122.84083872,49.10811866],[-122.83985394,49.10792717],[-122.83907552,49.10765727],[-122.83839031,49.10735313],[-122.83643765,49.10612011],[-122.83582747,49.10575423],[-122.83518639,49.1054274],[-122.83455487,49.10519467],[-122.83387776,49.10498651],[-122.83326325,49.1049093],[-122.83258065,49.10488069],[-122.83188676,49.10487602],[-122.83174192,49.10487727],[-122.83130841,49.10456774],[-122.83124455,49.10451184],[-122.83084015,49.10421026],[-122.8298694,49.10348783],[-122.82930285,49.10320334],[-122.82855872,49.10284338],[-122.82798139,49.10265538],[-122.82747573,49.10248447],[-122.82662793,49.10228651],[-122.82591882,49.10217611],[-122.82459822,49.10205508],[-122.8232076,49.10186103],[-122.82216212,49.10159043],[-122.82128445,49.10124897],[-122.8206137,49.10091179],[-122.81998966,49.10049877],[-122.81956527,49.10014379],[-122.81905584,49.09960259],[-122.81855987,49.09880574],[-122.81830484,49.0980267],[-122.8182945,49.09793493],[-122.81825172,49.09755956],[-122.81820387,49.09755956],[-122.81819483,49.0975592],[-122.81819048,49.0975592],[-122.81795713,49.09756775],[-122.81762951,49.09757665],[-122.81734097,49.0975941],[-122.81709567,49.09760264],[-122.81686232,49.09761119],[-122.81654687,49.09763753],[-122.81624426,49.09766424],[-122.81613496,49.09768204],[-122.81587443,49.09769059],[-122.81573842,49.09769913],[-122.81545002,49.09773509],[-122.81514952,49.09775254],[-122.81486017,49.09777889],[-122.81460079,49.09779669],[-122.81429947,49.09782304],[-122.81398483,49.09784048],[-122.81366856,49.09785793],[-122.81336806,49.09787538],[-122.81306619,49.09788392],[-122.81272273,49.09790137],[-122.81250298,49.09790991],[-122.81242223,49.09791882],[-122.81238063,49.09792772],[-122.81210595,49.09793626],[-122.81180545,49.09795371],[-122.81151752,49.09798041],[-122.81124454,49.09799822],[-122.81090075,49.09801531],[-122.8106538,49.09802385],[-122.81040665,49.09803275],[-122.81028342,49.0980324],[-122.81005143,49.09804984],[-122.80981924,49.09806765],[-122.80969519,49.09807619],[-122.80944804,49.09808509],[-122.80932481,49.09808474],[-122.80898271,49.09811108],[-122.80873719,49.09811999],[-122.80839345,49.09814633],[-122.80821448,49.09815488],[-122.80794205,49.09819048],[-122.80769456,49.09819903],[-122.80735191,49.09820757],[-122.80709219,49.09822502],[-122.8068466,49.09824247],[-122.80659945,49.09825137],[-122.80637888,49.09826882],[-122.80609115,49.09827736],[-122.8058317,49.09828591],[-122.80554364,49.0982941],[-122.80522851,49.098303],[-122.80491271,49.09831119],[-122.80474985,49.09832009],[-122.8046258,49.09832863],[-122.80450324,49.09834679],[-122.80395416,49.09839058],[-122.80365235,49.09842619],[-122.80342063,49.09843474],[-122.8032974,49.09843438],[-122.8029956,49.09846999],[-122.802666,49.09847853],[-122.80233877,49.09848672],[-122.80199449,49.09851307],[-122.80166577,49.09853977],[-122.80150229,49.09855722],[-122.80122761,49.09856576],[-122.80109364,49.0985736],[-122.80109357,49.09857466],[-122.80109056,49.09886563],[-122.80107889,49.09999602],[-122.80106112,49.10169083],[-122.80106065,49.10183521],[-122.80106019,49.10197639],[-122.8010351,49.10436728],[-122.80103602,49.104436],[-122.80097023,49.10443315],[-122.79706235,49.10439897],[-122.79687428,49.10439923],[-122.78993118,49.10440858],[-122.78993086,49.10444098],[-122.78988252,49.10736524],[-122.78988282,49.10855766],[-122.78988276,49.10864354],[-122.78988262,49.1088101],[-122.78987188,49.10999825],[-122.78984117,49.11325543],[-122.78983144,49.11428797],[-122.7898312,49.11431176],[-122.78982915,49.11451969],[-122.78982308,49.11513395],[-122.78987414,49.11886531],[-122.78987461,49.11890081],[-122.79149984,49.11890842],[-122.79664626,49.11898437],[-122.79666532,49.11898465],[-122.79667306,49.11898466],[-122.79783935,49.11898564],[-122.8009573,49.11906583],[-122.8010108,49.11906832],[-122.80106431,49.11907082],[-122.80658554,49.11909695],[-122.81222262,49.11912992],[-122.81772859,49.11913277],[-122.82327591,49.11912529],[-122.82606255,49.11911745],[-122.82881872,49.11910963],[-122.8315758,49.119102],[-122.83433031,49.11909432],[-122.83986772,49.11907695],[-122.845398,49.11903662],[-122.84549359,49.11903592],[-122.84558804,49.11903628],[-122.8509935,49.11902667],[-122.85649139,49.11901527],[-122.85833809,49.11903165],[-122.85849881,49.11903308],[-122.86228268,49.11906654],[-122.863705,49.11906797],[-122.86779258,49.11910678],[-122.86782883,49.11910714],[-122.8678284,49.11918404],[-122.86781111,49.12075993],[-122.86778752,49.12284818],[-122.86777835,49.12490331],[-122.867794,49.12659029],[-122.86783255,49.12659136]]]},"geometry_name":"SHAPE","properties":{"id":329,"slug":"surrey-panorama","name":"Surrey-Panorama","abbreviation":"SUP","gazetteDate":"2023-12-07Z","boundarySet":11},"bbox":[-122.89044344,49.0975592,-122.78982308,49.12671989]}
