{"type":"Feature","id":331,"geometry":{"type":"Polygon","coordinates":[[[-122.84836726,49.10820659],[-122.85152538,49.10820015],[-122.85433382,49.10819342],[-122.85671907,49.10819484],[-122.86207451,49.10815486],[-122.86779078,49.10811188],[-122.86784001,49.10811046],[-122.86789195,49.1081118],[-122.87020506,49.10817976],[-122.87218752,49.10817597],[-122.87351748,49.10817668],[-122.87912268,49.10821087],[-122.88144313,49.10820507],[-122.88265992,49.10820672],[-122.88408944,49.10820446],[-122.89039998,49.10823223],[-122.89044344,49.10823045],[-122.89044678,49.10817953],[-122.89043308,49.10768035],[-122.89041702,49.10720502],[-122.89041501,49.10684647],[-122.89040812,49.10524673],[-122.89040192,49.10497278],[-122.89039593,49.10470838],[-122.89039585,49.10433808],[-122.89039107,49.10340807],[-122.89037449,49.10277679],[-122.89036856,49.09999994],[-122.89036737,49.09983189],[-122.89036542,49.09828448],[-122.89036531,49.09828092],[-122.89038665,49.09828163],[-122.89038314,49.09335636],[-122.89038271,49.09331577],[-122.89038132,49.09324207],[-122.89038294,49.09241816],[-122.89038314,49.0921294],[-122.89038273,49.09208597],[-122.89038291,49.09198983],[-122.89038311,49.09190118],[-122.89038332,49.09170072],[-122.89037159,49.09146359],[-122.89037167,49.09146252],[-122.89037147,49.0913614],[-122.89037115,49.09126989],[-122.89037092,49.09107585],[-122.89036658,49.08900184],[-122.89036387,49.08757799],[-122.89035293,49.08198832],[-122.89035084,49.08103624],[-122.8903432,49.07729484],[-122.87118091,49.07764322],[-122.87103719,49.0745934],[-122.87007523,49.06186088],[-122.86965809,49.06012493],[-122.86969651,49.05850707],[-122.868544,49.05807396],[-122.8657467,49.05700733],[-122.86574662,49.0570073],[-122.86578174,49.05552833],[-122.86559667,49.0550591],[-122.86533195,49.05470053],[-122.86503183,49.0544658],[-122.86473713,49.05428475],[-122.86465985,49.054226],[-122.86463793,49.05421644],[-122.86443003,49.05360585],[-122.86448116,49.05343043],[-122.86470771,49.05335459],[-122.86490049,49.05329015],[-122.86679983,49.05309823],[-122.86736314,49.05304127],[-122.86738032,49.05213155],[-122.86739427,49.05138099],[-122.86739901,49.05112286],[-122.86736361,49.04971502],[-122.86736174,49.04939529],[-122.86737958,49.04807184],[-122.86739605,49.04712902],[-122.86741996,49.04578314],[-122.86643389,49.04577517],[-122.86460413,49.04576035],[-122.86270561,49.04576783],[-122.86205089,49.04576414],[-122.86112677,49.04575893],[-122.85922462,49.0457689],[-122.85642729,49.0457835],[-122.85511853,49.04578563],[-122.85498532,49.04578492],[-122.85232654,49.04577139],[-122.8509659,49.04577495],[-122.84708945,49.04575697],[-122.84546174,49.04574931],[-122.84447609,49.04574789],[-122.84143787,49.04574326],[-122.84132923,49.04574326],[-122.84063012,49.04574326],[-122.83991382,49.04574291],[-122.83957703,49.04574291],[-122.83708966,49.04574291],[-122.83508835,49.0457358],[-122.83438516,49.04573329],[-122.83433918,49.04573318],[-122.83424005,49.04573285],[-122.83162993,49.04572404],[-122.82893043,49.04571508],[-122.82887633,49.04571478],[-122.82659041,49.04570126],[-122.82600235,49.04569769],[-122.8232567,49.04568131],[-122.82312839,49.04568116],[-122.8175717,49.04567526],[-122.81238636,49.04565817],[-122.81221186,49.04565745],[-122.8108538,49.04565282],[-122.81038516,49.04565123],[-122.80909596,49.04564682],[-122.80773111,49.04564214],[-122.80671792,49.04563858],[-122.80475807,49.04562541],[-122.80368149,49.04563758],[-122.80362454,49.04563823],[-122.80120544,49.04563573],[-122.79983458,49.0456279],[-122.79760129,49.04561508],[-122.79570627,49.0456044],[-122.79368113,49.04559514],[-122.79359279,49.04559479],[-122.79352489,49.04559479],[-122.79019002,49.04559123],[-122.78839678,49.04558767],[-122.78745441,49.04558375],[-122.78554816,49.04557556],[-122.78540061,49.0455752],[-122.78537356,49.04554423],[-122.78407351,49.04437246],[-122.77931478,49.04008203],[-122.77735077,49.03831103],[-122.77388455,49.03518489],[-122.76939052,49.03113084],[-122.76932071,49.03106785],[-122.76924721,49.03100064],[-122.76826754,49.03010473],[-122.76746815,49.0293734],[-122.76620607,49.02811867],[-122.76551572,49.02710449],[-122.76357092,49.02371786],[-122.76157735,49.02026138],[-122.75953786,49.01673425],[-122.75800416,49.01389153],[-122.75765957,49.01318512],[-122.75753325,49.01262755],[-122.75758443,49.00932302],[-122.75759767,49.00748757],[-122.75749343,49.00589175],[-122.75745815,49.00535518],[-122.7574049,49.0045537],[-122.75734649,49.00401962],[-122.75716886,49.00313377],[-122.7564536,49.00208305],[-122.75608074,49.00208306],[-122.75588936,49.0020827],[-122.75530157,49.0020827],[-122.74984362,49.00208322],[-122.74628793,49.00208341],[-122.74117477,49.00208336],[-122.73599948,49.00208306],[-122.73516801,49.00208306],[-122.73049993,49.00208306],[-122.7139976,49.0021005],[-122.71377779,49.0021005],[-122.69113991,49.0021094],[-122.68014099,49.00212115],[-122.68013814,49.0022002],[-122.68013482,49.00230416],[-122.68012881,49.00265381],[-122.68007699,49.00570161],[-122.68007364,49.00584368],[-122.6800738,49.00588142],[-122.68001561,49.00926819],[-122.68001533,49.00927887],[-122.67999136,49.01041361],[-122.67998704,49.01059449],[-122.67997137,49.01133009],[-122.67986237,49.01640668],[-122.67986008,49.01661106],[-122.67986257,49.01676737],[-122.67988993,49.01772764],[-122.67991895,49.01874452],[-122.6799426,49.01958872],[-122.6799632,49.02031472],[-122.68002938,49.02264045],[-122.68002943,49.02264223],[-122.68004702,49.02324538],[-122.68006498,49.02384141],[-122.68006491,49.02384711],[-122.6801667,49.02741084],[-122.68026976,49.03100946],[-122.6802701,49.03101444],[-122.68029743,49.03109776],[-122.68030094,49.03161012],[-122.68032581,49.03527105],[-122.68032861,49.03561286],[-122.68034789,49.03841713],[-122.68032263,49.04178894],[-122.68032409,49.04200863],[-122.68032446,49.04208981],[-122.6803248,49.04216173],[-122.68032678,49.04245583],[-122.68033343,49.04362795],[-122.68033681,49.04422185],[-122.68033753,49.04432475],[-122.68033751,49.04436569],[-122.68034014,49.04472566],[-122.68034079,49.04489657],[-122.68034557,49.04564713],[-122.68039126,49.04934081],[-122.68042914,49.05246268],[-122.68043442,49.05288994],[-122.68044692,49.05363231],[-122.68045482,49.05410907],[-122.68045532,49.05413613],[-122.68044897,49.05537697],[-122.68047768,49.05548877],[-122.68051887,49.05818373],[-122.68052565,49.05860672],[-122.68053784,49.05942528],[-122.68054864,49.06012528],[-122.68055783,49.06268316],[-122.68055972,49.06385102],[-122.68056046,49.06434593],[-122.68056227,49.06528128],[-122.68056227,49.06544328],[-122.68056428,49.06631597],[-122.68056504,49.06680162],[-122.68056606,49.06740976],[-122.68054538,49.06750945],[-122.6805449,49.06781103],[-122.680545,49.06795986],[-122.68054461,49.06847827],[-122.68054485,49.06864455],[-122.68054451,49.06880157],[-122.68054446,49.06923097],[-122.68054448,49.06932034],[-122.68054405,49.0694859],[-122.68054399,49.06964897],[-122.68054402,49.07015741],[-122.68054387,49.07031693],[-122.68054382,49.07048],[-122.68054384,49.07099592],[-122.68054341,49.07115685],[-122.68046839,49.07145772],[-122.68042576,49.07160156],[-122.6804024,49.07471738],[-122.68037473,49.07521941],[-122.68035555,49.07556158],[-122.68028872,49.07677643],[-122.68026538,49.07719657],[-122.6802631,49.07724428],[-122.68024226,49.07761636],[-122.6801919,49.07847978],[-122.68006993,49.08003537],[-122.68007448,49.0805075],[-122.68008926,49.08201993],[-122.68009056,49.08215282],[-122.6800664,49.08252418],[-122.68003106,49.08307037],[-122.68002299,49.08319605],[-122.6800256,49.08388038],[-122.68001649,49.08399575],[-122.68001108,49.08406375],[-122.67998711,49.08436212],[-122.67998127,49.08438705],[-122.67993164,49.08458679],[-122.67988561,49.08546553],[-122.67986244,49.08584366],[-122.67985936,49.08599996],[-122.67983813,49.08617621],[-122.67983712,49.08632896],[-122.67982227,49.08649986],[-122.67979408,49.08665261],[-122.67980671,49.08681461],[-122.67980576,49.08694956],[-122.6798051,49.08710266],[-122.6798038,49.08726431],[-122.6797893,49.08740851],[-122.67977447,49.08755235],[-122.67974654,49.08768694],[-122.67970453,49.08783078],[-122.67967614,49.08798389],[-122.6796752,49.08811883],[-122.67966037,49.08826268],[-122.67963189,49.08842432],[-122.67963158,49.08846029],[-122.67963131,49.0885055],[-122.67963125,49.08855037],[-122.67963068,49.08860449],[-122.67963026,49.08870311],[-122.67962963,49.0888021],[-122.67962901,49.08887402],[-122.6796148,49.08894594],[-122.67961477,49.08900006],[-122.67961421,49.08905418],[-122.67961391,49.08906308],[-122.67961386,49.08908088],[-122.67959961,49.08923399],[-122.67957292,49.08940845],[-122.67956014,49.08958327],[-122.67956307,49.08969294],[-122.6795641,49.0897378],[-122.67957279,49.09007071],[-122.67958124,49.09040682],[-122.67962291,49.0913201],[-122.67965487,49.09176979],[-122.67963354,49.09268769],[-122.67965335,49.09320397],[-122.68103363,49.09296279],[-122.68397894,49.09244807],[-122.68437371,49.092379],[-122.68443778,49.09236796],[-122.68454502,49.09234909],[-122.68460217,49.09234339],[-122.68499598,49.09230332],[-122.68532295,49.09227005],[-122.68578641,49.09222305],[-122.68734862,49.09216038],[-122.69021585,49.09253602],[-122.69092957,49.09262966],[-122.69110276,49.09497676],[-122.69112907,49.09533566],[-122.69113827,49.0954617],[-122.69113897,49.0957619],[-122.69114159,49.0967655],[-122.69114229,49.09703409],[-122.69114822,49.09722952],[-122.6915891,49.09720956],[-122.69185049,49.09719211],[-122.69215136,49.09717502],[-122.69237013,49.09715793],[-122.69264344,49.09715829],[-122.69293186,49.09715045],[-122.69319212,49.09715081],[-122.69339775,49.09714227],[-122.69368503,49.09712518],[-122.69390593,49.09709883],[-122.69412407,49.09709028],[-122.69433083,49.09709099],[-122.69457699,49.09707355],[-122.69478133,49.09706536],[-122.69513872,49.09706607],[-122.69544009,49.09703972],[-122.69571294,49.09703153],[-122.69600019,49.09703225],[-122.6963024,49.09702406],[-122.69657688,49.09701587],[-122.69683694,49.09701658],[-122.69711142,49.09700839],[-122.69737013,49.0970002],[-122.6975768,49.09695534],[-122.69778247,49.09695605],[-122.69800203,49.09694786],[-122.6982218,49.09693932],[-122.69844074,49.09693967],[-122.6986598,49.09694074],[-122.69886563,49.09693184],[-122.69909716,49.09692365],[-122.69934382,49.09692401],[-122.69956443,49.09690656],[-122.69979624,49.09688947],[-122.70000158,49.09688982],[-122.70026247,49.09688164],[-122.70052222,49.09686419],[-122.70075508,49.0968649],[-122.70096071,49.09685636],[-122.70119441,49.09684817],[-122.70142777,49.09683962],[-122.70168782,49.09684033],[-122.70187936,49.09684105],[-122.70189316,49.09684069],[-122.70215321,49.0968414],[-122.70239967,49.09684211],[-122.70263254,49.09684283],[-122.70285126,49.09684354],[-122.70312574,49.09683535],[-122.70337157,49.09684461],[-122.70363246,49.09683642],[-122.70387858,49.09683677],[-122.70409735,49.09684674],[-122.70435874,49.0968293],[-122.70459126,49.09682965],[-122.70482413,49.09683036],[-122.70504306,49.09683072],[-122.70528931,49.09683179],[-122.70550824,49.09683214],[-122.70578243,49.09683286],[-122.70601609,49.09684247],[-122.70624896,49.09684318],[-122.70646789,49.09684354],[-122.70671351,49.09685315],[-122.70693408,49.09685351],[-122.70716694,49.09685422],[-122.70739846,49.09684603],[-122.70761823,49.09683748],[-122.70786469,49.0968382],[-122.70808362,49.09683855],[-122.70834367,49.09683926],[-122.70856457,49.09683998],[-122.70882349,49.09683143],[-122.70902883,49.09683179],[-122.70924923,49.09684176],[-122.70945323,49.09683321],[-122.70966053,49.09683392],[-122.70991945,49.09682538],[-122.7101795,49.09682609],[-122.71041254,49.09684425],[-122.7106454,49.09684496],[-122.7108799,49.09684567],[-122.71112636,49.09684639],[-122.71141444,49.09686526],[-122.71164481,49.09689267],[-122.71186508,49.09690193],[-122.71208466,49.0969208],[-122.71228867,49.09693932],[-122.71259084,49.09694893],[-122.71278177,49.09698525],[-122.71281198,49.09698987],[-122.71305543,49.09701302],[-122.71326109,49.09705859],[-122.71349392,49.09707711],[-122.71379532,49.09710488],[-122.71404259,49.09714155],[-122.71425959,49.09719567],[-122.71449357,49.09725051],[-122.7147395,49.09727828],[-122.71501254,49.0973146],[-122.71521934,49.09736943],[-122.7154655,49.0974239],[-122.71568341,49.09746058],[-122.71594265,49.09749725],[-122.71616295,49.09753357],[-122.71639609,49.09757024],[-122.71664061,49.09762472],[-122.71684708,49.09767919],[-122.71712075,49.09770696],[-122.71735381,49.09775218],[-122.71763946,49.09780702],[-122.71791423,49.09786185],[-122.71811878,49.09792522],[-122.71835185,49.09797044],[-122.71856976,49.09800712],[-122.71880317,49.09805269],[-122.71910371,49.09810717],[-122.71928277,49.09809008],[-122.71944732,49.0981353],[-122.7196663,49.09818977],[-122.71989751,49.09820829],[-122.72010318,49.09825386],[-122.72032244,49.09829944],[-122.72052832,49.09834465],[-122.72074655,49.09839949],[-122.72099355,49.09844506],[-122.72126824,49.09848138],[-122.72148453,49.09851805],[-122.72170594,49.09858143],[-122.72193718,49.098627],[-122.72210176,49.09865442],[-122.72230752,49.09869098],[-122.72248551,49.09871829],[-122.72270548,49.0987516],[-122.72287426,49.09878187],[-122.72303583,49.09880561],[-122.72320621,49.09883341],[-122.72340473,49.09886484],[-122.72357654,49.09889517],[-122.72379077,49.09892528],[-122.72393169,49.09895147],[-122.7241471,49.09898921],[-122.72443666,49.09905988],[-122.72473307,49.09913931],[-122.72540175,49.09923615],[-122.7258941,49.09932432],[-122.72734272,49.09958698],[-122.72975521,49.10003919],[-122.73063529,49.10022176],[-122.73240905,49.10047449],[-122.73393892,49.10059002],[-122.734972,49.10061505],[-122.734972,49.10061594],[-122.73505479,49.10061706],[-122.73597927,49.10060625],[-122.73697185,49.1006115],[-122.73710797,49.10061222],[-122.73797525,49.10210932],[-122.73824206,49.10273006],[-122.73831652,49.10322354],[-122.73830788,49.10396352],[-122.73830187,49.10402482],[-122.73829648,49.10409098],[-122.73839854,49.10409098],[-122.74160989,49.10409497],[-122.74480433,49.10413265],[-122.7460883,49.1041654],[-122.75665857,49.10428432],[-122.76392241,49.10434642],[-122.76505832,49.1043481],[-122.76685515,49.10440216],[-122.76756952,49.10443101],[-122.76766094,49.10443081],[-122.76868294,49.10444491],[-122.76936216,49.10445428],[-122.76996516,49.10445576],[-122.77906836,49.10447766],[-122.7807134,49.10449068],[-122.78993118,49.10440858],[-122.79687428,49.10439923],[-122.79706235,49.10439897],[-122.80097023,49.10443315],[-122.80103602,49.104436],[-122.8010351,49.10436728],[-122.80106019,49.10197639],[-122.80106065,49.10183521],[-122.80106112,49.10169083],[-122.80107889,49.09999602],[-122.80109056,49.09886563],[-122.80109357,49.09857466],[-122.80109364,49.0985736],[-122.80122761,49.09856576],[-122.80150229,49.09855722],[-122.80166577,49.09853977],[-122.80199449,49.09851307],[-122.80233877,49.09848672],[-122.802666,49.09847853],[-122.8029956,49.09846999],[-122.8032974,49.09843438],[-122.80342063,49.09843474],[-122.80365235,49.09842619],[-122.80395416,49.09839058],[-122.80450324,49.09834679],[-122.8046258,49.09832863],[-122.80474985,49.09832009],[-122.80491271,49.09831119],[-122.80522851,49.098303],[-122.80554364,49.0982941],[-122.8058317,49.09828591],[-122.80609115,49.09827736],[-122.80637888,49.09826882],[-122.80659945,49.09825137],[-122.8068466,49.09824247],[-122.80709219,49.09822502],[-122.80735191,49.09820757],[-122.80769456,49.09819903],[-122.80794205,49.09819048],[-122.80821448,49.09815488],[-122.80839345,49.09814633],[-122.80873719,49.09811999],[-122.80898271,49.09811108],[-122.80932481,49.09808474],[-122.80944804,49.09808509],[-122.80969519,49.09807619],[-122.80981924,49.09806765],[-122.81005143,49.09804984],[-122.81028342,49.0980324],[-122.81040665,49.09803275],[-122.8106538,49.09802385],[-122.81090075,49.09801531],[-122.81124454,49.09799822],[-122.81151752,49.09798041],[-122.81180545,49.09795371],[-122.81210595,49.09793626],[-122.81238063,49.09792772],[-122.81242223,49.09791882],[-122.81250298,49.09790991],[-122.81272273,49.09790137],[-122.81306619,49.09788392],[-122.81336806,49.09787538],[-122.81366856,49.09785793],[-122.81398483,49.09784048],[-122.81429947,49.09782304],[-122.81460079,49.09779669],[-122.81486017,49.09777889],[-122.81514952,49.09775254],[-122.81545002,49.09773509],[-122.81573842,49.09769913],[-122.81587443,49.09769059],[-122.81613496,49.09768204],[-122.81624426,49.09766424],[-122.81654687,49.09763753],[-122.81686232,49.09761119],[-122.81709567,49.09760264],[-122.81734097,49.0975941],[-122.81762951,49.09757665],[-122.81795713,49.09756775],[-122.81819048,49.0975592],[-122.81819483,49.0975592],[-122.81820387,49.09755956],[-122.81825172,49.09755956],[-122.8182945,49.09793493],[-122.81830484,49.0980267],[-122.81855987,49.09880574],[-122.81905584,49.09960259],[-122.81956527,49.10014379],[-122.81998966,49.10049877],[-122.8206137,49.10091179],[-122.82128445,49.10124897],[-122.82216212,49.10159043],[-122.8232076,49.10186103],[-122.82459822,49.10205508],[-122.82591882,49.10217611],[-122.82662793,49.10228651],[-122.82747573,49.10248447],[-122.82798139,49.10265538],[-122.82855872,49.10284338],[-122.82930285,49.10320334],[-122.8298694,49.10348783],[-122.83084015,49.10421026],[-122.83124455,49.10451184],[-122.83130841,49.10456774],[-122.83174192,49.10487727],[-122.83188676,49.10487602],[-122.83258065,49.10488069],[-122.83326325,49.1049093],[-122.83387776,49.10498651],[-122.83455487,49.10519467],[-122.83518639,49.1054274],[-122.83582747,49.10575423],[-122.83643765,49.10612011],[-122.83839031,49.10735313],[-122.83907552,49.10765727],[-122.83985394,49.10792717],[-122.84083872,49.10811866],[-122.84153606,49.10819692],[-122.84836726,49.10820659]]]},"geometry_name":"SHAPE","properties":{"id":331,"slug":"surrey-south","name":"Surrey South","abbreviation":"SUS","gazetteDate":"2023-12-07Z","boundarySet":11},"bbox":[-122.89044678,49.0020827,-122.67956014,49.10823223]}
