{"type":"Feature","id":341,"geometry":{"type":"Polygon","coordinates":[[[-123.14986535,49.28195408],[-123.15251169,49.28196227],[-123.15383722,49.28196655],[-123.15551439,49.28197153],[-123.15693434,49.2819758],[-123.15930566,49.28198292],[-123.16175483,49.2819904],[-123.1643539,49.28199823],[-123.16435098,49.2733604],[-123.16426798,49.27348431],[-123.16413194,49.27356905],[-123.16392871,49.27358863],[-123.16244883,49.27356347],[-123.1620651,49.27355695],[-123.1601845,49.27352632],[-123.15986774,49.27348645],[-123.15975923,49.27339993],[-123.15975717,49.27339523],[-123.15972644,49.27332515],[-123.15971985,49.27318162],[-123.15970473,49.27286542],[-123.15969662,49.27269605],[-123.15969494,49.27265791],[-123.15971159,49.27220929],[-123.15971973,49.27199626],[-123.1597279,49.27178238],[-123.15974327,49.27133717],[-123.1597455,49.2712733],[-123.15975844,49.27089866],[-123.15977549,49.27045609],[-123.15978391,49.27023065],[-123.15979206,49.27001244],[-123.15980655,49.26960124],[-123.15982319,49.26912587],[-123.1598342,49.26868342],[-123.15983777,49.26854178],[-123.15984499,49.26824999],[-123.15986533,49.26795777],[-123.15987422,49.26782931],[-123.15990514,49.26738157],[-123.15991961,49.26651387],[-123.15994711,49.26568854],[-123.15998516,49.26484185],[-123.15999837,49.26441013],[-123.16001261,49.26393997],[-123.16002882,49.26344746],[-123.1600404,49.26309187],[-123.16004394,49.26298433],[-123.15976293,49.26297809],[-123.15767055,49.2629318],[-123.15767055,49.26293163],[-123.15767049,49.26293163],[-123.15767061,49.26292848],[-123.15767083,49.26292269],[-123.15768741,49.26247624],[-123.1577012,49.26202923],[-123.15770616,49.26186835],[-123.15771546,49.26157543],[-123.15772297,49.26132679],[-123.15772938,49.2611147],[-123.16014499,49.26114959],[-123.16016399,49.26064087],[-123.16018054,49.26018576],[-123.16019818,49.25973196],[-123.16021519,49.25928779],[-123.16023227,49.25882385],[-123.16025048,49.2583293],[-123.16026636,49.25789776],[-123.16028404,49.25742387],[-123.16028424,49.25741958],[-123.16028518,49.25740356],[-123.15883596,49.25737172],[-123.15790901,49.25736582],[-123.15594918,49.25732986],[-123.15554393,49.25733449],[-123.15357601,49.25730316],[-123.15289253,49.25729247],[-123.15262244,49.25728366],[-123.1524651,49.25727859],[-123.1517347,49.25726791],[-123.15076848,49.25725366],[-123.14837108,49.25722162],[-123.14597957,49.25717925],[-123.14359858,49.25714044],[-123.14129375,49.25709914],[-123.13879388,49.25705356],[-123.13852071,49.25706315],[-123.13838215,49.25709999],[-123.13832124,49.25713682],[-123.13826324,49.2571719],[-123.13795807,49.25743549],[-123.13764648,49.25759643],[-123.1373618,49.25770447],[-123.13704911,49.25779507],[-123.13630779,49.25794263],[-123.13618624,49.25794026],[-123.13607039,49.257938],[-123.13562064,49.25792979],[-123.13512414,49.25792062],[-123.13440318,49.25790738],[-123.13426883,49.25789272],[-123.13415386,49.25788026],[-123.13391875,49.25785468],[-123.13361134,49.2577881],[-123.13345804,49.25773898],[-123.13269787,49.25749542],[-123.13242871,49.25737841],[-123.13210407,49.25723729],[-123.1319944,49.25718982],[-123.13180297,49.25710697],[-123.13178933,49.25710697],[-123.1317757,49.25710697],[-123.13121136,49.25707994],[-123.13083149,49.25706175],[-123.13062787,49.25706106],[-123.13030498,49.25705997],[-123.12782145,49.25703647],[-123.12770119,49.25703531],[-123.12763753,49.25703469],[-123.1272421,49.25711084],[-123.12721043,49.25711694],[-123.12438426,49.25706959],[-123.12406634,49.25706402],[-123.1237134,49.25705784],[-123.12217252,49.25703012],[-123.12203076,49.25702757],[-123.12074602,49.25699695],[-123.12040073,49.25698879],[-123.12012861,49.25698235],[-123.11938512,49.25696882],[-123.1181281,49.25694603],[-123.11630309,49.25692585],[-123.11600355,49.25692254],[-123.11538985,49.25691656],[-123.1150536,49.25691328],[-123.11504635,49.25733947],[-123.11503783,49.25782726],[-123.11503026,49.25828372],[-123.11502208,49.2587384],[-123.11501269,49.2594441],[-123.11501025,49.25959293],[-123.11499632,49.26006123],[-123.11499542,49.26039725],[-123.11492663,49.26187709],[-123.11491239,49.26223947],[-123.11484951,49.26320579],[-123.11481281,49.26404963],[-123.11480405,49.26471999],[-123.11479851,49.26494902],[-123.11480833,49.26529922],[-123.11480739,49.26538959],[-123.11481241,49.26557988],[-123.11482488,49.26603414],[-123.11482849,49.2662516],[-123.11483339,49.26644529],[-123.11483582,49.26657191],[-123.11483987,49.2666328],[-123.11484296,49.26669154],[-123.11490636,49.26768476],[-123.1149488,49.26809759],[-123.11495121,49.26813071],[-123.11493206,49.26883323],[-123.11491449,49.26963134],[-123.11488762,49.27056717],[-123.11486377,49.27119786],[-123.11483434,49.27188087],[-123.11494795,49.27184987],[-123.11581735,49.27160608],[-123.11674769,49.27135457],[-123.11942497,49.27065506],[-123.11985357,49.27054307],[-123.12282355,49.26993453],[-123.12301045,49.26987278],[-123.12519442,49.26962374],[-123.12577075,49.26957043],[-123.1259255,49.26959623],[-123.12765034,49.26981153],[-123.12868149,49.27001522],[-123.12873046,49.27002489],[-123.12918187,49.27011406],[-123.12991516,49.27041074],[-123.13032456,49.27069073],[-123.13113427,49.2712445],[-123.13305322,49.27255679],[-123.13309586,49.27258643],[-123.13310499,49.27259277],[-123.13314836,49.27262291],[-123.13507849,49.27396147],[-123.13711067,49.27537615],[-123.13715113,49.27540415],[-123.13718702,49.2754292],[-123.1382364,49.27677067],[-123.13907115,49.27769677],[-123.1405647,49.27903445],[-123.14063939,49.27910175],[-123.14240276,49.28040098],[-123.14306447,49.28081899],[-123.14421153,49.28151222],[-123.14557242,49.28185546],[-123.14632999,49.2819313],[-123.14841558,49.28194945],[-123.14986535,49.28195408]]]},"geometry_name":"SHAPE","properties":{"id":341,"slug":"vancouver-south-granville","name":"Vancouver-South Granville","abbreviation":"VNS","gazetteDate":"2023-12-07Z","boundarySet":11},"bbox":[-123.1643539,49.25691328,-123.11479851,49.28199823]}
