{"type":"Feature","id":340,"geometry":{"type":"Polygon","coordinates":[[[-123.06207028,49.2595235],[-123.06403738,49.2595267],[-123.06526725,49.25953596],[-123.06594963,49.25954094],[-123.06910196,49.25957904],[-123.06984683,49.2595883],[-123.06985947,49.25868784],[-123.06986387,49.25820326],[-123.06986793,49.25775463],[-123.06987698,49.25684527],[-123.06987881,49.25660031],[-123.06982952,49.25639807],[-123.0698208,49.2563646],[-123.06962704,49.25600072],[-123.06907691,49.25513836],[-123.06885827,49.25492223],[-123.06799751,49.25424858],[-123.06751776,49.25388505],[-123.06699214,49.25348627],[-123.06627278,49.25295967],[-123.06568706,49.25244268],[-123.06521831,49.25186802],[-123.06504195,49.25141654],[-123.0650106,49.25091273],[-123.06503094,49.25026685],[-123.06505237,49.24938704],[-123.06507497,49.24850332],[-123.06508838,49.24801482],[-123.06509913,49.24762743],[-123.06510582,49.24737606],[-123.06512251,49.24675867],[-123.06514839,49.24580729],[-123.06517378,49.24514326],[-123.06386026,49.24454459],[-123.06376526,49.24450129],[-123.06181017,49.24356274],[-123.06059765,49.24300928],[-123.05916123,49.24235359],[-123.05812356,49.24187042],[-123.0574626,49.24156885],[-123.05453591,49.24023935],[-123.05406697,49.24000934],[-123.05258201,49.23933106],[-123.05201086,49.23905464],[-123.05164322,49.23889145],[-123.05156411,49.23885466],[-123.05031616,49.23827038],[-123.04894775,49.23763148],[-123.04880928,49.23756682],[-123.04762911,49.23706443],[-123.04669356,49.23670268],[-123.04632019,49.2365711],[-123.04589843,49.23642247],[-123.0457164,49.23637239],[-123.04557096,49.23633238],[-123.04549157,49.23631003],[-123.04529526,49.23625476],[-123.04504555,49.23622029],[-123.04484646,49.23619281],[-123.04443434,49.23613639],[-123.04431147,49.23611947],[-123.04373166,49.23606662],[-123.04233474,49.2359393],[-123.0428742,49.23536321],[-123.0429657,49.23522176],[-123.04303428,49.23511575],[-123.04303724,49.23511152],[-123.04304026,49.23510721],[-123.04309016,49.23481596],[-123.04309181,49.23352161],[-123.04309192,49.23343447],[-123.04309263,49.23298905],[-123.04309049,49.23294989],[-123.04308828,49.23290609],[-123.04309484,49.23248097],[-123.04310263,49.23196505],[-123.04312281,49.23156378],[-123.04314572,49.23110055],[-123.04314865,49.23065513],[-123.04315159,49.230183],[-123.0431293,49.22976357],[-123.04310481,49.2293032],[-123.04235885,49.22929002],[-123.04173631,49.22927934],[-123.04081658,49.22927828],[-123.04028792,49.22928362],[-123.03881967,49.229274],[-123.03861097,49.22926902],[-123.03739606,49.22926546],[-123.03675528,49.22926474],[-123.03643544,49.22926439],[-123.03455787,49.22926119],[-123.03423911,49.22925798],[-123.03214737,49.22923555],[-123.03050411,49.22923163],[-123.02985979,49.22923234],[-123.02915059,49.22923306],[-123.02774751,49.22923056],[-123.02712683,49.22922807],[-123.0264271,49.22922558],[-123.02503576,49.22923591],[-123.02428375,49.22923519],[-123.02411875,49.22923484],[-123.02351212,49.22923448],[-123.0235148,49.22944598],[-123.02351826,49.2296799],[-123.02353062,49.23059353],[-123.02353596,49.2322919],[-123.02353693,49.23297125],[-123.02353523,49.23432496],[-123.02352966,49.23472831],[-123.023526,49.23499363],[-123.023521,49.23533579],[-123.02349752,49.2356712],[-123.02351146,49.23621275],[-123.023498,49.23698895],[-123.02349327,49.23738594],[-123.02349756,49.23776051],[-123.02351613,49.23956427],[-123.0236114,49.24023258],[-123.02361154,49.24023614],[-123.02362412,49.24035044],[-123.02363715,49.24096142],[-123.0236305,49.24205764],[-123.0236231,49.24256045],[-123.0236179,49.24298415],[-123.02364268,49.24442688],[-123.02364706,49.24452049],[-123.02365719,49.24493247],[-123.02366936,49.24512189],[-123.02367382,49.24534193],[-123.02369117,49.24618008],[-123.02367405,49.24704707],[-123.023674,49.24791192],[-123.02367514,49.24883196],[-123.02366375,49.24973618],[-123.02365217,49.2506553],[-123.02364816,49.25150057],[-123.0236491,49.25241299],[-123.02365002,49.25331038],[-123.02365393,49.25420301],[-123.02363594,49.25472623],[-123.02364823,49.25541964],[-123.0236337,49.25642762],[-123.02362966,49.25733002],[-123.02362573,49.25821038],[-123.02378918,49.25820788],[-123.02744488,49.25815448],[-123.02853313,49.25813845],[-123.03012482,49.25813596],[-123.03032197,49.25813561],[-123.03199229,49.25813204],[-123.0326123,49.25813062],[-123.03357422,49.25812848],[-123.03372227,49.25812813],[-123.03376701,49.25812813],[-123.03378937,49.25812813],[-123.03386343,49.25812742],[-123.03449524,49.25812635],[-123.03484589,49.25812564],[-123.03653135,49.25812421],[-123.03907343,49.25811495],[-123.04099595,49.25814166],[-123.04159628,49.25814985],[-123.04419344,49.25819507],[-123.04428669,49.25819525],[-123.0443749,49.25819542],[-123.04507729,49.258194],[-123.04699474,49.25819044],[-123.04773129,49.25816836],[-123.04882661,49.25799959],[-123.04957369,49.25788459],[-123.05181558,49.25761292],[-123.05211619,49.2575766],[-123.052952,49.25750682],[-123.05386147,49.25748189],[-123.05475965,49.25750824],[-123.05500796,49.25753388],[-123.05600237,49.25766206],[-123.05663547,49.25779914],[-123.05756586,49.25802701],[-123.05796685,49.25816836],[-123.05825123,49.25826841],[-123.05994763,49.25898728],[-123.06019091,49.25909054],[-123.0606784,49.25931165],[-123.06127357,49.25945407],[-123.06156227,49.25949786],[-123.06207028,49.2595235]]]},"geometry_name":"SHAPE","properties":{"id":340,"slug":"vancouver-renfrew","name":"Vancouver-Renfrew","abbreviation":"VNR","gazetteDate":"2023-12-07Z","boundarySet":11},"bbox":[-123.06987881,49.22922558,-123.02349327,49.2595883]}
