{"type":"Feature","id":339,"geometry":{"type":"Polygon","coordinates":[[[-123.13512414,49.25792062],[-123.13562064,49.25792979],[-123.13607039,49.257938],[-123.13618624,49.25794026],[-123.13630779,49.25794263],[-123.13704911,49.25779507],[-123.1373618,49.25770447],[-123.13764648,49.25759643],[-123.13795807,49.25743549],[-123.13826324,49.2571719],[-123.13832124,49.25713682],[-123.13838215,49.25709999],[-123.13852071,49.25706315],[-123.13879388,49.25705356],[-123.14129375,49.25709914],[-123.14359858,49.25714044],[-123.14597957,49.25717925],[-123.14837108,49.25722162],[-123.15076848,49.25725366],[-123.1517347,49.25726791],[-123.1524651,49.25727859],[-123.15262244,49.25728366],[-123.15289253,49.25729247],[-123.15357601,49.25730316],[-123.15554393,49.25733449],[-123.15594918,49.25732986],[-123.15790901,49.25736582],[-123.15883596,49.25737172],[-123.16028518,49.25740356],[-123.16266208,49.2574381],[-123.16349108,49.25744807],[-123.16400475,49.25748011],[-123.16446017,49.25752248],[-123.16492574,49.25758729],[-123.16649648,49.25764461],[-123.16837872,49.2576674],[-123.1704233,49.25769446],[-123.17227926,49.25772223],[-123.17422571,49.25775107],[-123.17436372,49.25775313],[-123.17615224,49.25777982],[-123.17809245,49.25780875],[-123.17999345,49.25784079],[-123.18183471,49.25787142],[-123.18206722,49.25787533],[-123.18308278,49.25789242],[-123.18401458,49.25790809],[-123.1851179,49.25792304],[-123.18512162,49.25783973],[-123.18512573,49.25735656],[-123.18512862,49.2564764],[-123.18513574,49.25556776],[-123.18513827,49.25513444],[-123.18514112,49.25468332],[-123.18516554,49.25376257],[-123.18517236,49.25285749],[-123.18517377,49.25242239],[-123.18517548,49.25194457],[-123.18518994,49.25105301],[-123.18519521,49.25014793],[-123.18519542,49.2500785],[-123.18807677,49.25008384],[-123.18878671,49.25008422],[-123.18950057,49.2500846],[-123.19086504,49.25008882],[-123.19361161,49.25008562],[-123.19663011,49.25010876],[-123.1987432,49.25019706],[-123.1988323,49.25014971],[-123.19911597,49.25006426],[-123.20001093,49.25005393],[-123.20055492,49.25004788],[-123.20105409,49.24995851],[-123.20401295,49.24943013],[-123.20431881,49.24935073],[-123.20460694,49.24912784],[-123.20317373,49.24841253],[-123.20121505,49.24743481],[-123.20020046,49.24693705],[-123.19998938,49.24683344],[-123.19989461,49.24678715],[-123.1997781,49.24673018],[-123.19904798,49.24637199],[-123.19891328,49.24630577],[-123.19834299,49.24628334],[-123.19675259,49.24621996],[-123.19676365,49.24577845],[-123.19677594,49.24526574],[-123.19676991,49.24482459],[-123.19676231,49.2443133],[-123.196768,49.24388034],[-123.1967741,49.24336513],[-123.19677957,49.24292683],[-123.19678602,49.24242159],[-123.19679242,49.24196442],[-123.19679945,49.24147449],[-123.19679993,49.24102871],[-123.19680027,49.24054484],[-123.19680525,49.24008446],[-123.19681087,49.23957887],[-123.19681637,49.2391128],[-123.19682212,49.2386396],[-123.19682506,49.23849255],[-123.1970055,49.23853101],[-123.19701314,49.23853101],[-123.19703386,49.23853101],[-123.19705458,49.23853101],[-123.1970753,49.23853101],[-123.19709548,49.23853101],[-123.19711641,49.23853065],[-123.19713713,49.23853065],[-123.19715751,49.2385303],[-123.19717823,49.2385303],[-123.19719861,49.23852994],[-123.19721899,49.23852958],[-123.19723957,49.23852887],[-123.1972605,49.23852852],[-123.19728088,49.23852816],[-123.19730146,49.23852745],[-123.19732238,49.23852709],[-123.19734297,49.23852638],[-123.19736355,49.23852567],[-123.19738359,49.23852495],[-123.19740417,49.23852424],[-123.19742495,49.23852317],[-123.19744553,49.23852246],[-123.19746632,49.23852139],[-123.19748636,49.23852068],[-123.19750714,49.23851961],[-123.19752793,49.23851855],[-123.19754817,49.23851748],[-123.19756895,49.23851641],[-123.19758939,49.23851498],[-123.19760963,49.23851392],[-123.19763007,49.23851249],[-123.19765106,49.23851107],[-123.1976713,49.23851],[-123.19769174,49.23850858],[-123.19771239,49.2385068],[-123.19773283,49.23850537],[-123.19775327,49.23850395],[-123.19777337,49.23850217],[-123.19779381,49.23850074],[-123.19781446,49.23849896],[-123.1978351,49.23849718],[-123.1978552,49.2384954],[-123.19787584,49.23849362],[-123.19789594,49.23849184],[-123.19791679,49.23848971],[-123.19793689,49.23848793],[-123.19795719,49.23848579],[-123.19797784,49.23848401],[-123.19799814,49.23848187],[-123.19801844,49.23847974],[-123.1980384,49.23847724],[-123.19805924,49.23847511],[-123.19807955,49.23847297],[-123.1980995,49.23847048],[-123.19811981,49.23846834],[-123.19814031,49.23846585],[-123.19816027,49.23846336],[-123.19818077,49.23846087],[-123.19820073,49.23845837],[-123.19822124,49.23845588],[-123.1982414,49.23845303],[-123.19826136,49.23845054],[-123.19828152,49.23844769],[-123.19830168,49.23844484],[-123.19832184,49.23844199],[-123.19833434,49.23844023],[-123.198342,49.23843915],[-123.19836216,49.2384363],[-123.19838232,49.23843345],[-123.19840214,49.23843024],[-123.1984223,49.2384274],[-123.19844267,49.23842419],[-123.19846249,49.23842099],[-123.1984823,49.23841778],[-123.19850267,49.23841458],[-123.19852249,49.23841137],[-123.19854231,49.23840817],[-123.19856267,49.23840497],[-123.19856893,49.23840354],[-123.19857554,49.23840247],[-123.19858582,49.23840069],[-123.19860457,49.23657201],[-123.19860348,49.236572],[-123.19839537,49.23657107],[-123.19702559,49.23656489],[-123.19701741,49.23656489],[-123.19683635,49.23661189],[-123.19683563,49.23648086],[-123.19683171,49.23563844],[-123.19683324,49.2355188],[-123.19690621,49.23531194],[-123.19692433,49.23525996],[-123.19708113,49.23505238],[-123.1971036,49.23502247],[-123.19728652,49.23507175],[-123.19866566,49.23544331],[-123.19970324,49.23572282],[-123.20000018,49.23580187],[-123.20161048,49.23623518],[-123.20516302,49.23719047],[-123.20524571,49.23721575],[-123.20531985,49.23723498],[-123.20541997,49.23726644],[-123.20570885,49.23735721],[-123.20894551,49.23821859],[-123.21128105,49.23865635],[-123.21982697,49.23975121],[-123.21989041,49.23967989],[-123.2199546,49.23960771],[-123.22108794,49.23795029],[-123.22130583,49.23762735],[-123.22171991,49.23708009],[-123.22223511,49.23592221],[-123.22619323,49.22980167],[-123.20632525,49.22335926],[-123.20610442,49.22325779],[-123.20587894,49.22315489],[-123.20565366,49.22305163],[-123.20542778,49.22294945],[-123.20519844,49.22285046],[-123.20496714,49.22275397],[-123.2047357,49.22265677],[-123.20450657,49.22255743],[-123.20428416,49.22245204],[-123.20407036,49.22233917],[-123.20386437,49.22222025],[-123.20366068,49.22209919],[-123.20353131,49.22202478],[-123.20345449,49.22198063],[-123.20324165,49.22186705],[-123.20302711,49.22175453],[-123.20280952,49.22164451],[-123.20257925,49.22154624],[-123.20233096,49.22147005],[-123.20207212,49.22140952],[-123.20181789,49.22134187],[-123.20156324,49.22127493],[-123.20130238,49.22121796],[-123.20104065,49.22116349],[-123.20077851,49.22110972],[-123.20051671,49.22105631],[-123.20021863,49.22099579],[-123.19995043,49.22095555],[-123.19968311,49.22091567],[-123.19941491,49.22087544],[-123.19914705,49.22083556],[-123.1988794,49.22079533],[-123.19861154,49.22075545],[-123.19834423,49.22071557],[-123.1980715,49.22068139],[-123.19780831,49.22063617],[-123.19754046,49.22059629],[-123.1972724,49.22055677],[-123.19700475,49.22051654],[-123.1967375,49.22047559],[-123.19647052,49.22043322],[-123.19620408,49.220388],[-123.19593817,49.22034279],[-123.1956718,49.22029935],[-123.19540409,49.22026018],[-123.19513443,49.22022636],[-123.19486349,49.22019574],[-123.19459242,49.22016725],[-123.19432095,49.22013948],[-123.19404955,49.22011064],[-123.19377861,49.22008002],[-123.19350949,49.22004619],[-123.19324286,49.22000418],[-123.19297912,49.21995326],[-123.19271544,49.21990128],[-123.19244988,49.21985642],[-123.19218143,49.21981761],[-123.19205965,49.21979981],[-123.19197694,49.21978806],[-123.19191352,49.2197788],[-123.19164763,49.21973358],[-123.19137065,49.2196791],[-123.19131581,49.21966629],[-123.19106375,49.21959294],[-123.19082702,49.21950321],[-123.19060514,49.21939889],[-123.19039105,49.21928567],[-123.19017989,49.21916924],[-123.18996696,49.21905494],[-123.18974616,49.21894777],[-123.18951845,49.21884701],[-123.18928477,49.21875194],[-123.18904695,49.21866222],[-123.18880256,49.21857926],[-123.1885558,49.2184995],[-123.1883106,49.21841797],[-123.18807178,49.21833002],[-123.1877409,49.21818262],[-123.18762201,49.21812529],[-123.18740604,49.21801349],[-123.18719218,49.21789991],[-123.18697676,49.21778811],[-123.18676515,49.21767346],[-123.18655665,49.21755525],[-123.18634721,49.21743775],[-123.18613159,49.21732631],[-123.18591082,49.21721914],[-123.18568754,49.21711446],[-123.1854629,49.2170112],[-123.18523637,49.21690937],[-123.18500868,49.21680861],[-123.18478024,49.2167082],[-123.1845512,49.21660886],[-123.18432005,49.21651131],[-123.18408674,49.2164166],[-123.18384936,49.21632616],[-123.18360927,49.21623857],[-123.18336667,49.21615347],[-123.1831213,49.21607229],[-123.18287234,49.21599646],[-123.18261958,49.21592631],[-123.18236298,49.21586294],[-123.18210238,49.21580561],[-123.18183915,49.21575291],[-123.18157403,49.21570449],[-123.18130852,49.21565963],[-123.18104098,49.21561833],[-123.18077209,49.2155813],[-123.18050152,49.21554818],[-123.18023035,49.21551899],[-123.17995873,49.21549442],[-123.1796849,49.21547947],[-123.17940974,49.21547163],[-123.17913458,49.2154638],[-123.1788613,49.21544885],[-123.17859122,49.21541965],[-123.17832442,49.21537514],[-123.17805935,49.2153228],[-123.17779518,49.21527082],[-123.17752866,49.21522774],[-123.17725948,49.21520175],[-123.17698713,49.21519569],[-123.17671271,49.21520281],[-123.17643717,49.2152167],[-123.17616169,49.21522952],[-123.17588645,49.21523521],[-123.175612,49.21523379],[-123.17533713,49.21523023],[-123.17506308,49.21522525],[-123.17478834,49.21521955],[-123.17451374,49.21521456],[-123.17423927,49.21521029],[-123.17396481,49.21520602],[-123.17369001,49.21520139],[-123.17341581,49.21519569],[-123.17314134,49.21518857],[-123.17286672,49.21518074],[-123.17259231,49.21517255],[-123.17231762,49.21516294],[-123.17204401,49.21515047],[-123.17177046,49.2151341],[-123.1714979,49.21511309],[-123.17122574,49.21508852],[-123.17095431,49.21506075],[-123.17068363,49.21502977],[-123.17041402,49.21499595],[-123.17014514,49.21495892],[-123.16987776,49.21491833],[-123.1696105,49.2148756],[-123.16934425,49.2148311],[-123.16907862,49.21478552],[-123.16881318,49.21473959],[-123.16854761,49.21469295],[-123.16828272,49.21464417],[-123.16802039,49.21459183],[-123.16776057,49.21453415],[-123.1675042,49.21447041],[-123.16725033,49.21440134],[-123.16699883,49.21432906],[-123.1667476,49.21425536],[-123.16649671,49.21418201],[-123.16624562,49.21410902],[-123.16599548,49.21403532],[-123.16574521,49.2139609],[-123.16549568,49.21388613],[-123.16524676,49.21381029],[-123.16499825,49.21373374],[-123.1647496,49.21365648],[-123.16450245,49.2135785],[-123.16425652,49.21349839],[-123.16401235,49.21341614],[-123.16377035,49.21333105],[-123.16353012,49.21324381],[-123.16329104,49.21315551],[-123.16305182,49.2130665],[-123.16281275,49.2129782],[-123.16257231,49.21289132],[-123.16233032,49.21280623],[-123.16208854,49.21272077],[-123.16184892,49.21263247],[-123.16161412,49.21253954],[-123.16138455,49.21244127],[-123.16115831,49.21233909],[-123.16093437,49.21223476],[-123.16071234,49.21212901],[-123.16049017,49.21202255],[-123.16026909,49.21191609],[-123.16004862,49.21180857],[-123.15983006,49.21169962],[-123.1596134,49.21158924],[-123.15939904,49.21147673],[-123.15918565,49.2113635],[-123.15897286,49.21124921],[-123.15876313,49.21113242],[-123.1585585,49.21101243],[-123.15836162,49.21088746],[-123.15817343,49.21075679],[-123.1579928,49.21062149],[-123.15781747,49.21048263],[-123.15764628,49.21034128],[-123.15747844,49.21019885],[-123.15732685,49.21004896],[-123.15718553,49.20989443],[-123.15703618,49.20974346],[-123.15688242,49.20959357],[-123.15671003,49.20945435],[-123.15652112,49.20932403],[-123.15632636,49.20919728],[-123.15612881,49.20907159],[-123.15593331,49.20894519],[-123.15574291,49.20881559],[-123.15555666,49.2086835],[-123.15537251,49.20854962],[-123.15519116,49.20841468],[-123.15501245,49.20827795],[-123.1548377,49.20813909],[-123.15466872,49.20799774],[-123.15450559,49.20785283],[-123.15434526,49.20770684],[-123.15418438,49.20756086],[-123.15401902,49.20741702],[-123.15384801,49.20727638],[-123.15367306,49.20713787],[-123.15349627,49.20699972],[-123.15332133,49.20686122],[-123.15315108,49.20672022],[-123.15298742,49.20657531],[-123.15283125,49.20642684],[-123.15267807,49.20627694],[-123.15252285,49.20612775],[-123.15236288,49.20598213],[-123.15219298,49.20584149],[-123.15206208,49.20574617],[-123.14959532,49.20732729],[-123.14947874,49.20740171],[-123.14934123,49.20748894],[-123.14922692,49.20756798],[-123.14911396,49.20794362],[-123.14905604,49.20813589],[-123.14900957,49.20829184],[-123.14895865,49.20846132],[-123.14887305,49.20874509],[-123.14874274,49.20880918],[-123.14825953,49.20904667],[-123.14871221,49.20947215],[-123.14864105,49.20973349],[-123.14860156,49.21053639],[-123.14859507,49.21066528],[-123.14857903,49.21102205],[-123.14855749,49.21150023],[-123.14853602,49.21195633],[-123.1484785,49.21327443],[-123.14845373,49.21412433],[-123.14843617,49.21459183],[-123.14841711,49.2150782],[-123.14839413,49.21577214],[-123.14847766,49.21600892],[-123.14849694,49.21606304],[-123.1491163,49.21715042],[-123.15051017,49.21948078],[-123.15028708,49.21948007],[-123.1502789,49.21948007],[-123.1502465,49.21948008],[-123.1499506,49.21947936],[-123.14970326,49.21948007],[-123.14896927,49.21946618],[-123.14824999,49.2194523],[-123.14749967,49.21944411],[-123.14680346,49.21943663],[-123.14530588,49.21941776],[-123.14398351,49.21942404],[-123.14380655,49.21942488],[-123.14084144,49.21934976],[-123.14012986,49.21933195],[-123.14010476,49.21989772],[-123.14005938,49.22081349],[-123.14001516,49.22170433],[-123.13998951,49.22261333],[-123.13994758,49.22351557],[-123.13992931,49.22408098],[-123.13990238,49.22474573],[-123.13981085,49.22696643],[-123.13979103,49.2274649],[-123.13977408,49.22789715],[-123.13973631,49.22877517],[-123.13970192,49.2296913],[-123.13966303,49.23063163],[-123.13959244,49.23246637],[-123.13962378,49.23434348],[-123.13875255,49.23431072],[-123.13860132,49.23430504],[-123.13799394,49.23428223],[-123.13775114,49.23427436],[-123.13720317,49.2342566],[-123.13656094,49.23423465],[-123.13639072,49.23422883],[-123.13623063,49.23422326],[-123.13563362,49.23420248],[-123.13525399,49.23418944],[-123.13482499,49.23417471],[-123.13406912,49.23414907],[-123.13335661,49.23412486],[-123.13255766,49.23409638],[-123.13185218,49.23407323],[-123.13130593,49.23405352],[-123.13067835,49.23403086],[-123.13038026,49.23402226],[-123.12807604,49.23395574],[-123.12807372,49.23400665],[-123.12805843,49.23445991],[-123.12797958,49.23674968],[-123.12795151,49.23764907],[-123.12792159,49.23853742],[-123.12788927,49.23949698],[-123.12785612,49.24049535],[-123.12783846,49.24100842],[-123.12782434,49.24143782],[-123.12779327,49.242381],[-123.12768514,49.24357805],[-123.1276593,49.2444988],[-123.12765019,49.2454046],[-123.12766299,49.24630648],[-123.12760055,49.24722652],[-123.1275696,49.24814976],[-123.12753895,49.24865429],[-123.12750964,49.24913638],[-123.12751177,49.24924462],[-123.12751363,49.24933898],[-123.12750314,49.25001298],[-123.12749097,49.25082015],[-123.12746662,49.25133572],[-123.12744843,49.2517199],[-123.12742892,49.25217244],[-123.1274098,49.25261857],[-123.12738778,49.25309853],[-123.12736826,49.25353007],[-123.1273484,49.25398902],[-123.12733009,49.25441272],[-123.12728984,49.25532493],[-123.1272573,49.2560762],[-123.12725166,49.25623642],[-123.12723086,49.25668754],[-123.12721043,49.25711694],[-123.1272421,49.25711084],[-123.12763753,49.25703469],[-123.12770119,49.25703531],[-123.12782145,49.25703647],[-123.13030498,49.25705997],[-123.13062787,49.25706106],[-123.13083149,49.25706175],[-123.13121136,49.25707994],[-123.1317757,49.25710697],[-123.13178933,49.25710697],[-123.13180297,49.25710697],[-123.1319944,49.25718982],[-123.13210407,49.25723729],[-123.13242871,49.25737841],[-123.13269787,49.25749542],[-123.13345804,49.25773898],[-123.13361134,49.2577881],[-123.13391875,49.25785468],[-123.13415386,49.25788026],[-123.13426883,49.25789272],[-123.13440318,49.25790738],[-123.13512414,49.25792062]]]},"geometry_name":"SHAPE","properties":{"id":339,"slug":"vancouver-quilchena","name":"Vancouver-Quilchena","abbreviation":"VNQ","gazetteDate":"2023-12-07Z","boundarySet":11},"bbox":[-123.22619323,49.20574617,-123.12721043,49.25794263]}
