{"type":"Feature","id":334,"geometry":{"type":"Polygon","coordinates":[[[-123.06536388,49.28789767],[-123.06550526,49.28639384],[-123.06550493,49.28638373],[-123.06551778,49.28548434],[-123.0655173,49.28542488],[-123.06551405,49.28520947],[-123.06551262,49.28509233],[-123.06550937,49.28483383],[-123.06824986,49.28422534],[-123.07034853,49.28386359],[-123.07034839,49.28339859],[-123.07034794,49.28308348],[-123.07036329,49.28264304],[-123.07037863,49.28218445],[-123.07038786,49.28176146],[-123.07039934,49.28124839],[-123.0704148,49.28073603],[-123.07042883,49.28028455],[-123.07043959,49.27984554],[-123.07045139,49.27937983],[-123.07046092,49.27893725],[-123.07047101,49.27848222],[-123.07047201,49.27809768],[-123.07042025,49.27801045],[-123.07028188,49.27777652],[-123.07007078,49.2775725],[-123.06967932,49.27724743],[-123.06954434,49.27710038],[-123.06952248,49.27707652],[-123.06945988,49.27691452],[-123.06947068,49.27665638],[-123.06953279,49.27576198],[-123.06954565,49.27486401],[-123.06955883,49.27395216],[-123.06958233,49.27303853],[-123.06960797,49.27213843],[-123.06962601,49.27137221],[-123.06964935,49.27049917],[-123.06967563,49.26958661],[-123.06967395,49.2687011],[-123.06967896,49.26779246],[-123.06969295,49.26708997],[-123.06969985,49.2668742],[-123.06971111,49.26643661],[-123.06971879,49.26598905],[-123.06972309,49.26578646],[-123.06974052,49.26507898],[-123.06975792,49.26416891],[-123.06976844,49.26372314],[-123.06977069,49.26360065],[-123.06977774,49.26326326],[-123.06977839,49.2632325],[-123.06978228,49.26302492],[-123.06978435,49.26292665],[-123.06978632,49.26281805],[-123.06979484,49.26232705],[-123.06980208,49.26199415],[-123.06981512,49.26139776],[-123.06982161,49.26091993],[-123.06982813,49.26044781],[-123.06983742,49.26002055],[-123.06984683,49.2595883],[-123.06910196,49.25957904],[-123.06594963,49.25954094],[-123.06526725,49.25953596],[-123.06403738,49.2595267],[-123.06207028,49.2595235],[-123.06156227,49.25949786],[-123.06127357,49.25945407],[-123.0606784,49.25931165],[-123.06019091,49.25909054],[-123.05994763,49.25898728],[-123.05825123,49.25826841],[-123.05796685,49.25816836],[-123.05756586,49.25802701],[-123.05663547,49.25779914],[-123.05600237,49.25766206],[-123.05500796,49.25753388],[-123.05475965,49.25750824],[-123.05386147,49.25748189],[-123.052952,49.25750682],[-123.05211619,49.2575766],[-123.05181558,49.25761292],[-123.04957369,49.25788459],[-123.04882661,49.25799959],[-123.04773129,49.25816836],[-123.04699474,49.25819044],[-123.04507729,49.258194],[-123.0443749,49.25819542],[-123.04428669,49.25819525],[-123.04419344,49.25819507],[-123.04159628,49.25814985],[-123.04099595,49.25814166],[-123.03907343,49.25811495],[-123.03653135,49.25812421],[-123.03484589,49.25812564],[-123.03449524,49.25812635],[-123.03386343,49.25812742],[-123.03378937,49.25812813],[-123.03376701,49.25812813],[-123.03372227,49.25812813],[-123.03357422,49.25812848],[-123.0326123,49.25813062],[-123.03199229,49.25813204],[-123.03032197,49.25813561],[-123.03012482,49.25813596],[-123.02853313,49.25813845],[-123.02744488,49.25815448],[-123.02378918,49.25820788],[-123.02362573,49.25821038],[-123.02362498,49.25911048],[-123.02364196,49.25981811],[-123.02364865,49.26009674],[-123.0236273,49.26085549],[-123.02362335,49.26100076],[-123.02361903,49.26115529],[-123.02362274,49.26130625],[-123.02362303,49.26139106],[-123.02362357,49.26154338],[-123.02362696,49.26230569],[-123.02362533,49.26245726],[-123.02361237,49.26366387],[-123.02359225,49.26553615],[-123.02359163,49.26557639],[-123.02359143,49.26557959],[-123.02359103,49.26562517],[-123.02358007,49.26662852],[-123.02356065,49.26846112],[-123.02356532,49.26939149],[-123.02356581,49.26945843],[-123.02356611,49.26952857],[-123.02356979,49.27028981],[-123.02356382,49.27120166],[-123.02355796,49.27211529],[-123.02355102,49.27318558],[-123.02354615,49.27390659],[-123.02354474,49.2741163],[-123.02353982,49.27487754],[-123.02353453,49.27575984],[-123.02352935,49.27643278],[-123.0235286,49.27665482],[-123.0235258,49.27748883],[-123.02352313,49.27824153],[-123.02352226,49.27847616],[-123.02351995,49.27905439],[-123.02351871,49.27933746],[-123.02352561,49.28023115],[-123.023498,49.28113944],[-123.02348434,49.28204915],[-123.02347125,49.28295601],[-123.02345776,49.2838579],[-123.02344432,49.28474447],[-123.02343436,49.2856613],[-123.02341537,49.2866351],[-123.0233985,49.28760143],[-123.02338493,49.28837371],[-123.02337972,49.2886792],[-123.02336908,49.28928304],[-123.02336132,49.28972386],[-123.02335656,49.29018982],[-123.0233514,49.29069446],[-123.02334733,49.29109074],[-123.02333858,49.29196663],[-123.02330062,49.29315193],[-123.02330009,49.29317294],[-123.02330033,49.29328153],[-123.02329816,49.29462421],[-123.02614998,49.29481398],[-123.02633251,49.29482609],[-123.02875819,49.29498774],[-123.02880604,49.29499094],[-123.03004517,49.29507354],[-123.03850263,49.29563611],[-123.0421154,49.29587609],[-123.04708017,49.29620579],[-123.05172627,49.29651427],[-123.05438553,49.29669073],[-123.06395986,49.29732558],[-123.06484998,49.29738468],[-123.06491306,49.29652873],[-123.06530666,49.28901959],[-123.06536388,49.28789767]]]},"geometry_name":"SHAPE","properties":{"id":334,"slug":"vancouver-hastings","name":"Vancouver-Hastings","abbreviation":"VHA","gazetteDate":"2023-12-07Z","boundarySet":11},"bbox":[-123.07047201,49.25748189,-123.02329816,49.29738468]}
