{"type":"Feature","id":338,"geometry":{"type":"Polygon","coordinates":[[[-123.16802488,49.28204844],[-123.17343,49.2821225],[-123.17938618,49.28220368],[-123.18303429,49.28225324],[-123.18320522,49.28225556],[-123.18551536,49.28228687],[-123.19289088,49.28238653],[-123.20000015,49.28248211],[-123.2027628,49.28251914],[-123.20482852,49.28254682],[-123.21425197,49.2826726],[-123.22200318,49.2827755],[-123.26544321,49.28343597],[-123.26808327,49.28347556],[-123.27091844,49.28351799],[-123.2716612,49.2835291],[-123.27250732,49.28354175],[-123.308845,49.28407852],[-123.30995982,49.25914323],[-123.28983441,49.25914573],[-123.2863373,49.26192187],[-123.26958234,49.25500804],[-123.26803432,49.25438139],[-123.2675351,49.25407269],[-123.26559959,49.25286639],[-123.26342005,49.25152799],[-123.25693659,49.24755978],[-123.25493731,49.24637595],[-123.25385917,49.24573751],[-123.24011173,49.23759281],[-123.23995018,49.23749703],[-123.23051405,49.23189348],[-123.2304425,49.23185147],[-123.23037096,49.23180945],[-123.23029942,49.23176744],[-123.23022713,49.23172578],[-123.23015518,49.23168448],[-123.23008268,49.23164317],[-123.23000965,49.23160187],[-123.22993695,49.23156093],[-123.22986371,49.23151998],[-123.22979027,49.23147939],[-123.22971663,49.23143916],[-123.22964264,49.23139857],[-123.22956879,49.23135869],[-123.2294946,49.23131846],[-123.22942001,49.23127893],[-123.22934507,49.23123906],[-123.22927028,49.23119989],[-123.22919514,49.23116037],[-123.22912014,49.23112156],[-123.22904426,49.23108239],[-123.22896871,49.23104358],[-123.22889297,49.23100513],[-123.22881668,49.23096668],[-123.22874019,49.23092858],[-123.2286637,49.23089048],[-123.228587,49.23085274],[-123.22850976,49.230815],[-123.22843287,49.23077761],[-123.22835543,49.23074023],[-123.22827799,49.23070284],[-123.22820014,49.23066617],[-123.22812195,49.23062914],[-123.22804356,49.23059246],[-123.22796552,49.23055615],[-123.22788692,49.23051983],[-123.22780813,49.23048387],[-123.22772934,49.23044791],[-123.22764979,49.2304123],[-123.2275708,49.2303767],[-123.22749105,49.23034145],[-123.22741131,49.2303062],[-123.22733136,49.23027131],[-123.22725122,49.23023677],[-123.22717072,49.23020188],[-123.22709037,49.23016769],[-123.22701003,49.23013351],[-123.22692913,49.23009933],[-123.22684803,49.23006551],[-123.22676673,49.23003204],[-123.22668543,49.22999857],[-123.22660359,49.2299651],[-123.22652209,49.22993199],[-123.22643984,49.22989923],[-123.22635813,49.22986647],[-123.22627568,49.22983407],[-123.22619323,49.22980167],[-123.22223511,49.23592221],[-123.22171991,49.23708009],[-123.22130583,49.23762735],[-123.22108794,49.23795029],[-123.2199546,49.23960771],[-123.21989041,49.23967989],[-123.21982697,49.23975121],[-123.21128105,49.23865635],[-123.20894551,49.23821859],[-123.20570885,49.23735721],[-123.20541997,49.23726644],[-123.20531985,49.23723498],[-123.20524571,49.23721575],[-123.20516302,49.23719047],[-123.20161048,49.23623518],[-123.20000018,49.23580187],[-123.19970324,49.23572282],[-123.19866566,49.23544331],[-123.19728652,49.23507175],[-123.1971036,49.23502247],[-123.19708113,49.23505238],[-123.19692433,49.23525996],[-123.19690621,49.23531194],[-123.19683324,49.2355188],[-123.19683171,49.23563844],[-123.19683563,49.23648086],[-123.19683635,49.23661189],[-123.19701741,49.23656489],[-123.19702559,49.23656489],[-123.19839537,49.23657107],[-123.19860348,49.236572],[-123.19860457,49.23657201],[-123.19858582,49.23840069],[-123.19857554,49.23840247],[-123.19856893,49.23840354],[-123.19856267,49.23840497],[-123.19854231,49.23840817],[-123.19852249,49.23841137],[-123.19850267,49.23841458],[-123.1984823,49.23841778],[-123.19846249,49.23842099],[-123.19844267,49.23842419],[-123.1984223,49.2384274],[-123.19840214,49.23843024],[-123.19838232,49.23843345],[-123.19836216,49.2384363],[-123.198342,49.23843915],[-123.19833434,49.23844023],[-123.19832184,49.23844199],[-123.19830168,49.23844484],[-123.19828152,49.23844769],[-123.19826136,49.23845054],[-123.1982414,49.23845303],[-123.19822124,49.23845588],[-123.19820073,49.23845837],[-123.19818077,49.23846087],[-123.19816027,49.23846336],[-123.19814031,49.23846585],[-123.19811981,49.23846834],[-123.1980995,49.23847048],[-123.19807955,49.23847297],[-123.19805924,49.23847511],[-123.1980384,49.23847724],[-123.19801844,49.23847974],[-123.19799814,49.23848187],[-123.19797784,49.23848401],[-123.19795719,49.23848579],[-123.19793689,49.23848793],[-123.19791679,49.23848971],[-123.19789594,49.23849184],[-123.19787584,49.23849362],[-123.1978552,49.2384954],[-123.1978351,49.23849718],[-123.19781446,49.23849896],[-123.19779381,49.23850074],[-123.19777337,49.23850217],[-123.19775327,49.23850395],[-123.19773283,49.23850537],[-123.19771239,49.2385068],[-123.19769174,49.23850858],[-123.1976713,49.23851],[-123.19765106,49.23851107],[-123.19763007,49.23851249],[-123.19760963,49.23851392],[-123.19758939,49.23851498],[-123.19756895,49.23851641],[-123.19754817,49.23851748],[-123.19752793,49.23851855],[-123.19750714,49.23851961],[-123.19748636,49.23852068],[-123.19746632,49.23852139],[-123.19744553,49.23852246],[-123.19742495,49.23852317],[-123.19740417,49.23852424],[-123.19738359,49.23852495],[-123.19736355,49.23852567],[-123.19734297,49.23852638],[-123.19732238,49.23852709],[-123.19730146,49.23852745],[-123.19728088,49.23852816],[-123.1972605,49.23852852],[-123.19723957,49.23852887],[-123.19721899,49.23852958],[-123.19719861,49.23852994],[-123.19717823,49.2385303],[-123.19715751,49.2385303],[-123.19713713,49.23853065],[-123.19711641,49.23853065],[-123.19709548,49.23853101],[-123.1970753,49.23853101],[-123.19705458,49.23853101],[-123.19703386,49.23853101],[-123.19701314,49.23853101],[-123.1970055,49.23853101],[-123.19682506,49.23849255],[-123.19682212,49.2386396],[-123.19681637,49.2391128],[-123.19681087,49.23957887],[-123.19680525,49.24008446],[-123.19680027,49.24054484],[-123.19679993,49.24102871],[-123.19679945,49.24147449],[-123.19679242,49.24196442],[-123.19678602,49.24242159],[-123.19677957,49.24292683],[-123.1967741,49.24336513],[-123.196768,49.24388034],[-123.19676231,49.2443133],[-123.19676991,49.24482459],[-123.19677594,49.24526574],[-123.19676365,49.24577845],[-123.19675259,49.24621996],[-123.19834299,49.24628334],[-123.19891328,49.24630577],[-123.19904798,49.24637199],[-123.1997781,49.24673018],[-123.19989461,49.24678715],[-123.19998938,49.24683344],[-123.20020046,49.24693705],[-123.20121505,49.24743481],[-123.20317373,49.24841253],[-123.20460694,49.24912784],[-123.20431881,49.24935073],[-123.20401295,49.24943013],[-123.20105409,49.24995851],[-123.20055492,49.25004788],[-123.20001093,49.25005393],[-123.19911597,49.25006426],[-123.1988323,49.25014971],[-123.1987432,49.25019706],[-123.19663011,49.25010876],[-123.19361161,49.25008562],[-123.19086504,49.25008882],[-123.18950057,49.2500846],[-123.18878671,49.25008422],[-123.18807677,49.25008384],[-123.18519542,49.2500785],[-123.18519521,49.25014793],[-123.18518994,49.25105301],[-123.18517548,49.25194457],[-123.18517377,49.25242239],[-123.18517236,49.25285749],[-123.18516554,49.25376257],[-123.18514112,49.25468332],[-123.18513827,49.25513444],[-123.18513574,49.25556776],[-123.18512862,49.2564764],[-123.18512573,49.25735656],[-123.18512162,49.25783973],[-123.1851179,49.25792304],[-123.18401458,49.25790809],[-123.18308278,49.25789242],[-123.18206722,49.25787533],[-123.18183471,49.25787142],[-123.17999345,49.25784079],[-123.17809245,49.25780875],[-123.17615224,49.25777982],[-123.17436372,49.25775313],[-123.17422571,49.25775107],[-123.17227926,49.25772223],[-123.1704233,49.25769446],[-123.16837872,49.2576674],[-123.16649648,49.25764461],[-123.16492574,49.25758729],[-123.16446017,49.25752248],[-123.16400475,49.25748011],[-123.16349108,49.25744807],[-123.16266208,49.2574381],[-123.16028518,49.25740356],[-123.16028424,49.25741958],[-123.16028404,49.25742387],[-123.16026636,49.25789776],[-123.16025048,49.2583293],[-123.16023227,49.25882385],[-123.16021519,49.25928779],[-123.16019818,49.25973196],[-123.16018054,49.26018576],[-123.16016399,49.26064087],[-123.16014499,49.26114959],[-123.15772938,49.2611147],[-123.15772297,49.26132679],[-123.15771546,49.26157543],[-123.15770616,49.26186835],[-123.1577012,49.26202923],[-123.15768741,49.26247624],[-123.15767083,49.26292269],[-123.15767061,49.26292848],[-123.15767049,49.26293163],[-123.15767055,49.26293163],[-123.15767055,49.2629318],[-123.15976293,49.26297809],[-123.16004394,49.26298433],[-123.1600404,49.26309187],[-123.16002882,49.26344746],[-123.16001261,49.26393997],[-123.15999837,49.26441013],[-123.15998516,49.26484185],[-123.15994711,49.26568854],[-123.15991961,49.26651387],[-123.15990514,49.26738157],[-123.15987422,49.26782931],[-123.15986533,49.26795777],[-123.15984499,49.26824999],[-123.15983777,49.26854178],[-123.1598342,49.26868342],[-123.15982319,49.26912587],[-123.15980655,49.26960124],[-123.15979206,49.27001244],[-123.15978391,49.27023065],[-123.15977549,49.27045609],[-123.15975844,49.27089866],[-123.1597455,49.2712733],[-123.15974327,49.27133717],[-123.1597279,49.27178238],[-123.15971973,49.27199626],[-123.15971159,49.27220929],[-123.15969494,49.27265791],[-123.15969662,49.27269605],[-123.15970473,49.27286542],[-123.15971985,49.27318162],[-123.15972644,49.27332515],[-123.15975717,49.27339523],[-123.15975923,49.27339993],[-123.15986774,49.27348645],[-123.1601845,49.27352632],[-123.1620651,49.27355695],[-123.16244883,49.27356347],[-123.16392871,49.27358863],[-123.16413194,49.27356905],[-123.16426798,49.27348431],[-123.16435098,49.2733604],[-123.1643539,49.28199823],[-123.16802488,49.28204844]]]},"geometry_name":"SHAPE","properties":{"id":338,"slug":"vancouver-point-grey","name":"Vancouver-Point Grey","abbreviation":"VNP","gazetteDate":"2023-12-07Z","boundarySet":11},"bbox":[-123.30995982,49.22980167,-123.15767049,49.28407852]}
