{"type":"Feature","id":347,"geometry":{"type":"Polygon","coordinates":[[[-123.35115992,48.47192966],[-123.3526165,48.47174238],[-123.35291879,48.47170214],[-123.35397939,48.47155367],[-123.3550898,48.47139807],[-123.35642824,48.4710851],[-123.35667468,48.47102742],[-123.35698564,48.47098612],[-123.35735907,48.47093627],[-123.35741736,48.47092844],[-123.35791703,48.47086293],[-123.35911728,48.4707052],[-123.35930748,48.47068027],[-123.36120487,48.47043068],[-123.36172716,48.47036873],[-123.36360848,48.47014655],[-123.36459408,48.47002976],[-123.36615937,48.46983643],[-123.36757655,48.46966125],[-123.36845316,48.46955265],[-123.36869804,48.46952239],[-123.36975459,48.46939172],[-123.37101946,48.46923541],[-123.37191727,48.46912361],[-123.37324575,48.46895769],[-123.37494281,48.46875474],[-123.37694131,48.46851476],[-123.37719906,48.4684845],[-123.37749422,48.46844996],[-123.37897579,48.46827015],[-123.38126063,48.46794365],[-123.38137723,48.46792977],[-123.38151201,48.46790591],[-123.38148523,48.46780301],[-123.38147223,48.46774355],[-123.38069196,48.46528537],[-123.38038411,48.46445193],[-123.3796403,48.46243815],[-123.3793545,48.46166431],[-123.37904185,48.46081806],[-123.37898783,48.46067183],[-123.37874955,48.46002683],[-123.37849937,48.45956823],[-123.37871535,48.45946712],[-123.37858927,48.45910928],[-123.37851668,48.45890313],[-123.37830048,48.45842139],[-123.37799166,48.45808777],[-123.37797216,48.45806605],[-123.37765267,48.45785705],[-123.37701493,48.45755796],[-123.37680943,48.45746147],[-123.37651828,48.4573251],[-123.37747248,48.45635842],[-123.37721243,48.45589484],[-123.37702728,48.45557475],[-123.37697969,48.45540847],[-123.37700371,48.45527211],[-123.37702991,48.45518804],[-123.37704671,48.45515857],[-123.37717794,48.45492505],[-123.37718956,48.45490437],[-123.37720214,48.45486347],[-123.37743812,48.45500151],[-123.37789595,48.45519057],[-123.37804882,48.45524398],[-123.37847573,48.45537216],[-123.38081331,48.45590481],[-123.38201649,48.45618716],[-123.38322137,48.4564651],[-123.38656866,48.45723714],[-123.38661422,48.45724765],[-123.38968753,48.45795639],[-123.39040477,48.45809133],[-123.39083897,48.45816681],[-123.39178091,48.45822699],[-123.39243728,48.45821915],[-123.39483565,48.45820349],[-123.3967155,48.45820135],[-123.39758431,48.45828467],[-123.39834325,48.45840252],[-123.40091557,48.45891915],[-123.40191507,48.45911961],[-123.40467722,48.45967719],[-123.40474236,48.45969045],[-123.40480946,48.4597041],[-123.40788391,48.46032307],[-123.40859495,48.46049539],[-123.40929494,48.46073253],[-123.40981256,48.46096111],[-123.41140761,48.46174371],[-123.41521294,48.46361441],[-123.41581579,48.46383695],[-123.41665424,48.46403491],[-123.41737939,48.46413461],[-123.41844293,48.46415419],[-123.42113344,48.46406909],[-123.4211573,48.46401818],[-123.4212916,48.46370663],[-123.42129058,48.46358352],[-123.42128947,48.46344887],[-123.42127887,48.46217133],[-123.42101061,48.46215353],[-123.42073388,48.4621254],[-123.42047184,48.4620841],[-123.42023234,48.46202535],[-123.42002588,48.46194132],[-123.41987849,48.46180033],[-123.41977837,48.46161981],[-123.41970747,48.4614279],[-123.41964873,48.46124916],[-123.41961021,48.46106615],[-123.41960977,48.46088136],[-123.41966323,48.46070725],[-123.41977164,48.46054845],[-123.41991475,48.46039641],[-123.42007445,48.46024723],[-123.4202337,48.46009697],[-123.42037492,48.45994173],[-123.42048496,48.45977831],[-123.42057858,48.45960989],[-123.42066173,48.45943828],[-123.42073948,48.45926488],[-123.42081582,48.45909112],[-123.42089444,48.45891808],[-123.42098072,48.45874753],[-123.42107835,48.45858055],[-123.42119185,48.45841854],[-123.4213221,48.45826188],[-123.42297228,48.45635949],[-123.42302675,48.45629754],[-123.42308869,48.45623843],[-123.42315701,48.45618218],[-123.4232276,48.45612663],[-123.42329712,48.45607109],[-123.42336231,48.45601376],[-123.42341885,48.45595288],[-123.42346879,48.4558895],[-123.42351667,48.45582506],[-123.42356228,48.4557599],[-123.4236069,48.45569367],[-123.42364905,48.45562709],[-123.42368893,48.4555598],[-123.42372741,48.45549215],[-123.42376395,48.45542414],[-123.42379834,48.45535614],[-123.42383079,48.45528777],[-123.42386151,48.4552187],[-123.4238905,48.45514891],[-123.42391702,48.45507877],[-123.42394159,48.45500827],[-123.42396369,48.45493742],[-123.42398224,48.45486621],[-123.42399811,48.454795],[-123.42401075,48.45472379],[-123.42401964,48.45465258],[-123.42402229,48.45458101],[-123.42401957,48.45450944],[-123.42401223,48.45443752],[-123.42400275,48.4543656],[-123.42399111,48.45429367],[-123.42398022,48.4542214],[-123.42397074,48.45414947],[-123.42396394,48.45407755],[-123.42395982,48.45400563],[-123.42395699,48.45393335],[-123.42395448,48.45386143],[-123.42395218,48.45378915],[-123.42394968,48.45371723],[-123.42394556,48.4536453],[-123.4239393,48.45357338],[-123.42393014,48.45350181],[-123.42391756,48.4534306],[-123.42390047,48.45335975],[-123.42387942,48.45328925],[-123.42385601,48.45321911],[-123.42382992,48.45314897],[-123.42380329,48.45307882],[-123.42377645,48.45300904],[-123.4237509,48.4529389],[-123.42372588,48.45286875],[-123.42370086,48.45279861],[-123.42367349,48.45272883],[-123.42364227,48.45266011],[-123.42360411,48.45259317],[-123.42355643,48.45252872],[-123.42350587,48.45246463],[-123.42345915,48.45239948],[-123.4234135,48.45233432],[-123.42336529,48.45226987],[-123.42331154,48.45220756],[-123.42325299,48.45214704],[-123.4231939,48.45208651],[-123.42315621,48.4520509],[-123.42312641,48.45203025],[-123.42309461,48.45200568],[-123.42305507,48.45197506],[-123.42298469,48.45191916],[-123.42291282,48.45186397],[-123.42283841,48.45181128],[-123.42276011,48.4517625],[-123.42267653,48.45171906],[-123.42258462,48.45168346],[-123.42248446,48.45165461],[-123.42237915,48.45163183],[-123.42227294,48.45161331],[-123.42216714,48.45159871],[-123.42205985,48.45159124],[-123.42195075,48.45159053],[-123.42184163,48.45159444],[-123.42173518,48.45160299],[-123.42163076,48.45162364],[-123.42152644,48.45164322],[-123.42142098,48.45165924],[-123.42131486,48.45167455],[-123.42120793,48.45168666],[-123.42109855,48.45169378],[-123.42099227,48.4517066],[-123.42089411,48.45173401],[-123.42079839,48.45176642],[-123.42070423,48.45180167],[-123.42061097,48.45183905],[-123.42051881,48.45187822],[-123.42042806,48.45191774],[-123.42033731,48.45195726],[-123.4202519,48.45200141],[-123.42017184,48.45205019],[-123.42008729,48.4520947],[-123.41999657,48.452136],[-123.41990406,48.45217944],[-123.41981066,48.45222074],[-123.4197153,48.45225528],[-123.41961761,48.45227913],[-123.41951663,48.45228839],[-123.41941003,48.4522834],[-123.41930163,48.45226774],[-123.4191931,48.45224495],[-123.41908933,48.4522186],[-123.41899036,48.45219047],[-123.41889243,48.45216056],[-123.41879504,48.45213066],[-123.41869992,48.45210146],[-123.41856344,48.45205945],[-123.41835009,48.45196438],[-123.41815056,48.45184475],[-123.41795669,48.45171087],[-123.41776288,48.45157415],[-123.41756138,48.45144597],[-123.41738974,48.45135945],[-123.41734575,48.45133737],[-123.41729926,48.45131957],[-123.41720434,48.45128361],[-123.41712574,48.4512537],[-123.41700836,48.45121667],[-123.41690891,48.45118569],[-123.41686723,48.45117252],[-123.41680735,48.4511565],[-123.41661444,48.45110451],[-123.41640324,48.45105075],[-123.41635977,48.45103971],[-123.41630282,48.45102511],[-123.41620219,48.45099983],[-123.41610651,48.45097527],[-123.41599918,48.45095319],[-123.41590013,48.45093254],[-123.41584506,48.45092115],[-123.41579853,48.4509126],[-123.41558017,48.45087201],[-123.41531821,48.45081967],[-123.41506776,48.45075594],[-123.41483553,48.45067298],[-123.41463187,48.45056047],[-123.41444991,48.45042552],[-123.41427576,48.45028275],[-123.4140958,48.45014531],[-123.41391948,48.45000075],[-123.41374777,48.44985014],[-123.41359835,48.44975045],[-123.41357694,48.44973656],[-123.4135332,48.44971591],[-123.41350879,48.44970808],[-123.4134846,48.44969989],[-123.41346019,48.44969205],[-123.41343579,48.44968422],[-123.41333351,48.44965075],[-123.41307512,48.44962262],[-123.41279822,48.44962156],[-123.41268868,48.44962618],[-123.41264899,48.44962797],[-123.4126093,48.44962975],[-123.41258291,48.44963081],[-123.41255705,48.44963188],[-123.41251575,48.44963366],[-123.41224015,48.44964506],[-123.41196879,48.44966571],[-123.41169583,48.44969918],[-123.41142374,48.449733],[-123.41115489,48.44975579],[-123.41089066,48.44975508],[-123.41063233,48.4497241],[-123.41037424,48.4496771],[-123.4101168,48.449618],[-123.40986292,48.44954821],[-123.40961298,48.44946988],[-123.40936934,48.44938442],[-123.40913346,48.44929399],[-123.40890789,48.44919785],[-123.40870036,48.44908463],[-123.40850688,48.44895752],[-123.40831854,48.44882435],[-123.40812884,48.44869262],[-123.4079305,48.44857013],[-123.40771507,48.44846403],[-123.40760554,48.44842095],[-123.40748456,48.44837359],[-123.40724318,48.44829348],[-123.40699474,48.44822085],[-123.40674261,48.44815177],[-123.40648986,48.44808377],[-123.40623943,48.44801362],[-123.40599248,48.44794028],[-123.40574563,48.44786586],[-123.4054991,48.4477918],[-123.40525162,48.44771846],[-123.40500385,48.44764653],[-123.40475408,48.4475771],[-123.40450298,48.44751088],[-123.40424958,48.44744857],[-123.40399139,48.44739445],[-123.40372912,48.44734638],[-123.40346573,48.44730116],[-123.40320191,48.44725666],[-123.40303778,48.4472271],[-123.40293977,48.4472093],[-123.40268224,48.44715589],[-123.40243025,48.44709394],[-123.40218737,48.44701917],[-123.40195619,48.44692624],[-123.40173792,48.44682227],[-123.40151455,48.44670869],[-123.40129511,48.44659938],[-123.40107121,48.44649862],[-123.40083719,48.44641424],[-123.40058607,48.44635905],[-123.4004828,48.446353],[-123.40043422,48.44634979],[-123.40034857,48.44634481],[-123.40031902,48.44634303],[-123.40031171,48.44634267],[-123.40018041,48.44634231],[-123.39999961,48.44634125],[-123.3997517,48.44633377],[-123.39969906,48.44632558],[-123.39949506,48.44629353],[-123.39941771,48.44626612],[-123.39926408,48.44621129],[-123.39903837,48.44611729],[-123.39881693,48.4460151],[-123.39859911,48.44590579],[-123.39838592,48.44579043],[-123.39817725,48.44567009],[-123.39797443,48.44554618],[-123.39777757,48.44541943],[-123.39758605,48.44529089],[-123.39740287,48.44516093],[-123.39732942,48.44508621],[-123.39725586,48.44501139],[-123.39713892,48.4448444],[-123.3970289,48.44467385],[-123.39690317,48.44451363],[-123.39673858,48.44437762],[-123.39653629,48.44426475],[-123.3963115,48.44416648],[-123.39607109,48.44407746],[-123.39582466,48.44399415],[-123.39557996,48.44391154],[-123.39534093,48.44382752],[-123.39509969,48.44374634],[-123.39485613,48.44366729],[-123.39461207,48.44359003],[-123.39436747,48.44351277],[-123.3941234,48.4434355],[-123.39387985,48.44335646],[-123.39363862,48.44327528],[-123.3934792,48.44321938],[-123.39339939,48.44319161],[-123.39316024,48.44310687],[-123.39292119,48.44302106],[-123.39268372,48.44293347],[-123.39244994,48.44284232],[-123.39222081,48.4427469],[-123.39214031,48.44271022],[-123.39204943,48.44266928],[-123.39108336,48.44194151],[-123.38985186,48.44131236],[-123.3888797,48.44067396],[-123.38778753,48.44023958],[-123.38726364,48.44009217],[-123.38695658,48.44001071],[-123.38616042,48.4397995],[-123.38601338,48.43976282],[-123.38532304,48.43972366],[-123.3837723,48.43963607],[-123.38231919,48.43950213],[-123.38161685,48.43943739],[-123.38121967,48.43934767],[-123.3810311,48.43920418],[-123.38079695,48.43884172],[-123.38053761,48.43836104],[-123.38008672,48.43769917],[-123.37959967,48.43698419],[-123.37875959,48.43565576],[-123.37796229,48.43440721],[-123.37752466,48.43450037],[-123.37715312,48.43457941],[-123.37641135,48.43473892],[-123.37452833,48.43506471],[-123.37264836,48.43543287],[-123.37157509,48.43587224],[-123.37125664,48.43594309],[-123.37078598,48.43598796],[-123.3703579,48.435973],[-123.37012222,48.43595484],[-123.36901807,48.4358701],[-123.36731412,48.43580886],[-123.36545273,48.43571593],[-123.36414964,48.43564009],[-123.36283511,48.43558562],[-123.36272062,48.43558134],[-123.36263309,48.43557778],[-123.361034,48.43546313],[-123.35948341,48.43538658],[-123.35800662,48.43530042],[-123.35754448,48.43526944],[-123.35656487,48.43520393],[-123.35580006,48.43517295],[-123.35515143,48.43513877],[-123.354571,48.43509996],[-123.35339295,48.43504798],[-123.35229516,48.43498816],[-123.3522782,48.4349878],[-123.35098425,48.43490378],[-123.34930974,48.43480159],[-123.34765092,48.43465988],[-123.3463094,48.43458653],[-123.34499162,48.43450749],[-123.34364886,48.43442987],[-123.34292676,48.43439106],[-123.34232124,48.43435937],[-123.34099791,48.43430169],[-123.33981719,48.43424793],[-123.33961515,48.43423831],[-123.33858316,48.43418989],[-123.33830295,48.43417814],[-123.33740843,48.43412865],[-123.33693498,48.43410052],[-123.33626048,48.43407026],[-123.33573024,48.43404106],[-123.33559457,48.43403358],[-123.33503759,48.43400332],[-123.33433741,48.43397199],[-123.33377131,48.43394172],[-123.33333403,48.43391324],[-123.33253598,48.43386126],[-123.33122501,48.43377616],[-123.33021026,48.43371029],[-123.32919303,48.43364406],[-123.3290122,48.43445301],[-123.32896212,48.43469371],[-123.32885645,48.43519823],[-123.3287035,48.43592956],[-123.32849798,48.43686384],[-123.32830891,48.43784512],[-123.32811758,48.43877086],[-123.32907017,48.43881572],[-123.33099084,48.43890652],[-123.33254231,48.43897986],[-123.33267043,48.43899019],[-123.33267033,48.43900408],[-123.33266794,48.43908953],[-123.33264376,48.43989527],[-123.33259763,48.43998393],[-123.33263934,48.44008113],[-123.33261152,48.44098551],[-123.33260729,48.44112259],[-123.3326039,48.44125824],[-123.33259913,48.44139532],[-123.33259601,48.44152777],[-123.33258545,48.44188418],[-123.33255471,48.44198779],[-123.33258022,48.44206506],[-123.33254654,48.44316063],[-123.33254612,48.44316134],[-123.33254296,48.44327101],[-123.33254158,48.44334471],[-123.33253292,48.44359822],[-123.33251692,48.44368403],[-123.33252845,48.44377874],[-123.33247843,48.44525813],[-123.3324588,48.44587802],[-123.33246535,48.44598947],[-123.3324599,48.44610305],[-123.33244691,48.44657624],[-123.33244495,48.44663356],[-123.33244219,48.44674074],[-123.33243747,48.44690523],[-123.33243296,48.44706937],[-123.33242825,48.44723387],[-123.33242507,48.44734816],[-123.33242353,48.44739837],[-123.33241882,48.44756286],[-123.33241464,48.44772736],[-123.33240993,48.44789185],[-123.33240543,48.44805599],[-123.33240417,48.44814323],[-123.3331895,48.44814964],[-123.33315622,48.44968422],[-123.3331372,48.45056225],[-123.33307718,48.45281997],[-123.33305584,48.4543008],[-123.33306257,48.45507201],[-123.33303823,48.45598136],[-123.33304535,48.45620817],[-123.33302523,48.45692455],[-123.33301044,48.4573746],[-123.33297348,48.4584869],[-123.33297087,48.45920008],[-123.33296609,48.46031808],[-123.33295819,48.46126838],[-123.33494614,48.46195948],[-123.33504154,48.46199366],[-123.33658585,48.46252845],[-123.33698436,48.4626666],[-123.33661284,48.46362011],[-123.33646819,48.46399147],[-123.33640491,48.46415348],[-123.33630067,48.46466477],[-123.3362314,48.46500373],[-123.33613501,48.46547051],[-123.3355325,48.46777204],[-123.33534448,48.46859772],[-123.33533043,48.46864828],[-123.33966072,48.46867142],[-123.34015194,48.46867534],[-123.34043979,48.46870098],[-123.34081694,48.46879141],[-123.34115067,48.46894772],[-123.34247051,48.46993968],[-123.3426645,48.47008887],[-123.34379409,48.47095657],[-123.34400546,48.4710908],[-123.34426902,48.47125601],[-123.34436582,48.47130621],[-123.34448168,48.47136603],[-123.34472917,48.47148994],[-123.34528397,48.47165123],[-123.34685617,48.47192396],[-123.34806252,48.47214009],[-123.34868406,48.47216821],[-123.34924099,48.47211409],[-123.35115992,48.47192966]]]},"geometry_name":"SHAPE","properties":{"id":347,"slug":"victoria-swan-lake","name":"Victoria-Swan Lake","abbreviation":"VTS","gazetteDate":"2023-12-07Z","boundarySet":11},"bbox":[-123.42402229,48.43364406,-123.32811758,48.47216821]}
