{"type":"Feature","id":349,"geometry":{"type":"Polygon","coordinates":[[[-123.12345964,49.40666071],[-123.14086283,49.40665037],[-123.17339385,49.40667792],[-123.19010378,49.40668828],[-123.18981302,49.40452866],[-123.19038918,49.39831306],[-123.19105599,49.39111332],[-123.19108112,49.3908413],[-123.19109075,49.38703688],[-123.19110236,49.38240927],[-123.19132797,49.38197524],[-123.19168713,49.38064111],[-123.19207832,49.37909656],[-123.19209333,49.3790371],[-123.19101342,49.36430792],[-123.19100939,49.36428122],[-123.19078249,49.3627445],[-123.19067321,49.36200604],[-123.19072788,49.3618978],[-123.1908508,49.36175396],[-123.19093344,49.36160014],[-123.19101528,49.36142069],[-123.19106949,49.36126688],[-123.19109712,49.36118712],[-123.19113821,49.36103331],[-123.19117977,49.36087095],[-123.19120521,49.36081825],[-123.19125988,49.36071001],[-123.19127519,49.36065589],[-123.19128785,49.36058326],[-123.1913019,49.36048499],[-123.19132861,49.36039526],[-123.19134128,49.36024145],[-123.1913544,49.36016027],[-123.19136799,49.3600976],[-123.19139516,49.36002639],[-123.19139643,49.3599623],[-123.19150405,49.35976434],[-123.19158763,49.35953931],[-123.19160075,49.35948519],[-123.19165416,49.35935986],[-123.19166948,49.35927868],[-123.19165418,49.35914338],[-123.19163935,49.35899954],[-123.19164029,49.35890127],[-123.19163857,49.35878448],[-123.19161142,49.35872039],[-123.19159658,49.35865773],[-123.19155596,49.35858652],[-123.19151443,49.35850534],[-123.19148601,49.35845122],[-123.19141697,49.35835295],[-123.1913339,49.35821765],[-123.19129283,49.35810086],[-123.19123691,49.35802965],[-123.19116696,49.35789435],[-123.19113855,49.35781317],[-123.19108391,49.35767787],[-123.19105687,49.35759812],[-123.19104157,49.35757106],[-123.19102849,49.35738164],[-123.19101242,49.35716658],[-123.19101243,49.35711246],[-123.19101245,49.35697716],[-123.19101293,49.3569145],[-123.19101015,49.35685468],[-123.19101248,49.35684186],[-123.19098454,49.35672508],[-123.19098329,49.3566268],[-123.19096848,49.35648296],[-123.19096849,49.35642884],[-123.19095495,49.35627503],[-123.19095369,49.35623088],[-123.19091172,49.35607706],[-123.1909122,49.35601439],[-123.19089783,49.35594318],[-123.1908432,49.35580789],[-123.19077373,49.35563698],[-123.19074579,49.35554725],[-123.19071693,49.35547462],[-123.19070259,49.35529517],[-123.19066154,49.35515132],[-123.1906603,49.35508011],[-123.19064719,49.35502599],[-123.19063193,49.35486363],[-123.19061886,49.35470127],[-123.19060452,49.35454888],[-123.19059018,49.35442355],[-123.19059208,49.35432457],[-123.19058849,49.35430677],[-123.19059345,49.35424197],[-123.19061478,49.35411735],[-123.19063011,49.35403617],[-123.19061532,49.35386526],[-123.19061535,49.35378408],[-123.19061364,49.35372142],[-123.19061371,49.353532],[-123.19061292,49.3534793],[-123.19059768,49.35328988],[-123.1905977,49.35323576],[-123.19061129,49.35320016],[-123.19062569,49.35313607],[-123.19065244,49.35299222],[-123.19069448,49.3529025],[-123.19070764,49.3527672],[-123.19070594,49.35270453],[-123.19073362,49.3525436],[-123.19074587,49.35239833],[-123.19074637,49.35228154],[-123.19074686,49.35221888],[-123.19074515,49.35215621],[-123.19074614,49.35197676],[-123.19074525,49.35191267],[-123.19078513,49.35174177],[-123.19084079,49.35153526],[-123.19089549,49.35145408],[-123.19093543,49.35126923],[-123.19099551,49.35112599],[-123.19100296,49.35101008],[-123.19101367,49.35098636],[-123.19107494,49.35085074],[-123.19108751,49.35079357],[-123.19110856,49.35073731],[-123.19113975,49.35058299],[-123.19117901,49.35039304],[-123.19117814,49.35027483],[-123.19121892,49.35016802],[-123.19123426,49.35008684],[-123.19126053,49.35000566],[-123.1912601,49.34993302],[-123.1913,49.3497621],[-123.19128615,49.34960118],[-123.19128619,49.34952],[-123.19128622,49.34943882],[-123.19128504,49.34925937],[-123.19128557,49.34911552],[-123.1912847,49.34902438],[-123.19126989,49.34896171],[-123.19125558,49.34880932],[-123.19124129,49.34862987],[-123.19121419,49.34851166],[-123.19121255,49.34834076],[-123.19119993,49.34827809],[-123.19118563,49.3481257],[-123.19117038,49.34801746],[-123.19115557,49.34795479],[-123.19114256,49.34776537],[-123.19111417,49.34771125],[-123.19107193,49.34752326],[-123.19107197,49.34744208],[-123.19104405,49.34737941],[-123.19101566,49.34732529],[-123.19101161,49.34731604],[-123.19098773,49.34726263],[-123.19097888,49.34725123],[-123.19094623,49.34720851],[-123.19166246,49.34724441],[-123.19283754,49.34731533],[-123.19479743,49.34735663],[-123.19615371,49.34733519],[-123.19747671,49.34728345],[-123.19855612,49.34720387],[-123.19998056,49.34709997],[-123.20117364,49.34700305],[-123.20243251,49.34689168],[-123.20490883,49.3466575],[-123.20679903,49.34646773],[-123.20884369,49.34627404],[-123.21082556,49.34613456],[-123.212444,49.34610481],[-123.21361356,49.34614877],[-123.21637317,49.34630307],[-123.21803432,49.34638569],[-123.21828273,49.34640067],[-123.21981075,49.34652011],[-123.22146225,49.34676865],[-123.22294489,49.34710235],[-123.22465972,49.3475033],[-123.22663514,49.34805214],[-123.2291974,49.34858842],[-123.23048798,49.34875562],[-123.2316945,49.34888889],[-123.23386686,49.34904956],[-123.23642679,49.34905144],[-123.23796381,49.34902224],[-123.23797237,49.34899162],[-123.23799254,49.34895495],[-123.23805453,49.34885776],[-123.23810954,49.34865985],[-123.23810903,49.34853307],[-123.23795684,49.34840776],[-123.23787423,49.34837216],[-123.23777575,49.34823687],[-123.23774773,49.34812007],[-123.23774773,49.34806595],[-123.23776123,49.34786796],[-123.23775943,49.34772418],[-123.23767772,49.34761736],[-123.23758063,49.34758026],[-123.23737382,49.34756317],[-123.23704413,49.34755467],[-123.23694802,49.34752756],[-123.23683606,49.34738517],[-123.23677913,49.34716866],[-123.23676475,49.34701627],[-123.23675152,49.34679986],[-123.23672306,49.34663747],[-123.23666754,49.34644947],[-123.23663912,49.34639537],[-123.23656953,49.34617037],[-123.23654112,49.34608917],[-123.23651184,49.34592817],[-123.23651186,49.34584697],[-123.23653846,49.34562196],[-123.23660702,49.34549666],[-123.23666124,49.34545108],[-123.23689465,49.34532437],[-123.23708653,49.34527877],[-123.23726622,49.34521607],[-123.23751454,49.34507086],[-123.23758094,49.34499965],[-123.23756732,49.34489997],[-123.23751093,49.34472906],[-123.23745545,49.34459517],[-123.23742694,49.34437867],[-123.23739945,49.34419926],[-123.23739944,49.34419916],[-123.23738403,49.34406396],[-123.23735604,49.34386597],[-123.23735654,49.34372205],[-123.23736835,49.34354265],[-123.23736875,49.34347995],[-123.23736874,49.34342587],[-123.23735212,49.34321937],[-123.23735334,49.34315527],[-123.23741986,49.34294877],[-123.23747492,49.34288606],[-123.23761215,49.34273226],[-123.23766635,49.34268665],[-123.23790113,49.34256135],[-123.23800943,49.34252436],[-123.23835431,49.34237056],[-123.23847724,49.34230787],[-123.23857344,49.34228077],[-123.23876523,49.34223526],[-123.23911023,49.34218966],[-123.23919324,49.34216255],[-123.23927415,49.34213557],[-123.23934312,49.34209846],[-123.23942622,49.34204436],[-123.23949483,49.34200026],[-123.23965873,49.34181086],[-123.23979644,49.34159436],[-123.23984982,49.34152316],[-123.23987824,49.34144197],[-123.23988955,49.34127106],[-123.23991625,49.34107305],[-123.23993143,49.34101898],[-123.24003982,49.34090077],[-123.24008014,49.34085655],[-123.24009308,49.34083545],[-123.24010802,49.34081107],[-123.24012164,49.34080246],[-123.24017794,49.34075687],[-123.24035502,49.34070276],[-123.24045122,49.34064867],[-123.24057533,49.34054897],[-123.24071305,49.34041365],[-123.24080742,49.34024277],[-123.24090402,49.34004477],[-123.24101152,49.33987386],[-123.24103996,49.33979267],[-123.24105132,49.33956766],[-123.24110635,49.33939675],[-123.24114666,49.33924437],[-123.24124234,49.33906356],[-123.24126893,49.33900087],[-123.24126888,49.33900079],[-123.24126904,49.33900079],[-123.24220842,49.33596651],[-123.24160877,49.33586931],[-123.24127098,49.33577674],[-123.24058621,49.3356571],[-123.24028321,49.33562185],[-123.23953257,49.33557913],[-123.23900906,49.3355802],[-123.23869847,49.33556417],[-123.23831967,49.33554993],[-123.2380211,49.33554067],[-123.23729171,49.3355599],[-123.23657045,49.33566814],[-123.23615051,49.3357276],[-123.23547183,49.33588711],[-123.23516914,49.33597791],[-123.23488935,49.33605624],[-123.23450673,49.33616661],[-123.2341494,49.33628447],[-123.23362071,49.33651982],[-123.23318626,49.33665227],[-123.23298503,49.33672597],[-123.23273119,49.33681926],[-123.2320771,49.33707633],[-123.23177874,49.33723869],[-123.23145394,49.33741493],[-123.23082779,49.33770761],[-123.23021879,49.33809749],[-123.22947261,49.33841686],[-123.22894597,49.33836737],[-123.22871903,49.33815801],[-123.22787604,49.3377133],[-123.22759311,49.3375189],[-123.22738641,49.33739357],[-123.22622546,49.33689474],[-123.22572345,49.33676407],[-123.22524979,49.33665476],[-123.22443078,49.33651554],[-123.22394319,49.33648208],[-123.22317986,49.3360824],[-123.22250588,49.33586085],[-123.22216015,49.33577379],[-123.22170372,49.3356717],[-123.22110298,49.33558842],[-123.22104799,49.33558055],[-123.2207293,49.33554601],[-123.22041539,49.335504],[-123.22008003,49.33546804],[-123.21963979,49.33544169],[-123.219337,49.33543315],[-123.2188999,49.33543599],[-123.21856504,49.3354513],[-123.21849492,49.33545451],[-123.21821999,49.33547302],[-123.21791192,49.33549795],[-123.21736049,49.33555029],[-123.21708531,49.3355866],[-123.21679472,49.33562506],[-123.21651943,49.33567028],[-123.21616164,49.33573187],[-123.21571518,49.33582658],[-123.21534781,49.33591382],[-123.21450336,49.33617979],[-123.21434127,49.33624316],[-123.21418946,49.33630191],[-123.21398816,49.33637953],[-123.21351079,49.33656361],[-123.21327722,49.33667221],[-123.21294698,49.33677974],[-123.2127899,49.33683136],[-123.21185781,49.33703396],[-123.21152838,49.3371333],[-123.21138003,49.33719845],[-123.21103165,49.33735156],[-123.21084932,49.33734835],[-123.21060783,49.33734443],[-123.2104406,49.33734159],[-123.20970344,49.33730162],[-123.20874221,49.33721231],[-123.20826319,49.33721531],[-123.20765791,49.33735428],[-123.20756727,49.33714366],[-123.20753169,49.33707631],[-123.20748223,49.33696866],[-123.20745235,49.336904],[-123.20703085,49.33651341],[-123.20685522,49.3363806],[-123.20674674,49.33629906],[-123.20618082,49.33592521],[-123.20558083,49.33565212],[-123.20514849,49.33551433],[-123.20507115,49.33548976],[-123.2047681,49.33540929],[-123.20386827,49.33524408],[-123.20334335,49.33522149],[-123.20275131,49.33519601],[-123.20177578,49.33528325],[-123.20124891,49.33538579],[-123.2010672,49.33544133],[-123.20058705,49.33558874],[-123.20027552,49.3352569],[-123.20000015,49.33500019],[-123.19998403,49.33498523],[-123.19951462,49.33454337],[-123.1994176,49.33445829],[-123.19932258,49.33437496],[-123.19911875,49.33420904],[-123.19837139,49.3337216],[-123.19805066,49.33354215],[-123.197347,49.3331918],[-123.19709906,49.33309317],[-123.1964905,49.33287206],[-123.19602737,49.33273569],[-123.19464181,49.33249927],[-123.19434363,49.33247684],[-123.19361182,49.33241453],[-123.19307266,49.33237288],[-123.1925686,49.33233869],[-123.19198994,49.33233976],[-123.19129127,49.33231733],[-123.19091755,49.33231733],[-123.19055925,49.3323152],[-123.19016134,49.33232801],[-123.18988557,49.33232196],[-123.18952678,49.33230238],[-123.18909855,49.33204851],[-123.18886258,49.3319182],[-123.18842842,49.33167964],[-123.18809443,49.33150731],[-123.18707552,49.33111957],[-123.186745,49.33102985],[-123.18638202,49.33094439],[-123.18583083,49.3308536],[-123.18561631,49.33072791],[-123.1853545,49.33058442],[-123.18474891,49.33030813],[-123.18408525,49.33010731],[-123.18337851,49.32998448],[-123.18265009,49.32994424],[-123.18182494,49.32998697],[-123.18119367,49.32979363],[-123.18079191,49.3296918],[-123.1799616,49.32952481],[-123.17924697,49.3294593],[-123.17872991,49.32940091],[-123.17833146,49.32924602],[-123.17791544,49.32908936],[-123.17762381,49.32898219],[-123.17740479,49.32886932],[-123.17718868,49.32871373],[-123.17697987,49.32858092],[-123.17665727,49.32836551],[-123.17644389,49.32816078],[-123.17605461,49.32784425],[-123.1758724,49.32769826],[-123.17548914,49.32736536],[-123.174859,49.32679532],[-123.17458403,49.32655569],[-123.17431272,49.32635203],[-123.17396881,49.32607502],[-123.17339194,49.32571078],[-123.17309282,49.32555234],[-123.17283973,49.32541098],[-123.17233205,49.32516851],[-123.17196955,49.3250236],[-123.1716798,49.32491607],[-123.17109132,49.3247352],[-123.17080229,49.32466399],[-123.17047631,49.32459918],[-123.1702692,49.32455788],[-123.16981684,49.32448667],[-123.16879886,49.3244062],[-123.16832828,49.32441048],[-123.1678642,49.32442543],[-123.16735967,49.32443754],[-123.16693397,49.32446958],[-123.16661852,49.32449023],[-123.16632224,49.32449059],[-123.16603157,49.32446851],[-123.16574363,49.32442045],[-123.16545392,49.3243649],[-123.16513733,49.32431149],[-123.16476094,49.32425275],[-123.16435223,49.3242219],[-123.1637892,49.3241794],[-123.16289796,49.32418082],[-123.16256418,49.32409608],[-123.16153021,49.32383296],[-123.16040218,49.32373469],[-123.15910862,49.32386465],[-123.15850361,49.32386322],[-123.15786025,49.32391592],[-123.15710484,49.3239793],[-123.15667703,49.32397752],[-123.15623352,49.32396007],[-123.15591324,49.32395651],[-123.15525097,49.32383937],[-123.15500395,49.32351607],[-123.15474737,49.32323372],[-123.15450591,49.32291221],[-123.15435496,49.32270748],[-123.15400726,49.32225458],[-123.15343876,49.321697],[-123.15316039,49.32148871],[-123.15294962,49.32128932],[-123.15262581,49.32105718],[-123.15256522,49.32081649],[-123.15218939,49.32025926],[-123.15176892,49.31986832],[-123.15125095,49.31953078],[-123.15065108,49.31925769],[-123.15034672,49.31915301],[-123.14990504,49.31902946],[-123.14919894,49.31890698],[-123.14879223,49.31887386],[-123.14829136,49.31885748],[-123.14756323,49.31889985],[-123.14708653,49.31897463],[-123.14658038,49.31908109],[-123.14620353,49.31917722],[-123.14574466,49.31930718],[-123.14516867,49.31901806],[-123.14511902,49.31862641],[-123.14460093,49.31828922],[-123.14416234,49.31807274],[-123.1438499,49.31794385],[-123.14318687,49.31774268],[-123.14247992,49.31761985],[-123.14174238,49.31763551],[-123.1415966,49.3171997],[-123.14153125,49.31660688],[-123.1413345,49.31613582],[-123.13888048,49.3151905],[-123.13813635,49.31598521],[-123.13721662,49.31696791],[-123.13576245,49.31852137],[-123.13441645,49.3199584],[-123.13630228,49.32065341],[-123.13640101,49.32054304],[-123.13650891,49.32042518],[-123.13705549,49.32062849],[-123.13824329,49.31933424],[-123.14048134,49.32005062],[-123.14112039,49.32025463],[-123.14144447,49.32035825],[-123.14186157,49.32049141],[-123.14204383,49.32054944],[-123.14204705,49.32055051],[-123.14233589,49.32064309],[-123.14267681,49.32075168],[-123.14685875,49.32209614],[-123.14802489,49.3224707],[-123.14797514,49.32253622],[-123.14786055,49.32269288],[-123.14785541,49.3227],[-123.14785386,49.32270178],[-123.1478521,49.32270392],[-123.14755048,49.32311694],[-123.14754716,49.32312086],[-123.14721007,49.32358194],[-123.14719925,49.32359619],[-123.14695068,49.32393693],[-123.14693372,49.32396007],[-123.14658878,49.32443113],[-123.14653412,49.32450626],[-123.14636085,49.32474801],[-123.14633253,49.3247854],[-123.14630233,49.32482706],[-123.14618633,49.32498621],[-123.14614018,49.32504923],[-123.14565371,49.32571577],[-123.14502482,49.32657741],[-123.1449624,49.32666429],[-123.14493889,49.32669704],[-123.14256624,49.32680298],[-123.14220613,49.32681906],[-123.14104672,49.3268708],[-123.14053072,49.32689318],[-123.14036954,49.32690017],[-123.13932273,49.32694557],[-123.13756342,49.32702675],[-123.13747059,49.32699684],[-123.13712824,49.32688682],[-123.13630511,49.32662192],[-123.13531633,49.32630367],[-123.13529401,49.32629649],[-123.13494058,49.32618291],[-123.13493182,49.32618006],[-123.13490266,49.3261708],[-123.13355836,49.32573855],[-123.13336073,49.32567482],[-123.13320226,49.3256239],[-123.13306271,49.32575422],[-123.133056,49.32576027],[-123.13264521,49.3261441],[-123.13231193,49.32645493],[-123.13227368,49.32649054],[-123.13225273,49.32651012],[-123.13192636,49.32681454],[-123.13188621,49.32685157],[-123.13151585,49.32675722],[-123.12892617,49.32615727],[-123.12593148,49.32531734],[-123.12421619,49.32482385],[-123.12244261,49.32429939],[-123.1215969,49.32406297],[-123.12103628,49.32396897],[-123.12097625,49.3239679],[-123.12027378,49.32395437],[-123.1200981,49.32395687],[-123.1200837,49.32395722],[-123.11890751,49.32395829],[-123.11754406,49.323938],[-123.11615203,49.32392091],[-123.11477718,49.32390916],[-123.11336815,49.32389313],[-123.11057371,49.32387818],[-123.10776973,49.32384542],[-123.10489967,49.32381551],[-123.10299988,49.3238383],[-123.10214212,49.3238116],[-123.10214255,49.32384542],[-123.10214241,49.32386394],[-123.10214543,49.32405656],[-123.10214696,49.32417014],[-123.10222926,49.32471917],[-123.10220701,49.32569049],[-123.10219185,49.32648697],[-123.10215054,49.3286386],[-123.10212144,49.32980965],[-123.10202214,49.33049292],[-123.10202167,49.33074465],[-123.10202106,49.33104373],[-123.10165422,49.331048],[-123.10143201,49.33104864],[-123.09812411,49.33105807],[-123.09398307,49.33106972],[-123.09351366,49.33105548],[-123.09326187,49.33104765],[-123.0926767,49.33104222],[-123.09239136,49.33103958],[-123.09176456,49.33103376],[-123.09125857,49.33102522],[-123.0912367,49.33189114],[-123.09123486,49.33194241],[-123.09123224,49.33204602],[-123.09122908,49.33216209],[-123.09119465,49.33351438],[-123.09118274,49.33397938],[-123.09117289,49.33437638],[-123.09113884,49.33570802],[-123.09113845,49.33571158],[-123.09092982,49.3357085],[-123.08809862,49.33566672],[-123.0876999,49.33566066],[-123.08544754,49.33564927],[-123.08449779,49.33564464],[-123.08385169,49.3356393],[-123.08141206,49.335619],[-123.07962301,49.33562114],[-123.07875004,49.33564963],[-123.0785463,49.33564856],[-123.07829337,49.33564749],[-123.07758606,49.33564891],[-123.07709607,49.33564962],[-123.07620244,49.33565105],[-123.07513812,49.33565283],[-123.07439604,49.3356539],[-123.07358054,49.33565532],[-123.07295177,49.33565603],[-123.07201005,49.33565746],[-123.07200095,49.33613457],[-123.07199134,49.33652516],[-123.07197257,49.33745161],[-123.07195092,49.33833996],[-123.07192958,49.33928065],[-123.07191943,49.34014407],[-123.07191839,49.34146432],[-123.07190103,49.34239148],[-123.07187984,49.34327449],[-123.07187129,49.34419203],[-123.07185128,49.34520571],[-123.07349887,49.34526268],[-123.0735116,49.34526624],[-123.07384645,49.34535882],[-123.07416917,49.34550444],[-123.07444984,49.3457875],[-123.07467113,49.34642306],[-123.07488558,49.34673033],[-123.07519468,49.34717397],[-123.07608498,49.34822397],[-123.07635009,49.34849315],[-123.076748,49.3487787],[-123.07700786,49.34890617],[-123.07728619,49.34897132],[-123.07768182,49.34902722],[-123.07805475,49.3491173],[-123.07862083,49.34941283],[-123.07964003,49.3500815],[-123.08135426,49.35102859],[-123.08180333,49.35172254],[-123.08219931,49.35199243],[-123.08327988,49.35257742],[-123.08371224,49.35281313],[-123.08401576,49.35297834],[-123.08415222,49.35305275],[-123.08415558,49.35305453],[-123.08414569,49.35307483],[-123.0841172,49.35310189],[-123.08409083,49.35315601],[-123.08391194,49.35331694],[-123.08381575,49.35349782],[-123.08356943,49.35370433],[-123.08339028,49.35383108],[-123.08329285,49.35395641],[-123.08312798,49.35412732],[-123.08289567,49.3543438],[-123.08273052,49.35444207],[-123.08250942,49.35455031],[-123.08230198,49.35462294],[-123.08211108,49.35471267],[-123.08190412,49.35477676],[-123.08165547,49.35485651],[-123.08132587,49.35500178],[-123.08124442,49.35503739],[-123.08113278,49.35509151],[-123.08087128,49.3552439],[-123.08070792,49.35536211],[-123.08047423,49.35557716],[-123.08041766,49.3556498],[-123.0803492,49.35573952],[-123.08023953,49.35587482],[-123.08012973,49.35606424],[-123.08000544,49.35625224],[-123.07993725,49.3564146],[-123.07986975,49.35648723],[-123.07984036,49.35650432],[-123.07981454,49.35652284],[-123.07978734,49.35653993],[-123.07975933,49.35655844],[-123.07969093,49.35662111],[-123.07963436,49.35669374],[-123.07952435,49.35678347],[-123.07945691,49.35682904],[-123.07927686,49.35694583],[-123.07918011,49.35698143],[-123.07911315,49.35701846],[-123.0789743,49.35708967],[-123.07876808,49.3571794],[-123.07860266,49.35724349],[-123.07832859,49.35736027],[-123.07805268,49.35752263],[-123.07776282,49.35764796],[-123.07769538,49.35769354],[-123.0775443,49.35777472],[-123.07733788,49.35794562],[-123.0772414,49.35805386],[-123.07710276,49.35822477],[-123.07696576,49.35843128],[-123.07691144,49.35847685],[-123.07667714,49.35861215],[-123.07651294,49.35869333],[-123.07643059,49.35871897],[-123.07620838,49.358756],[-123.07589289,49.35881866],[-123.07576867,49.35883718],[-123.07564566,49.35887278],[-123.07541197,49.35894542],[-123.07517725,49.3590622],[-123.07505418,49.35912487],[-123.07492927,49.35923311],[-123.07473699,49.35935986],[-123.07465377,49.35941398],[-123.07453043,49.35958489],[-123.07448922,49.35977288],[-123.07444754,49.359827],[-123.07426961,49.35997085],[-123.07407726,49.36012466],[-123.0738288,49.36030411],[-123.07366453,49.36041235],[-123.07359442,49.36046647],[-123.07345687,49.36056617],[-123.07336223,49.36062883],[-123.07319577,49.36073707],[-123.07312785,49.36079119],[-123.07303102,49.36085386],[-123.07271483,49.36100625],[-123.0726325,49.36107034],[-123.0725768,49.36111449],[-123.07255043,49.36116861],[-123.07252187,49.36122273],[-123.07249591,49.36129536],[-123.07249468,49.36142069],[-123.07248062,49.36161866],[-123.07245322,49.36171693],[-123.07234361,49.36182517],[-123.07230283,49.36188926],[-123.07200134,49.36210431],[-123.07194606,49.36216698],[-123.07187623,49.36229373],[-123.07187562,49.3623564],[-123.07186224,49.36246464],[-123.07186423,49.36254582],[-123.07190565,49.36259994],[-123.07201582,49.36277939],[-123.07216645,49.36288763],[-123.07230513,49.36304002],[-123.07237395,49.36313829],[-123.07242811,49.36335477],[-123.07238775,49.3635798],[-123.0723609,49.36364246],[-123.07227706,49.36375925],[-123.07225069,49.36381337],[-123.07214145,49.36396718],[-123.07207202,49.364074],[-123.07204388,49.36414663],[-123.07198895,49.36425487],[-123.07191995,49.3643802],[-123.07190663,49.36446138],[-123.0718932,49.36459668],[-123.07187982,49.36470492],[-123.07186609,49.36476759],[-123.07183966,49.36484877],[-123.07179751,49.36491143],[-123.07172862,49.36498264],[-123.07161786,49.36504673],[-123.07152151,49.36510085],[-123.07143957,49.365145],[-123.07134322,49.36519912],[-123.07120703,49.36526179],[-123.07104146,49.36538],[-123.0709026,49.36545121],[-123.07070983,49.36558651],[-123.07062867,49.36569475],[-123.07045012,49.36590126],[-123.07036629,49.36601804],[-123.07032667,49.36612628],[-123.07027181,49.36620746],[-123.07017514,49.36639688],[-123.07014659,49.366451],[-123.07000966,49.36663045],[-123.06995384,49.36672872],[-123.06985937,49.36691814],[-123.06983075,49.36699932],[-123.06976168,49.36715171],[-123.06970778,49.3672158],[-123.06965244,49.36730553],[-123.06957073,49.36744937],[-123.06944693,49.36762882],[-123.06940555,49.36775558],[-123.0693233,49.36793503],[-123.06926742,49.36806036],[-123.06922781,49.3681686],[-123.06924821,49.3684513],[-123.06926137,49.3709985],[-123.06926557,49.37179891],[-123.06953493,49.3789577],[-123.06958139,49.38522137],[-123.0695871,49.38595626],[-123.06959927,49.38757131],[-123.06961868,49.39021394],[-123.06963853,49.39286296],[-123.06968108,49.39860787],[-123.069705,49.40000003],[-123.0697047,49.40124016],[-123.06989999,49.40795424],[-123.08687449,49.40754371],[-123.09119563,49.40743868],[-123.09832761,49.40726528],[-123.12345964,49.40666071]]]},"geometry_name":"SHAPE","properties":{"id":349,"slug":"west-vancouver-capilano","name":"West Vancouver-Capilano","abbreviation":"WVC","gazetteDate":"2023-12-07Z","boundarySet":11},"bbox":[-123.24220842,49.3151905,-123.06922781,49.40795424]}
