{"type":"Feature","id":259,"geometry":{"type":"Polygon","coordinates":[[[-122.0996921,49.12159238],[-122.09998655,49.12138516],[-122.10027176,49.12118434],[-122.10080668,49.12074355],[-122.10143522,49.1200407],[-122.10210049,49.11918262],[-122.10482863,49.11559895],[-122.11431299,49.10320085],[-122.11890874,49.09719852],[-122.12405933,49.09044314],[-122.12499671,49.08951349],[-122.12552772,49.08908195],[-122.13566136,49.08279407],[-122.14812945,49.07519627],[-122.15920191,49.06844552],[-122.17305869,49.06000209],[-122.18042964,49.05670291],[-122.18339718,49.05540688],[-122.18340172,49.05561054],[-122.18341216,49.05605952],[-122.18341608,49.05693755],[-122.18341159,49.05719212],[-122.19167372,49.05724589],[-122.19165067,49.06049807],[-122.19164938,49.0607968],[-122.1925628,49.06080321],[-122.19279245,49.06080252],[-122.1929188,49.06080214],[-122.19254138,49.0608997],[-122.19253431,49.0609028],[-122.19251053,49.06091323],[-122.19237681,49.06097264],[-122.19218358,49.0610585],[-122.19186193,49.06126074],[-122.19166306,49.06145798],[-122.19164259,49.06147828],[-122.19157345,49.06160846],[-122.19151344,49.06172147],[-122.1914936,49.06181986],[-122.19145527,49.06200987],[-122.19147634,49.0622395],[-122.1914771,49.06224771],[-122.19149771,49.06231985],[-122.19225385,49.06496546],[-122.19279225,49.06603148],[-122.19284477,49.06624333],[-122.19292803,49.06713595],[-122.19290877,49.06722434],[-122.1928738,49.06738483],[-122.19263984,49.06803641],[-122.1926143,49.06826535],[-122.19263037,49.06851851],[-122.19271267,49.06884811],[-122.19286846,49.06947273],[-122.19299438,49.06997583],[-122.19306086,49.07009368],[-122.19318216,49.07030874],[-122.19336851,49.07053875],[-122.19472572,49.07149119],[-122.1964221,49.07267826],[-122.19646381,49.07271423],[-122.19709837,49.07326305],[-122.19719947,49.07335049],[-122.19731821,49.07343759],[-122.19745624,49.07353884],[-122.19797204,49.07373218],[-122.19820379,49.07377999],[-122.19851054,49.07384327],[-122.19958504,49.07406509],[-122.19983141,49.07419999],[-122.20002526,49.07430614],[-122.20008179,49.07433696],[-122.20021458,49.07440939],[-122.20053977,49.07458749],[-122.2005871,49.07461341],[-122.2006052,49.07462148],[-122.20100234,49.07479856],[-122.20200032,49.07536575],[-122.20268534,49.07581366],[-122.20381563,49.07635949],[-122.20415932,49.07650332],[-122.2050842,49.07689036],[-122.20528901,49.07703547],[-122.20542944,49.07713497],[-122.20546647,49.07718161],[-122.20556833,49.07731051],[-122.20558787,49.07752603],[-122.20559954,49.07765481],[-122.20559508,49.07794926],[-122.20558597,49.07855905],[-122.20557183,49.07950486],[-122.2055375,49.07958141],[-122.20542492,49.07983242],[-122.20711328,49.07979983],[-122.20861423,49.07977083],[-122.20930116,49.07973166],[-122.2096789,49.07971011],[-122.20970681,49.07970852],[-122.20986395,49.07968987],[-122.21081955,49.07957642],[-122.21170527,49.07942474],[-122.21190883,49.07938033],[-122.21273979,49.07919901],[-122.21339778,49.07900781],[-122.2138968,49.07886289],[-122.21476558,49.07855931],[-122.21523549,49.0783954],[-122.21750441,49.07760261],[-122.21793378,49.07745257],[-122.21813171,49.07736818],[-122.21864442,49.07714957],[-122.21901641,49.07694962],[-122.21932006,49.0767864],[-122.21969254,49.0765207],[-122.21970123,49.07651451],[-122.21993788,49.0763456],[-122.21995627,49.07632853],[-122.22008897,49.07620532],[-122.22059644,49.07573426],[-122.22094735,49.0752073],[-122.22101546,49.07508162],[-122.22144851,49.07422265],[-122.22147099,49.07414879],[-122.22159903,49.07361077],[-122.2217473,49.07295411],[-122.22188408,49.07267043],[-122.22211772,49.0723647],[-122.22252846,49.07199109],[-122.22302064,49.07164684],[-122.22358696,49.07140397],[-122.22420502,49.07124577],[-122.2244692,49.07121667],[-122.22488167,49.07117181],[-122.22507013,49.07116498],[-122.2250977,49.07116389],[-122.22532378,49.07115579],[-122.22546944,49.07115579],[-122.22588178,49.07115579],[-122.22618304,49.07115578],[-122.22679762,49.07115592],[-122.22724795,49.07115598],[-122.22784863,49.07115614],[-122.22815616,49.07115611],[-122.22825551,49.07115611],[-122.2284676,49.07115614],[-122.22920953,49.07115614],[-122.22992157,49.07115633],[-122.23060609,49.0711565],[-122.23169674,49.0711565],[-122.23260505,49.0711565],[-122.23275145,49.07115654],[-122.23299613,49.07115662],[-122.23377443,49.07115685],[-122.23389377,49.07113798],[-122.2339404,49.07113072],[-122.2342596,49.07108101],[-122.23473814,49.07096957],[-122.23482885,49.07094856],[-122.2352611,49.07075228],[-122.23540435,49.07068722],[-122.23543378,49.07066593],[-122.23551755,49.07060533],[-122.2360965,49.0701859],[-122.23614695,49.07014934],[-122.23642417,49.06994841],[-122.23648939,49.06990124],[-122.23661913,49.06980742],[-122.23663264,49.06979745],[-122.23755202,49.06913092],[-122.23776803,49.06890549],[-122.23783111,49.06883966],[-122.2379091,49.06868975],[-122.23802282,49.06847115],[-122.23814687,49.06774619],[-122.23815756,49.06768428],[-122.23829786,49.06739979],[-122.23859881,49.06704872],[-122.23894017,49.06681091],[-122.2389903,49.06677599],[-122.23931084,49.0666247],[-122.23938184,49.06659119],[-122.24049335,49.06625266],[-122.2412054,49.06603576],[-122.2413002,49.06600691],[-122.24165897,49.0658976],[-122.2417199,49.06587731],[-122.24140211,49.06523143],[-122.24121462,49.06503703],[-122.23962124,49.06383214],[-122.23940244,49.06360388],[-122.23915195,49.06334578],[-122.238915,49.06300931],[-122.23862244,49.06244853],[-122.23846752,49.06176492],[-122.23839886,49.06159849],[-122.23831571,49.06124135],[-122.23810661,49.06075523],[-122.23802745,49.06064868],[-122.23765075,49.0602823],[-122.23751902,49.06000494],[-122.23748659,49.059962],[-122.23748218,49.05995616],[-122.23709605,49.05940621],[-122.2352083,49.05671737],[-122.23501123,49.0566158],[-122.23483318,49.05653292],[-122.23460091,49.05644363],[-122.23410836,49.05627309],[-122.23247161,49.05578292],[-122.23179579,49.05553593],[-122.23164137,49.05538865],[-122.23120132,49.05516133],[-122.22982689,49.05480757],[-122.22931119,49.05448007],[-122.22864088,49.05390363],[-122.22826544,49.053758],[-122.2278955,49.05371029],[-122.22766081,49.05368002],[-122.2267441,49.05350627],[-122.22629744,49.05336349],[-122.22605687,49.05323781],[-122.22587068,49.05312672],[-122.22578228,49.05306049],[-122.22545926,49.05275785],[-122.22521437,49.05239859],[-122.22510917,49.05206212],[-122.22512511,49.05162311],[-122.22523637,49.0512991],[-122.22540549,49.05102957],[-122.22563982,49.0508049],[-122.22622947,49.05041075],[-122.22636011,49.05033705],[-122.22690146,49.05006004],[-122.22714923,49.04994183],[-122.22746171,49.0497136],[-122.22751169,49.04966874],[-122.22766081,49.04949427],[-122.2276886,49.04949785],[-122.22772788,49.04950211],[-122.22826791,49.04956157],[-122.22872837,49.04953629],[-122.22888009,49.04949946],[-122.22920944,49.0494195],[-122.22965972,49.04921904],[-122.22992401,49.04904458],[-122.23011854,49.04878715],[-122.23016868,49.04867606],[-122.23028468,49.04849625],[-122.23038459,49.04834138],[-122.23079267,49.04803624],[-122.23116465,49.04778095],[-122.23131899,49.04762933],[-122.23136254,49.04758654],[-122.23144344,49.04744561],[-122.23149294,49.04735938],[-122.23151538,49.04727172],[-122.23151765,49.04726285],[-122.2316731,49.04665547],[-122.23174791,49.04651533],[-122.23181965,49.04638095],[-122.2320402,49.04613919],[-122.23230958,49.0459378],[-122.23231643,49.04593268],[-122.23234347,49.04591274],[-122.23257476,49.04579428],[-122.23268133,49.0457397],[-122.23333671,49.0454715],[-122.23476402,49.04493315],[-122.23561404,49.0446966],[-122.2363279,49.04447746],[-122.23653801,49.04438222],[-122.23693396,49.04420274],[-122.23752417,49.04384607],[-122.23795087,49.04355722],[-122.23802301,49.04350839],[-122.23835211,49.04318696],[-122.23868002,49.04288029],[-122.23905194,49.04257119],[-122.23947837,49.04214072],[-122.23986224,49.04187725],[-122.24027623,49.04168569],[-122.24049741,49.04159027],[-122.24092518,49.04149271],[-122.24150515,49.04144713],[-122.24203794,49.04145639],[-122.24245763,49.04149057],[-122.24294587,49.04165827],[-122.24325906,49.0417658],[-122.2439245,49.04204779],[-122.24413196,49.04217241],[-122.24437242,49.04231695],[-122.24450396,49.04239601],[-122.24451395,49.04240207],[-122.24462145,49.04246652],[-122.24486015,49.04260964],[-122.24519376,49.04264946],[-122.24540902,49.04267516],[-122.24578576,49.04263262],[-122.24591667,49.04261783],[-122.24594677,49.04260906],[-122.24602173,49.04258721],[-122.24617581,49.04254161],[-122.24631886,49.04249927],[-122.24668647,49.04281366],[-122.24696356,49.04305079],[-122.24702258,49.04310139],[-122.24718035,49.04323665],[-122.24739338,49.04341861],[-122.24752217,49.04352862],[-122.24776609,49.04368347],[-122.2479097,49.04377465],[-122.24857232,49.04419481],[-122.24929892,49.04465552],[-122.24957066,49.04483885],[-122.25034073,49.04535837],[-122.25163334,49.04628338],[-122.25214138,49.04664692],[-122.2521848,49.04667813],[-122.25220728,49.04669428],[-122.25227863,49.04674529],[-122.25240301,49.04683421],[-122.25254019,49.04693249],[-122.25277846,49.04705094],[-122.25333197,49.04732627],[-122.2538277,49.04742383],[-122.25614266,49.04781477],[-122.25800339,49.04815552],[-122.26024095,49.04861304],[-122.2606299,49.04867357],[-122.26301597,49.04887047],[-122.26314078,49.04888079],[-122.26381543,49.04887723],[-122.264048,49.04886078],[-122.26438924,49.04883664],[-122.26478422,49.04874122],[-122.26533236,49.04857585],[-122.26570236,49.04846421],[-122.26573316,49.04845304],[-122.26577987,49.04843609],[-122.26654074,49.04816228],[-122.26679377,49.04802769],[-122.26698202,49.04792792],[-122.26705509,49.04788919],[-122.26726691,49.04773031],[-122.26738263,49.04764351],[-122.2674826,49.04756247],[-122.26791983,49.04720806],[-122.26824046,49.04704233],[-122.26832073,49.04700084],[-122.26844903,49.04696064],[-122.26883436,49.0468399],[-122.26922881,49.046716],[-122.26925929,49.04670674],[-122.26962128,49.04659982],[-122.26965106,49.04659102],[-122.2697346,49.04656645],[-122.2700304,49.04647887],[-122.27019691,49.04644276],[-122.27051157,49.04637454],[-122.27053646,49.0463692],[-122.27085605,49.04630013],[-122.27091818,49.04628695],[-122.27093775,49.0462829],[-122.27094914,49.04628054],[-122.27104666,49.04625989],[-122.2713301,49.04619865],[-122.27149017,49.04616412],[-122.27172199,49.04611391],[-122.27181041,49.04611961],[-122.27204393,49.04613227],[-122.27232936,49.04614774],[-122.27338976,49.04622493],[-122.27412443,49.04627841],[-122.27535466,49.04638416],[-122.27642664,49.04647459],[-122.27764861,49.04657963],[-122.27809781,49.04661831],[-122.27925709,49.04671813],[-122.27946176,49.04673188],[-122.27950629,49.04673487],[-122.28096762,49.04683385],[-122.28149164,49.0468837],[-122.28204592,49.04696595],[-122.28229043,49.04703637],[-122.28263066,49.04713436],[-122.28326558,49.04757116],[-122.28375891,49.04791055],[-122.28464524,49.04851833],[-122.28562974,49.048931],[-122.28609957,49.04894422],[-122.28643981,49.04895379],[-122.28770013,49.04896482],[-122.28803037,49.04896767],[-122.28835843,49.04897052],[-122.28900717,49.04897586],[-122.28984167,49.04898304],[-122.29033247,49.04898725],[-122.29163984,49.04897479],[-122.29194806,49.04898779],[-122.292949,49.04902998],[-122.29296354,49.04901663],[-122.29298351,49.04899829],[-122.29339516,49.04909763],[-122.29342418,49.04910368],[-122.29547789,49.04935755],[-122.29910888,49.04979656],[-122.30010205,49.04991299],[-122.3026029,49.05021101],[-122.30434577,49.0504193],[-122.304442,49.05042927],[-122.30444614,49.05042962],[-122.3045476,49.05043995],[-122.30610029,49.05061619],[-122.30694059,49.05067886],[-122.30786403,49.05074793],[-122.30993048,49.05082164],[-122.30999935,49.05082417],[-122.31006607,49.05082662],[-122.31512472,49.05103099],[-122.31831794,49.05116167],[-122.31992568,49.05122932],[-122.3215375,49.05129376],[-122.32250317,49.05133036],[-122.32659405,49.05148532],[-122.32666266,49.05148781],[-122.32672855,49.0514903],[-122.32835591,49.05155973],[-122.32947429,49.0515932],[-122.32986942,49.0516021],[-122.33058679,49.05161817],[-122.33082111,49.05162347],[-122.33137033,49.05166121],[-122.33193708,49.05170988],[-122.33214011,49.05172625],[-122.33229472,49.05173791],[-122.33261936,49.05176411],[-122.33489817,49.05185276],[-122.33771115,49.05192469],[-122.33778277,49.05192575],[-122.33784679,49.05192682],[-122.34000415,49.05195993],[-122.34051091,49.05197026],[-122.34153748,49.05198628],[-122.34249896,49.05199661],[-122.34351868,49.05200124],[-122.34408564,49.05199518],[-122.34420753,49.05199946],[-122.34464376,49.05201512],[-122.34485515,49.05202331],[-122.34489474,49.05203079],[-122.3449725,49.05204546],[-122.3452061,49.05208954],[-122.34544116,49.05219101],[-122.34552226,49.0522585],[-122.34561745,49.05233771],[-122.34590978,49.0525866],[-122.34620749,49.05271655],[-122.34652219,49.05276782],[-122.34770106,49.05274218],[-122.34840208,49.05270693],[-122.34893018,49.05268023],[-122.34901198,49.05267998],[-122.34904665,49.05267987],[-122.34914762,49.05267935],[-122.34918344,49.05267916],[-122.35099036,49.05267097],[-122.35178446,49.0526667],[-122.35298457,49.05266029],[-122.35322961,49.05267774],[-122.35362395,49.05274503],[-122.35398614,49.05285113],[-122.35413904,49.05250576],[-122.35414841,49.05239147],[-122.35435348,49.05239911],[-122.35449235,49.05240429],[-122.35450395,49.05241082],[-122.35457918,49.05235017],[-122.35484072,49.05223481],[-122.35507688,49.0521109],[-122.35537754,49.05203969],[-122.35551437,49.05201406],[-122.35566719,49.05196136],[-122.35583248,49.05188018],[-122.35587369,49.05185454],[-122.35592809,49.05183603],[-122.35597015,49.05180897],[-122.35620336,49.05171212],[-122.35625846,49.05168506],[-122.35642425,49.05165088],[-122.35646343,49.05163237],[-122.35676689,49.05157113],[-122.35694508,49.05152698],[-122.35697192,49.05149992],[-122.35720668,49.0513931],[-122.35749569,49.0513048],[-122.35776873,49.05124356],[-122.35801645,49.05115526],[-122.35807154,49.0511282],[-122.35811353,49.05111965],[-122.35815559,49.05109259],[-122.35820914,49.0510755],[-122.35845833,49.0509516],[-122.35871994,49.05086187],[-122.35899296,49.05080063],[-122.35929565,49.05076645],[-122.35956861,49.05076787],[-122.3596106,49.05075933],[-122.3598828,49.05074366],[-122.35992409,49.05074366],[-122.35991729,49.04907627],[-122.35991668,49.04892766],[-122.35991567,49.04868099],[-122.3599965,49.04871562],[-122.36189206,49.04952955],[-122.37317434,49.05436044],[-122.37647942,49.05582061],[-122.37820083,49.05647041],[-122.38151093,49.05775504],[-122.38785008,49.06025137],[-122.39327259,49.06238622],[-122.40363025,49.06647177],[-122.41427036,49.07066693],[-122.42639839,49.07546829],[-122.42655416,49.07527567],[-122.42681438,49.07495451],[-122.42691712,49.07482704],[-122.42705183,49.0743008],[-122.4268785,49.07379556],[-122.42634525,49.07332894],[-122.42614487,49.07315359],[-122.4258788,49.07287338],[-122.4256869,49.07237669],[-122.42569499,49.07142871],[-122.42570021,49.07081682],[-122.42570754,49.06994948],[-122.4257343,49.06671474],[-122.42574063,49.06593883],[-122.42575066,49.0647091],[-122.42576308,49.06323362],[-122.42580822,49.06083169],[-122.4258152,49.06044894],[-122.42583668,49.05973434],[-122.42585172,49.05924003],[-122.42586542,49.05878973],[-122.42587466,49.05848068],[-122.42589824,49.05831796],[-122.42594348,49.05800499],[-122.42600477,49.05758071],[-122.42604342,49.05731318],[-122.42608727,49.05701089],[-122.42630288,49.05569386],[-122.42630378,49.05568496],[-122.42633998,49.0552628],[-122.42638219,49.05477061],[-122.42643417,49.05416132],[-122.42645202,49.05395205],[-122.42651354,49.05323247],[-122.42651493,49.05321664],[-122.42651573,49.05320754],[-122.42651628,49.05305444],[-122.42651752,49.05259585],[-122.42651806,49.05255988],[-122.4265197,49.05207387],[-122.42652081,49.05167861],[-122.4265217,49.05136319],[-122.42652818,49.04947745],[-122.42653434,49.0476841],[-122.42653965,49.0460463],[-122.42653991,49.04596829],[-122.42653995,49.04594322],[-122.42654006,49.04588052],[-122.42654012,49.04584901],[-122.42654013,49.04584747],[-122.4265412,49.04556608],[-122.42654146,49.0454983],[-122.42654149,49.04547584],[-122.42654167,49.04536335],[-122.42654438,49.04457911],[-122.42654499,49.04440094],[-122.4265454,49.0442749],[-122.42654857,49.04330359],[-122.42655019,49.04284464],[-122.42655183,49.04231377],[-122.42655189,49.04224362],[-122.42654807,49.03949846],[-122.42654807,49.03949234],[-122.42654788,49.03917445],[-122.42654706,49.03874083],[-122.42654673,49.03856275],[-122.4265466,49.03840668],[-122.42654638,49.03813122],[-122.42654459,49.03689785],[-122.42654874,49.03656547],[-122.4265584,49.03579195],[-122.42657779,49.03428772],[-122.42659538,49.03292253],[-122.42660319,49.03229626],[-122.42660402,49.03223001],[-122.4266068,49.03201308],[-122.42661626,49.03127721],[-122.42661628,49.03126795],[-122.42661359,49.03117858],[-122.42655911,49.02933708],[-122.42646336,49.02924807],[-122.42629652,49.02918569],[-122.42623956,49.0291644],[-122.42581603,49.02900595],[-122.42577055,49.02894863],[-122.425752,49.02892514],[-122.42572641,49.02889273],[-122.42570214,49.02874603],[-122.42687556,49.02755885],[-122.42765844,49.02676674],[-122.42765924,49.02676354],[-122.42768151,49.02664568],[-122.427647,49.02659937],[-122.42748815,49.02638612],[-122.42721054,49.0260144],[-122.42658331,49.02536639],[-122.4264571,49.02523607],[-122.42640482,49.0251823],[-122.42637159,49.02514813],[-122.42539767,49.02433312],[-122.42523546,49.02403831],[-122.42548906,49.02349426],[-122.42656122,49.02222529],[-122.42655896,49.02193126],[-122.42655826,49.02184004],[-122.42654327,49.01994193],[-122.42653188,49.01851149],[-122.42651807,49.01676024],[-122.42488847,49.01675811],[-122.4259931,49.01594262],[-122.42619926,49.01579071],[-122.42623318,49.01576543],[-122.42624599,49.01575125],[-122.42640072,49.01557993],[-122.42643828,49.01549763],[-122.42649885,49.01536488],[-122.42648837,49.01468802],[-122.42646248,49.01300253],[-122.42645644,49.01260974],[-122.42645542,49.01254755],[-122.42645114,49.01228574],[-122.42642727,49.01074688],[-122.42641704,49.01006936],[-122.42641165,49.0097129],[-122.42640662,49.00938391],[-122.42640683,49.00929824],[-122.42640701,49.00922689],[-122.42640767,49.00913871],[-122.42640815,49.00907414],[-122.42643745,49.00336452],[-122.42644259,49.00236256],[-122.4264429,49.00230706],[-122.40491668,49.00231164],[-122.39999983,49.00231378],[-122.3972562,49.00231484],[-122.39218521,49.00231698],[-122.3829048,49.00232268],[-122.36085197,49.0023387],[-122.35117167,49.00234511],[-122.33844287,49.00235508],[-122.33803072,49.00235543],[-122.32704714,49.00236166],[-122.31921672,49.0023654],[-122.30493395,49.00237644],[-122.29380845,49.00238356],[-122.29350831,49.00238356],[-122.27005019,49.00238143],[-122.26931823,49.0024003],[-122.26651057,49.00240315],[-122.26591531,49.00240386],[-122.26532276,49.00240457],[-122.26502696,49.00240457],[-122.26481747,49.00240457],[-122.26081074,49.00241134],[-122.25197401,49.00242202],[-122.25179708,49.00242202],[-122.25161092,49.00242202],[-122.24975824,49.00242344],[-122.2497132,49.00242344],[-122.23890648,49.00243021],[-122.23347066,49.00243341],[-122.23329318,49.00243341],[-122.23310702,49.00243341],[-122.23095567,49.00242415],[-122.23086036,49.0024238],[-122.22790582,49.00241169],[-122.22768179,49.0024124],[-122.22676275,49.00241454],[-122.22640662,49.00241561],[-122.2241704,49.0024213],[-122.22285614,49.00242451],[-122.22010097,49.00243127],[-122.21663538,49.00243982],[-122.21591465,49.0024416],[-122.21573696,49.00244196],[-122.2155508,49.00244196],[-122.20590241,49.00242843],[-122.20563375,49.00242843],[-122.19999992,49.00243056],[-122.18582285,49.00242807],[-122.17204907,49.00242736],[-122.16149438,49.00242558],[-122.1481802,49.00242593],[-122.14082444,49.00242593],[-122.12717384,49.00242344],[-122.11690227,49.0024238],[-122.11690346,49.00249002],[-122.11690443,49.00265488],[-122.11692241,49.0061093],[-122.11694092,49.00976382],[-122.1169602,49.01340694],[-122.11697564,49.01705007],[-122.11147347,49.01705078],[-122.10603557,49.01705114],[-122.09491155,49.01705114],[-122.09491234,49.01761121],[-122.09491305,49.01780383],[-122.09491798,49.02064015],[-122.09492481,49.02430393],[-122.09493611,49.03061531],[-122.0949377,49.0313794],[-122.0949394,49.03230355],[-122.0949428,49.03416095],[-122.09495098,49.03862043],[-122.09495145,49.03862328],[-122.09495037,49.03862328],[-122.0912779,49.03862308],[-122.08935792,49.03862293],[-122.08376459,49.03862221],[-122.08380377,49.04217526],[-122.08384289,49.04569733],[-122.0836368,49.04569769],[-122.08079762,49.04570374],[-122.07835107,49.04570908],[-122.0729154,49.04572047],[-122.0729428,49.04933547],[-122.07297015,49.05295047],[-122.07299756,49.05656618],[-122.07300153,49.05708816],[-122.07306546,49.05709848],[-122.07462799,49.05734843],[-122.0769111,49.05787717],[-122.07762463,49.0580438],[-122.07733565,49.05814029],[-122.07704792,49.05821008],[-122.07686831,49.05827168],[-122.07659133,49.05838632],[-122.0763576,49.05850133],[-122.07612134,49.05864339],[-122.07609347,49.0586701],[-122.07601082,49.05874131],[-122.07585738,49.05889299],[-122.07562042,49.05910733],[-122.07546615,49.05927681],[-122.07531239,49.05947371],[-122.07514592,49.05962539],[-122.0749907,49.05980377],[-122.07493638,49.05985753],[-122.07493258,49.06004624],[-122.07492931,49.06018118],[-122.07492923,49.06025061],[-122.07558536,49.06036776],[-122.07592648,49.06036704],[-122.08034961,49.06035779],[-122.08038339,49.0677327],[-122.0804365,49.07486407],[-122.08045361,49.08211116],[-122.08047233,49.08818043],[-122.08041674,49.08933439],[-122.08040961,49.09237864],[-122.08040034,49.09487599],[-122.08039018,49.09774542],[-122.08038209,49.1000003],[-122.08038195,49.1000124],[-122.08038099,49.10037237],[-122.080379,49.10083097],[-122.08037739,49.10135294],[-122.0803754,49.101892],[-122.08034435,49.10284658],[-122.08033455,49.10391231],[-122.08033405,49.10396565],[-122.08033234,49.10461285],[-122.08032825,49.10616178],[-122.0804613,49.10631026],[-122.08060239,49.10646443],[-122.08074533,49.10661824],[-122.08088718,49.10677206],[-122.08100403,49.10693406],[-122.08114954,49.10708538],[-122.08130037,49.10723599],[-122.08143325,49.10739301],[-122.08156949,49.10754896],[-122.08158676,49.10756748],[-122.08171265,49.10770242],[-122.08184792,49.10785909],[-122.08199411,49.10801112],[-122.08214894,49.10815959],[-122.08231099,49.10830415],[-122.08244271,49.10846224],[-122.08258533,49.1086157],[-122.08273887,49.10876453],[-122.08287923,49.10891905],[-122.08301938,49.10907394],[-122.08316634,49.10922561],[-122.08331762,49.10937551],[-122.08346663,49.10952648],[-122.08361543,49.1096778],[-122.08375883,49.1098309],[-122.08388612,49.10999006],[-122.0840106,49.11015028],[-122.08414925,49.11030588],[-122.08429265,49.11045898],[-122.08444092,49.1106103],[-122.08458995,49.11076127],[-122.08472958,49.11091615],[-122.08487169,49.11106961],[-122.08501489,49.11122307],[-122.0851609,49.11137546],[-122.08530767,49.11152749],[-122.08545994,49.11167668],[-122.08562421,49.11182124],[-122.08576579,49.11197469],[-122.08590262,49.11213065],[-122.08605502,49.11228054],[-122.08619077,49.11243649],[-122.08634414,49.11258568],[-122.08648379,49.11274056],[-122.08663683,49.11288939],[-122.08678253,49.11304143],[-122.08691657,49.11319845],[-122.08704779,49.11335653],[-122.08718485,49.11351213],[-122.08732808,49.11366559],[-122.08747336,49.11381833],[-122.08761681,49.11397144],[-122.08774804,49.11412952],[-122.08788868,49.11428369],[-122.08803397,49.11443644],[-122.08818682,49.11458563],[-122.08833967,49.11473481],[-122.08847037,49.1148929],[-122.08861491,49.115046],[-122.08876399,49.11519697],[-122.08891101,49.11534865],[-122.08905556,49.11550175],[-122.08919395,49.11565699],[-122.08933158,49.11581258],[-122.08947278,49.11596675],[-122.08961981,49.11611843],[-122.08977095,49.11626869],[-122.08992307,49.11641823],[-122.09007422,49.11656848],[-122.09022071,49.11672016],[-122.09035803,49.1168754],[-122.09051447,49.11702316],[-122.09065925,49.11717591],[-122.09079593,49.11733221],[-122.09093098,49.11748852],[-122.09106377,49.1176459],[-122.09119936,49.1178022],[-122.09134319,49.11795566],[-122.09149834,49.11810378],[-122.09164313,49.11825653],[-122.09178566,49.11841034],[-122.09192613,49.11856487],[-122.09205969,49.11872189],[-122.0921927,49.11887891],[-122.09234387,49.11902916],[-122.09249094,49.11918084],[-122.09263499,49.11933394],[-122.0927785,49.11948704],[-122.09292104,49.11964086],[-122.09306434,49.11979432],[-122.09320936,49.11994671],[-122.09335904,49.12009767],[-122.09351304,49.12024686],[-122.09366671,49.12039569],[-122.09381606,49.1205463],[-122.09394012,49.12070652],[-122.09406774,49.12086532],[-122.0942103,49.12101914],[-122.09435307,49.12117259],[-122.09449433,49.12132676],[-122.09464197,49.12147844],[-122.09478982,49.12162977],[-122.09492828,49.121785],[-122.09506317,49.12194167],[-122.09521782,49.12208979],[-122.09538889,49.12223043],[-122.09556072,49.12237071],[-122.09573222,49.12251064],[-122.09591345,49.12264701],[-122.09607307,49.12279228],[-122.09614225,49.12287915],[-122.09619963,49.12295108],[-122.09718157,49.12263063],[-122.09792925,49.12238673],[-122.09857858,49.12213714],[-122.09905801,49.12193633],[-122.0996921,49.12159238]]]},"geometry_name":"SHAPE","properties":{"id":259,"slug":"abbotsford-south","name":"Abbotsford South","abbreviation":"ABS","gazetteDate":"2023-12-07Z","boundarySet":11},"bbox":[-122.42768151,49.00230706,-122.0729154,49.12295108]}
