{"type":"Feature","id":267,"geometry":{"type":"Polygon","coordinates":[[[-123.01560597,49.23285456],[-123.01586549,49.23282278],[-123.01703552,49.23275157],[-123.0179801,49.23268718],[-123.01860672,49.23264439],[-123.01869783,49.23263821],[-123.01877464,49.232633],[-123.01950959,49.23258008],[-123.0234017,49.23229974],[-123.02347673,49.23229439],[-123.02349215,49.2322938],[-123.02351354,49.23229297],[-123.02353596,49.2322919],[-123.02353062,49.23059353],[-123.02351826,49.2296799],[-123.0235148,49.22944598],[-123.02351212,49.22923448],[-123.0235098,49.22809298],[-123.02351105,49.22794415],[-123.02352384,49.22637645],[-123.02347974,49.22519863],[-123.02348119,49.2250295],[-123.02348409,49.22463882],[-123.02348433,49.22463749],[-123.02349466,49.22325245],[-123.0234956,49.22324319],[-123.02350991,49.22306018],[-123.02370279,49.22194858],[-123.02371786,49.22099614],[-123.02371791,49.22097798],[-123.02371843,49.22016903],[-123.02371845,49.22014539],[-123.02372121,49.21746339],[-123.02372392,49.21480404],[-123.02372142,49.21380566],[-123.0237193,49.2128105],[-123.02371832,49.2122871],[-123.02387142,49.21145964],[-123.02395762,49.2111399],[-123.02396712,49.2111043],[-123.02407307,49.21071299],[-123.02412555,49.21047302],[-123.02408936,49.21017856],[-123.02378064,49.20923645],[-123.02360314,49.20817292],[-123.02349024,49.20754164],[-123.02344479,49.2069567],[-123.02343994,49.20689433],[-123.02345384,49.20550181],[-123.0234522,49.20542099],[-123.02345084,49.20533019],[-123.02343473,49.20442369],[-123.02342564,49.20428839],[-123.02341468,49.20412211],[-123.02340173,49.20393269],[-123.02337685,49.20344561],[-123.02338302,49.20261142],[-123.0233858,49.20223503],[-123.02342746,49.20147415],[-123.023391,49.20059007],[-123.02339193,49.20000009],[-123.02339301,49.19928443],[-123.02314327,49.19920965],[-123.0226446,49.19905869],[-123.02239548,49.19898285],[-123.02189798,49.19883081],[-123.02139993,49.19867878],[-123.02115102,49.19860259],[-123.02065332,49.19845091],[-123.0204042,49.19837507],[-123.01990515,49.19822481],[-123.01940549,49.19807563],[-123.01890482,49.19792822],[-123.01840292,49.19778295],[-123.01764062,49.19757965],[-123.01685825,49.19740945],[-123.01659839,49.19735142],[-123.01608623,49.19722217],[-123.01557836,49.19708545],[-123.01532463,49.19701673],[-123.01481799,49.19687787],[-123.01431217,49.19673758],[-123.01380717,49.19659587],[-123.01330354,49.19645274],[-123.01305186,49.19638046],[-123.01254987,49.19623448],[-123.01229956,49.19616078],[-123.01155454,49.19593219],[-123.01107319,49.1957588],[-123.01059403,49.19558255],[-123.01035087,49.19549923],[-123.00985489,49.19534471],[-123.00935395,49.19519694],[-123.00910371,49.19512217],[-123.00861026,49.19496515],[-123.00788089,49.19471414],[-123.00763816,49.19463011],[-123.0071535,49.19446063],[-123.00642892,49.1942032],[-123.00618857,49.19411597],[-123.00547197,49.19385036],[-123.00499864,49.19366877],[-123.00453199,49.19347935],[-123.00430439,49.19337752],[-123.00365306,49.19304568],[-123.0034476,49.19292711],[-123.00306066,49.19267289],[-123.00269545,49.19240265],[-123.00233849,49.19212849],[-123.00181463,49.19171226],[-123.00164236,49.19157198],[-123.00129835,49.19129141],[-123.00095116,49.19101262],[-123.00041679,49.19060245],[-123.00005,49.19033505],[-123.00000015,49.19029945],[-122.99962696,49.19003561],[-122.99924963,49.18977427],[-122.99906021,49.18964395],[-122.99867948,49.18938475],[-122.99829875,49.18912554],[-122.99791272,49.18886989],[-122.99751191,49.18862386],[-122.9973206,49.18849497],[-122.99695502,49.18822651],[-122.99677489,49.1880905],[-122.99641796,49.1878174],[-122.99605955,49.18754502],[-122.99587868,49.18740937],[-122.99552198,49.18713592],[-122.99516678,49.18686176],[-122.99480124,49.1865933],[-122.99441547,49.18633729],[-122.99421241,49.18621659],[-122.99378898,49.1859873],[-122.99335459,49.18576761],[-122.99292061,49.18554721],[-122.99250061,49.18531578],[-122.99230955,49.18518653],[-122.99193329,49.18492448],[-122.99173501,49.18480022],[-122.99133866,49.18455134],[-122.99094137,49.18430317],[-122.99074215,49.18417962],[-122.99034166,49.18393323],[-122.98993982,49.18368827],[-122.98953533,49.18344508],[-122.98911694,49.18321187],[-122.988893,49.18310861],[-122.98841705,49.18292916],[-122.98793027,49.18276288],[-122.98768787,49.1826785],[-122.98721738,49.18249335],[-122.98699195,49.18239081],[-122.98655288,49.18217469],[-122.98611498,49.18195749],[-122.98566005,49.18175668],[-122.98518706,49.18157403],[-122.98494937,49.1814843],[-122.98446971,49.18130948],[-122.98422815,49.18122367],[-122.98374216,49.18105704],[-122.98325051,49.18089646],[-122.98275424,49.180743],[-122.98250265,49.18067179],[-122.98198183,49.18055821],[-122.98145024,49.18046813],[-122.98091768,49.18038161],[-122.98038192,49.18030256],[-122.98011227,49.18026945],[-122.97936598,49.18021255],[-122.9792951,49.18020714],[-122.97902079,49.18019824],[-122.9781977,49.18019361],[-122.97764878,49.18020287],[-122.97710094,49.18022352],[-122.97682803,49.18024061],[-122.97628506,49.18029259],[-122.97601567,49.1803282],[-122.97521953,49.18046528],[-122.97469779,49.18057601],[-122.97419033,49.18071309],[-122.97368728,49.18085765],[-122.97317376,49.1809844],[-122.97265453,49.18110119],[-122.9721334,49.1812137],[-122.97134688,49.18137286],[-122.97082527,49.1814843],[-122.97057333,49.18155587],[-122.9701031,49.18173995],[-122.96989761,49.18185958],[-122.96955038,49.18213766],[-122.96928093,49.18245098],[-122.96903741,49.18277321],[-122.96875803,49.18308298],[-122.96861303,49.18323572],[-122.96831949,49.18353979],[-122.96817183,49.18369147],[-122.96773152,49.18414757],[-122.96759094,49.1843021],[-122.96730713,49.18461008],[-122.96716002,49.18476176],[-122.96685375,49.18506049],[-122.96669657,49.1852079],[-122.96637532,49.1854995],[-122.96604823,49.18578897],[-122.96588417,49.18593317],[-122.96555837,49.18622229],[-122.9653973,49.18636792],[-122.96507075,49.18665739],[-122.96472663,49.1869376],[-122.96435292,49.18720108],[-122.96395878,49.18745174],[-122.96355512,49.18769528],[-122.96335206,49.18781634],[-122.9629503,49.1880613],[-122.96250724,49.18827386],[-122.96228486,49.18837925],[-122.96183887,49.18858933],[-122.96139084,49.18879726],[-122.96116675,49.18890087],[-122.96071375,49.18910418],[-122.96024694,49.1892936],[-122.96001652,49.18939116],[-122.9595829,49.18961191],[-122.95917609,49.18985331],[-122.95897269,49.18997401],[-122.9585671,49.19021613],[-122.9581611,49.19045896],[-122.95775584,49.19070143],[-122.95755277,49.19082249],[-122.95724408,49.19100692],[-122.95724293,49.19125723],[-122.95194789,49.19382559],[-122.95134706,49.19411699],[-122.95092702,49.1943207],[-122.95096758,49.19435292],[-122.95180791,49.19502034],[-122.95186838,49.19506754],[-122.95194068,49.19512395],[-122.95224258,49.19533616],[-122.95330839,49.1961711],[-122.95377057,49.19652823],[-122.95380344,49.1965592],[-122.95382263,49.19657416],[-122.95384241,49.1965903],[-122.95393166,49.19666317],[-122.9539955,49.19671515],[-122.95420647,49.19688748],[-122.95428066,49.19694801],[-122.95433298,49.19699066],[-122.95455725,49.19717304],[-122.95473888,49.19726276],[-122.95559909,49.19799587],[-122.95563881,49.19805854],[-122.95561871,49.1981561],[-122.95631319,49.19853956],[-122.95796187,49.19982278],[-122.95818911,49.20000009],[-122.95879124,49.20047613],[-122.95908234,49.20069973],[-122.95938536,49.20093295],[-122.95995132,49.20136769],[-122.96007284,49.20146916],[-122.95860956,49.20226171],[-122.95772139,49.20269185],[-122.95749613,49.20279937],[-122.95716919,49.20297669],[-122.95581475,49.20371123],[-122.95382929,49.20479469],[-122.95373948,49.20484098],[-122.95354459,49.2049421],[-122.95234801,49.2055602],[-122.9521425,49.20576137],[-122.95210657,49.20580873],[-122.95214483,49.20584077],[-122.95260612,49.20622923],[-122.95290757,49.20667394],[-122.95301107,49.20712363],[-122.95306112,49.20870415],[-122.9531654,49.20902068],[-122.95321584,49.20910649],[-122.9534607,49.20952271],[-122.95359333,49.20969504],[-122.95373478,49.20980079],[-122.95492531,49.21062683],[-122.95565966,49.21118441],[-122.95594768,49.21144397],[-122.95651003,49.2120724],[-122.95655989,49.2121137],[-122.95695945,49.21243344],[-122.95731828,49.21272255],[-122.95777705,49.21309107],[-122.95874716,49.21383059],[-122.9590922,49.21409157],[-122.95972576,49.21460002],[-122.9598056,49.21466411],[-122.96022431,49.21500093],[-122.96032623,49.21508354],[-122.96060092,49.21531426],[-122.9608132,49.21563471],[-122.96090618,49.21594554],[-122.96098193,49.21619905],[-122.96098193,49.21623608],[-122.96098168,49.21676468],[-122.96099058,49.2171822],[-122.96098312,49.21835601],[-122.96098728,49.21843613],[-122.96281668,49.21844352],[-122.96407689,49.21844859],[-122.96410796,49.21844859],[-122.96414557,49.21844859],[-122.96477483,49.21845108],[-122.96492695,49.21845547],[-122.96507083,49.21845963],[-122.96546761,49.21851766],[-122.96582147,49.21859352],[-122.96616026,49.21866614],[-122.96767455,49.21899168],[-122.96775125,49.21900817],[-122.9678931,49.21903857],[-122.96793808,49.2190483],[-122.96803954,49.21907025],[-122.96828692,49.21912342],[-122.97079784,49.21966486],[-122.97159036,49.21983174],[-122.97203562,49.21992549],[-122.97288967,49.22013067],[-122.97347623,49.22027158],[-122.97475992,49.22058241],[-122.97612107,49.22095306],[-122.97635026,49.22101537],[-122.97660446,49.22108168],[-122.97684435,49.22114426],[-122.97711772,49.22123201],[-122.97754318,49.22136857],[-122.97893515,49.22181293],[-122.97941598,49.22195072],[-122.97983197,49.22208388],[-122.98022014,49.22220814],[-122.98051307,49.22230163],[-122.98075006,49.22237727],[-122.98092019,49.22243603],[-122.98103353,49.22247518],[-122.98247833,49.22292737],[-122.98308985,49.22312533],[-122.98400334,49.22341815],[-122.98423283,49.22349171],[-122.98455052,49.22359176],[-122.98893377,49.22500066],[-122.99002324,49.22535249],[-122.990162,49.2253973],[-122.990187,49.22540541],[-122.99032567,49.22545036],[-122.99082751,49.22561281],[-122.99155209,49.22584736],[-122.99283014,49.22626418],[-122.9942203,49.22671755],[-122.99471214,49.22687853],[-122.99509162,49.22700275],[-122.99640876,49.22743855],[-122.99709593,49.22765566],[-122.99771376,49.22785086],[-122.99934988,49.2283828],[-123.00002793,49.22861246],[-123.00032787,49.22871401],[-123.00074301,49.22885457],[-123.00077689,49.22886615],[-123.00186652,49.22923555],[-123.00187994,49.22923987],[-123.00188124,49.22924029],[-123.00207476,49.22930586],[-123.00265246,49.22950152],[-123.00276216,49.22953774],[-123.00282714,49.2295592],[-123.00359857,49.22981342],[-123.00365996,49.22983376],[-123.00384785,49.22989603],[-123.00477462,49.23020366],[-123.0048229,49.23021932],[-123.00483449,49.23022288],[-123.00489592,49.23024318],[-123.00627553,49.23069216],[-123.00771144,49.2311618],[-123.00786164,49.23121093],[-123.00876515,49.23150503],[-123.00928481,49.23167403],[-123.00948503,49.23173915],[-123.00981725,49.23184719],[-123.01064481,49.23210925],[-123.01137541,49.23234068],[-123.01260585,49.23263336],[-123.01273146,49.23264626],[-123.01381894,49.23281246],[-123.01427449,49.2328381],[-123.01507239,49.23287261],[-123.01560597,49.23285456]]]},"geometry_name":"SHAPE","properties":{"id":267,"slug":"burnaby-south-metrotown","name":"Burnaby South-Metrotown","abbreviation":"BNS","gazetteDate":"2023-12-07Z","boundarySet":11},"bbox":[-123.02412555,49.18019361,-122.95092702,49.23287261]}
