{"type":"Feature","id":266,"geometry":{"type":"Polygon","coordinates":[[[-122.99999805,49.29601851],[-123.00256003,49.29586505],[-123.01384842,49.29518997],[-123.02058708,49.29478657],[-123.02329816,49.29462421],[-123.02330033,49.29328153],[-123.02330009,49.29317294],[-123.02330062,49.29315193],[-123.02333858,49.29196663],[-123.02334733,49.29109074],[-123.0233514,49.29069446],[-123.02335656,49.29018982],[-123.02336132,49.28972386],[-123.02336908,49.28928304],[-123.02337972,49.2886792],[-123.02338493,49.28837371],[-123.0233985,49.28760143],[-123.02341537,49.2866351],[-123.02343436,49.2856613],[-123.02344432,49.28474447],[-123.02345776,49.2838579],[-123.02347125,49.28295601],[-123.02348434,49.28204915],[-123.023498,49.28113944],[-123.02352561,49.28023115],[-123.02351871,49.27933746],[-123.02351995,49.27905439],[-123.02352226,49.27847616],[-123.02352313,49.27824153],[-123.0235258,49.27748883],[-123.0235286,49.27665482],[-123.02352935,49.27643278],[-123.02353453,49.27575984],[-123.02353982,49.27487754],[-123.02354474,49.2741163],[-123.02354615,49.27390659],[-123.02355102,49.27318558],[-123.02355796,49.27211529],[-123.02356382,49.27120166],[-123.02356979,49.27028981],[-123.02356611,49.26952857],[-123.02356581,49.26945843],[-123.02356532,49.26939149],[-123.02356065,49.26846112],[-123.02358007,49.26662852],[-123.02359103,49.26562517],[-123.02359143,49.26557959],[-123.02359163,49.26557639],[-123.02359225,49.26553615],[-123.02361237,49.26366387],[-123.02362533,49.26245726],[-123.02362696,49.26230569],[-123.02362357,49.26154338],[-123.02362303,49.26139106],[-123.02362274,49.26130625],[-123.02361903,49.26115529],[-123.02362335,49.26100076],[-123.02354519,49.26094949],[-123.02263312,49.26035381],[-123.02135974,49.25949893],[-123.02010951,49.25870937],[-123.01952513,49.25834247],[-123.01910094,49.25810356],[-123.01810607,49.25777314],[-123.01721187,49.25764924],[-123.01653128,49.25758586],[-123.01331255,49.25765173],[-123.01201434,49.25763998],[-123.00837905,49.25762111],[-123.00417897,49.25760425],[-123.00406658,49.25760493],[-123.00395863,49.25760471],[-123.0025992,49.25758978],[-123.00050975,49.25766037],[-123.00022487,49.25766894],[-122.99992898,49.25767964],[-122.99568512,49.25782121],[-122.99508027,49.25783047],[-122.98901761,49.2578374],[-122.98527817,49.25784151],[-122.98438849,49.25775463],[-122.98279188,49.25746943],[-122.98279465,49.25747985],[-122.98280191,49.25750717],[-122.98282636,49.2575969],[-122.98292524,49.2579825],[-122.9829561,49.25810273],[-122.98298063,49.25819827],[-122.98298728,49.25822434],[-122.98302351,49.25836633],[-122.98327485,49.25938036],[-122.98341198,49.25952394],[-122.9838513,49.25998387],[-122.98391363,49.26004939],[-122.98401868,49.26015941],[-122.98432091,49.26047636],[-122.98460877,49.26077823],[-122.98487601,49.26106546],[-122.98493672,49.26113072],[-122.98511938,49.26132728],[-122.98555014,49.26179084],[-122.98555909,49.26180032],[-122.98559768,49.26184185],[-122.98573484,49.26198952],[-122.98617004,49.26243779],[-122.98650221,49.26257005],[-122.98688007,49.26272049],[-122.98718203,49.26283158],[-122.98818021,49.2632005],[-122.9883583,49.26326632],[-122.98743696,49.26419348],[-122.98696054,49.26501347],[-122.9869329,49.26506367],[-122.98505604,49.26505147],[-122.98335022,49.2650448],[-122.98232183,49.26500172],[-122.98120519,49.2648974],[-122.9804999,49.26479984],[-122.9795127,49.26459048],[-122.9783679,49.26428855],[-122.97716128,49.26386306],[-122.9759091,49.26342191],[-122.96962596,49.26119481],[-122.96801304,49.2605913],[-122.96800044,49.26059806],[-122.96795193,49.2606237],[-122.96786591,49.2606529],[-122.9675004,49.26078143],[-122.96792945,49.26125818],[-122.96801425,49.26135396],[-122.96811539,49.2614679],[-122.96825342,49.26162314],[-122.96823639,49.26178051],[-122.96852155,49.26186846],[-122.96960442,49.26239542],[-122.97015575,49.26261973],[-122.97015163,49.26314989],[-122.97014136,49.26441388],[-122.97013363,49.26485894],[-122.97013241,49.26493158],[-122.97013078,49.26531362],[-122.97012763,49.26575833],[-122.970127,49.26585375],[-122.97012062,49.26620696],[-122.97011803,49.26664882],[-122.97011517,49.26708925],[-122.97010951,49.26755746],[-122.970105,49.26798366],[-122.9701036,49.26845685],[-122.97010308,49.26889515],[-122.97009939,49.26978884],[-122.97009948,49.27024708],[-122.97009957,49.27069678],[-122.97009748,49.27114647],[-122.97009606,49.27158833],[-122.97009512,49.27205512],[-122.9700938,49.27250445],[-122.97009263,49.2729545],[-122.97009082,49.2733881],[-122.97009073,49.27341061],[-122.97008905,49.27387205],[-122.97008733,49.27430786],[-122.97008696,49.2747985],[-122.97008682,49.27520297],[-122.97007823,49.27610557],[-122.97007624,49.27630068],[-122.97006859,49.2769519],[-122.97006514,49.27721823],[-122.97005739,49.27781818],[-122.97005174,49.27832484],[-122.97004264,49.27908929],[-122.97002948,49.28028811],[-122.97002868,49.28034319],[-122.9658237,49.28036142],[-122.96467085,49.28035398],[-122.96467123,49.28039813],[-122.96469189,49.28084356],[-122.96445812,49.29561047],[-122.96854509,49.29635142],[-122.96943703,49.29651306],[-122.9694653,49.29651805],[-122.97491727,49.29750646],[-122.97893279,49.29823424],[-122.9869625,49.29968905],[-122.99107658,49.29828834],[-122.99726295,49.29618158],[-122.99999805,49.29601851]]]},"geometry_name":"SHAPE","properties":{"id":266,"slug":"burnaby-north","name":"Burnaby North","abbreviation":"BNO","gazetteDate":"2023-12-07Z","boundarySet":11},"bbox":[-123.02362696,49.25746943,-122.96445812,49.29968905]}
