{"type":"Feature","id":265,"geometry":{"type":"Polygon","coordinates":[[[-122.93887703,49.23286835],[-122.94065073,49.23196718],[-122.94113568,49.23170539],[-122.94113748,49.23170442],[-122.94117337,49.23168569],[-122.94196955,49.23127039],[-122.94225115,49.23112085],[-122.94290956,49.2307566],[-122.94349252,49.23045538],[-122.94534225,49.22950045],[-122.94613884,49.22908921],[-122.94648797,49.2289094],[-122.94669664,49.22879476],[-122.9472283,49.22923911],[-122.94868719,49.22844725],[-122.95023023,49.22763509],[-122.95163361,49.22687813],[-122.9516433,49.22687294],[-122.95165091,49.22686887],[-122.9532508,49.22602503],[-122.95415036,49.22557676],[-122.95461053,49.22532218],[-122.9551727,49.22502096],[-122.95561133,49.22478949],[-122.95585078,49.22466312],[-122.95617738,49.22449685],[-122.95714437,49.22398805],[-122.95756091,49.2237648],[-122.95813839,49.22345967],[-122.95903688,49.22298469],[-122.95985611,49.22254995],[-122.96007728,49.22243284],[-122.9601318,49.22240397],[-122.96078627,49.22205682],[-122.96094442,49.22200998],[-122.96103389,49.22198348],[-122.96101344,49.22150815],[-122.96100148,49.22122508],[-122.96099396,49.22108337],[-122.960995,49.22064472],[-122.9609955,49.22020036],[-122.96099526,49.21974497],[-122.96099509,49.21932554],[-122.96098728,49.21843613],[-122.96098312,49.21835601],[-122.96099058,49.2171822],[-122.96098168,49.21676468],[-122.96098193,49.21623608],[-122.96098193,49.21619905],[-122.96090618,49.21594554],[-122.9608132,49.21563471],[-122.96060092,49.21531426],[-122.96032623,49.21508354],[-122.96022431,49.21500093],[-122.9598056,49.21466411],[-122.95972576,49.21460002],[-122.9590922,49.21409157],[-122.95874716,49.21383059],[-122.95777705,49.21309107],[-122.95731828,49.21272255],[-122.95695945,49.21243344],[-122.95655989,49.2121137],[-122.95651003,49.2120724],[-122.95594768,49.21144397],[-122.95565966,49.21118441],[-122.95492531,49.21062683],[-122.95373478,49.20980079],[-122.95359333,49.20969504],[-122.9534607,49.20952271],[-122.95321584,49.20910649],[-122.9531654,49.20902068],[-122.95306112,49.20870415],[-122.95301107,49.20712363],[-122.95290757,49.20667394],[-122.95260612,49.20622923],[-122.95214483,49.20584077],[-122.95210657,49.20580873],[-122.9521425,49.20576137],[-122.95234801,49.2055602],[-122.95354459,49.2049421],[-122.95373948,49.20484098],[-122.95382929,49.20479469],[-122.95581475,49.20371123],[-122.95716919,49.20297669],[-122.95749613,49.20279937],[-122.95772139,49.20269185],[-122.95860956,49.20226171],[-122.96007284,49.20146916],[-122.95995132,49.20136769],[-122.95938536,49.20093295],[-122.95908234,49.20069973],[-122.95879124,49.20047613],[-122.95818911,49.20000009],[-122.95796187,49.19982278],[-122.95631319,49.19853956],[-122.95561871,49.1981561],[-122.95563881,49.19805854],[-122.95559909,49.19799587],[-122.95473888,49.19726276],[-122.95455725,49.19717304],[-122.95433298,49.19699066],[-122.95428066,49.19694801],[-122.95420647,49.19688748],[-122.9539955,49.19671515],[-122.95393166,49.19666317],[-122.95384241,49.1965903],[-122.95382263,49.19657416],[-122.95380344,49.1965592],[-122.95377057,49.19652823],[-122.95330839,49.1961711],[-122.95224258,49.19533616],[-122.95194068,49.19512395],[-122.95186838,49.19506754],[-122.95180791,49.19502034],[-122.95096758,49.19435292],[-122.95092702,49.1943207],[-122.94973311,49.19498019],[-122.94711201,49.19627435],[-122.94705077,49.19630459],[-122.94638392,49.19667324],[-122.94632247,49.19670819],[-122.94374959,49.19786891],[-122.94186739,49.19773106],[-122.94360636,49.19906652],[-122.94368197,49.19912456],[-122.94369744,49.1991364],[-122.94376521,49.19918829],[-122.94393059,49.19931544],[-122.94394998,49.19933036],[-122.94418853,49.19951159],[-122.94431034,49.19960391],[-122.94442953,49.19969424],[-122.94475366,49.19994029],[-122.94483811,49.20000439],[-122.94499214,49.20012131],[-122.94464768,49.20019058],[-122.94455975,49.20021566],[-122.94434013,49.20027817],[-122.94396951,49.20042522],[-122.94253193,49.20128793],[-122.94244387,49.20134063],[-122.94189487,49.20161075],[-122.94157839,49.20176647],[-122.94151596,49.20179708],[-122.94142737,49.20184053],[-122.94082306,49.20209546],[-122.94067804,49.20217237],[-122.94045797,49.2022888],[-122.94034592,49.20234983],[-122.94029634,49.20237683],[-122.93964134,49.20273356],[-122.93706654,49.20413564],[-122.93695306,49.20419646],[-122.93474216,49.2053804],[-122.93365198,49.20597038],[-122.93323962,49.20619184],[-122.93210567,49.20680105],[-122.93129444,49.20723757],[-122.93060473,49.20760964],[-122.92959991,49.20815468],[-122.92920525,49.20836875],[-122.92867679,49.20865504],[-122.92862254,49.20868456],[-122.92716758,49.20947243],[-122.92688535,49.20962525],[-122.92564868,49.21027363],[-122.92453647,49.21088924],[-122.92453262,49.21089138],[-122.92402178,49.21117408],[-122.92342049,49.21150129],[-122.92310968,49.21167051],[-122.92299763,49.21173149],[-122.92227641,49.21212401],[-122.92186064,49.21235048],[-122.9203329,49.21315801],[-122.9191831,49.21378217],[-122.91917274,49.21378786],[-122.91909496,49.21383023],[-122.9190302,49.21386513],[-122.91899536,49.213884],[-122.91778726,49.21454127],[-122.91701253,49.21495427],[-122.91630716,49.21533028],[-122.91421299,49.21647143],[-122.91418818,49.21648521],[-122.91417133,49.21649457],[-122.91411905,49.21652248],[-122.91410998,49.21652733],[-122.91405012,49.21655937],[-122.91397711,49.21659818],[-122.91212541,49.21757733],[-122.91175452,49.21777638],[-122.91094116,49.21821288],[-122.91063866,49.21837449],[-122.91015742,49.2186316],[-122.91010404,49.21866028],[-122.9100375,49.21869604],[-122.91002395,49.21870312],[-122.91002114,49.21870459],[-122.90958952,49.21893567],[-122.90889765,49.21930661],[-122.90862326,49.21945372],[-122.90856683,49.21948386],[-122.90845726,49.21954238],[-122.90841792,49.21956339],[-122.90878739,49.2198618],[-122.91007772,49.22090392],[-122.91156483,49.22209829],[-122.91194456,49.22240326],[-122.911892,49.22242925],[-122.91188433,49.22243351],[-122.91127775,49.22277035],[-122.91055604,49.22317127],[-122.91022449,49.2233517],[-122.9094595,49.22376801],[-122.90898602,49.22402543],[-122.90847974,49.22430102],[-122.90887194,49.22461826],[-122.9094434,49.22508077],[-122.90980714,49.22537717],[-122.9113448,49.22663067],[-122.91139365,49.22667104],[-122.9117011,49.22692513],[-122.91212113,49.22727146],[-122.9121294,49.22727833],[-122.91214684,49.22729257],[-122.91636985,49.22502121],[-122.91694751,49.22471048],[-122.91698014,49.22473434],[-122.91745694,49.22510217],[-122.91745899,49.22510392],[-122.91789334,49.22549023],[-122.91837145,49.22587015],[-122.91884905,49.22625005],[-122.91988908,49.22706719],[-122.92035642,49.22744176],[-122.92081893,49.22781241],[-122.92117906,49.22809939],[-122.92176437,49.22856475],[-122.92226776,49.22896443],[-122.92228143,49.22897527],[-122.92272294,49.22932563],[-122.92314062,49.22965676],[-122.92360346,49.23002321],[-122.92367127,49.2300769],[-122.92416919,49.23047325],[-122.92463621,49.23084491],[-122.92558185,49.23161433],[-122.92603312,49.23198107],[-122.92664366,49.23247776],[-122.92717254,49.23217975],[-122.92762657,49.23192374],[-122.92775681,49.23184996],[-122.92867982,49.231327],[-122.92902408,49.23113189],[-122.92908565,49.23109699],[-122.92924875,49.23108738],[-122.92952267,49.23106993],[-122.92962121,49.23104262],[-122.92972953,49.23101261],[-122.93056731,49.23047105],[-122.93071629,49.23037488],[-122.93082986,49.23030157],[-122.93091933,49.23024362],[-122.93099917,49.23019191],[-122.93101875,49.2301637],[-122.93108445,49.23006907],[-122.931124,49.2300115],[-122.93113435,49.22999643],[-122.93114035,49.22998789],[-122.93095506,49.2298387],[-122.93011075,49.22915864],[-122.93064002,49.22887131],[-122.93231381,49.22796302],[-122.93405697,49.22914654],[-122.93421657,49.22927685],[-122.93462371,49.22960891],[-122.93468107,49.22965569],[-122.93468837,49.22966167],[-122.93482684,49.22977497],[-122.9361612,49.23081998],[-122.93640421,49.23102021],[-122.93681632,49.23135976],[-122.93684481,49.23138326],[-122.93711172,49.23166667],[-122.93719454,49.23179877],[-122.93728165,49.23193763],[-122.93744593,49.2322004],[-122.93767822,49.2323827],[-122.93781487,49.23244766],[-122.93794037,49.23250731],[-122.93795498,49.2325104],[-122.93811881,49.23254506],[-122.93828307,49.23257995],[-122.9382965,49.2325803],[-122.93853945,49.23258577],[-122.93870776,49.23258956],[-122.93884772,49.23282007],[-122.93887703,49.23286835]]]},"geometry_name":"SHAPE","properties":{"id":265,"slug":"burnaby-new-westminster","name":"Burnaby-New Westminster","abbreviation":"BNN","gazetteDate":"2023-12-07Z","boundarySet":11},"bbox":[-122.96103389,49.1943207,-122.90841792,49.23286835]}
