{"type":"Feature","id":264,"geometry":{"type":"Polygon","coordinates":[[[-122.94730853,49.29724902],[-122.960178,49.29483428],[-122.96445812,49.29561047],[-122.96469189,49.28084356],[-122.96467123,49.28039813],[-122.96467085,49.28035398],[-122.9658237,49.28036142],[-122.97002868,49.28034319],[-122.97002948,49.28028811],[-122.97004264,49.27908929],[-122.97005174,49.27832484],[-122.97005739,49.27781818],[-122.97006514,49.27721823],[-122.97006859,49.2769519],[-122.97007624,49.27630068],[-122.97007823,49.27610557],[-122.97008682,49.27520297],[-122.97008696,49.2747985],[-122.97008733,49.27430786],[-122.97008905,49.27387205],[-122.97009073,49.27341061],[-122.97009082,49.2733881],[-122.97009263,49.2729545],[-122.9700938,49.27250445],[-122.97009512,49.27205512],[-122.97009606,49.27158833],[-122.97009748,49.27114647],[-122.97009957,49.27069678],[-122.97009948,49.27024708],[-122.97009939,49.26978884],[-122.97010308,49.26889515],[-122.9701036,49.26845685],[-122.970105,49.26798366],[-122.97010951,49.26755746],[-122.97011517,49.26708925],[-122.97011803,49.26664882],[-122.97012062,49.26620696],[-122.970127,49.26585375],[-122.97012763,49.26575833],[-122.97013078,49.26531362],[-122.97013241,49.26493158],[-122.97013363,49.26485894],[-122.97014136,49.26441388],[-122.97015163,49.26314989],[-122.97015575,49.26261973],[-122.96960442,49.26239542],[-122.96852155,49.26186846],[-122.96823639,49.26178051],[-122.96825342,49.26162314],[-122.96811539,49.2614679],[-122.96801425,49.26135396],[-122.96792945,49.26125818],[-122.9675004,49.26078143],[-122.96786591,49.2606529],[-122.96795193,49.2606237],[-122.96800044,49.26059806],[-122.96801304,49.2605913],[-122.96697753,49.26026943],[-122.96561596,49.25988347],[-122.96463121,49.25963209],[-122.96463156,49.25960005],[-122.96463141,49.25959079],[-122.9646314,49.25946575],[-122.96463274,49.25915427],[-122.96463651,49.2585326],[-122.96461086,49.25835458],[-122.96460065,49.25828194],[-122.96469634,49.253832],[-122.96469556,49.25347168],[-122.96468753,49.25295647],[-122.96464118,49.24991008],[-122.96464153,49.24822524],[-122.9646415,49.24814442],[-122.96464149,49.24803821],[-122.96464151,49.24707286],[-122.96464173,49.24702891],[-122.96464162,49.24646207],[-122.96464137,49.24558156],[-122.96457963,49.24299056],[-122.96457756,49.2429076],[-122.96450673,49.24277337],[-122.96467842,49.24250613],[-122.96468647,49.24249361],[-122.96473954,49.2424111],[-122.96473313,49.24238776],[-122.96470262,49.24227678],[-122.96465708,49.24226101],[-122.96329614,49.24186579],[-122.96125269,49.24145776],[-122.95969562,49.24114977],[-122.95821184,49.24082434],[-122.95641868,49.24033762],[-122.95488253,49.23988073],[-122.95236062,49.2391306],[-122.94869694,49.23804072],[-122.94800668,49.23786092],[-122.94813029,49.23778615],[-122.94856458,49.23752445],[-122.94907349,49.23723533],[-122.94876666,49.23718086],[-122.94573475,49.23664108],[-122.94542704,49.23658625],[-122.94462308,49.23648869],[-122.94322338,49.23639541],[-122.94222245,49.23632847],[-122.94213104,49.23632241],[-122.94172736,49.23625334],[-122.94153675,49.23617216],[-122.94128414,49.23596245],[-122.94121581,49.23583355],[-122.9411999,49.23574063],[-122.94116624,49.23554373],[-122.9411536,49.23516774],[-122.94101085,49.23479709],[-122.9407144,49.23442537],[-122.94065413,49.23434988],[-122.93987979,49.23376204],[-122.93964433,49.2335833],[-122.93912456,49.23318844],[-122.93890253,49.23291037],[-122.93887703,49.23286835],[-122.93884772,49.23282007],[-122.93870776,49.23258956],[-122.93853945,49.23258577],[-122.9382965,49.2325803],[-122.93828307,49.23257995],[-122.93811881,49.23254506],[-122.93795498,49.2325104],[-122.93794037,49.23250731],[-122.93781487,49.23244766],[-122.93767822,49.2323827],[-122.93744593,49.2322004],[-122.93728165,49.23193763],[-122.93719454,49.23179877],[-122.93711172,49.23166667],[-122.93684481,49.23138326],[-122.93681632,49.23135976],[-122.93640421,49.23102021],[-122.9361612,49.23081998],[-122.93482684,49.22977497],[-122.93468837,49.22966167],[-122.93468107,49.22965569],[-122.93462371,49.22960891],[-122.93421657,49.22927685],[-122.93405697,49.22914654],[-122.93231381,49.22796302],[-122.93064002,49.22887131],[-122.93011075,49.22915864],[-122.93095506,49.2298387],[-122.93114035,49.22998789],[-122.93113435,49.22999643],[-122.931124,49.2300115],[-122.93108445,49.23006907],[-122.93101875,49.2301637],[-122.93099917,49.23019191],[-122.93091933,49.23024362],[-122.93082986,49.23030157],[-122.93071629,49.23037488],[-122.93056731,49.23047105],[-122.92972953,49.23101261],[-122.92962121,49.23104262],[-122.92952267,49.23106993],[-122.92924875,49.23108738],[-122.92908565,49.23109699],[-122.92902408,49.23113189],[-122.92867982,49.231327],[-122.92775681,49.23184996],[-122.92762657,49.23192374],[-122.92717254,49.23217975],[-122.92664366,49.23247776],[-122.92603312,49.23198107],[-122.92558185,49.23161433],[-122.92463621,49.23084491],[-122.92416919,49.23047325],[-122.92367127,49.2300769],[-122.92360346,49.23002321],[-122.92314062,49.22965676],[-122.92272294,49.22932563],[-122.92228143,49.22897527],[-122.92226776,49.22896443],[-122.92176437,49.22856475],[-122.92117906,49.22809939],[-122.92081893,49.22781241],[-122.92035642,49.22744176],[-122.91988908,49.22706719],[-122.91884905,49.22625005],[-122.91837145,49.22587015],[-122.91789334,49.22549023],[-122.91745899,49.22510392],[-122.91745694,49.22510217],[-122.91698014,49.22473434],[-122.91694751,49.22471048],[-122.91636985,49.22502121],[-122.91214684,49.22729257],[-122.91193812,49.22740504],[-122.91164165,49.22756478],[-122.91051078,49.22817412],[-122.90935228,49.22879832],[-122.90905203,49.2289621],[-122.90610746,49.23054938],[-122.9052452,49.23101261],[-122.90425265,49.23154597],[-122.9032549,49.23208361],[-122.90232457,49.23258173],[-122.90232308,49.23258244],[-122.90151103,49.23302466],[-122.90134187,49.23311688],[-122.90073968,49.23344444],[-122.90026309,49.23370436],[-122.89989503,49.23390446],[-122.89919963,49.23428223],[-122.89906006,49.23435807],[-122.89841381,49.23470914],[-122.8973867,49.23522186],[-122.89723446,49.23528274],[-122.89704192,49.23535965],[-122.89683358,49.23541947],[-122.89636946,49.2355334],[-122.89576139,49.23568309],[-122.89563326,49.23571463],[-122.89561882,49.2361305],[-122.89561776,49.23615883],[-122.89561681,49.23618427],[-122.89537197,49.23618427],[-122.89493927,49.2361743],[-122.8948828,49.23687572],[-122.89486778,49.23747852],[-122.89485338,49.23797307],[-122.89485329,49.23800547],[-122.8948498,49.23803431],[-122.89481231,49.23803503],[-122.89419098,49.23803538],[-122.8941922,49.23799415],[-122.89419285,49.23797236],[-122.89419281,49.23796959],[-122.89419272,49.2379631],[-122.89419361,49.23793718],[-122.89419397,49.23792679],[-122.89420047,49.23765848],[-122.89420303,49.23755241],[-122.89348547,49.23754113],[-122.89348303,49.23757749],[-122.89348258,49.23762094],[-122.89324025,49.23762129],[-122.8932363,49.23780228],[-122.89268166,49.2377952],[-122.89251678,49.23778223],[-122.89251533,49.2378189],[-122.89251278,49.23788303],[-122.89251034,49.23794423],[-122.89250904,49.23797749],[-122.89250612,49.23805212],[-122.89250197,49.23814754],[-122.89250135,49.23816],[-122.89249885,49.23822979],[-122.89252401,49.23867165],[-122.89252758,49.23873467],[-122.89254087,49.23897144],[-122.89254299,49.23907684],[-122.89257345,49.24068762],[-122.8925763,49.24084962],[-122.89258122,49.24109245],[-122.89259542,49.24187505],[-122.89260128,49.24217414],[-122.89260191,49.24228878],[-122.89260228,49.24236498],[-122.89259951,49.24261457],[-122.89260441,49.2428015],[-122.89261335,49.24311055],[-122.89265051,49.24441584],[-122.89265417,49.24464763],[-122.89267338,49.24583827],[-122.89267773,49.24590378],[-122.89268383,49.24599565],[-122.89279914,49.24804544],[-122.89284513,49.2490149],[-122.89284655,49.24906512],[-122.89284833,49.24912542],[-122.89285205,49.24938526],[-122.89290086,49.2506252],[-122.89290986,49.25085389],[-122.89293125,49.25177408],[-122.89293735,49.25200522],[-122.89297072,49.25339964],[-122.8929784,49.25384026],[-122.89300438,49.25482453],[-122.89301509,49.2552376],[-122.89303043,49.25614824],[-122.89303087,49.25617468],[-122.89305118,49.25680943],[-122.89305565,49.25699073],[-122.89305698,49.25701792],[-122.89306097,49.25709968],[-122.89307286,49.25779005],[-122.89308155,49.25881708],[-122.89308293,49.25888139],[-122.89308063,49.25894541],[-122.89308136,49.25901904],[-122.89300821,49.25913067],[-122.89308455,49.25949888],[-122.89304757,49.26034776],[-122.89305788,49.26067462],[-122.8931047,49.26213194],[-122.89310869,49.26225798],[-122.89312674,49.2628355],[-122.89312689,49.26288748],[-122.8931267,49.26293341],[-122.89312684,49.26294267],[-122.8932518,49.26571026],[-122.89326148,49.26601077],[-122.89326321,49.26607237],[-122.89326737,49.26621621],[-122.89327159,49.26636184],[-122.89331094,49.26763793],[-122.8933941,49.26967989],[-122.89343028,49.27041336],[-122.89343408,49.27049703],[-122.89344625,49.27076478],[-122.89344611,49.27076692],[-122.89361424,49.27448987],[-122.89364443,49.27515847],[-122.89367423,49.27581396],[-122.89367652,49.27586416],[-122.89431839,49.28056192],[-122.89463711,49.28565525],[-122.89463958,49.28569065],[-122.89465169,49.28586389],[-122.89449093,49.28954512],[-122.89448744,49.28962306],[-122.89448404,49.28969893],[-122.89441287,49.2913325],[-122.89430423,49.29381597],[-122.89570539,49.29381739],[-122.90672363,49.29189649],[-122.90785669,49.29169888],[-122.91128355,49.2916939],[-122.91371404,49.29169283],[-122.91383742,49.29169283],[-122.91959889,49.29168642],[-122.91962073,49.29168642],[-122.92000799,49.29168606],[-122.93232758,49.29545345],[-122.94393844,49.29788102],[-122.94730853,49.29724902]]]},"geometry_name":"SHAPE","properties":{"id":264,"slug":"burnaby-east","name":"Burnaby East","abbreviation":"BNE","gazetteDate":"2023-12-07Z","boundarySet":11},"bbox":[-122.97015575,49.22471048,-122.89249885,49.29788102]}
