{"type":"Feature","id":263,"geometry":{"type":"Polygon","coordinates":[[[-122.9869329,49.26506367],[-122.98696054,49.26501347],[-122.98743696,49.26419348],[-122.9883583,49.26326632],[-122.98818021,49.2632005],[-122.98718203,49.26283158],[-122.98688007,49.26272049],[-122.98650221,49.26257005],[-122.98617004,49.26243779],[-122.98573484,49.26198952],[-122.98559768,49.26184185],[-122.98555909,49.26180032],[-122.98555014,49.26179084],[-122.98511938,49.26132728],[-122.98493672,49.26113072],[-122.98487601,49.26106546],[-122.98460877,49.26077823],[-122.98432091,49.26047636],[-122.98401868,49.26015941],[-122.98391363,49.26004939],[-122.9838513,49.25998387],[-122.98341198,49.25952394],[-122.98327485,49.25938036],[-122.98302351,49.25836633],[-122.98298728,49.25822434],[-122.98298063,49.25819827],[-122.9829561,49.25810273],[-122.98292524,49.2579825],[-122.98282636,49.2575969],[-122.98280191,49.25750717],[-122.98279465,49.25747985],[-122.98279188,49.25746943],[-122.98438849,49.25775463],[-122.98527817,49.25784151],[-122.98901761,49.2578374],[-122.99508027,49.25783047],[-122.99568512,49.25782121],[-122.99992898,49.25767964],[-123.00022487,49.25766894],[-123.00050975,49.25766037],[-123.0025992,49.25758978],[-123.00395863,49.25760471],[-123.00406658,49.25760493],[-123.00417897,49.25760425],[-123.00837905,49.25762111],[-123.01201434,49.25763998],[-123.01331255,49.25765173],[-123.01653128,49.25758586],[-123.01721187,49.25764924],[-123.01810607,49.25777314],[-123.01910094,49.25810356],[-123.01952513,49.25834247],[-123.02010951,49.25870937],[-123.02135974,49.25949893],[-123.02263312,49.26035381],[-123.02354519,49.26094949],[-123.02362335,49.26100076],[-123.0236273,49.26085549],[-123.02364865,49.26009674],[-123.02364196,49.25981811],[-123.02362498,49.25911048],[-123.02362573,49.25821038],[-123.02362966,49.25733002],[-123.0236337,49.25642762],[-123.02364823,49.25541964],[-123.02363594,49.25472623],[-123.02365393,49.25420301],[-123.02365002,49.25331038],[-123.0236491,49.25241299],[-123.02364816,49.25150057],[-123.02365217,49.2506553],[-123.02366375,49.24973618],[-123.02367514,49.24883196],[-123.023674,49.24791192],[-123.02367405,49.24704707],[-123.02369117,49.24618008],[-123.02367382,49.24534193],[-123.02366936,49.24512189],[-123.02365719,49.24493247],[-123.02364706,49.24452049],[-123.02364268,49.24442688],[-123.0236179,49.24298415],[-123.0236231,49.24256045],[-123.0236305,49.24205764],[-123.02363715,49.24096142],[-123.02362412,49.24035044],[-123.02361154,49.24023614],[-123.0236114,49.24023258],[-123.02351613,49.23956427],[-123.02349756,49.23776051],[-123.02349327,49.23738594],[-123.023498,49.23698895],[-123.02351146,49.23621275],[-123.02349752,49.2356712],[-123.023521,49.23533579],[-123.023526,49.23499363],[-123.02352966,49.23472831],[-123.02353523,49.23432496],[-123.02353693,49.23297125],[-123.02353596,49.2322919],[-123.02351354,49.23229297],[-123.02349215,49.2322938],[-123.02347673,49.23229439],[-123.0234017,49.23229974],[-123.01950959,49.23258008],[-123.01877464,49.232633],[-123.01869783,49.23263821],[-123.01860672,49.23264439],[-123.0179801,49.23268718],[-123.01703552,49.23275157],[-123.01586549,49.23282278],[-123.01560597,49.23285456],[-123.01507239,49.23287261],[-123.01427449,49.2328381],[-123.01381894,49.23281246],[-123.01273146,49.23264626],[-123.01260585,49.23263336],[-123.01137541,49.23234068],[-123.01064481,49.23210925],[-123.00981725,49.23184719],[-123.00948503,49.23173915],[-123.00928481,49.23167403],[-123.00876515,49.23150503],[-123.00786164,49.23121093],[-123.00771144,49.2311618],[-123.00627553,49.23069216],[-123.00489592,49.23024318],[-123.00483449,49.23022288],[-123.0048229,49.23021932],[-123.00477462,49.23020366],[-123.00384785,49.22989603],[-123.00365996,49.22983376],[-123.00359857,49.22981342],[-123.00282714,49.2295592],[-123.00276216,49.22953774],[-123.00265246,49.22950152],[-123.00207476,49.22930586],[-123.00188124,49.22924029],[-123.00187994,49.22923987],[-123.00186652,49.22923555],[-123.00077689,49.22886615],[-123.00074301,49.22885457],[-123.00032787,49.22871401],[-123.00002793,49.22861246],[-122.99934988,49.2283828],[-122.99771376,49.22785086],[-122.99709593,49.22765566],[-122.99640876,49.22743855],[-122.99509162,49.22700275],[-122.99471214,49.22687853],[-122.9942203,49.22671755],[-122.99283014,49.22626418],[-122.99155209,49.22584736],[-122.99082751,49.22561281],[-122.99032567,49.22545036],[-122.990187,49.22540541],[-122.990162,49.2253973],[-122.99002324,49.22535249],[-122.98893377,49.22500066],[-122.98455052,49.22359176],[-122.98423283,49.22349171],[-122.98400334,49.22341815],[-122.98308985,49.22312533],[-122.98247833,49.22292737],[-122.98103353,49.22247518],[-122.98092019,49.22243603],[-122.98075006,49.22237727],[-122.98051307,49.22230163],[-122.98022014,49.22220814],[-122.97983197,49.22208388],[-122.97941598,49.22195072],[-122.97893515,49.22181293],[-122.97754318,49.22136857],[-122.97711772,49.22123201],[-122.97684435,49.22114426],[-122.97660446,49.22108168],[-122.97635026,49.22101537],[-122.97612107,49.22095306],[-122.97475992,49.22058241],[-122.97347623,49.22027158],[-122.97288967,49.22013067],[-122.97203562,49.21992549],[-122.97159036,49.21983174],[-122.97079784,49.21966486],[-122.96828692,49.21912342],[-122.96803954,49.21907025],[-122.96793808,49.2190483],[-122.9678931,49.21903857],[-122.96775125,49.21900817],[-122.96767455,49.21899168],[-122.96616026,49.21866614],[-122.96582147,49.21859352],[-122.96546761,49.21851766],[-122.96507083,49.21845963],[-122.96492695,49.21845547],[-122.96477483,49.21845108],[-122.96414557,49.21844859],[-122.96410796,49.21844859],[-122.96407689,49.21844859],[-122.96281668,49.21844352],[-122.96098728,49.21843613],[-122.96099509,49.21932554],[-122.96099526,49.21974497],[-122.9609955,49.22020036],[-122.960995,49.22064472],[-122.96099396,49.22108337],[-122.96100148,49.22122508],[-122.96101344,49.22150815],[-122.96103389,49.22198348],[-122.96094442,49.22200998],[-122.96078627,49.22205682],[-122.9601318,49.22240397],[-122.96007728,49.22243284],[-122.95985611,49.22254995],[-122.95903688,49.22298469],[-122.95813839,49.22345967],[-122.95756091,49.2237648],[-122.95714437,49.22398805],[-122.95617738,49.22449685],[-122.95585078,49.22466312],[-122.95561133,49.22478949],[-122.9551727,49.22502096],[-122.95461053,49.22532218],[-122.95415036,49.22557676],[-122.9532508,49.22602503],[-122.95165091,49.22686887],[-122.9516433,49.22687294],[-122.95163361,49.22687813],[-122.95023023,49.22763509],[-122.94868719,49.22844725],[-122.9472283,49.22923911],[-122.94669664,49.22879476],[-122.94648797,49.2289094],[-122.94613884,49.22908921],[-122.94534225,49.22950045],[-122.94349252,49.23045538],[-122.94290956,49.2307566],[-122.94225115,49.23112085],[-122.94196955,49.23127039],[-122.94117337,49.23168569],[-122.94113748,49.23170442],[-122.94113568,49.23170539],[-122.94065073,49.23196718],[-122.93887703,49.23286835],[-122.93890253,49.23291037],[-122.93912456,49.23318844],[-122.93964433,49.2335833],[-122.93987979,49.23376204],[-122.94065413,49.23434988],[-122.9407144,49.23442537],[-122.94101085,49.23479709],[-122.9411536,49.23516774],[-122.94116624,49.23554373],[-122.9411999,49.23574063],[-122.94121581,49.23583355],[-122.94128414,49.23596245],[-122.94153675,49.23617216],[-122.94172736,49.23625334],[-122.94213104,49.23632241],[-122.94222245,49.23632847],[-122.94322338,49.23639541],[-122.94462308,49.23648869],[-122.94542704,49.23658625],[-122.94573475,49.23664108],[-122.94876666,49.23718086],[-122.94907349,49.23723533],[-122.94856458,49.23752445],[-122.94813029,49.23778615],[-122.94800668,49.23786092],[-122.94869694,49.23804072],[-122.95236062,49.2391306],[-122.95488253,49.23988073],[-122.95641868,49.24033762],[-122.95821184,49.24082434],[-122.95969562,49.24114977],[-122.96125269,49.24145776],[-122.96329614,49.24186579],[-122.96465708,49.24226101],[-122.96470262,49.24227678],[-122.96473313,49.24238776],[-122.96473954,49.2424111],[-122.96468647,49.24249361],[-122.96467842,49.24250613],[-122.96450673,49.24277337],[-122.96457756,49.2429076],[-122.96457963,49.24299056],[-122.96464137,49.24558156],[-122.96464162,49.24646207],[-122.96464173,49.24702891],[-122.96464151,49.24707286],[-122.96464149,49.24803821],[-122.9646415,49.24814442],[-122.96464153,49.24822524],[-122.96464118,49.24991008],[-122.96468753,49.25295647],[-122.96469556,49.25347168],[-122.96469634,49.253832],[-122.96460065,49.25828194],[-122.96461086,49.25835458],[-122.96463651,49.2585326],[-122.96463274,49.25915427],[-122.9646314,49.25946575],[-122.96463141,49.25959079],[-122.96463156,49.25960005],[-122.96463121,49.25963209],[-122.96561596,49.25988347],[-122.96697753,49.26026943],[-122.96801304,49.2605913],[-122.96962596,49.26119481],[-122.9759091,49.26342191],[-122.97716128,49.26386306],[-122.9783679,49.26428855],[-122.9795127,49.26459048],[-122.9804999,49.26479984],[-122.98120519,49.2648974],[-122.98232183,49.26500172],[-122.98335022,49.2650448],[-122.98505604,49.26505147],[-122.9869329,49.26506367]]]},"geometry_name":"SHAPE","properties":{"id":263,"slug":"burnaby-centre","name":"Burnaby Centre","abbreviation":"BNC","gazetteDate":"2023-12-07Z","boundarySet":11},"bbox":[-123.02369117,49.21843613,-122.93887703,49.26506367]}
