{"type":"Feature","id":273,"geometry":{"type":"Polygon","coordinates":[[[-122.80162875,49.28517121],[-122.80169535,49.28516817],[-122.80442905,49.28505068],[-122.80557203,49.28495689],[-122.80619546,49.28490109],[-122.80860756,49.28457798],[-122.80928828,49.28444654],[-122.80966125,49.28437453],[-122.8106076,49.28411968],[-122.8121529,49.28358062],[-122.81280153,49.28343811],[-122.81324629,49.2833832],[-122.81380855,49.2833367],[-122.8138872,49.28333019],[-122.81390541,49.28333103],[-122.81420092,49.28334468],[-122.81432857,49.28335058],[-122.81486126,49.28337518],[-122.81558597,49.2835073],[-122.81592423,49.28356896],[-122.81671577,49.28385037],[-122.81808773,49.28433811],[-122.81848254,49.28449594],[-122.81902139,49.28466261],[-122.81974612,49.28478142],[-122.82043653,49.28477879],[-122.82044377,49.28477876],[-122.82051524,49.2847663],[-122.82102091,49.28467812],[-122.82102427,49.28467753],[-122.82103387,49.28467486],[-122.82122773,49.28462092],[-122.82122788,49.2845846],[-122.82122905,49.28394327],[-122.82123163,49.28252377],[-122.82123157,49.2825049],[-122.82123339,49.28112697],[-122.82123375,49.2809461],[-122.82123418,49.28061141],[-122.82123461,49.28055658],[-122.82123547,49.2804811],[-122.82125096,49.28048074],[-122.82186593,49.28048572],[-122.82215737,49.28048757],[-122.82377525,49.28049783],[-122.82378398,49.28049783],[-122.82379464,49.2801311],[-122.82382002,49.27927624],[-122.82383998,49.27860363],[-122.82381358,49.27779005],[-122.82381197,49.27773878],[-122.82381194,49.27768288],[-122.8238125,49.27751589],[-122.82381367,49.27664499],[-122.82382731,49.27572495],[-122.82377908,49.27484514],[-122.8239369,49.27374957],[-122.82392976,49.2733191],[-122.82392833,49.27321157],[-122.82922871,49.27321086],[-122.830407,49.27318483],[-122.83151651,49.2731603],[-122.83212982,49.27315567],[-122.83489967,49.27312755],[-122.83495172,49.27312719],[-122.8354018,49.27312194],[-122.83571483,49.27311829],[-122.83665789,49.27312292],[-122.83792374,49.27312897],[-122.83792329,49.2729011],[-122.83792342,49.27267898],[-122.84545182,49.27273387],[-122.84640739,49.27273056],[-122.84641488,49.27072665],[-122.85658799,49.27076248],[-122.85772204,49.27076638],[-122.85978435,49.27077343],[-122.86295572,49.27078407],[-122.86566788,49.27079335],[-122.86848226,49.27080276],[-122.86847847,49.27052908],[-122.86847918,49.27011],[-122.86848721,49.26990413],[-122.86850777,49.26937653],[-122.86855874,49.26815314],[-122.86865915,49.26550803],[-122.86866558,49.26535065],[-122.86868545,49.26505691],[-122.86871803,49.26457303],[-122.86874679,49.26398385],[-122.8687672,49.26356291],[-122.86878958,49.26307975],[-122.86879094,49.26305048],[-122.86881231,49.26259124],[-122.86882754,49.26212624],[-122.86883695,49.26182904],[-122.86884141,49.2616883],[-122.86886772,49.26082164],[-122.86889511,49.25991978],[-122.86890248,49.2589912],[-122.8689143,49.25810427],[-122.86895954,49.25627594],[-122.868981,49.25506501],[-122.86900119,49.25392849],[-122.86902345,49.2530939],[-122.86907105,49.25151339],[-122.86907686,49.25125098],[-122.86908536,49.25084543],[-122.86909226,49.25060581],[-122.86910653,49.24972173],[-122.86911803,49.2493461],[-122.8691738,49.2490427],[-122.86920228,49.24900195],[-122.86923829,49.24895042],[-122.86940013,49.24875553],[-122.86940112,49.24875434],[-122.86951473,49.2486588],[-122.86968948,49.24851187],[-122.87013782,49.24813445],[-122.87034705,49.24796034],[-122.87035228,49.24795599],[-122.87077703,49.24760251],[-122.8712598,49.24720034],[-122.87130061,49.24716635],[-122.87183749,49.24671843],[-122.87237014,49.24627408],[-122.87241144,49.24623694],[-122.87258593,49.24608003],[-122.87259731,49.24606954],[-122.87260564,49.24606187],[-122.87266894,49.24597327],[-122.87274555,49.24586604],[-122.87276358,49.24581192],[-122.87276612,49.24580424],[-122.87282296,49.24563568],[-122.87283544,49.24548034],[-122.87284519,49.24535902],[-122.8728506,49.24515845],[-122.87285746,49.24490434],[-122.87286154,49.2447427],[-122.87286301,49.24468151],[-122.87286793,49.24449738],[-122.8728756,49.24419865],[-122.87287609,49.24401386],[-122.87287654,49.24361579],[-122.87292242,49.24263059],[-122.87293091,49.24216462],[-122.87293939,49.24169952],[-122.87295833,49.24087027],[-122.8729603,49.24073604],[-122.87300302,49.2397366],[-122.87303281,49.2388924],[-122.87303776,49.23871224],[-122.87306614,49.23794922],[-122.87307049,49.23782318],[-122.87310526,49.23696188],[-122.8731071,49.23690563],[-122.87310781,49.23687216],[-122.87310845,49.23685115],[-122.87312883,49.23634093],[-122.87312814,49.23628717],[-122.87439233,49.23586987],[-122.87585076,49.23539169],[-122.87654925,49.2351624],[-122.8774212,49.23487613],[-122.87778637,49.23475138],[-122.87819558,49.23461158],[-122.87832793,49.23456636],[-122.87845926,49.23451723],[-122.87859972,49.23447023],[-122.87891639,49.23436458],[-122.87935213,49.23421921],[-122.87953341,49.23415868],[-122.88008291,49.23397518],[-122.88032879,49.23389307],[-122.88030839,49.2338648],[-122.88030027,49.23385355],[-122.88020573,49.23372217],[-122.88001337,49.23361393],[-122.87995729,49.23359854],[-122.87984854,49.23356871],[-122.87935445,49.23350533],[-122.87927401,49.23349441],[-122.87888762,49.23344195],[-122.87871358,49.23338469],[-122.87850341,49.23331555],[-122.87839571,49.23326846],[-122.87817361,49.23317135],[-122.87794591,49.23309644],[-122.8777894,49.23304495],[-122.87773463,49.23301789],[-122.87762183,49.23295864],[-122.87759771,49.23294597],[-122.87757141,49.23293494],[-122.87744661,49.23288259],[-122.87732183,49.23281731],[-122.87730914,49.23281067],[-122.87727048,49.23279498],[-122.87713099,49.23273839],[-122.87682021,49.23253437],[-122.87676056,49.23249521],[-122.87656012,49.23219573],[-122.87655562,49.232189],[-122.87636371,49.23193692],[-122.87617193,49.23169409],[-122.8761717,49.23169395],[-122.87615174,49.231682],[-122.87602148,49.23160401],[-122.87556194,49.23142584],[-122.87548609,49.23139643],[-122.87532125,49.23131525],[-122.87532084,49.23131498],[-122.87531931,49.23131397],[-122.87518444,49.23122517],[-122.87513177,49.23115985],[-122.87506099,49.23107207],[-122.87503387,49.23095528],[-122.87503463,49.23062237],[-122.87503493,49.23059548],[-122.87503494,49.23059531],[-122.87515885,49.23047853],[-122.87543419,49.23027202],[-122.87556346,49.23021347],[-122.87561265,49.23019119],[-122.87594503,49.23009399],[-122.87639395,49.22999038],[-122.87638699,49.22990849],[-122.87637985,49.22982446],[-122.87637944,49.22976642],[-122.87637914,49.22963148],[-122.87637907,49.22957665],[-122.87637887,49.2294652],[-122.87637793,49.22924231],[-122.87637734,49.22906144],[-122.87637709,49.22899557],[-122.87637798,49.22898738],[-122.87639996,49.22872844],[-122.8764139,49.22856403],[-122.87640962,49.22627818],[-122.87636938,49.22490845],[-122.87587607,49.21991517],[-122.87423756,49.22007966],[-122.86677731,49.22082773],[-122.86404457,49.22077753],[-122.862593,49.22075082],[-122.86148398,49.22073041],[-122.85573608,49.22062442],[-122.84479583,49.21998317],[-122.84299934,49.21987778],[-122.83369688,49.22000525],[-122.82719091,49.22009391],[-122.81719442,49.22022938],[-122.81557177,49.22025128],[-122.81367746,49.22027957],[-122.81353433,49.22028126],[-122.81335768,49.22028342],[-122.81317056,49.22028572],[-122.8130333,49.22028948],[-122.81260615,49.22029116],[-122.81239627,49.22029401],[-122.81234407,49.22029472],[-122.81233535,49.22029472],[-122.81227825,49.22029543],[-122.80522249,49.22039014],[-122.8050609,49.22522782],[-122.80608091,49.22656195],[-122.80627871,49.22682009],[-122.80633184,49.22688204],[-122.80636632,49.22692904],[-122.80646314,49.22706078],[-122.80652654,49.22729862],[-122.80647962,49.22790534],[-122.8062971,49.22825569],[-122.80595871,49.22853697],[-122.80580754,49.2286648],[-122.80551565,49.22891083],[-122.80374384,49.22996795],[-122.8036287,49.23005127],[-122.80349656,49.23014989],[-122.80313624,49.23069501],[-122.80289432,49.23106139],[-122.80150632,49.23260523],[-122.80043875,49.23411916],[-122.80032641,49.234639],[-122.80010881,49.23506911],[-122.80011744,49.23573849],[-122.80022852,49.23590512],[-122.80066374,49.23619708],[-122.80097799,49.23624693],[-122.80226185,49.23616148],[-122.80448009,49.23618427],[-122.8056709,49.23646056],[-122.80624096,49.23671265],[-122.80724039,49.2375629],[-122.8073553,49.23785914],[-122.80731992,49.23829495],[-122.80699949,49.23901702],[-122.80685531,49.23982027],[-122.80681033,49.24005242],[-122.80682772,49.24043838],[-122.80695332,49.24072749],[-122.806873,49.24140399],[-122.80658307,49.24167602],[-122.80583864,49.24192668],[-122.80454297,49.24211183],[-122.80372632,49.24233258],[-122.80252123,49.24285242],[-122.80206339,49.24321132],[-122.80199706,49.24330175],[-122.80176651,49.24329677],[-122.80138671,49.24329997],[-122.80136469,49.24330033],[-122.79987699,49.24331243],[-122.79963927,49.24331421],[-122.79730758,49.24333344],[-122.79614166,49.2433427],[-122.79497609,49.24335231],[-122.79380996,49.24336193],[-122.79264459,49.24337118],[-122.79147847,49.2433808],[-122.79031255,49.24339005],[-122.78914698,49.24339967],[-122.7866929,49.24341925],[-122.78654592,49.24342067],[-122.78655736,49.24796861],[-122.78656092,49.24938491],[-122.78653989,49.25048618],[-122.7865368,49.25069359],[-122.78652337,49.25159506],[-122.78651502,49.25215499],[-122.79178546,49.25218811],[-122.79269961,49.25222229],[-122.7934275,49.25173094],[-122.79461383,49.25108969],[-122.79565619,49.25064889],[-122.79590163,49.2505638],[-122.79616351,49.25046909],[-122.79654144,49.25086466],[-122.79699626,49.2513407],[-122.79731142,49.25180072],[-122.79759774,49.25236756],[-122.79776828,49.25301415],[-122.7979788,49.25429167],[-122.79793778,49.25491547],[-122.79783036,49.25532137],[-122.79715676,49.25641801],[-122.79716129,49.25691363],[-122.79740136,49.25748901],[-122.79741453,49.25850732],[-122.7973158,49.25926928],[-122.79707427,49.25964669],[-122.7960364,49.26038728],[-122.79563724,49.26058382],[-122.79488631,49.26070915],[-122.79307384,49.26074903],[-122.79128286,49.26085763],[-122.79081533,49.2608765],[-122.79076164,49.2610766],[-122.79081184,49.26325172],[-122.79081445,49.26338079],[-122.79083497,49.26439879],[-122.79085064,49.26517619],[-122.79075513,49.26531825],[-122.79074769,49.26556499],[-122.79073954,49.26575335],[-122.79068898,49.26689485],[-122.79063834,49.26803564],[-122.79063812,49.26804454],[-122.79060509,49.2692448],[-122.79061811,49.26925156],[-122.79086439,49.26936016],[-122.79112505,49.2694684],[-122.79123445,49.26952287],[-122.79207259,49.26990171],[-122.79381557,49.27070568],[-122.7955291,49.27160827],[-122.79614509,49.27194189],[-122.79677748,49.27226697],[-122.79723147,49.27251051],[-122.79855195,49.2732251],[-122.79865612,49.27328207],[-122.79876307,49.27334082],[-122.7991089,49.2735306],[-122.79915083,49.27354876],[-122.79919242,49.27356656],[-122.79959021,49.27377414],[-122.80000219,49.27398172],[-122.80010998,49.27403619],[-122.80062857,49.27430879],[-122.80127707,49.27464967],[-122.80149634,49.27475791],[-122.80161818,49.27481167],[-122.80168607,49.27484092],[-122.8016131,49.27498731],[-122.80149653,49.2755925],[-122.80159146,49.2765903],[-122.80166409,49.27716767],[-122.80167327,49.27732896],[-122.80167313,49.27917759],[-122.80167311,49.27995877],[-122.80167294,49.28092509],[-122.80167262,49.28270998],[-122.80166791,49.28370963],[-122.80166287,49.28403314],[-122.80165911,49.28427474],[-122.80163092,49.28509518],[-122.80162367,49.28517116],[-122.80162364,49.28517145],[-122.80162875,49.28517121]]]},"geometry_name":"SHAPE","properties":{"id":273,"slug":"coquitlam-maillardville","name":"Coquitlam-Maillardville","abbreviation":"CQM","gazetteDate":"2023-12-07Z","boundarySet":11},"bbox":[-122.88032879,49.21987778,-122.78651502,49.28517145]}
