{"type":"Feature","id":272,"geometry":{"type":"Polygon","coordinates":[[[-122.80415896,49.56989005],[-122.85214785,49.5699367],[-122.94030977,49.56997016],[-122.94013028,49.56956035],[-122.94007788,49.56932678],[-122.94016576,49.56877134],[-122.94050236,49.56851783],[-122.94063838,49.5682928],[-122.94080816,49.56731295],[-122.94067846,49.566222],[-122.93946031,49.5648455],[-122.939084,49.56459556],[-122.93784448,49.56420532],[-122.93709654,49.5634391],[-122.93666338,49.56264439],[-122.93628349,49.56213595],[-122.9350237,49.56167308],[-122.93399286,49.5613334],[-122.9333011,49.56120166],[-122.93324482,49.56120024],[-122.93200088,49.56092679],[-122.93171439,49.56005945],[-122.93158147,49.55982873],[-122.93127504,49.55932456],[-122.93109985,49.55918214],[-122.93028339,49.55848712],[-122.92993079,49.55720533],[-122.92946043,49.55652741],[-122.92898476,49.55630594],[-122.92873079,49.55623295],[-122.92852071,49.55614252],[-122.92732858,49.55497217],[-122.92666079,49.55457339],[-122.92572014,49.55432701],[-122.92396328,49.55368041],[-122.92347832,49.55367614],[-122.92289184,49.55355651],[-122.92228914,49.55334145],[-122.9217158,49.55256668],[-122.92130192,49.55199593],[-122.92118631,49.55180758],[-122.92095526,49.55131623],[-122.92096057,49.55101999],[-122.92069429,49.55037767],[-122.92045182,49.55017401],[-122.92018859,49.55000311],[-122.92010762,49.54985926],[-122.92006583,49.54980514],[-122.91996936,49.54958012],[-122.91989941,49.54946333],[-122.91985807,49.54940067],[-122.91981628,49.54934655],[-122.91960961,49.54913007],[-122.91947116,49.54902183],[-122.91917379,49.5487911],[-122.91870666,49.54821287],[-122.91817587,49.54794085],[-122.91801966,49.5477671],[-122.91774367,49.54743668],[-122.91762056,49.54713475],[-122.91752631,49.54697951],[-122.91748524,49.54680789],[-122.91741623,49.54673597],[-122.91730875,49.5466409],[-122.9172233,49.54656506],[-122.91702986,49.54634858],[-122.91685052,49.54614207],[-122.91660094,49.54593556],[-122.91654771,49.54586293],[-122.91643611,49.5457732],[-122.9162696,49.54565642],[-122.91611759,49.54558378],[-122.91602143,49.54554818],[-122.91595241,49.54551115],[-122.91580183,49.545467],[-122.91569111,49.54542997],[-122.91549785,49.54534879],[-122.91548293,49.54534024],[-122.91545485,49.5453317],[-122.9154412,49.54531318],[-122.91541311,49.54530464],[-122.91522156,49.54520494],[-122.91509725,49.54510667],[-122.91498566,49.54501695],[-122.91486251,49.54482753],[-122.91483391,49.54477341],[-122.91480751,49.54471929],[-122.91480725,49.54450281],[-122.91480809,49.5444316],[-122.91488455,49.54423078],[-122.91443491,49.54331217],[-122.91418855,49.54304584],[-122.91399518,49.54285642],[-122.91381593,49.54267697],[-122.91362257,49.54248755],[-122.91331827,49.54236222],[-122.91304253,49.5423608],[-122.91290251,49.54235225],[-122.91279319,49.54231665],[-122.912545,49.54215429],[-122.91240658,49.54201899],[-122.91230987,49.54188369],[-122.91224208,49.54168572],[-122.91221437,49.54158745],[-122.91211715,49.54140658],[-122.91206262,49.54128979],[-122.91191142,49.54106477],[-122.91188414,49.54093089],[-122.91186866,49.54082265],[-122.91180493,49.54065531],[-122.91179998,49.54064178],[-122.91167159,49.54046945],[-122.91123189,49.54005643],[-122.91111796,49.53977728],[-122.91141866,49.53943262],[-122.91156076,49.53908512],[-122.9115401,49.5389783],[-122.91143048,49.53859092],[-122.91130786,49.53839295],[-122.91119669,49.5382135],[-122.91114128,49.53811381],[-122.91100378,49.53793436],[-122.91078243,49.53776345],[-122.91053473,49.53756549],[-122.91024538,49.53742164],[-122.91009343,49.53734901],[-122.91003806,49.53730343],[-122.90979888,49.53720658],[-122.90932047,49.53708268],[-122.90817015,49.53664972],[-122.90799388,49.53648451],[-122.90799627,49.53647062],[-122.90803538,49.53621391],[-122.9081059,49.53598889],[-122.90814667,49.53582795],[-122.90817512,49.53571971],[-122.90821759,49.5355132],[-122.90821707,49.53544057],[-122.90831393,49.53521554],[-122.90832752,49.53515287],[-122.90832782,49.53492785],[-122.90831507,49.53486518],[-122.90826007,49.53467576],[-122.90821916,49.53446925],[-122.90817828,49.53431686],[-122.90813562,49.53425277],[-122.90806839,49.53407332],[-122.90798533,49.53387536],[-122.90791546,49.53370445],[-122.90780655,49.533525],[-122.90773753,49.53343385],[-122.90762692,49.53329998],[-122.90753026,49.53313762],[-122.90743452,49.53295817],[-122.90740548,49.53288553],[-122.90721272,49.53268757],[-122.90700723,49.532454],[-122.90695054,49.53228309],[-122.90686925,49.53212073],[-122.90675944,49.53195837],[-122.90664742,49.53176895],[-122.90659299,49.53170629],[-122.90632002,49.53139439],[-122.90590283,49.53111239],[-122.90584423,49.53106967],[-122.90479601,49.53025502],[-122.90464955,49.52968533],[-122.90422317,49.52886641],[-122.90327687,49.52789653],[-122.90299286,49.52743793],[-122.90280722,49.52686398],[-122.90251486,49.52618036],[-122.90243847,49.52592827],[-122.90217515,49.52534434],[-122.90176591,49.52480884],[-122.90115666,49.5242121],[-122.90081995,49.52344445],[-122.90105095,49.52299867],[-122.90134568,49.52226663],[-122.90143592,49.52146195],[-122.90123959,49.52079115],[-122.90111413,49.51812075],[-122.90103702,49.51792421],[-122.90087331,49.51778749],[-122.90065223,49.51750835],[-122.90054036,49.51740011],[-122.90033371,49.51719217],[-122.9002798,49.51712096],[-122.89999072,49.51689593],[-122.89967266,49.51670651],[-122.89943749,49.51657976],[-122.89914841,49.51643591],[-122.89906598,49.51639176],[-122.89885713,49.51631913],[-122.8985259,49.51623795],[-122.89828717,49.51608271],[-122.89741966,49.5157879],[-122.89713273,49.51555433],[-122.8972388,49.51521679],[-122.89725508,49.5151997],[-122.89813815,49.51490774],[-122.89915716,49.5143879],[-122.90102378,49.51254497],[-122.90220401,49.51211202],[-122.90229075,49.51198241],[-122.90236592,49.51173387],[-122.90262719,49.5108701],[-122.90272868,49.51065078],[-122.90289488,49.51040439],[-122.9028599,49.5097165],[-122.90247971,49.50891039],[-122.90178795,49.50791914],[-122.90037101,49.50686096],[-122.89899306,49.50542535],[-122.8955485,49.5034044],[-122.8935111,49.50211122],[-122.89290395,49.50131936],[-122.89288823,49.50017465],[-122.89281235,49.49935395],[-122.89293661,49.49831712],[-122.89310599,49.49732445],[-122.89233542,49.49659383],[-122.89126333,49.49652404],[-122.89087905,49.49646423],[-122.89060148,49.4961096],[-122.89058819,49.49560828],[-122.89152917,49.49393341],[-122.89189474,49.49270004],[-122.89184471,49.4924679],[-122.88997494,49.49150655],[-122.8897004,49.49132995],[-122.88863512,49.49058509],[-122.88661915,49.48936454],[-122.88643376,49.48925488],[-122.88603741,49.48899567],[-122.88449724,49.48833057],[-122.88397876,49.48804715],[-122.88356093,49.48767543],[-122.88346908,49.48738204],[-122.88354738,49.48705163],[-122.88391226,49.48674542],[-122.88465068,49.48634522],[-122.88614924,49.48593932],[-122.8880628,49.48535682],[-122.88876838,49.48483698],[-122.88897742,49.4841263],[-122.88832197,49.48332447],[-122.88632435,49.48173363],[-122.88496862,49.48079508],[-122.88448544,49.48022254],[-122.88424488,49.47972834],[-122.88422183,49.47909457],[-122.8848269,49.4777729],[-122.88489077,49.47707504],[-122.88466035,49.47650536],[-122.88391282,49.47568501],[-122.88359073,49.47488745],[-122.88354273,49.47477921],[-122.88343381,49.47445449],[-122.88332939,49.47407566],[-122.88316542,49.47354727],[-122.8831646,49.47317128],[-122.88304015,49.47251187],[-122.88294196,49.47180155],[-122.88308905,49.47102998],[-122.88347716,49.4707341],[-122.88360466,49.47057459],[-122.88373126,49.47041473],[-122.88388149,49.4702634],[-122.88402239,49.47010923],[-122.88413642,49.46994545],[-122.8842379,49.46977775],[-122.88432655,49.46960756],[-122.88440004,49.46943416],[-122.88447949,49.46926183],[-122.88458316,49.46909413],[-122.88462106,49.4690171],[-122.88466708,49.46892358],[-122.88472239,49.46874555],[-122.88474474,49.46856575],[-122.88470932,49.46839021],[-122.88463235,49.46821646],[-122.8845485,49.46804805],[-122.88452161,49.46784118],[-122.88445315,49.46765247],[-122.88442547,49.46758945],[-122.88430182,49.46742745],[-122.88418746,49.46727897],[-122.88405399,49.46713904],[-122.88399911,49.46704006],[-122.88393,49.46694108],[-122.88387779,49.46676234],[-122.88381295,49.46658752],[-122.88374065,49.46650278],[-122.88368191,49.4664337],[-122.88349472,49.46629769],[-122.8833126,49.46616239],[-122.88312633,49.46602958],[-122.88293119,49.46590176],[-122.88272638,49.46578035],[-122.88254722,49.46564469],[-122.88239389,49.46549444],[-122.88225996,49.46533706],[-122.88213579,49.46517506],[-122.88203329,49.46500771],[-122.8819706,49.46483396],[-122.88191327,49.46467196],[-122.88183794,49.46449251],[-122.88181226,49.46431341],[-122.88176644,49.46395416],[-122.88172262,49.46359525],[-122.88167257,49.46323671],[-122.88164287,49.46305797],[-122.88152713,49.46252425],[-122.88139481,49.46198697],[-122.88123104,49.46145396],[-122.88108409,49.46110787],[-122.88089315,49.46077461],[-122.88077773,49.46061367],[-122.88051019,49.46030141],[-122.88021095,49.4599977],[-122.88005495,49.45984745],[-122.87959124,49.45939491],[-122.87944528,49.45924145],[-122.87906412,49.45876327],[-122.8788518,49.45843107],[-122.87875067,49.45826337],[-122.87854451,49.45792904],[-122.87830919,49.45760361],[-122.87806219,49.45728138],[-122.87781349,49.45696022],[-122.87752806,49.45665259],[-122.87738153,49.4565002],[-122.87693838,49.45604445],[-122.87678905,49.45589313],[-122.87663973,49.45574181],[-122.87618896,49.45528891],[-122.87588807,49.45498733],[-122.87558739,49.4546854],[-122.87528392,49.45438454],[-122.87491279,49.45411785],[-122.87433241,49.45373296],[-122.87390706,49.45350473],[-122.87345774,49.45329359],[-122.87301565,49.45307747],[-122.87260748,49.45283642],[-122.87220912,49.45258683],[-122.87181103,49.45233581],[-122.87141581,49.45208266],[-122.87102515,49.4518263],[-122.87083228,49.4516967],[-122.8704533,49.45143429],[-122.87008429,49.45116689],[-122.8699044,49.45103088],[-122.8695558,49.45075458],[-122.86938881,49.45061323],[-122.86923308,49.45046654],[-122.86895036,49.45015926],[-122.86869281,49.44983953],[-122.86844558,49.44951517],[-122.86819146,49.44919329],[-122.86791599,49.44888104],[-122.86761902,49.44857768],[-122.86731106,49.44827824],[-122.86715493,49.44812941],[-122.86684343,49.44783139],[-122.86653918,49.44753124],[-122.86611221,49.4470698],[-122.86598089,49.44691207],[-122.86573149,49.44659162],[-122.86549495,49.4462669],[-122.86537968,49.44610312],[-122.86504447,49.44560856],[-122.86493461,49.44544299],[-122.86471468,49.44511222],[-122.86449162,49.44478216],[-122.86437766,49.44461802],[-122.86414396,49.44429223],[-122.86389906,49.44397072],[-122.86363874,49.44365419],[-122.86349721,49.44350002],[-122.86318498,49.44320058],[-122.86284783,49.44290933],[-122.86250208,49.44262164],[-122.86233023,49.44247743],[-122.86199837,49.44218654],[-122.86169597,49.44188817],[-122.86156063,49.44173471],[-122.8612407,49.44125012],[-122.86116822,49.44107957],[-122.86106421,49.44072815],[-122.86097056,49.44018481],[-122.86094518,49.4400018],[-122.86088792,49.43963756],[-122.86080367,49.43927937],[-122.86067091,49.43893329],[-122.86030707,49.43845191],[-122.85984003,49.43799402],[-122.8595687,49.4376807],[-122.85939074,49.43734672],[-122.85933108,49.43717297],[-122.85922826,49.43663533],[-122.85919625,49.43627109],[-122.85916447,49.43572989],[-122.85918696,49.43536707],[-122.85923491,49.43482338],[-122.85923731,49.43464357],[-122.85919417,49.4342893],[-122.85906792,49.4339425],[-122.8589784,49.43377124],[-122.85865458,49.43326316],[-122.85833722,49.43275721],[-122.85818654,49.43241682],[-122.85813836,49.43207145],[-122.85848733,49.43118844],[-122.85858732,49.43083096],[-122.85868255,49.43028229],[-122.85924091,49.4294833],[-122.86022945,49.42862023],[-122.86040442,49.42847959],[-122.86075745,49.42819867],[-122.8612853,49.42777639],[-122.86162961,49.42749155],[-122.86196123,49.42720208],[-122.86227605,49.42690655],[-122.86270474,49.42644796],[-122.86283829,49.42629165],[-122.8632274,49.42581703],[-122.86347817,49.42549659],[-122.86384074,49.42501093],[-122.86407456,49.42468372],[-122.8644132,49.42418916],[-122.86473841,49.42369033],[-122.86484412,49.42352334],[-122.86515241,49.4230206],[-122.86535157,49.42268413],[-122.86554566,49.42234695],[-122.86582807,49.42184064],[-122.86659293,49.42079598],[-122.86708361,49.41965056],[-122.86744033,49.41869385],[-122.86783909,49.41795789],[-122.86819607,49.41744375],[-122.86882697,49.41680642],[-122.86969752,49.41624207],[-122.87101009,49.4156464],[-122.87281508,49.4150874],[-122.87449867,49.41460103],[-122.87575171,49.41426776],[-122.87754656,49.41400927],[-122.87923353,49.41380454],[-122.87807527,49.40000003],[-122.87779051,49.3966008],[-122.87778733,49.3965652],[-122.87747702,49.39286296],[-122.87747266,49.39281027],[-122.8766217,49.38265566],[-122.87624616,49.3826553],[-122.87266474,49.38265459],[-122.86881169,49.38265352],[-122.86382452,49.3826521],[-122.86336565,49.3826521],[-122.86333612,49.38265209],[-122.86315474,49.38265174],[-122.85834915,49.38265032],[-122.85833603,49.38265031],[-122.84736839,49.38264569],[-122.83669303,49.3826407],[-122.83667982,49.38254528],[-122.83665099,49.38240072],[-122.83661048,49.38225937],[-122.83655639,49.38212265],[-122.83648481,49.38199162],[-122.83639405,49.38186736],[-122.83628062,49.38175021],[-122.83614841,49.38163913],[-122.83600097,49.38153267],[-122.8358435,49.38142941],[-122.83567954,49.38132794],[-122.83551244,49.38122717],[-122.83534759,49.38112534],[-122.83518779,49.38102138],[-122.83503824,49.38091385],[-122.83489914,49.3808024],[-122.83476419,49.38068847],[-122.8346328,49.38057311],[-122.83450332,49.38045632],[-122.83437513,49.38033918],[-122.83424716,49.38022168],[-122.83411843,49.38010454],[-122.83398799,49.37998847],[-122.83385531,49.37987346],[-122.83371922,49.37976059],[-122.83357937,49.37964951],[-122.83343809,49.37953806],[-122.83329456,49.37942769],[-122.83314837,49.37931909],[-122.83299822,49.37921263],[-122.83284385,49.37910973],[-122.83268409,49.37901146],[-122.8325184,49.37891782],[-122.83234542,49.37883023],[-122.83216576,49.37874763],[-122.83198092,49.37866929],[-122.83179226,49.37859381],[-122.83160074,49.37852046],[-122.83140861,49.37844819],[-122.83121682,49.37837626],[-122.83102612,49.37830434],[-122.83082589,49.37824239],[-122.83062308,49.37818399],[-122.83042898,49.37811706],[-122.83024797,49.37803588],[-122.83006818,49.37795256],[-122.82988886,49.37786746],[-122.82971111,49.37778059],[-122.82953657,49.37769193],[-122.8293655,49.37760007],[-122.82919914,49.37750571],[-122.82903886,49.37740744],[-122.82888499,49.37730561],[-122.82873514,49.37720058],[-122.82858952,49.37709198],[-122.82844752,49.37698089],[-122.82830968,49.37686731],[-122.8281758,49.3767516],[-122.82804677,49.3766341],[-122.82792203,49.37651482],[-122.82780229,49.37639448],[-122.82768754,49.37627306],[-122.82758472,49.37614417],[-122.82749925,49.37600887],[-122.82743318,49.3758693],[-122.82739055,49.37572795],[-122.82737068,49.37558695],[-122.82736441,49.37544417],[-122.82736969,49.37530033],[-122.82738304,49.37515577],[-122.82740261,49.37501086],[-122.82742525,49.3748663],[-122.82744858,49.37472245],[-122.82747205,49.37457932],[-122.82750168,49.3744369],[-122.82753602,49.37429483],[-122.82757364,49.37415277],[-122.82761271,49.37401106],[-122.82765088,49.373869],[-122.82768775,49.37372729],[-122.82770495,49.37365145],[-122.82772066,49.37358487],[-122.82775179,49.37344173],[-122.82778361,49.37329931],[-122.8278196,49.37315725],[-122.82786119,49.37301589],[-122.82790395,49.37289733],[-122.82791161,49.37287632],[-122.82797072,49.37273782],[-122.82803666,49.37260074],[-122.82810712,49.37246437],[-122.82818175,49.37232836],[-122.82825815,49.37219306],[-122.82833491,49.37205811],[-122.82841255,49.37192353],[-122.82849183,49.37178894],[-122.82857234,49.37165506],[-122.82865429,49.37152154],[-122.82873823,49.37138838],[-122.8288236,49.37125557],[-122.82890986,49.37112312],[-122.82899701,49.37099102],[-122.8290856,49.37085929],[-122.82917473,49.37072755],[-122.82926565,49.37059652],[-122.82935711,49.37046549],[-122.82945001,49.37033482],[-122.82954468,49.37020486],[-122.82964025,49.37007526],[-122.82973903,49.36994672],[-122.8298439,49.36981997],[-122.82995199,49.36969428],[-122.83006062,49.3695686],[-122.83016693,49.3694422],[-122.83026783,49.36931473],[-122.83035998,49.36918442],[-122.8304286,49.3690484],[-122.83048326,49.36890812],[-122.83054313,49.36876926],[-122.8306231,49.36863538],[-122.83071224,49.36850364],[-122.83080657,49.36837333],[-122.83090111,49.36824266],[-122.83099148,49.36811163],[-122.83107378,49.36797847],[-122.83114459,49.36784245],[-122.83120514,49.36770431],[-122.8312594,49.36756473],[-122.83131133,49.36742445],[-122.83136471,49.36728452],[-122.83142293,49.36714566],[-122.83148875,49.36700787],[-122.83155313,49.36686972],[-122.83160575,49.36673015],[-122.8316408,49.36658879],[-122.83166936,49.36644637],[-122.83169395,49.36630324],[-122.83171437,49.36615975],[-122.83173281,49.36601591],[-122.83174886,49.36587242],[-122.83176348,49.36572857],[-122.83177755,49.36558473],[-122.83178724,49.36544088],[-122.83179038,49.36529704],[-122.83178661,49.36515284],[-122.83177697,49.36500935],[-122.83175933,49.3648655],[-122.83173014,49.36472272],[-122.83168737,49.36458173],[-122.83163523,49.3644418],[-122.83157811,49.36430294],[-122.8315188,49.36416408],[-122.83145949,49.36402522],[-122.83140292,49.36388636],[-122.83135284,49.36374572],[-122.8313031,49.36360543],[-122.8312397,49.36346799],[-122.83113485,49.36334088],[-122.83105814,49.36320665],[-122.83099829,49.36306779],[-122.83095483,49.36292324],[-122.83094583,49.36275767],[-122.83089661,49.36262985],[-122.83073286,49.36260172],[-122.83031684,49.36265798],[-122.83026356,49.36266794],[-122.83021097,49.36267863],[-122.83015749,49.36268895],[-122.83010462,49.36269821],[-122.83005045,49.36270497],[-122.82999606,49.36270925],[-122.8299414,49.3627121],[-122.8298868,49.36271388],[-122.82983152,49.36271494],[-122.82977644,49.36271566],[-122.82972102,49.36271601],[-122.8296658,49.36271601],[-122.82961038,49.36271637],[-122.8295553,49.36271708],[-122.82950057,49.36271815],[-122.82944508,49.36271957],[-122.82939014,49.362721],[-122.82933465,49.36272242],[-122.82927992,49.36272349],[-122.82922484,49.3627242],[-122.82916942,49.36272456],[-122.8291144,49.3627242],[-122.82905946,49.36272278],[-122.82900492,49.36272064],[-122.82894989,49.36271744],[-122.82889549,49.36271316],[-122.82884073,49.36270853],[-122.82878619,49.36270355],[-122.8287315,49.36269785],[-122.82867702,49.3626918],[-122.82865295,49.36268895],[-122.82862274,49.36268539],[-122.82856846,49.36267898],[-122.82851398,49.36267293],[-122.82845704,49.3626683],[-122.82839976,49.36266332],[-122.82834384,49.36265691],[-122.82829181,49.36264658],[-122.82824523,49.36263056],[-122.82820444,49.3626092],[-122.82816549,49.36258463],[-122.82812871,49.36255721],[-122.82809426,49.36252766],[-122.82806226,49.36249668],[-122.82803306,49.36246464],[-122.82800735,49.36243224],[-122.82798382,49.36239984],[-122.82796453,49.36236673],[-122.82794858,49.36233254],[-122.82793598,49.36229729],[-122.82792631,49.36226169],[-122.8279187,49.36222537],[-122.82791272,49.36218905],[-122.82790784,49.36215274],[-122.82790385,49.36211678],[-122.82790259,49.36208081],[-122.82790297,49.36204485],[-122.82790574,49.36200854],[-122.82790906,49.36197222],[-122.82791292,49.3619359],[-122.82791679,49.36189958],[-122.82791956,49.36186327],[-122.82792103,49.36182731],[-122.82792066,49.3617917],[-122.82791756,49.3617561],[-122.82791043,49.36172085],[-122.82789961,49.36168631],[-122.82788346,49.36165248],[-122.82786437,49.36161902],[-122.82784255,49.36158555],[-122.82781943,49.36155243],[-122.82779576,49.36151932],[-122.8277734,49.36148585],[-122.82775287,49.36145203],[-122.82773529,49.36141785],[-122.82772064,49.36138331],[-122.82770654,49.36134877],[-122.82769319,49.36131388],[-122.82768059,49.36127863],[-122.82766833,49.36124374],[-122.82765628,49.36120849],[-122.82764477,49.36117324],[-122.82763326,49.36113799],[-122.82762176,49.36110274],[-122.82761025,49.36106749],[-122.8275982,49.36103224],[-122.82758594,49.36099735],[-122.82757334,49.3609621],[-122.82755999,49.3609272],[-122.82754589,49.36089267],[-122.8275307,49.36085813],[-122.82751496,49.36082359],[-122.82749901,49.36078941],[-122.82748218,49.36075488],[-122.82746459,49.36072069],[-122.8274468,49.36068687],[-122.82742867,49.36065269],[-122.82741034,49.36061886],[-122.82739146,49.36058504],[-122.82737258,49.36055121],[-122.82735315,49.36051739],[-122.82733406,49.36048392],[-122.82731409,49.3604501],[-122.82729445,49.36041663],[-122.82727448,49.3603828],[-122.82725485,49.36034933],[-122.82723467,49.36031586],[-122.82721504,49.36028239],[-122.82719452,49.36024857],[-122.82717434,49.3602151],[-122.82715341,49.36018199],[-122.82713214,49.36014852],[-122.82711012,49.36011541],[-122.82708789,49.36008265],[-122.82706457,49.36004989],[-122.8270403,49.36001785],[-122.82701547,49.3599858],[-122.82698936,49.35995411],[-122.82696119,49.35992314],[-122.82693207,49.35989287],[-122.82690131,49.35986261],[-122.82687034,49.3598327],[-122.82683938,49.35980279],[-122.82680896,49.35977288],[-122.82677875,49.35974262],[-122.82674983,49.359712],[-122.82672221,49.35968102],[-122.82669719,49.35964933],[-122.82667257,49.35961693],[-122.8266485,49.35958453],[-122.82662518,49.35955178],[-122.82660296,49.35951902],[-122.82658094,49.35948591],[-122.82655946,49.35945279],[-122.82653874,49.35941932],[-122.82651856,49.35938585],[-122.82649859,49.35935203],[-122.82647971,49.3593182],[-122.82646083,49.35928438],[-122.8264425,49.35925055],[-122.82642437,49.35921637],[-122.8264057,49.35918219],[-122.82638757,49.35914801],[-122.82636965,49.35911347],[-122.82635302,49.35907858],[-122.82633674,49.35904404],[-122.8263223,49.35900915],[-122.82630895,49.35897426],[-122.82629745,49.35893901],[-122.82628848,49.35890412],[-122.82628135,49.35886887],[-122.82627695,49.35883362],[-122.82627714,49.35879801],[-122.82628005,49.35876241],[-122.8262857,49.3587268],[-122.82629319,49.35869084],[-122.82630178,49.35865488],[-122.82631091,49.35861892],[-122.82632005,49.35858296],[-122.82632863,49.358547],[-122.82633558,49.35851103],[-122.82634178,49.35847543],[-122.82634763,49.35843947],[-122.82635348,49.35840351],[-122.82635913,49.3583679],[-122.82636444,49.35833194],[-122.82637009,49.35829633],[-122.82637594,49.35826037],[-122.8263818,49.35822441],[-122.82638799,49.35818881],[-122.82639439,49.35815285],[-122.82640114,49.35811724],[-122.82640843,49.35808164],[-122.82641572,49.35804603],[-122.8264241,49.35801042],[-122.82643228,49.35797518],[-122.82644175,49.35793957],[-122.82645267,49.35790432],[-122.82646413,49.35786907],[-122.82647722,49.35783382],[-122.82649176,49.35779893],[-122.82650773,49.35776439],[-122.82652459,49.35773021],[-122.82654343,49.35769639],[-122.82656494,49.35766363],[-122.82659254,49.35763265],[-122.82662301,49.35760239],[-122.82665402,49.35757212],[-122.82668182,49.35754079],[-122.82670422,49.35750839],[-122.82672505,49.35747492],[-122.82674587,49.35744145],[-122.82676581,49.35740763],[-122.82678486,49.35737345],[-122.82680281,49.35733927],[-122.82681933,49.35730473],[-122.82683475,49.35727019],[-122.82684765,49.3572353],[-122.8268589,49.35720041],[-122.82686763,49.35716516],[-122.82687383,49.35712955],[-122.82687804,49.35709359],[-122.82687972,49.35705727],[-122.82687977,49.35702096],[-122.82687818,49.35698464],[-122.82687494,49.35694832],[-122.82687041,49.35691236],[-122.82686458,49.35687675],[-122.82685711,49.35684115],[-122.8268489,49.3568059],[-122.82683924,49.35677029],[-122.82682829,49.35673504],[-122.82681645,49.35669944],[-122.82680365,49.35666455],[-122.82678997,49.3566293],[-122.82677553,49.3565944],[-122.82676034,49.35655987],[-122.82674406,49.35652533],[-122.82672758,49.35649115],[-122.82671055,49.35645697],[-122.82669352,49.35642279],[-122.82667594,49.35638861],[-122.82665782,49.35635442],[-122.8266397,49.35632024],[-122.82662048,49.35628606],[-122.82660106,49.35625224],[-122.82658089,49.35621877],[-122.82656017,49.3561853],[-122.82653815,49.35615219],[-122.82651594,49.35611943],[-122.82649242,49.35608703],[-122.8264676,49.35605499],[-122.82644204,49.3560233],[-122.82641497,49.35599232],[-122.82638586,49.35596206],[-122.82635524,49.3559325],[-122.82632333,49.35590331],[-122.82629033,49.35587411],[-122.82625637,49.35584563],[-122.8262224,49.35581714],[-122.8261879,49.35578866],[-122.82615394,49.35576017],[-122.82611998,49.35573169],[-122.82608622,49.35570285],[-122.82605376,49.35567365],[-122.8260226,49.3556441],[-122.82599219,49.35561419],[-122.82596178,49.35558428],[-122.82593212,49.35555402],[-122.82590246,49.35552376],[-122.82587301,49.35549313],[-122.8258441,49.35546251],[-122.82581464,49.35543189],[-122.82578553,49.35540163],[-122.82575607,49.35537101],[-122.82572696,49.35534074],[-122.82569676,49.35531048],[-122.82566655,49.35528022],[-122.82563614,49.35525031],[-122.82560518,49.3552204],[-122.82557402,49.35519085],[-122.82554252,49.35516094],[-122.82551136,49.35513139],[-122.82548095,49.35510148],[-122.8254502,49.35507121],[-122.82541979,49.3550413],[-122.82539013,49.35501104],[-122.82536122,49.35498042],[-122.82533307,49.35494944],[-122.82530601,49.35491847],[-122.8252799,49.35488678],[-122.82525433,49.35485509],[-122.82522898,49.35482304],[-122.82520417,49.354791],[-122.82517936,49.35475895],[-122.82515529,49.35472655],[-122.82513178,49.35469415],[-122.82512979,49.35469095],[-122.82510847,49.3546614],[-122.82508516,49.35462864],[-122.8250624,49.35459588],[-122.82503984,49.35456277],[-122.82501763,49.35453001],[-122.82499562,49.3544969],[-122.82497361,49.35446379],[-122.82495214,49.35443067],[-122.82493068,49.35439756],[-122.82490942,49.35436409],[-122.8248885,49.35433098],[-122.82486758,49.35429787],[-122.82484687,49.3542644],[-122.8248267,49.35423093],[-122.82480708,49.35419746],[-122.82478766,49.35416364],[-122.8247688,49.35412981],[-122.82475047,49.35409599],[-122.82473215,49.35406216],[-122.82471403,49.35402798],[-122.82469571,49.35399415],[-122.82467814,49.35395997],[-122.82466057,49.35392579],[-122.82464299,49.35389161],[-122.82462522,49.35385779],[-122.82460765,49.3538236],[-122.82459008,49.35378942],[-122.82457251,49.35375524],[-122.82455548,49.35372106],[-122.824539,49.35368688],[-122.82452273,49.35365234],[-122.8245068,49.35361816],[-122.82449053,49.35358363],[-122.8244748,49.35354909],[-122.82445853,49.35351455],[-122.8244426,49.35348037],[-122.82442577,49.35344583],[-122.8244093,49.35341165],[-122.82439227,49.35337747],[-122.8243747,49.35334329],[-122.82435713,49.35330911],[-122.82433881,49.35327528],[-122.82432124,49.3532411],[-122.82430347,49.35320728],[-122.82428645,49.3531731],[-122.82426908,49.35313856],[-122.82425315,49.35310438],[-122.82423633,49.35306984],[-122.82421985,49.35303566],[-122.82420358,49.35300112],[-122.82418786,49.35296659],[-122.82417268,49.35293205],[-122.82415805,49.35289751],[-122.82414362,49.35286262],[-122.82413083,49.35282773],[-122.82411859,49.35279283],[-122.82410655,49.35275758],[-122.82409451,49.35272234],[-122.82408302,49.35268709],[-122.82407153,49.35265184],[-122.82406059,49.35261659],[-122.82405019,49.35258134],[-122.82404,49.35254573],[-122.82403069,49.35251048],[-122.82402159,49.35247488],[-122.82401359,49.35243927],[-122.82400613,49.35240367],[-122.82399976,49.35236806],[-122.8239936,49.3523321],[-122.82398778,49.3522965],[-122.82398271,49.35226054],[-122.82397744,49.35222493],[-122.82397237,49.35218897],[-122.82396839,49.35215301],[-122.82396387,49.35211705],[-122.82396044,49.35208108],[-122.82395701,49.35204512],[-122.82395413,49.35200916],[-122.82395125,49.3519732],[-122.82394891,49.35193724],[-122.82394712,49.35190128],[-122.82394588,49.35186532],[-122.82394464,49.35182936],[-122.82394394,49.35179339],[-122.82394379,49.35175743],[-122.82394528,49.35172147],[-122.82394766,49.35168587],[-122.82395079,49.35164991],[-122.82395447,49.35161394],[-122.82395924,49.35157798],[-122.82396401,49.35154202],[-122.82396913,49.35150642],[-122.82397444,49.35147045],[-122.82397976,49.35143449],[-122.82398453,49.35139853],[-122.82388587,49.35139711],[-122.82386681,49.35139684],[-122.82265295,49.35137966],[-122.82265317,49.3513259],[-122.82265678,49.34839096],[-122.82266212,49.34411406],[-122.82266092,49.34391609],[-122.82263768,49.34018644],[-122.82259107,49.33695741],[-122.82259107,49.33679362],[-122.82254459,49.32953193],[-122.82253058,49.32729515],[-122.82249983,49.32238774],[-122.82250733,49.32083921],[-122.8225358,49.31496085],[-122.82254586,49.31428243],[-122.82257236,49.31249554],[-122.82257959,49.31202377],[-122.82259778,49.31081711],[-122.82260633,49.31022998],[-122.8226132,49.30977601],[-122.82264295,49.30772444],[-122.82265304,49.30108015],[-122.82265345,49.30106804],[-122.82265412,49.30059093],[-122.8226545,49.30048768],[-122.82265531,49.29999988],[-122.82265574,49.29983574],[-122.82265585,49.29860736],[-122.82265561,49.29705391],[-122.8224568,49.29705213],[-122.82184952,49.29696311],[-122.82158001,49.2968904],[-122.82120812,49.29679007],[-122.8209992,49.29671851],[-122.8206325,49.29659282],[-122.82049603,49.29654605],[-122.819443,49.29618514],[-122.81736701,49.29549257],[-122.81589683,49.29500233],[-122.81576764,49.29497064],[-122.81569711,49.29495344],[-122.81546123,49.29489587],[-122.81544872,49.29489285],[-122.81540227,49.29488163],[-122.81472475,49.29471642],[-122.8145711,49.29468724],[-122.8143817,49.29465127],[-122.81320738,49.29442909],[-122.81255725,49.2943473],[-122.81180937,49.2942532],[-122.81141493,49.29420335],[-122.81126741,49.29419236],[-122.81126534,49.2941922],[-122.81045012,49.29413143],[-122.80954867,49.29412782],[-122.80938613,49.29412714],[-122.80938307,49.29412716],[-122.80885146,49.29412502],[-122.80879649,49.29412901],[-122.80878765,49.29412965],[-122.80718091,49.29424928],[-122.80607614,49.29439313],[-122.80584292,49.29443452],[-122.80512519,49.2945619],[-122.80511296,49.29456414],[-122.80509223,49.29456795],[-122.80430104,49.2947525],[-122.80357192,49.29492258],[-122.80290912,49.29511316],[-122.80271627,49.29516861],[-122.80252815,49.29523701],[-122.80242838,49.29527329],[-122.80193757,49.29545167],[-122.80192597,49.29545666],[-122.80186379,49.29548122],[-122.80153726,49.29480426],[-122.80092777,49.29408646],[-122.80073423,49.29383646],[-122.80065607,49.29360403],[-122.80063666,49.29354628],[-122.80063647,49.29354573],[-122.80060932,49.29312309],[-122.8005997,49.29152393],[-122.80065601,49.29124454],[-122.80073008,49.29112653],[-122.80125955,49.29045382],[-122.80136661,49.29025583],[-122.80139558,49.29020226],[-122.80144949,49.28996206],[-122.80146103,49.28938626],[-122.80154001,49.28751313],[-122.80158847,49.28620211],[-122.80162591,49.2852433],[-122.80162364,49.28517145],[-122.80162367,49.28517116],[-122.80163092,49.28509518],[-122.80165911,49.28427474],[-122.80166287,49.28403314],[-122.80166791,49.28370963],[-122.80167262,49.28270998],[-122.80167294,49.28092509],[-122.80167311,49.27995877],[-122.80167313,49.27917759],[-122.80167327,49.27732896],[-122.80166409,49.27716767],[-122.80159146,49.2765903],[-122.80149653,49.2755925],[-122.8016131,49.27498731],[-122.80168607,49.27484092],[-122.80161818,49.27481167],[-122.80149634,49.27475791],[-122.80127707,49.27464967],[-122.80062857,49.27430879],[-122.80010998,49.27403619],[-122.80000219,49.27398172],[-122.79959021,49.27377414],[-122.79919242,49.27356656],[-122.79915083,49.27354876],[-122.7991089,49.2735306],[-122.79876307,49.27334082],[-122.79865612,49.27328207],[-122.79855195,49.2732251],[-122.79723147,49.27251051],[-122.79677748,49.27226697],[-122.79614509,49.27194189],[-122.7955291,49.27160827],[-122.79381557,49.27070568],[-122.79207259,49.26990171],[-122.79123445,49.26952287],[-122.79112505,49.2694684],[-122.79086439,49.26936016],[-122.79061811,49.26925156],[-122.79060509,49.2692448],[-122.79060502,49.26925156],[-122.79059695,49.26953355],[-122.79059794,49.26955741],[-122.79060935,49.26990883],[-122.79060426,49.27002562],[-122.79057873,49.27059174],[-122.79056336,49.27092999],[-122.79054912,49.27186392],[-122.79052535,49.27340455],[-122.79052363,49.27351457],[-122.79052186,49.27361712],[-122.79050666,49.2745973],[-122.79049626,49.27526813],[-122.79049375,49.27610806],[-122.79049253,49.27637545],[-122.79048869,49.27715806],[-122.79048862,49.27721787],[-122.79048742,49.27736492],[-122.79047947,49.27847688],[-122.78761389,49.27847545],[-122.78736489,49.27846904],[-122.78573351,49.27847011],[-122.78433027,49.27846833],[-122.78393062,49.27847047],[-122.78307232,49.27844896],[-122.78204116,49.27842311],[-122.77635358,49.27844127],[-122.77315789,49.27848044],[-122.770431,49.27840033],[-122.76961269,49.27839783],[-122.76881348,49.27839534],[-122.76801722,49.2783811],[-122.76739868,49.27837006],[-122.76725276,49.27836757],[-122.76723937,49.27967748],[-122.76723311,49.28027458],[-122.76722467,49.28108069],[-122.76721449,49.28206232],[-122.76720724,49.28280505],[-122.76721348,49.28432753],[-122.76722817,49.28552386],[-122.7672307,49.28576669],[-122.76723991,49.28651511],[-122.76713842,49.28803261],[-122.76713164,49.28847447],[-122.76712399,49.28896903],[-122.76712224,49.28911038],[-122.76712245,49.28926918],[-122.76712284,49.28933861],[-122.7631596,49.28933398],[-122.76156985,49.28931618],[-122.76158336,49.28857096],[-122.76158641,49.28839329],[-122.76158971,49.28817539],[-122.76159981,49.28756413],[-122.76161496,49.2866465],[-122.76162784,49.28573393],[-122.76018392,49.28573607],[-122.75745084,49.28574008],[-122.75604178,49.28574212],[-122.75311549,49.28573073],[-122.75040427,49.2857553],[-122.74755399,49.28574177],[-122.7456326,49.28573322],[-122.74495042,49.28573393],[-122.74490402,49.28573394],[-122.74383688,49.28573678],[-122.74363089,49.28573714],[-122.74074754,49.28574497],[-122.74066765,49.28574518],[-122.73804256,49.28575209],[-122.73732762,49.28575565],[-122.73659264,49.28575138],[-122.73525475,49.28575138],[-122.73415213,49.28575138],[-122.7339863,49.285667],[-122.73377528,49.28558902],[-122.73377609,49.28358017],[-122.73377616,49.28351573],[-122.73377669,49.28216878],[-122.73378007,49.28036648],[-122.73378008,49.28035973],[-122.73378159,49.27955465],[-122.73378054,49.27926802],[-122.73375861,49.27874997],[-122.73376076,49.27852779],[-122.73331521,49.2785253],[-122.72918111,49.27850144],[-122.72762327,49.27850465],[-122.7210651,49.27851818],[-122.71428991,49.27853135],[-122.70994128,49.2784783],[-122.70947914,49.27847901],[-122.70834686,49.2784815],[-122.69847848,49.2785075],[-122.69844623,49.27852459],[-122.69823221,49.2786371],[-122.69801677,49.27874926],[-122.69780153,49.27886106],[-122.69758574,49.27897286],[-122.69736982,49.27908395],[-122.69715336,49.27919503],[-122.69693689,49.27930612],[-122.69672008,49.27941685],[-122.69650382,49.27952759],[-122.69628667,49.27963796],[-122.69606762,49.27974692],[-122.69584788,49.27985515],[-122.69562692,49.27996268],[-122.6954063,49.28007057],[-122.69518676,49.28017845],[-122.69496771,49.2802874],[-122.69475089,49.28039813],[-122.69453653,49.28051029],[-122.69432489,49.2806253],[-122.69411638,49.28074244],[-122.693911,49.28086171],[-122.69370698,49.28098242],[-122.69350508,49.28110419],[-122.69330364,49.28122702],[-122.69310309,49.28135022],[-122.6929022,49.28147306],[-122.69270077,49.28159589],[-122.69249777,49.28171766],[-122.69229395,49.28183801],[-122.69208768,49.28195693],[-122.69188053,49.2820755],[-122.69167235,49.28219299],[-122.69146384,49.28231014],[-122.69125498,49.28242692],[-122.69104524,49.28254335],[-122.69083549,49.28265978],[-122.69062541,49.28277585],[-122.69041512,49.28289228],[-122.69020558,49.28300835],[-122.68999583,49.28312478],[-122.68978575,49.28324086],[-122.68957478,49.28335657],[-122.68936401,49.28347193],[-122.68915269,49.2835873],[-122.68894193,49.28370266],[-122.6887315,49.28381837],[-122.68852175,49.2839348],[-122.68831234,49.28405159],[-122.68810416,49.28416908],[-122.68789788,49.28428801],[-122.68769419,49.28440906],[-122.6874924,49.28453155],[-122.68729252,49.28465545],[-122.6870923,49.284779],[-122.68689119,49.2849022],[-122.68668872,49.28502397],[-122.68648366,49.2851436],[-122.6862748,49.28526039],[-122.68606198,49.28537361],[-122.68584447,49.28548363],[-122.68562457,49.28559116],[-122.68540209,49.28569655],[-122.68517716,49.28580052],[-122.68495107,49.2859027],[-122.6847232,49.28600418],[-122.68449487,49.28610459],[-122.68426565,49.28620464],[-122.68403642,49.28630469],[-122.68380774,49.28640474],[-122.68357995,49.28650514],[-122.6833514,49.28660591],[-122.68312306,49.28670631],[-122.6828935,49.28680601],[-122.68266291,49.28690464],[-122.68243171,49.28700148],[-122.68219807,49.2870969],[-122.68196313,49.28718983],[-122.68172526,49.28728027],[-122.68148577,49.28736786],[-122.68124518,49.28745545],[-122.68100316,49.28754268],[-122.68075978,49.28762849],[-122.68051524,49.28771252],[-122.68026921,49.28779441],[-122.68002155,49.28787345],[-122.67977158,49.28794894],[-122.67951951,49.2880205],[-122.6792652,49.28808744],[-122.67900885,49.28814939],[-122.67874891,49.28820529],[-122.67848639,49.28825621],[-122.67822142,49.28830285],[-122.67795415,49.28834593],[-122.67768579,49.28838617],[-122.67741628,49.28842462],[-122.67714595,49.28846165],[-122.67687563,49.28849868],[-122.67660544,49.28853642],[-122.6763366,49.28857559],[-122.67606851,49.28861725],[-122.675611,49.28868062],[-122.67534163,49.28871694],[-122.67507212,49.28875255],[-122.67480248,49.28878744],[-122.67453229,49.28882233],[-122.67426245,49.28885758],[-122.67399315,49.28889283],[-122.67372364,49.28892844],[-122.67345426,49.28896475],[-122.67318502,49.28900178],[-122.67291605,49.28904024],[-122.67264789,49.28908012],[-122.67238055,49.28912142],[-122.67211327,49.2891645],[-122.67184646,49.28920865],[-122.67158318,49.28925992],[-122.67132389,49.28931938],[-122.67106474,49.28937955],[-122.67080559,49.28943973],[-122.67054624,49.28950026],[-122.67028743,49.28956079],[-122.67002841,49.28962167],[-122.66976994,49.28968256],[-122.66951092,49.28974344],[-122.6692519,49.28980433],[-122.66899288,49.28986521],[-122.66873407,49.28992574],[-122.66655121,49.29047584],[-122.66618644,49.29056948],[-122.66592918,49.29063393],[-122.66567056,49.29069695],[-122.66541261,49.29076068],[-122.66515569,49.29082548],[-122.66490094,49.29089313],[-122.66464897,49.29096541],[-122.66440176,49.29104268],[-122.66415835,49.29112564],[-122.66391644,49.29121073],[-122.66367568,49.29129761],[-122.66343574,49.29138591],[-122.66319729,49.29147635],[-122.66296019,49.29156821],[-122.66272467,49.29166114],[-122.66248941,49.29175549],[-122.66225606,49.29185127],[-122.66202393,49.29194776],[-122.66179261,49.29204567],[-122.66156273,49.29214395],[-122.66133489,49.29224435],[-122.66111282,49.29235081],[-122.66089675,49.29246297],[-122.66068686,49.29258047],[-122.66048345,49.29270188],[-122.66028582,49.2928265],[-122.66009336,49.29295539],[-122.6599071,49.29308962],[-122.65973051,49.29322884],[-122.65956789,49.29337411],[-122.65942075,49.29352472],[-122.65928286,49.29368102],[-122.65915432,49.29384196],[-122.65903681,49.29400645],[-122.65893294,49.2941738],[-122.65884477,49.29434328],[-122.6587791,49.29451632],[-122.65874105,49.29469542],[-122.65872572,49.29487772],[-122.65872923,49.29505859],[-122.65875077,49.29523662],[-122.65879858,49.29541357],[-122.65886101,49.29558982],[-122.65892746,49.29576571],[-122.65898811,49.29594124],[-122.65904877,49.29611678],[-122.65911291,49.29629196],[-122.65918279,49.29646571],[-122.65925929,49.29663839],[-122.65933798,49.29681108],[-122.65941927,49.29698305],[-122.65950185,49.29715467],[-122.65958738,49.29732593],[-122.65967571,49.29749612],[-122.65976642,49.29766596],[-122.65985905,49.29783722],[-122.65996444,49.29800813],[-122.66012029,49.29815126],[-122.66032413,49.29826805],[-122.66055231,49.29837201],[-122.6607928,49.29846601],[-122.6610353,49.29855182],[-122.6612839,49.29862801],[-122.6615408,49.2986946],[-122.66180167,49.29875334],[-122.66206516,49.29880568],[-122.66232941,49.29885482],[-122.66259586,49.29890111],[-122.66286286,49.29894454],[-122.6631315,49.29898514],[-122.6634005,49.29902323],[-122.66366991,49.29905777],[-122.66394258,49.29907913],[-122.66421793,49.29909017],[-122.66449239,49.29910655],[-122.66476462,49.29913432],[-122.66503637,49.29916672],[-122.66530357,49.2992098],[-122.66556303,49.2992682],[-122.6658196,49.29933157],[-122.66607487,49.29939816],[-122.66632944,49.29946687],[-122.66658299,49.29953737],[-122.66683593,49.29960894],[-122.66708811,49.29968086],[-122.66734064,49.29975314],[-122.66759282,49.29982506],[-122.66783363,49.29991194],[-122.66807329,49.29999988],[-122.66835869,49.30010314],[-122.66860101,49.3001893],[-122.66884333,49.30027547],[-122.66908641,49.30036128],[-122.66932949,49.30044709],[-122.66957256,49.3005329],[-122.66981489,49.30061906],[-122.6700568,49.30070594],[-122.67029776,49.30079353],[-122.67053777,49.30088183],[-122.6707764,49.30097155],[-122.67101333,49.30106234],[-122.67124834,49.30115456],[-122.67148178,49.30124856],[-122.6717131,49.30134434],[-122.67194155,49.30144225],[-122.67216693,49.30154266],[-122.67238401,49.30165268],[-122.67259009,49.30177231],[-122.67278761,49.30190014],[-122.67297563,49.30203401],[-122.67315586,49.30217287],[-122.67332789,49.30231458],[-122.6734931,49.30245771],[-122.6736471,49.30260512],[-122.67379017,49.30275822],[-122.67392442,49.30291524],[-122.67405396,49.30307475],[-122.6741807,49.30323533],[-122.67430854,49.30339591],[-122.67444013,49.30355471],[-122.67457774,49.30371066],[-122.67471652,49.30386554],[-122.67485693,49.30402043],[-122.67499755,49.30417495],[-122.67513872,49.30432948],[-122.67528044,49.30448401],[-122.67542107,49.30463853],[-122.67556149,49.30479342],[-122.67570083,49.3049483],[-122.6758392,49.30510389],[-122.67597574,49.30525985],[-122.67611077,49.30541651],[-122.67624485,49.30557388],[-122.67637893,49.30573126],[-122.67651172,49.30588899],[-122.67664375,49.30604708],[-122.67677449,49.30620552],[-122.67690297,49.30636503],[-122.67702907,49.3065249],[-122.67715203,49.30668548],[-122.67727218,49.30684713],[-122.67738845,49.30700984],[-122.67749618,49.30717505],[-122.67759407,49.30734311],[-122.67768473,49.3075133],[-122.6777704,49.30768456],[-122.67785477,49.30785618],[-122.67793751,49.3080278],[-122.67800072,49.30820297],[-122.67805621,49.30837922],[-122.67809942,49.30855689],[-122.67813491,49.30873563],[-122.67814453,49.30891472],[-122.67811053,49.30909275],[-122.67807086,49.30927113],[-122.67802792,49.30944951],[-122.67798464,49.30962754],[-122.67794389,49.30980592],[-122.67790751,49.3099843],[-122.67787911,49.31016304],[-122.67786054,49.31034178],[-122.67785085,49.31052123],[-122.67784806,49.31070104],[-122.67785106,49.3108812],[-122.67785899,49.31106136],[-122.67787128,49.31124153],[-122.6778874,49.31142169],[-122.67790645,49.31160149],[-122.67792756,49.31178059],[-122.67795488,49.31195933],[-122.6780173,49.31213593],[-122.67809071,49.31231146],[-122.67814043,49.31248735],[-122.67814216,49.31266502],[-122.67812122,49.31284412],[-122.67808445,49.31302321],[-122.67803641,49.31320195],[-122.67798209,49.31337926],[-122.67792136,49.31355444],[-122.67784569,49.31372713],[-122.67775937,49.31389839],[-122.67767162,49.31406929],[-122.67758892,49.31424091],[-122.67751249,49.31441395],[-122.67743751,49.31458735],[-122.67735999,49.31476039],[-122.67727607,49.3149313],[-122.6771819,49.31510006],[-122.67707553,49.31526634],[-122.6769568,49.31542941],[-122.67682511,49.3155875],[-122.6766791,49.31573918],[-122.67652156,49.31588623],[-122.67635706,49.31603114],[-122.67619133,49.31617534],[-122.67603181,49.31632204],[-122.67588061,49.31647229],[-122.67571843,49.31661792],[-122.67554643,49.31675784],[-122.67536365,49.31689279],[-122.67517671,49.31702453],[-122.67498677,49.31715484],[-122.67479458,49.31728338],[-122.67460028,49.31741084],[-122.67440352,49.31753689],[-122.6742054,49.3176615],[-122.67400605,49.31778541],[-122.67380459,49.31790825],[-122.67360244,49.31803037],[-122.67339961,49.31815179],[-122.6731959,49.31827285],[-122.6729915,49.31839319],[-122.6727871,49.31851354],[-122.67258271,49.31863388],[-122.67237776,49.31875423],[-122.67217371,49.31887493],[-122.67196965,49.31899563],[-122.67176682,49.31911705],[-122.67156467,49.31923917],[-122.6713632,49.31936201],[-122.6711635,49.31948556],[-122.67096483,49.31961018],[-122.67076827,49.31973587],[-122.67057361,49.31986298],[-122.67038087,49.31999151],[-122.67019058,49.32012147],[-122.67000309,49.32025321],[-122.66981805,49.32038637],[-122.66963669,49.32052167],[-122.6694569,49.32065804],[-122.66927889,49.32079512],[-122.66910333,49.32093363],[-122.668929,49.32107284],[-122.66875466,49.32121206],[-122.66857399,49.32134807],[-122.66839229,49.32148301],[-122.66820916,49.3216176],[-122.66802691,49.32175255],[-122.66784555,49.32188785],[-122.6676661,49.32202457],[-122.66748985,49.32216236],[-122.66731763,49.32230265],[-122.66714698,49.322444],[-122.66697769,49.32258678],[-122.66681331,49.3227324],[-122.66665801,49.32288123],[-122.66651478,49.32303469],[-122.6663867,49.32319313],[-122.6662679,49.32335443],[-122.66615388,49.32351785],[-122.66604395,49.32368271],[-122.66593723,49.32384863],[-122.66583317,49.32401561],[-122.66573,49.32418296],[-122.66562683,49.3243503],[-122.66552365,49.32451765],[-122.66541782,49.32468393],[-122.66531001,49.32484985],[-122.66519776,49.32501399],[-122.66508088,49.3251767],[-122.66495901,49.32533764],[-122.66483475,49.32549893],[-122.66470797,49.32565986],[-122.66457688,49.32581973],[-122.66444014,49.32597711],[-122.66429684,49.32613163],[-122.66414563,49.32628189],[-122.66398453,49.32642751],[-122.66381272,49.32656709],[-122.66363477,49.3267031],[-122.66345449,49.3268384],[-122.66327299,49.32697299],[-122.66309026,49.32710686],[-122.66290556,49.32724038],[-122.66271962,49.32737319],[-122.66253245,49.32750528],[-122.6623444,49.32763702],[-122.66215478,49.32776769],[-122.66196427,49.32789801],[-122.66177233,49.32802797],[-122.66157937,49.32815686],[-122.66138606,49.3282854],[-122.66119132,49.32841357],[-122.6609959,49.32854104],[-122.6607998,49.32866779],[-122.66060246,49.32879384],[-122.66040534,49.32891952],[-122.66020698,49.3290445],[-122.66000828,49.32916912],[-122.65980945,49.32929302],[-122.65960994,49.32941622],[-122.65940538,49.32953585],[-122.65918602,49.32964516],[-122.65895677,49.32974699],[-122.65872213,49.3298449],[-122.65848647,49.32994175],[-122.65825415,49.33004038],[-122.65803002,49.3301447],[-122.65781918,49.33025721],[-122.65762526,49.33038112],[-122.65744826,49.33051642],[-122.65728401,49.33065991],[-122.65713005,49.33081016],[-122.65698279,49.33096398],[-122.65683832,49.33111957],[-122.65669372,49.33127445],[-122.65654563,49.33142684],[-122.65640219,49.33158066],[-122.65626476,49.33173732],[-122.65612978,49.33189541],[-122.65599568,49.33205385],[-122.65586002,49.33221123],[-122.65571979,49.33236611],[-122.65557266,49.33251779],[-122.65541619,49.33266484],[-122.65524846,49.33280583],[-122.65507261,49.33294292],[-122.65489198,49.33307786],[-122.65470712,49.33321067],[-122.65451837,49.33334169],[-122.65432628,49.33347094],[-122.65413173,49.33359876],[-122.65393418,49.33372516],[-122.65373506,49.33385049],[-122.65353437,49.33397475],[-122.653333,49.33409831],[-122.65313095,49.33422114],[-122.6529291,49.33434362],[-122.65272711,49.3344654],[-122.65252267,49.33458574],[-122.65231509,49.33470395],[-122.65210526,49.33482038],[-122.65189264,49.33493503],[-122.65167755,49.33504825],[-122.65146131,49.3351597],[-122.65124282,49.33526936],[-122.6510233,49.33537796],[-122.65080187,49.33548513],[-122.65058099,49.3355923],[-122.65035956,49.33569947],[-122.65013814,49.33580664],[-122.64991616,49.33591382],[-122.64969418,49.33602099],[-122.64947187,49.3361278],[-122.64924921,49.33623426],[-122.64902587,49.33634001],[-122.64880198,49.33644576],[-122.64857761,49.33655044],[-122.64835291,49.33665476],[-122.64812718,49.33675802],[-122.64790131,49.33686056],[-122.64767388,49.33696203],[-122.64744631,49.3370628],[-122.64721738,49.33716214],[-122.64698763,49.33726005],[-122.64675685,49.3373569],[-122.64652471,49.33745232],[-122.64628392,49.33753813],[-122.64603187,49.33761219],[-122.64577213,49.33767592],[-122.64550762,49.33773182],[-122.64524189,49.33778131],[-122.64497611,49.33782617],[-122.64470801,49.33786463],[-122.64443719,49.33789738],[-122.64416535,49.33792622],[-122.64389236,49.33795328],[-122.64361957,49.33797999],[-122.64334685,49.33800847],[-122.64307589,49.33804052],[-122.64280513,49.33807505],[-122.64253335,49.33810852],[-122.64226158,49.33814199],[-122.64199034,49.33817831],[-122.64172175,49.33821854],[-122.64145691,49.33826554],[-122.64119732,49.33832144],[-122.64094166,49.3383866],[-122.6406894,49.33846101],[-122.64044225,49.33854362],[-122.64020204,49.33863406],[-122.63996975,49.33873161],[-122.63974653,49.33883523],[-122.63953067,49.33894596],[-122.63932095,49.3390631],[-122.63911743,49.33918558],[-122.63892052,49.33931269],[-122.63872989,49.33944408],[-122.63854602,49.33957795],[-122.63836638,49.33971396],[-122.63818885,49.33985104],[-122.6380129,49.33998919],[-122.63783905,49.34012841],[-122.63766589,49.34026834],[-122.63749396,49.34040898],[-122.63732325,49.34055033],[-122.63715255,49.34069168],[-122.63698273,49.34083339],[-122.63681236,49.3409751],[-122.6366422,49.34111645],[-122.6364715,49.34125781],[-122.6362999,49.3413988],[-122.63612797,49.34153944],[-122.63595392,49.34167902],[-122.63577918,49.34181788],[-122.63560234,49.34195567],[-122.63542371,49.34209275],[-122.63524563,49.34222983],[-122.63506646,49.34236691],[-122.63488784,49.34250399],[-122.63470778,49.34264071],[-122.63452704,49.34277673],[-122.63434541,49.34291238],[-122.63416221,49.34304697],[-122.6339769,49.34318049],[-122.63379022,49.34331258],[-122.63360109,49.34344325],[-122.6334095,49.3435725],[-122.63321532,49.34369961],[-122.63301799,49.34382459],[-122.63281787,49.34394778],[-122.63261496,49.3440692],[-122.63240979,49.34418883],[-122.6322025,49.34430739],[-122.63199385,49.34442454],[-122.63178343,49.34454096],[-122.63157144,49.34465633],[-122.63135876,49.34477097],[-122.6311452,49.34488527],[-122.63093129,49.3449992],[-122.6307165,49.34511278],[-122.63050225,49.34522637],[-122.630288,49.34533995],[-122.6300741,49.34545388],[-122.62986108,49.34556818],[-122.62964908,49.34568354],[-122.62943852,49.34579925],[-122.62922897,49.34591604],[-122.62902155,49.34603389],[-122.62881569,49.34615281],[-122.62861208,49.34627351],[-122.62841093,49.34639564],[-122.62821257,49.34651955],[-122.62802125,49.34664737],[-122.62783722,49.34678053],[-122.62765967,49.34691761],[-122.62748772,49.34705825],[-122.62731946,49.34720103],[-122.62715399,49.34734559],[-122.6269892,49.34749086],[-122.62682408,49.34763577],[-122.62665738,49.34777962],[-122.62648768,49.34792204],[-122.62631327,49.34806125],[-122.62613306,49.34819727],[-122.62594616,49.34832972],[-122.62575244,49.3484579],[-122.62555142,49.34858073],[-122.62534623,49.34870037],[-122.62513839,49.34881893],[-122.6249274,49.34893536],[-122.62471368,49.34904894],[-122.62449513,49.34915861],[-122.62427248,49.349264],[-122.62404553,49.34936547],[-122.62381667,49.34946552],[-122.623587,49.34956415],[-122.62335521,49.34966171],[-122.62312294,49.3497582],[-122.62289033,49.34985433],[-122.62265649,49.34994976],[-122.62242286,49.35004482],[-122.62218868,49.35013989],[-122.62195483,49.35023531],[-122.62172133,49.35033109],[-122.62148906,49.35042758],[-122.62125713,49.35052442],[-122.62102636,49.35062305],[-122.62080056,49.35072631],[-122.62057769,49.35083205],[-122.62035394,49.35093745],[-122.62012651,49.35103785],[-122.61990951,49.35111547],[-122.61962835,49.3511906],[-122.61936065,49.35123297],[-122.61899124,49.35126501],[-122.61871556,49.35126537],[-122.61844127,49.35125291],[-122.61816719,49.35123439],[-122.61789347,49.35121339],[-122.61762215,49.35118348],[-122.61735524,49.35113933],[-122.61709093,49.35108877],[-122.61683101,49.35102966],[-122.61657987,49.35095632],[-122.61632852,49.35088333],[-122.61607684,49.35080998],[-122.6158257,49.35073663],[-122.61557401,49.35066328],[-122.61532233,49.35058994],[-122.61507065,49.35051659],[-122.61484648,49.35045143],[-122.6145758,49.35048383],[-122.61430511,49.35051624],[-122.61403387,49.35054864],[-122.61376319,49.35058104],[-122.61349121,49.35061094],[-122.61321916,49.35063907],[-122.61295187,49.35068073],[-122.61268838,49.35073378],[-122.61242829,49.35079324],[-122.61218059,49.35087193],[-122.61202978,49.35091822],[-122.6119314,49.35094848],[-122.61167968,49.35102183],[-122.61142538,49.35109019],[-122.61116658,49.35115214],[-122.61090282,49.35120377],[-122.61063403,49.35124329],[-122.61036272,49.35127391],[-122.61009026,49.35129991],[-122.60981781,49.3513259],[-122.60954603,49.35135545],[-122.6092756,49.35138928],[-122.60900477,49.35142096],[-122.60873333,49.35145087],[-122.60846155,49.35148042],[-122.60818976,49.35150998],[-122.6079188,49.35154095],[-122.60764824,49.35157407],[-122.60737815,49.3516111],[-122.60711016,49.35165204],[-122.60684435,49.35169869],[-122.60658106,49.35175138],[-122.60632001,49.3518087],[-122.60605896,49.35186603],[-122.60579825,49.35192371],[-122.60553719,49.35198103],[-122.60527628,49.35203907],[-122.60501556,49.35209675],[-122.60475499,49.35215514],[-122.60449441,49.35221354],[-122.60423417,49.35227229],[-122.60397427,49.35233139],[-122.60371417,49.35239085],[-122.6034544,49.35245067],[-122.60319498,49.35251084],[-122.60293624,49.35257173],[-122.60267709,49.35263332],[-122.60241882,49.35269528],[-122.60216035,49.35275758],[-122.60190235,49.35282096],[-122.60183159,49.35283841],[-122.60164524,49.3528847],[-122.60138805,49.3529495],[-122.60113155,49.35301501],[-122.60087573,49.35308124],[-122.60062005,49.35314817],[-122.60036484,49.35321618],[-122.60027207,49.35324146],[-122.5999999,49.35331516],[-122.59994848,49.3533294],[-122.59969511,49.3533999],[-122.59944297,49.35347111],[-122.59919109,49.35354375],[-122.59894044,49.35361709],[-122.59869061,49.35369187],[-122.5984418,49.3537677],[-122.59819368,49.35384426],[-122.59794548,49.35392188],[-122.59769509,49.3539995],[-122.5974434,49.35407747],[-122.59719008,49.35415545],[-122.596936,49.35423378],[-122.59668096,49.35431282],[-122.59642551,49.35439258],[-122.5961704,49.35447269],[-122.59591488,49.35455351],[-122.59565983,49.3546354],[-122.5954058,49.35471836],[-122.5951528,49.35480239],[-122.59490116,49.35488785],[-122.59465109,49.35497437],[-122.59440347,49.35506231],[-122.59415776,49.35515168],[-122.59391431,49.35524283],[-122.59367419,49.35533576],[-122.59343654,49.35543011],[-122.5932029,49.35552696],[-122.59297316,49.35562559],[-122.5927471,49.35572635],[-122.59252527,49.35582925],[-122.59230857,49.35593464],[-122.59209643,49.35604252],[-122.59188962,49.35615254],[-122.5916886,49.35626577],[-122.59149326,49.35638149],[-122.59130391,49.35650005],[-122.59112235,49.35662218],[-122.59095574,49.35675249],[-122.59080475,49.35689171],[-122.59066836,49.35703876],[-122.59054481,49.35719293],[-122.59043286,49.35735351],[-122.59033073,49.35751978],[-122.59023796,49.35769069],[-122.59015255,49.35786587],[-122.59007349,49.35804425],[-122.58999901,49.35822512],[-122.58992787,49.35840778],[-122.58985831,49.3585915],[-122.58978983,49.35877523],[-122.58972047,49.35895859],[-122.58964865,49.35914053],[-122.5895737,49.35932034],[-122.58949328,49.3594973],[-122.58940693,49.35967034],[-122.58931533,49.35984018],[-122.58922659,49.36001073],[-122.58914161,49.36018234],[-122.58905862,49.36035432],[-122.58897794,49.360527],[-122.58889815,49.36070004],[-122.58881803,49.36087273],[-122.58873701,49.36104506],[-122.58865347,49.36121703],[-122.58856781,49.36138794],[-122.5884782,49.36155813],[-122.58838359,49.36172654],[-122.5882838,49.36189353],[-122.58817704,49.36205838],[-122.58806366,49.36222146],[-122.58794597,49.36238346],[-122.58782487,49.36254475],[-122.58770002,49.36270497],[-122.5875712,49.36286449],[-122.58743971,49.36302293],[-122.58730536,49.36318066],[-122.5871678,49.36333732],[-122.58702813,49.36349292],[-122.58688524,49.36364745],[-122.58674058,49.36380126],[-122.58659326,49.36395401],[-122.5864447,49.36410604],[-122.58629369,49.36425665],[-122.58614166,49.36440619],[-122.58598751,49.36455467],[-122.58582715,49.36470065],[-122.58566078,49.36484378],[-122.58549017,49.36498478],[-122.58531547,49.36512435],[-122.58513865,49.36526286],[-122.58495972,49.36540029],[-122.58477989,49.36553737],[-122.58460096,49.36567481],[-122.5844227,49.36581296],[-122.58424732,49.36595182],[-122.58407473,49.36609246],[-122.58390713,49.36623488],[-122.5837443,49.36637943],[-122.58358803,49.36652684],[-122.58343634,49.36667674],[-122.5832884,49.3668277],[-122.58314326,49.36698045],[-122.58300079,49.36713427],[-122.58286097,49.36728915],[-122.58272327,49.3674451],[-122.58258681,49.36760176],[-122.58245232,49.36775878],[-122.58231906,49.36791651],[-122.58218615,49.3680746],[-122.58205378,49.36823269],[-122.58192175,49.36839113],[-122.58178938,49.36854922],[-122.58165612,49.36870695],[-122.58152252,49.36886432],[-122.58138803,49.36902134],[-122.58125498,49.36917872],[-122.58112316,49.36933681],[-122.58099243,49.36949489],[-122.58086238,49.36965369],[-122.58073288,49.36981249],[-122.58060393,49.36997129],[-122.58047532,49.37013045],[-122.58034671,49.3702896],[-122.58021755,49.37044876],[-122.5800886,49.37060756],[-122.57995855,49.37076636],[-122.57982871,49.3709248],[-122.57969866,49.3710836],[-122.57956917,49.3712424],[-122.57943967,49.3714012],[-122.5793116,49.37156035],[-122.57918443,49.37171986],[-122.57905814,49.37187973],[-122.57893363,49.37204031],[-122.57881109,49.37220125],[-122.57869157,49.37236361],[-122.57857457,49.37252632],[-122.57845935,49.37268975],[-122.57834447,49.37285353],[-122.57822979,49.37301696],[-122.57811457,49.37318039],[-122.57799792,49.37334346],[-122.57787894,49.37350582],[-122.57775696,49.37366676],[-122.57763156,49.37382698],[-122.57750561,49.37398721],[-122.57737933,49.37414707],[-122.5772527,49.37430658],[-122.57712498,49.3744661],[-122.57699726,49.37462561],[-122.5768692,49.37478476],[-122.57674114,49.37494392],[-122.57661253,49.37510307],[-122.57648358,49.37526187],[-122.57635443,49.37542103],[-122.57622493,49.37557983],[-122.57609544,49.37573863],[-122.57596594,49.37589743],[-122.57583645,49.37605623],[-122.57570695,49.37621502],[-122.57557746,49.37637382],[-122.57544796,49.37653262],[-122.57531847,49.37669142],[-122.57518897,49.37685022],[-122.57505982,49.37700938],[-122.57493087,49.37716818],[-122.57480226,49.37732733],[-122.5746742,49.37748649],[-122.57454648,49.377646],[-122.57442054,49.37780622],[-122.57429583,49.37796716],[-122.57417255,49.37812845],[-122.57404982,49.37828974],[-122.57392723,49.37845175],[-122.57380573,49.37861375],[-122.57368457,49.37877611],[-122.57356341,49.37893847],[-122.57344279,49.37910083],[-122.57332109,49.37926319],[-122.57319959,49.37942519],[-122.57307754,49.3795872],[-122.57295426,49.37974849],[-122.57283044,49.37990978],[-122.57270539,49.38007036],[-122.57257911,49.38023023],[-122.57245139,49.38038974],[-122.57232245,49.38054854],[-122.57219084,49.38070627],[-122.572058,49.38086329],[-122.5719225,49.38101924],[-122.57178467,49.38117448],[-122.57164439,49.38132829],[-122.57150144,49.38148104],[-122.57135549,49.38163236],[-122.57120543,49.38178226],[-122.57105046,49.38192931],[-122.57088907,49.38207422],[-122.57072344,49.382217],[-122.57055303,49.38235764],[-122.57037873,49.3824965],[-122.57020087,49.38263394],[-122.57002001,49.38276995],[-122.56983737,49.38290525],[-122.56965261,49.38303948],[-122.56946696,49.38317336],[-122.56927988,49.38330688],[-122.56909335,49.3834404],[-122.56890661,49.38357427],[-122.56872096,49.38370815],[-122.56853634,49.38384309],[-122.56835404,49.38397875],[-122.56817385,49.38411547],[-122.56799722,49.38425362],[-122.56782271,49.38439284],[-122.56764676,49.3845317],[-122.56746992,49.3846702],[-122.56729274,49.38480835],[-122.56711446,49.3849465],[-122.56693674,49.38508464],[-122.56675935,49.38522315],[-122.5665832,49.38536237],[-122.56640813,49.38550158],[-122.56623464,49.38564187],[-122.56606292,49.38578286],[-122.56589421,49.38592528],[-122.56572817,49.38606877],[-122.56556533,49.38621333],[-122.56540639,49.38635967],[-122.56525189,49.38650779],[-122.56510128,49.38665768],[-122.56495546,49.38680972],[-122.56481284,49.38696282],[-122.5646729,49.38711699],[-122.56453596,49.38727259],[-122.56440147,49.38742961],[-122.56426952,49.38758698],[-122.56413948,49.38774578],[-122.56401087,49.38790494],[-122.56388438,49.38806516],[-122.56375933,49.38822574],[-122.56363517,49.38838667],[-122.56351223,49.38854832],[-122.56338984,49.38870997],[-122.5632678,49.38887197],[-122.56314595,49.38903362],[-122.56302446,49.38919563],[-122.56290241,49.38935763],[-122.56278023,49.38951892],[-122.56265695,49.38968021],[-122.56253279,49.38984115],[-122.56240795,49.39000137],[-122.56228057,49.39016124],[-122.56215156,49.39032111],[-122.56202131,49.39048026],[-122.56188977,49.39063977],[-122.56175754,49.39079857],[-122.56162456,49.39095773],[-122.56149124,49.39111653],[-122.56135771,49.39127568],[-122.56122439,49.39143448],[-122.56109141,49.39159364],[-122.56095898,49.39175279],[-122.56082743,49.3919123],[-122.56069698,49.39207182],[-122.56056831,49.39223204],[-122.56044128,49.39239226],[-122.56031568,49.39255284],[-122.56019241,49.39271413],[-122.56007221,49.39287578],[-122.5599538,49.39303814],[-122.559839,49.39320086],[-122.55972742,49.39336464],[-122.55961891,49.39352878],[-122.55951437,49.39369363],[-122.55941359,49.39385955],[-122.55931732,49.39402619],[-122.55922557,49.39419353],[-122.5591401,49.3943623],[-122.55906578,49.39453356],[-122.55900226,49.39470696],[-122.5589481,49.39488214],[-122.55890276,49.3950591],[-122.55886406,49.39523783],[-122.55883151,49.39541728],[-122.55880361,49.39559816],[-122.55877879,49.39577939],[-122.55875684,49.39596133],[-122.55873543,49.39614327],[-122.55871458,49.39632522],[-122.55869208,49.39650716],[-122.55866858,49.39667664],[-122.55866681,49.3968568],[-122.5586701,49.39703768],[-122.55867592,49.39721891],[-122.55868339,49.39740014],[-122.55868976,49.39758137],[-122.55869326,49.39776189],[-122.55869129,49.39794241],[-122.55868283,49.39812186],[-122.55866569,49.39830024],[-122.55863733,49.3984772],[-122.55859503,49.39865273],[-122.55853064,49.39882577],[-122.55844799,49.39899632],[-122.55835194,49.39916545],[-122.55824755,49.39933386],[-122.55813974,49.39950156],[-122.55803392,49.39966962],[-122.55793425,49.39983839],[-122.55791314,49.40001606],[-122.55791775,49.40019657],[-122.55792544,49.40037745],[-122.55793566,49.40055868],[-122.55794609,49.40073955],[-122.55795576,49.40092079],[-122.55796291,49.40110166],[-122.55796698,49.40128218],[-122.55796599,49.40146198],[-122.55795864,49.40164144],[-122.55794316,49.40181982],[-122.55791879,49.40199749],[-122.55788375,49.40217373],[-122.55783312,49.40234856],[-122.55776765,49.4025216],[-122.55768912,49.40269357],[-122.55760136,49.40286447],[-122.5575069,49.40303467],[-122.55740826,49.4032045],[-122.55730819,49.40337399],[-122.55720956,49.40354382],[-122.55704346,49.40385323],[-122.55704788,49.40403411],[-122.55704656,49.40421641],[-122.55704025,49.40439977],[-122.55703038,49.40458456],[-122.55701757,49.40476971],[-122.55700326,49.40495557],[-122.5569884,49.40514143],[-122.55697354,49.40532729],[-122.55695999,49.40551279],[-122.55694903,49.40569758],[-122.55694177,49.40588166],[-122.55693862,49.40606432],[-122.55694066,49.40624555],[-122.55694956,49.40642535],[-122.55696645,49.40660267],[-122.55699115,49.40677785],[-122.55702604,49.40695053],[-122.55707134,49.40712037],[-122.55712834,49.407287],[-122.55719813,49.40745043],[-122.557289,49.40760958],[-122.5574075,49.40776447],[-122.55755003,49.40791472],[-122.55771403,49.40805999],[-122.55789638,49.40820099],[-122.55809419,49.408337],[-122.55830363,49.40846803],[-122.55852307,49.40859407],[-122.55874834,49.40871477],[-122.55897736,49.40883084],[-122.5592064,49.40894122],[-122.5594323,49.40904661],[-122.55965615,49.40914417],[-122.55989569,49.40922499],[-122.56015043,49.40929086],[-122.56041646,49.4093457],[-122.56068955,49.40939305],[-122.56096647,49.40943756],[-122.56124244,49.40948278],[-122.56151429,49.40953227],[-122.56177773,49.40959066],[-122.56202939,49.40966187],[-122.56226468,49.4097491],[-122.56248677,49.40985165],[-122.56271384,49.40995597],[-122.56294502,49.41006172],[-122.56317942,49.41016853],[-122.56341552,49.41027713],[-122.56365279,49.4103875],[-122.56388979,49.41049931],[-122.564125,49.41061324],[-122.5643581,49.41072896],[-122.56458702,49.41084717],[-122.56481109,49.41096716],[-122.56502913,49.41109],[-122.56524047,49.41121497],[-122.56544306,49.41134279],[-122.565636,49.41147311],[-122.56581833,49.41160663],[-122.56598883,49.41174264],[-122.56614634,49.41188221],[-122.56628961,49.41202463],[-122.56641824,49.41217062],[-122.56653005,49.41232016],[-122.56662502,49.41247326],[-122.56670761,49.4126317],[-122.56677789,49.41279442],[-122.56683783,49.41296176],[-122.56688622,49.41313302],[-122.56692543,49.41330785],[-122.56695459,49.41348587],[-122.56697499,49.41366675],[-122.5669865,49.41384976],[-122.56699021,49.4140349],[-122.56698632,49.41422183],[-122.5669758,49.41440983],[-122.56695885,49.41459854],[-122.56693602,49.41478796],[-122.56690826,49.41497738],[-122.56687524,49.41516644],[-122.56683825,49.41535479],[-122.5667975,49.41554207],[-122.5667534,49.41572758],[-122.56670684,49.41591166],[-122.56665788,49.41609324],[-122.56660784,49.41627198],[-122.56655615,49.41644787],[-122.56650317,49.41662127],[-122.56644239,49.41679395],[-122.56637429,49.416967],[-122.56629948,49.41713933],[-122.56621722,49.4173113],[-122.5661286,49.41748292],[-122.56603348,49.41765346],[-122.56593254,49.41782366],[-122.56582586,49.41799243],[-122.56571323,49.41816013],[-122.56559595,49.4183264],[-122.56547326,49.41849161],[-122.56534667,49.41865504],[-122.56521509,49.41881669],[-122.56508016,49.41897656],[-122.56494099,49.41913429],[-122.56479867,49.41928988],[-122.56465321,49.41944334],[-122.56450426,49.41959431],[-122.56435346,49.41974278],[-122.56419931,49.41988947],[-122.56404174,49.42003546],[-122.56388095,49.42018037],[-122.5637162,49.42032457],[-122.56354932,49.4204677],[-122.56337869,49.42060977],[-122.56320538,49.42075076],[-122.56302886,49.42089069],[-122.56284988,49.4210292],[-122.56266823,49.42116663],[-122.56248411,49.42130265],[-122.56229733,49.42143759],[-122.56210863,49.42157111],[-122.56191747,49.4217032],[-122.56172385,49.42183388],[-122.56152831,49.42196312],[-122.56133106,49.42209059],[-122.56113169,49.42221699],[-122.56093027,49.42234125],[-122.56072748,49.42246409],[-122.56052298,49.42258515],[-122.56031731,49.42270442],[-122.56010994,49.42282192],[-122.55990195,49.42293764],[-122.55969013,49.42305051],[-122.55947414,49.42316017],[-122.55925452,49.42326663],[-122.55903142,49.4233706],[-122.55880537,49.42347207],[-122.55857638,49.42357105],[-122.55834458,49.42366826],[-122.55811108,49.42376368],[-122.55787511,49.42385768],[-122.55763757,49.42395061],[-122.557399,49.42404247],[-122.55715975,49.42413362],[-122.55691926,49.42422405],[-122.55667878,49.42431449],[-122.55643829,49.42440493],[-122.55619814,49.42449572],[-122.55595814,49.42458723],[-122.55571956,49.42467909],[-122.55548181,49.42477238],[-122.55524563,49.42486673],[-122.55501171,49.42496286],[-122.55477949,49.42506078],[-122.55455008,49.42516047],[-122.55432361,49.42526266],[-122.55410022,49.42536805],[-122.55388127,49.42547807],[-122.55366588,49.42559236],[-122.55345336,49.42571022],[-122.55324412,49.42583092],[-122.55303638,49.42595376],[-122.55283022,49.42607766],[-122.55262508,49.42620264],[-122.55241995,49.42632761],[-122.55221488,49.42645152],[-122.55200878,49.42657436],[-122.55180139,49.4266947],[-122.5515916,49.42681256],[-122.55137969,49.42692649],[-122.55116457,49.42703651],[-122.55094596,49.42714119],[-122.55072297,49.42724017],[-122.55049527,49.4273331],[-122.55026168,49.4274182],[-122.5500177,49.42748905],[-122.54976154,49.42754495],[-122.5494969,49.42758804],[-122.54922386,49.42762008],[-122.54894548,49.42764429],[-122.54866368,49.4276621],[-122.54837976,49.42767598],[-122.54809612,49.42768844],[-122.54781425,49.42770162],[-122.54753642,49.42771728],[-122.54726222,49.42773616],[-122.54698808,49.42775396],[-122.54671367,49.42777034],[-122.54643913,49.427786],[-122.54616431,49.42780024],[-122.54588881,49.42781377],[-122.54561392,49.42782624],[-122.54533869,49.42783834],[-122.54506312,49.42785009],[-122.54478796,49.42786113],[-122.54451226,49.42787217],[-122.54423676,49.42788285],[-122.54396125,49.42789353],[-122.54368609,49.42790457],[-122.54341039,49.42791561],[-122.54313502,49.427927],[-122.54285979,49.42793911],[-122.5425849,49.42795157],[-122.54231042,49.42796901],[-122.54204188,49.42801032],[-122.54177382,49.42805269],[-122.54150766,49.42809933],[-122.54124288,49.42815024],[-122.54098171,49.42820721],[-122.54072356,49.4282713],[-122.54047107,49.42834358],[-122.54022494,49.42842476],[-122.53998764,49.42851627],[-122.53975888,49.42861667],[-122.53953524,49.42872242],[-122.53931667,49.42883173],[-122.53910241,49.42894495],[-122.53889266,49.42906174],[-122.53868743,49.42918208],[-122.53848725,49.42930599],[-122.538292,49.42943274],[-122.53810127,49.42956306],[-122.537916,49.42969622],[-122.53773634,49.42983295],[-122.53756271,49.42997252],[-122.53739578,49.43011565],[-122.53723487,49.43026163],[-122.53708155,49.43041153],[-122.53682145,49.43069709],[-122.53672858,49.4308096],[-122.53661105,49.43096769],[-122.53650666,49.43112577],[-122.53641609,49.43128457],[-122.53634242,49.43144444],[-122.53629037,49.43160858],[-122.53625708,49.43177628],[-122.53624198,49.43194754],[-122.53624201,49.43212201],[-122.53625518,49.43229932],[-122.53628026,49.43247877],[-122.53631451,49.43266036],[-122.53635649,49.43284373],[-122.53640422,49.43302852],[-122.53645537,49.43321402],[-122.53650831,49.43340024],[-122.53656049,49.43358681],[-122.53661069,49.43377302],[-122.53665672,49.43395888],[-122.53669604,49.43414403],[-122.53672777,49.43432811],[-122.53674903,49.43451041],[-122.53675797,49.43469128],[-122.53676007,49.43487073],[-122.53676176,49.43505089],[-122.53676236,49.43523106],[-122.53676241,49.43541122],[-122.53676116,49.43559174],[-122.53675882,49.43577226],[-122.53675483,49.43595277],[-122.53674921,49.43613329],[-122.53674194,49.43631381],[-122.53673248,49.43649433],[-122.5367205,49.43667449],[-122.53670577,49.43685466],[-122.53668852,49.43703446],[-122.53666873,49.43721391],[-122.53664566,49.43739336],[-122.53661917,49.4375721],[-122.5365894,49.43775084],[-122.53655566,49.43792887],[-122.53651829,49.43810654],[-122.53647674,49.43828385],[-122.53643178,49.43846045],[-122.53638298,49.43863705],[-122.53633165,49.4388133],[-122.53627725,49.43898919],[-122.53622031,49.43916472],[-122.53616063,49.43934026],[-122.53609952,49.43951544],[-122.53603622,49.43969061],[-122.53597093,49.43986543],[-122.53590455,49.44004026],[-122.53583708,49.44021508],[-122.53576816,49.44038954],[-122.53569925,49.44056401],[-122.53562959,49.44073883],[-122.53555959,49.4409133],[-122.53548903,49.44108776],[-122.53541958,49.44126223],[-122.53535012,49.44143669],[-122.53528156,49.44161151],[-122.53521354,49.44178634],[-122.53514717,49.44196116],[-122.53508223,49.44213634],[-122.53501839,49.44231151],[-122.53495709,49.44248705],[-122.53489742,49.44266258],[-122.53484029,49.44283847],[-122.5347857,49.44301472],[-122.53473364,49.44319132],[-122.53468719,49.44336863],[-122.53464656,49.4435463],[-122.53461044,49.44372469],[-122.53457885,49.44390378],[-122.53455054,49.44408287],[-122.53452511,49.44426268],[-122.53450078,49.44444249],[-122.53447809,49.44462229],[-122.5344552,49.44480246],[-122.53443251,49.44498226],[-122.53440818,49.44516207],[-122.53438131,49.44534152],[-122.53435247,49.44552061],[-122.53431945,49.44569935],[-122.53428246,49.44587738],[-122.53423986,49.44605469],[-122.53419164,49.44623129],[-122.53413672,49.44640718],[-122.53407475,49.44658201],[-122.53401024,49.44675647],[-122.53394464,49.44693094],[-122.53387816,49.44710505],[-122.53381112,49.44727916],[-122.53374354,49.44745327],[-122.53367486,49.44762738],[-122.53360584,49.44780113],[-122.53353553,49.44797524],[-122.53346507,49.44814864],[-122.53339386,49.44832239],[-122.53332211,49.44849614],[-122.53325002,49.44866954],[-122.53317682,49.44884294],[-122.53310364,49.44901634],[-122.53302956,49.44918938],[-122.53295527,49.44936277],[-122.53288065,49.44953582],[-122.53280547,49.44970886],[-122.53272975,49.4498819],[-122.53265403,49.45005494],[-122.53257777,49.45022798],[-122.5325015,49.45040102],[-122.53242435,49.45057371],[-122.53234753,49.45074675],[-122.53227038,49.45091944],[-122.53219268,49.45109212],[-122.53211532,49.45126516],[-122.53203762,49.45143785],[-122.53195992,49.45161053],[-122.53188222,49.45178322],[-122.53180432,49.45195626],[-122.53172607,49.45212894],[-122.53164838,49.45230163],[-122.53157013,49.45247432],[-122.53149278,49.45264736],[-122.53141508,49.45282004],[-122.53133739,49.45299273],[-122.53126004,49.45316577],[-122.53118234,49.45333846],[-122.53110554,49.4535115],[-122.53102874,49.45368454],[-122.53095159,49.45385722],[-122.53087534,49.45403026],[-122.53079963,49.45420331],[-122.53072372,49.4543767],[-122.53064857,49.45454974],[-122.53057321,49.45472314],[-122.5304986,49.45489618],[-122.53042488,49.45506958],[-122.53035116,49.45524298],[-122.530278,49.45541638],[-122.53020517,49.45559013],[-122.53013344,49.45576388],[-122.53006171,49.45593764],[-122.52999053,49.45611139],[-122.5299199,49.45628514],[-122.52984961,49.45645925],[-122.52977987,49.45663336],[-122.52970979,49.45680712],[-122.5296404,49.45698158],[-122.52957175,49.45715569],[-122.52950311,49.4573298],[-122.52943481,49.45750427],[-122.52936651,49.45767873],[-122.52929876,49.4578532],[-122.52923156,49.45802766],[-122.52916491,49.45820213],[-122.5290986,49.45837695],[-122.5290325,49.45855142],[-122.52896674,49.45872624],[-122.52890152,49.45890106],[-122.52883665,49.45907624],[-122.52877199,49.45925106],[-122.52870787,49.45942588],[-122.52864465,49.45960106],[-122.52858143,49.45977624],[-122.52851875,49.45995142],[-122.52850233,49.45999699],[-122.52845608,49.46012659],[-122.5283943,49.46030213],[-122.52833272,49.4604773],[-122.52827203,49.46065284],[-122.52821135,49.46082837],[-122.52815121,49.46100391],[-122.52809162,49.46117944],[-122.52803313,49.46135497],[-122.52797608,49.46153086],[-122.52791992,49.46170711],[-122.52786595,49.46188336],[-122.52781287,49.46205996],[-122.52776089,49.46223656],[-122.52770979,49.46241352],[-122.52765946,49.46259012],[-122.52761035,49.46276743],[-122.52756145,49.46294439],[-122.52751345,49.4631217],[-122.52746565,49.46329866],[-122.52741764,49.46347598],[-122.52737019,49.46365329],[-122.52732273,49.46383061],[-122.52727528,49.46400792],[-122.52722727,49.46418523],[-122.52717893,49.46436219],[-122.52713038,49.46453951],[-122.52708095,49.46471646],[-122.52703096,49.46489342],[-122.52698009,49.46507002],[-122.52692552,49.46524734],[-122.52685711,49.46542679],[-122.52677522,49.46560873],[-122.52668539,49.4657921],[-122.52659131,49.46597618],[-122.52649723,49.46616026],[-122.52640781,49.46634291],[-122.52632688,49.46652414],[-122.52625834,49.46670288],[-122.52620755,49.46687841],[-122.52617804,49.46704932],[-122.52617422,49.46721559],[-122.52620053,49.46737617],[-122.52626088,49.46752999],[-122.52636231,49.46767526],[-122.52650003,49.4678127],[-122.5266694,49.46794372],[-122.52686321,49.46806941],[-122.52707715,49.46819153],[-122.52730384,49.46831152],[-122.52753902,49.46843009],[-122.52777653,49.46854937],[-122.52800952,49.46867078],[-122.52823395,49.46879469],[-122.52844236,49.46892358],[-122.5286303,49.46905852],[-122.52880654,49.46919667],[-122.52898126,49.46933553],[-122.52915449,49.4694751],[-122.52932655,49.46961574],[-122.52949731,49.46975674],[-122.52966712,49.46989845],[-122.52983597,49.47004087],[-122.53000461,49.47018365],[-122.53017162,49.47032642],[-122.53033876,49.47046991],[-122.53050515,49.47061376],[-122.53067155,49.4707576],[-122.53083739,49.47090145],[-122.53100324,49.47104529],[-122.53116889,49.47118949],[-122.53133529,49.47133334],[-122.53150114,49.47147719],[-122.53166775,49.47162068],[-122.53183491,49.47176416],[-122.53200283,49.4719073],[-122.53217115,49.47204972],[-122.53234058,49.47219214],[-122.53251062,49.47233349],[-122.5326823,49.47247484],[-122.53285461,49.47261513],[-122.53302842,49.4727547],[-122.53320353,49.47289392],[-122.53337749,49.4730342],[-122.53355096,49.47317627],[-122.53372362,49.47331976],[-122.53389587,49.47346396],[-122.53406826,49.47360887],[-122.53424065,49.47375378],[-122.53441454,49.47389799],[-122.53458865,49.47404183],[-122.53476522,49.47418425],[-122.53494282,49.47432489],[-122.53512309,49.47446375],[-122.5353059,49.47460012],[-122.53549178,49.474734],[-122.53568102,49.47486396],[-122.53587375,49.47499071],[-122.53607059,49.47511319],[-122.53627154,49.4752314],[-122.53647775,49.47534427],[-122.53668903,49.47545215],[-122.53690852,49.47555149],[-122.53714362,49.47563516],[-122.53739274,49.47570495],[-122.53765281,49.47576334],[-122.5379224,49.47581283],[-122.53819821,49.47585627],[-122.53847826,49.47589615],[-122.53875914,49.4759346],[-122.53903919,49.47597448],[-122.53931535,49.47601828],[-122.53958562,49.47606848],[-122.53984673,49.47612794],[-122.54009668,49.47619915],[-122.54033316,49.47628425],[-122.54055636,49.47638287],[-122.54077252,49.47648898],[-122.54098266,49.47660078],[-122.54118699,49.47671792],[-122.54138735,49.47684005],[-122.54158326,49.47696609],[-122.54177623,49.47709534],[-122.54196702,49.47722743],[-122.54215568,49.47736131],[-122.54234298,49.47749661],[-122.54253042,49.47763262],[-122.54271807,49.47776827],[-122.54290647,49.47790357],[-122.543097,49.47803709],[-122.54328964,49.47816883],[-122.54348558,49.47829772],[-122.54368555,49.47842341],[-122.54388983,49.47854447],[-122.54409986,49.47866125],[-122.54431401,49.47877377],[-122.54452965,49.47888557],[-122.5447466,49.47899701],[-122.54496431,49.4791081],[-122.54518352,49.47921848],[-122.54540424,49.47932814],[-122.54562612,49.47943674],[-122.54584972,49.47954426],[-122.54607413,49.47965037],[-122.54630026,49.4797554],[-122.54652776,49.47985901],[-122.54675663,49.4799612],[-122.54698762,49.48006161],[-122.54721964,49.48016023],[-122.54745323,49.48025708],[-122.54768881,49.48035143],[-122.54792596,49.48044401],[-122.54816455,49.48053409],[-122.54840512,49.48062168],[-122.54864767,49.48070677],[-122.54889166,49.48078938],[-122.54913729,49.48086913],[-122.54938484,49.48094747],[-122.54963267,49.48102437],[-122.54988199,49.48110057],[-122.5501318,49.48117498],[-122.55038257,49.48124869],[-122.5506345,49.48132132],[-122.55088684,49.48139324],[-122.55114,49.48146374],[-122.55139412,49.48153353],[-122.55164865,49.4816026],[-122.55190414,49.48167096],[-122.55216004,49.48173861],[-122.55241635,49.48180555],[-122.55267287,49.48187213],[-122.55293034,49.481938],[-122.55318823,49.48200316],[-122.55344612,49.48206832],[-122.55370441,49.48213276],[-122.55396271,49.48219721],[-122.55422142,49.48226094],[-122.55448048,49.48232503],[-122.55473939,49.48238841],[-122.55499865,49.48245214],[-122.55525812,49.48251552],[-122.55551738,49.48257925],[-122.5557761,49.48264299],[-122.55603536,49.48270672],[-122.55629408,49.48277045],[-122.55655293,49.4828349],[-122.55681124,49.48289934],[-122.55706934,49.48296415],[-122.55732724,49.4830293],[-122.55758473,49.48309517],[-122.55784202,49.4831614],[-122.55809856,49.48322798],[-122.55835468,49.48329528],[-122.5586102,49.48336364],[-122.55886571,49.483432],[-122.55912102,49.48350072],[-122.55937557,49.48356979],[-122.55963048,49.48363922],[-122.55988538,49.48370865],[-122.56013973,49.48377808],[-122.56039443,49.48384787],[-122.56064858,49.48391765],[-122.56090308,49.4839878],[-122.56115778,49.48405758],[-122.56141228,49.48412773],[-122.56166643,49.48419751],[-122.56192114,49.4842673],[-122.5621755,49.48433673],[-122.56243041,49.48440616],[-122.56268532,49.48447559],[-122.56293989,49.48454466],[-122.56319522,49.48461338],[-122.56345054,49.4846821],[-122.56370627,49.4847501],[-122.56396201,49.48481811],[-122.5642174,49.48488576],[-122.56447355,49.48495305],[-122.5647297,49.48502035],[-122.56498585,49.48508764],[-122.565242,49.48515494],[-122.56549835,49.48522187],[-122.56575471,49.48528881],[-122.56601086,49.48535611],[-122.56626667,49.48542304],[-122.566697,49.48553627],[-122.56696884,49.48556867],[-122.56724062,49.48559929],[-122.567513,49.48562884],[-122.56778566,49.48565697],[-122.56805873,49.48568439],[-122.56833165,49.48571109],[-122.56860513,49.48573779],[-122.56887806,49.4857645],[-122.56915079,49.48579156],[-122.56942365,49.48581933],[-122.56969665,49.48584781],[-122.56996884,49.48587772],[-122.57024055,49.48590941],[-122.57051198,49.48594252],[-122.57078254,49.48597813],[-122.57105275,49.48601623],[-122.57132133,49.48605717],[-122.57158937,49.48610097],[-122.57185591,49.48614832],[-122.5721204,49.48619924],[-122.57238298,49.48625443],[-122.57264379,49.4863146],[-122.57290126,49.48637869],[-122.57315681,49.48644705],[-122.57340978,49.48651897],[-122.57366089,49.4865941],[-122.57391003,49.48667172],[-122.5741574,49.48675148],[-122.57440353,49.48683337],[-122.5746481,49.48691704],[-122.5748915,49.48700178],[-122.5751343,49.48708759],[-122.57537688,49.48717375],[-122.57561872,49.48726027],[-122.57586076,49.48734644],[-122.57610335,49.4874326],[-122.57634656,49.4875177],[-122.57659073,49.48760208],[-122.57683455,49.48768611],[-122.57707892,49.48777014],[-122.57732309,49.48785453],[-122.57756651,49.48793927],[-122.57780931,49.48802507],[-122.57805075,49.48811231],[-122.57829082,49.48820096],[-122.57852966,49.48829176],[-122.57876584,49.48838433],[-122.57899984,49.48847975],[-122.57923165,49.48857802],[-122.57945942,49.4886795],[-122.57968351,49.48878453],[-122.57990391,49.48889313],[-122.58011931,49.48900564],[-122.58033123,49.48912136],[-122.58053802,49.48924028],[-122.58074078,49.48936241],[-122.58093725,49.48948881],[-122.58112838,49.48961877],[-122.58131213,49.489753],[-122.58148773,49.48989186],[-122.58165486,49.49003499],[-122.58181144,49.49018311],[-122.58195639,49.49033621],[-122.58208711,49.49049501],[-122.58219345,49.49066093],[-122.58227439,49.4908329],[-122.5823365,49.49100808],[-122.58238498,49.49118504],[-122.58242407,49.49136307],[-122.58245968,49.49154145],[-122.58249638,49.49171983],[-122.58253767,49.49189786],[-122.58258965,49.49207446],[-122.58265657,49.49224892],[-122.58274437,49.49241947],[-122.58285648,49.49258397],[-122.58298407,49.49274348],[-122.58312268,49.49289907],[-122.58326972,49.49305146],[-122.58342407,49.49320065],[-122.5835837,49.49334735],[-122.58374785,49.4934919],[-122.5839148,49.49363539],[-122.58408347,49.49377781],[-122.58425269,49.49392023],[-122.58442081,49.49406265],[-122.58458702,49.4942065],[-122.58474967,49.49435177],[-122.58490836,49.49449917],[-122.58506068,49.49464907],[-122.58520568,49.49480217],[-122.58534712,49.4949567],[-122.58548651,49.49511194],[-122.5856244,49.49526789],[-122.58576023,49.49542455],[-122.58589402,49.49558193],[-122.58602595,49.49573966],[-122.58615673,49.49589846],[-122.58628586,49.49605726],[-122.58641328,49.49621713],[-122.58653906,49.49637699],[-122.58666334,49.49653757],[-122.58678666,49.49669887],[-122.58690834,49.49686016],[-122.58702907,49.49702216],[-122.58714815,49.49718416],[-122.58726682,49.49734688],[-122.58738385,49.4975096],[-122.58749787,49.49767374],[-122.58760635,49.49783895],[-122.58770757,49.49800629],[-122.58779913,49.49817613],[-122.58787776,49.49834846],[-122.58794159,49.49852363],[-122.5879896,49.49870059],[-122.58802857,49.49887897],[-122.58806075,49.49905771],[-122.58808691,49.49923645],[-122.58810773,49.4994159],[-122.58812505,49.49959571],[-122.58813874,49.49977516],[-122.58815004,49.49995496],[-122.58815257,49.50000018],[-122.58816024,49.50013477],[-122.58816934,49.50031458],[-122.58817954,49.50049438],[-122.58819029,49.50067419],[-122.58820345,49.50085364],[-122.58821913,49.50103345],[-122.58823887,49.5012129],[-122.5882586,49.50139235],[-122.58827888,49.5015718],[-122.58829882,49.50175089],[-122.58831856,49.50193034],[-122.58833885,49.50210979],[-122.58835969,49.50228924],[-122.58838107,49.50246869],[-122.58840376,49.50264779],[-122.58842625,49.50282724],[-122.58845059,49.50300633],[-122.58847602,49.50318543],[-122.58850255,49.50336452],[-122.58853128,49.50354362],[-122.58856241,49.50372235],[-122.58859648,49.50390074],[-122.58863165,49.50407912],[-122.58866737,49.5042575],[-122.58870364,49.50443588],[-122.58873991,49.50461427],[-122.58877509,49.50479265],[-122.58880842,49.50497139],[-122.58883956,49.50515012],[-122.5888696,49.50532886],[-122.58890074,49.5055076],[-122.58893188,49.50568634],[-122.58896193,49.50586508],[-122.58899013,49.50604417],[-122.58901504,49.50622327],[-122.58903591,49.50640272],[-122.58905129,49.50658217],[-122.58905935,49.50676197],[-122.58906686,49.50694178],[-122.58907821,49.50712159],[-122.58909175,49.50730139],[-122.58910475,49.5074812],[-122.589115,49.50766101],[-122.58911978,49.50784081],[-122.58911687,49.50802062],[-122.58910301,49.50820042],[-122.58907605,49.50837916],[-122.58903106,49.50855683],[-122.58896632,49.50873165],[-122.58887051,49.50890042],[-122.5887336,49.50905673],[-122.58856732,49.50920022],[-122.58838366,49.50933481],[-122.58819156,49.50946405],[-122.58799753,49.50959188],[-122.58780734,49.50972255],[-122.58762794,49.50985927],[-122.58746928,49.51000668],[-122.58734493,49.5101669],[-122.58725776,49.51033781],[-122.58719701,49.51051334],[-122.58715949,49.51069137],[-122.58714399,49.51087117],[-122.58715207,49.51105098],[-122.58718619,49.51122936],[-122.58725142,49.51140418],[-122.5873533,49.51157153],[-122.58748668,49.5117289],[-122.58764067,49.51187809],[-122.58781176,49.51201944],[-122.58799647,49.51215332],[-122.58819241,49.51228007],[-122.58839805,49.51240042],[-122.58861177,49.51251435],[-122.58883375,49.51262153],[-122.58906271,49.51272229],[-122.5892987,49.51281557],[-122.58954193,49.51290103],[-122.58979035,49.51297936],[-122.59004368,49.51305199],[-122.59029954,49.51311929],[-122.59055778,49.51318338],[-122.59081725,49.51324533],[-122.59107719,49.5133055],[-122.59133748,49.51336603],[-122.59159736,49.51342727],[-122.59185601,49.51349065],[-122.59211283,49.51355723],[-122.59236644,49.51362844],[-122.59261623,49.51370535],[-122.59286125,49.51378867],[-122.5931002,49.51387875],[-122.59333327,49.51397524],[-122.59356108,49.51407707],[-122.5937833,49.51418388],[-122.59400066,49.51429533],[-122.5942127,49.51441033],[-122.59441974,49.51452926],[-122.59462255,49.51465174],[-122.59482098,49.51477707],[-122.59501429,49.5149056],[-122.59520117,49.5150377],[-122.595381,49.51517442],[-122.59555461,49.51531435],[-122.59572179,49.51545784],[-122.59588261,49.51560382],[-122.5960385,49.51575265],[-122.59618899,49.51590326],[-122.59633476,49.51605636],[-122.59647532,49.51621089],[-122.59660576,49.51636969],[-122.59672558,49.51653169],[-122.5968361,49.51669655],[-122.59694066,49.51686318],[-122.59704152,49.51703052],[-122.59714088,49.51719858],[-122.59724174,49.51736592],[-122.59734316,49.51753327],[-122.59743567,49.51770275],[-122.59752188,49.51787365],[-122.5976044,49.51804527],[-122.59768801,49.51821689],[-122.59777683,49.51838708],[-122.59787435,49.51855549],[-122.59798434,49.51872035],[-122.59811145,49.51888021],[-122.59825519,49.51903403],[-122.59840928,49.51918322],[-122.59857123,49.5193292],[-122.59873866,49.51947233],[-122.59891081,49.51961297],[-122.59908618,49.51975183],[-122.59926456,49.51988927],[-122.5994437,49.52002635],[-122.59962325,49.52016272],[-122.59980218,49.52030015],[-122.59998952,49.52044685],[-122.60015294,49.52057787],[-122.60032264,49.52071994],[-122.60048708,49.52086449],[-122.60064454,49.52101261],[-122.60079358,49.52116393],[-122.60093249,49.52131953],[-122.60105573,49.52148047],[-122.60116164,49.52164674],[-122.60125235,49.52181658],[-122.60133121,49.52198891],[-122.60140138,49.52216302],[-122.60146435,49.5223382],[-122.60152382,49.52251373],[-122.60158145,49.52268962],[-122.60164073,49.52286551],[-122.60170315,49.52304069],[-122.60176613,49.52321586],[-122.60182562,49.5233914],[-122.60188195,49.52356764],[-122.60193534,49.52374425],[-122.60198654,49.52392085],[-122.60203534,49.52409781],[-122.60208229,49.52427512],[-122.60212739,49.52445279],[-122.60217085,49.52463046],[-122.60221322,49.52480813],[-122.60225264,49.52498616],[-122.60228692,49.52516454],[-122.60231825,49.52534328],[-122.60234774,49.52552237],[-122.60237633,49.52570111],[-122.60240472,49.5258802],[-122.60243497,49.52605894],[-122.60246741,49.52623768],[-122.60250389,49.52641606],[-122.60254517,49.52659373],[-122.60259105,49.52677105],[-122.60264022,49.52694836],[-122.60269254,49.52712496],[-122.60274671,49.52730121],[-122.60280198,49.52747745],[-122.6028589,49.5276537],[-122.60291548,49.52782959],[-122.6029724,49.52800584],[-122.60302768,49.52818208],[-122.60308186,49.52835833],[-122.60313714,49.52853457],[-122.60319646,49.52871046],[-122.60325709,49.528886],[-122.60331848,49.52906118],[-122.60337781,49.52923706],[-122.6034344,49.52941295],[-122.60348599,49.52958991],[-122.60353025,49.52976723],[-122.60356566,49.52994561],[-122.60359299,49.5301247],[-122.60361868,49.5303038],[-122.60364436,49.53048289],[-122.60366711,49.53066234],[-122.60368656,49.53084179],[-122.60369998,49.53102124],[-122.6037064,49.53120141],[-122.60370371,49.53138121],[-122.60369025,49.53156066],[-122.60366438,49.53173976],[-122.60362376,49.53191778],[-122.60356626,49.53209367],[-122.60349607,49.53226778],[-122.60341449,49.53243976],[-122.60332316,49.53260959],[-122.60322373,49.53277729],[-122.60311853,49.53294357],[-122.60300846,49.53310878],[-122.60289482,49.53327256],[-122.60277918,49.53343599],[-122.602663,49.53359942],[-122.60254737,49.53376285],[-122.60243373,49.53392663],[-122.60232331,49.53409148],[-122.60221757,49.53425776],[-122.60211615,49.5344251],[-122.60201617,49.5345928],[-122.60191654,49.53476086],[-122.60181712,49.53492856],[-122.60171659,49.53509626],[-122.60161483,49.53526325],[-122.60150998,49.53542988],[-122.60140479,49.53559616],[-122.60130049,49.53576279],[-122.60119674,49.53592943],[-122.60109334,49.53609641],[-122.60099014,49.53626305],[-122.60088618,49.53643003],[-122.60078243,49.53659667],[-122.60067724,49.53676294],[-122.60057095,49.53692922],[-122.60046343,49.53709478],[-122.60035391,49.53725999],[-122.60024261,49.53742449],[-122.60012877,49.53758863],[-122.60000681,49.53776025],[-122.5998934,49.53791406],[-122.59977022,49.53807535],[-122.59964223,49.53823451],[-122.59950957,49.53839224],[-122.59937134,49.53854819],[-122.5992292,49.53870236],[-122.59908294,49.53885511],[-122.59893221,49.53900607],[-122.59877776,49.5391549],[-122.59861899,49.53930266],[-122.59845671,49.53944793],[-122.59828908,49.53959107],[-122.59811717,49.53973206],[-122.59794211,49.53987092],[-122.59776381,49.54000872],[-122.59758393,49.54014544],[-122.59740337,49.54028145],[-122.59722225,49.54041746],[-122.59704202,49.54055383],[-122.59672513,49.54079844],[-122.59831471,49.54079844],[-122.60000003,49.54079987],[-122.60939779,49.54080805],[-122.60960959,49.54080805],[-122.6131589,49.54082087],[-122.6163643,49.54083155],[-122.66760535,49.54099],[-122.66768025,49.54107972],[-122.66777025,49.54124956],[-122.66787916,49.54141512],[-122.66803816,49.54156217],[-122.66824754,49.54167967],[-122.66847731,49.54177972],[-122.66870824,49.5418787],[-122.66892205,49.54199228],[-122.66921312,49.54220876],[-122.66937193,49.54235617],[-122.66951295,49.5425107],[-122.66960017,49.5426816],[-122.66964072,49.54285927],[-122.66967921,49.54303765],[-122.66972841,49.54321461],[-122.66977595,49.54339157],[-122.66980527,49.54357066],[-122.66980235,49.54375047],[-122.66978208,49.54392992],[-122.66977204,49.54410973],[-122.66978853,49.54428918],[-122.66980592,49.54446898],[-122.66976891,49.54464701],[-122.66966578,49.544814],[-122.66953928,49.54497387],[-122.6694081,49.54513231],[-122.66925637,49.54528256],[-122.66909142,49.54542712],[-122.66897187,49.54559019],[-122.66901395,49.54576715],[-122.66915219,49.54592275],[-122.66932553,49.54606303],[-122.66951363,49.54619477],[-122.66971028,49.54632117],[-122.66993389,49.54642727],[-122.6701727,49.54651735],[-122.67041315,49.54660743],[-122.67055613,49.54676054],[-122.67064228,49.54693144],[-122.67077392,49.54709095],[-122.67090313,49.54724797],[-122.67105077,49.54739965],[-122.67124135,49.54752997],[-122.67142606,49.54766384],[-122.67159866,49.54780448],[-122.6717775,49.54794192],[-122.67195373,49.54808007],[-122.67212716,49.54824136],[-122.67223675,49.54840586],[-122.67234994,49.54855255],[-122.67252919,49.54868927],[-122.67267568,49.54884202],[-122.67276001,49.54901328],[-122.67279692,49.54919166],[-122.67281895,49.54937111],[-122.67285093,49.54954949],[-122.67293465,49.54972182],[-122.67311314,49.54986567],[-122.67334612,49.54997177],[-122.67364919,49.5499821],[-122.67392688,49.54999171],[-122.67419721,49.55003052],[-122.6744553,49.55009461],[-122.67471868,49.55014944],[-122.67498922,49.5501879],[-122.67521812,49.55028866],[-122.67538946,49.55042966],[-122.67555609,49.55057315],[-122.67572674,49.55071343],[-122.67585794,49.55085265],[-122.6760769,49.55099293],[-122.6762503,49.55113322],[-122.67648823,49.55121724],[-122.67673626,49.55124324],[-122.67701233,49.5512557],[-122.67730928,49.55129308],[-122.67752795,49.55135895],[-122.67781604,49.55144547],[-122.67803461,49.55154802],[-122.6782278,49.55169115],[-122.67839142,49.55183321],[-122.67858548,49.55196139],[-122.67870738,49.55212269],[-122.67886023,49.55227401],[-122.67909586,49.55237263],[-122.67933474,49.55246272],[-122.67957416,49.5525528],[-122.67980636,49.55265071],[-122.68003394,49.5527529],[-122.68026403,49.55285259],[-122.680511,49.55295158],[-122.68075295,49.55301994],[-122.68100558,49.55309364],[-122.6812527,49.55317411],[-122.68148491,49.55327202],[-122.68170056,49.55338454],[-122.68189729,49.55351093],[-122.68215318,49.55357894],[-122.68242078,49.55362451],[-122.68247618,49.55390615],[-122.68263688,49.55404857],[-122.68276469,49.55417746],[-122.68285262,49.55433199],[-122.68291567,49.55450895],[-122.68300376,49.55468626],[-122.68316064,49.55486999],[-122.68333768,49.55501169],[-122.68351982,49.55512812],[-122.68376566,49.55523779],[-122.68409407,49.55526627],[-122.68435791,49.55532039],[-122.68461523,49.55538591],[-122.68487012,49.55545569],[-122.68512263,49.55552868],[-122.68535973,49.5556152],[-122.685617,49.5556914],[-122.68579265,49.55582883],[-122.68594411,49.5559798],[-122.6861335,49.55611047],[-122.68635839,49.55621551],[-122.68661558,49.55628031],[-122.68688402,49.55632446],[-122.68715386,49.55636327],[-122.68741986,49.55642131],[-122.6876499,49.55651637],[-122.6875583,49.55667873],[-122.6874286,49.5566271],[-122.6871467,49.55667766],[-122.68693124,49.55684643],[-122.68682341,49.55700452],[-122.68676759,49.55718112],[-122.68680925,49.55737446],[-122.68677272,49.55755284],[-122.68670659,49.55772731],[-122.68663533,49.55790213],[-122.68664387,49.55807944],[-122.68682048,49.55821332],[-122.68700725,49.55831978],[-122.68716931,49.55850991],[-122.68714084,49.55870111],[-122.68710391,49.5588802],[-122.68705957,49.55905787],[-122.68701557,49.5592359],[-122.68700136,49.55941464],[-122.68703195,49.55959373],[-122.68709627,49.55976855],[-122.68721122,49.55993163],[-122.68735129,49.56008722],[-122.68749533,49.56024068],[-122.68763711,49.56039521],[-122.68774796,49.5605597],[-122.68781894,49.56073346],[-122.68786943,49.56091041],[-122.68790888,49.56108844],[-122.68794024,49.56126718],[-122.68796591,49.56144627],[-122.68799433,49.56162537],[-122.68804538,49.56180232],[-122.68815014,49.56196789],[-122.68830003,49.5621217],[-122.68835027,49.56230009],[-122.68836875,49.56248025],[-122.68837865,49.56266005],[-122.68838986,49.5628395],[-122.68839462,49.56301967],[-122.68840343,49.56319947],[-122.68842802,49.56337857],[-122.68847449,49.56355588],[-122.68853809,49.56373106],[-122.68861095,49.56390446],[-122.68869046,49.56407679],[-122.68877312,49.5642484],[-122.68885579,49.56442002],[-122.68891903,49.56459199],[-122.68901941,49.56476432],[-122.68905847,49.56494021],[-122.68903051,49.56512002],[-122.68897804,49.56529662],[-122.68890378,49.56547002],[-122.68882465,49.56564235],[-122.68874896,49.56581539],[-122.68867436,49.56598843],[-122.68859867,49.56616147],[-122.68853184,49.5663363],[-122.68848191,49.56651325],[-122.68845966,49.5666927],[-122.68848063,49.56687144],[-122.68855571,49.56704484],[-122.68866381,49.5672104],[-122.68878437,49.56737241],[-122.68891185,49.56753192],[-122.68901816,49.56769677],[-122.6891392,49.56785699],[-122.68924218,49.56802576],[-122.68940312,49.56818919],[-122.68950127,49.56832698],[-122.68982732,49.56840888],[-122.69007634,49.56848721],[-122.69033784,49.5685456],[-122.69060576,49.56859082],[-122.69087039,49.56864565],[-122.69109462,49.56874819],[-122.69130811,49.56886284],[-122.69152487,49.56897464],[-122.69174776,49.56908146],[-122.69197645,49.56918293],[-122.69220827,49.56928085],[-122.69244126,49.56937769],[-122.69267328,49.56947525],[-122.6929045,49.56957423],[-122.69314,49.56966859],[-122.69338272,49.56975511],[-122.69362959,49.56983629],[-122.8000002,49.56988507],[-122.80403268,49.56989005],[-122.80415896,49.56989005]]]},"geometry_name":"SHAPE","properties":{"id":272,"slug":"coquitlam-burke-mountain","name":"Coquitlam-Burke Mountain","abbreviation":"CQB","gazetteDate":"2023-12-07Z","boundarySet":11},"bbox":[-122.94080816,49.2692448,-122.52617422,49.56997016]}
