{"type":"Feature","id":274,"geometry":{"type":"Polygon","coordinates":[[[-125.34258831,49.91657715],[-125.34305462,49.91645894],[-125.34200525,49.91420727],[-125.35145275,49.91249003],[-125.35540988,49.91365396],[-125.35678525,49.91232696],[-125.35779189,49.90824802],[-125.35903192,49.9032227],[-125.35940705,49.90164004],[-125.35944546,49.90147697],[-125.35945499,49.90143852],[-125.35895796,49.90110703],[-125.35884734,49.90103298],[-125.3572973,49.90000007],[-125.35691798,49.89974727],[-125.35887933,49.89886675],[-125.36061529,49.89808735],[-125.36112548,49.89784738],[-125.36184191,49.89751019],[-125.36172853,49.89369438],[-125.36165364,49.89118065],[-125.35886311,49.88750014],[-125.36474388,49.88472898],[-125.36334671,49.88160106],[-125.36039921,49.88032141],[-125.35962948,49.87998708],[-125.36446903,49.87533312],[-125.36514576,49.87355926],[-125.36523767,49.87331822],[-125.36977817,49.87331537],[-125.39999939,49.87330825],[-125.40304275,49.87331074],[-125.40304715,49.87124101],[-125.40307015,49.85964438],[-125.40307368,49.85771137],[-125.40309308,49.84796658],[-125.40161915,49.847968],[-125.40144283,49.84796836],[-125.3999989,49.84796943],[-125.38715854,49.84798046],[-125.38309236,49.84798367],[-125.38308748,49.84525382],[-125.383086,49.84436618],[-125.38308261,49.84210489],[-125.38308227,49.84204792],[-125.3830796,49.84052366],[-125.38307744,49.83939747],[-125.38818504,49.83939355],[-125.38867105,49.83939319],[-125.38866999,49.83880713],[-125.38866837,49.83797326],[-125.38866754,49.83742921],[-125.38866436,49.8357757],[-125.39550642,49.83577001],[-125.39985017,49.83576609],[-125.39999922,49.83576609],[-125.40305142,49.83578567],[-125.40325661,49.8357871],[-125.40919291,49.83579529],[-125.40927627,49.83579528],[-125.41191558,49.83579849],[-125.42365109,49.83581309],[-125.42347833,49.82903065],[-125.42347195,49.82878212],[-125.42383293,49.82878212],[-125.4242986,49.82878248],[-125.4495268,49.82879565],[-125.4499667,49.82879565],[-125.47606529,49.82880349],[-125.48637677,49.82880491],[-125.48637398,49.83931201],[-125.49654359,49.83931237],[-125.49653705,49.83918882],[-125.49674673,49.83886909],[-125.49678582,49.83866293],[-125.49670802,49.83825774],[-125.49647976,49.83765993],[-125.49615675,49.8370137],[-125.49600507,49.83681146],[-125.49523374,49.83623857],[-125.4951241,49.83602636],[-125.49507845,49.83582626],[-125.49518155,49.83563221],[-125.49551912,49.83560658],[-125.49582843,49.8354403],[-125.49598876,49.83526299],[-125.49606507,49.83509244],[-125.49626683,49.83490088],[-125.49689502,49.83475027],[-125.49703912,49.83466945],[-125.49713851,49.83453949],[-125.49731273,49.83408801],[-125.49778174,49.83372164],[-125.49784028,49.83362443],[-125.49783171,49.83346457],[-125.4976346,49.83319503],[-125.49754872,49.83289987],[-125.49756712,49.83284931],[-125.49776691,49.83247937],[-125.49773817,49.83219239],[-125.49784032,49.83205533],[-125.4979563,49.83189972],[-125.49795773,49.83166223],[-125.49828731,49.83119829],[-125.49852013,49.83091915],[-125.49885209,49.83078883],[-125.49934248,49.83070979],[-125.49948216,49.83067917],[-125.49963255,49.83058481],[-125.4997918,49.83037581],[-125.50000237,49.83021594],[-125.50031494,49.83011305],[-125.50040533,49.83008385],[-125.50106218,49.82995069],[-125.50153975,49.82989479],[-125.50167826,49.82984138],[-125.50182547,49.82969219],[-125.50193312,49.82944331],[-125.50214527,49.82931086],[-125.50226731,49.82894733],[-125.50236801,49.82883553],[-125.50252696,49.82876788],[-125.50326612,49.82859199],[-125.50373671,49.82840364],[-125.50404129,49.82827831],[-125.50453387,49.82824947],[-125.50488259,49.82802266],[-125.50517607,49.82782434],[-125.50566438,49.82770898],[-125.50612115,49.82752063],[-125.50652859,49.82748004],[-125.50692502,49.8270923],[-125.50707717,49.827025],[-125.50714902,49.827051],[-125.50722815,49.82708553],[-125.50775259,49.82697836],[-125.50798775,49.82701432],[-125.50822582,49.82711437],[-125.50865163,49.82735506],[-125.50856734,49.80958378],[-125.50856459,49.80907035],[-125.50855268,49.80654024],[-125.50877741,49.80653989],[-125.51799983,49.80652102],[-125.51799699,49.80591395],[-125.51798233,49.80290388],[-125.52113905,49.80289712],[-125.52117474,49.801281],[-125.52473493,49.80130627],[-125.52580488,49.80068211],[-125.52697479,49.79999992],[-125.52736921,49.79976991],[-125.53475549,49.79875801],[-125.53520422,49.79869641],[-125.55096568,49.78685589],[-125.54837788,49.78333418],[-125.54632554,49.78054059],[-125.54601286,49.78011475],[-125.54522132,49.77903698],[-125.54317336,49.77624945],[-125.5406358,49.7727936],[-125.54379415,49.77058537],[-125.54479208,49.7698875],[-125.54537656,49.76947911],[-125.54759946,49.76792459],[-125.54760008,49.76779712],[-125.54764007,49.75645757],[-125.53448569,49.75646291],[-125.53437712,49.75646291],[-125.52966311,49.75646433],[-125.52938148,49.75646433],[-125.52716935,49.75535701],[-125.49518561,49.73925668],[-125.49408922,49.73870408],[-125.49275933,49.73803435],[-125.49219466,49.7367992],[-125.49204652,49.73647626],[-125.48741944,49.72635726],[-125.49678073,49.72055289],[-125.49792112,49.71984541],[-125.50066125,49.71880361],[-125.50970013,49.71536734],[-125.51641065,49.71281552],[-125.51671381,49.71270016],[-125.50041374,49.70000013],[-125.50024561,49.69986874],[-125.50017887,49.69981711],[-125.48103955,49.68489389],[-125.48080879,49.68471409],[-125.451641,49.66194774],[-125.44809834,49.6591805],[-125.42209168,49.63885383],[-125.42144299,49.63834646],[-125.40512128,49.62557735],[-125.39999964,49.6215682],[-125.38452016,49.60944925],[-125.38324382,49.6084491],[-125.38304362,49.60829243],[-125.38213846,49.60758353],[-125.37246104,49.59999998],[-125.37222966,49.59981875],[-125.37204954,49.59967775],[-125.37182054,49.5994983],[-125.36123981,49.59120335],[-125.28986282,49.53514504],[-125.2885068,49.53408401],[-125.2852449,49.53153218],[-125.27815015,49.52598025],[-125.27801358,49.52587344],[-125.27417479,49.52286836],[-125.27399182,49.52272522],[-125.27381194,49.52258565],[-125.25724634,49.50970617],[-125.25320109,49.50646538],[-125.25283999,49.50617591],[-125.2464702,49.50106976],[-125.24634915,49.50097256],[-125.24629699,49.50093055],[-125.24611758,49.50078955],[-125.24594293,49.50064677],[-125.24513615,49.50000018],[-125.2335029,49.49052812],[-125.23325446,49.49032624],[-125.2322715,49.49032339],[-125.22989449,49.49031663],[-125.22989248,49.49063209],[-125.22988951,49.49107466],[-125.22988742,49.49140188],[-125.22877803,49.4913944],[-125.22705002,49.49138229],[-125.22628485,49.49137695],[-125.22590409,49.49137446],[-125.21630282,49.49130716],[-125.21593576,49.49130467],[-125.21442462,49.49129399],[-125.21428577,49.49129328],[-125.21382481,49.49129007],[-125.21314003,49.49128509],[-125.21280149,49.4912826],[-125.21202536,49.49127726],[-125.2114038,49.49127298],[-125.21069291,49.49126764],[-125.21002275,49.49126301],[-125.20926417,49.49125767],[-125.2088339,49.49125447],[-125.20871807,49.49125376],[-125.20796058,49.49124842],[-125.20729152,49.49124379],[-125.20689725,49.49124094],[-125.2067428,49.49124806],[-125.20673814,49.49192385],[-125.2067366,49.49211612],[-125.20673497,49.4923212],[-125.20672997,49.4929977],[-125.20672783,49.49333631],[-125.20672047,49.4943151],[-125.2014272,49.49425848],[-125.20000006,49.49424317],[-125.19546523,49.49419439],[-125.19384022,49.49417695],[-125.19223422,49.49415986],[-125.19226916,49.49337369],[-125.19235118,49.49151439],[-125.19235974,49.49131927],[-125.18823487,49.49126586],[-125.18769958,49.4912591],[-125.18397172,49.49121067],[-125.18326122,49.49120142],[-125.18189413,49.49118362],[-125.18189727,49.49072894],[-125.18189859,49.49048896],[-125.17296359,49.49041419],[-125.17215863,49.49040742],[-125.16686828,49.49036291],[-125.16626355,49.49035793],[-125.16614707,49.49567059],[-125.17027295,49.4956891],[-125.1703116,49.49909617],[-125.17177004,49.49907801],[-125.17185257,49.50000018],[-125.17174706,49.50086147],[-125.17174945,49.50230954],[-125.17175185,49.50403791],[-125.17175478,49.50615562],[-125.17173824,49.50749544],[-125.17173214,49.50797932],[-125.17111399,49.50797967],[-125.168562,49.50798127],[-125.16407288,49.50798394],[-125.16062022,49.50798573],[-125.16061843,49.5062927],[-125.16038299,49.50629626],[-125.15206497,49.50642372],[-125.15205187,49.50551899],[-125.14925111,49.50550226],[-125.14924615,49.50459682],[-125.14367408,49.50459433],[-125.14368644,49.50370847],[-125.13955938,49.5037665],[-125.13958414,49.50199514],[-125.13377701,49.50194993],[-125.13380579,49.50641197],[-125.13382391,49.50919559],[-125.12827213,49.50917636],[-125.12829836,49.51093633],[-125.13266049,49.51096588],[-125.13340421,49.51097087],[-125.13551838,49.51098511],[-125.13799062,49.51100149],[-125.13827739,49.51100362],[-125.1384578,49.51100469],[-125.14099986,49.51102178],[-125.1421742,49.51102962],[-125.14215596,49.51170861],[-125.14201541,49.51692762],[-125.14201889,49.51721211],[-125.14208066,49.5219412],[-125.14768137,49.52192411],[-125.14873958,49.52475009],[-125.14939394,49.5264976],[-125.14991241,49.52914485],[-125.14590763,49.52913061],[-125.14561141,49.52912954],[-125.14528228,49.52912847],[-125.14232991,49.5291274],[-125.14237107,49.52550884],[-125.13780334,49.52550706],[-125.13685239,49.5255067],[-125.13685552,49.52523361],[-125.13687486,49.52355839],[-125.13688853,49.52233997],[-125.1368939,49.52188815],[-125.13154017,49.52188601],[-125.13137562,49.52188601],[-125.13137697,49.52176887],[-125.13141767,49.51826709],[-125.12589999,49.5182646],[-125.12592518,49.51610622],[-125.12594221,49.51464604],[-125.12462755,49.51463651],[-125.11529439,49.51456842],[-125.11397393,49.51455881],[-125.11376334,49.51455881],[-125.11376182,49.51818591],[-125.11625667,49.51818698],[-125.11625673,49.5190942],[-125.11999936,49.51909527],[-125.11999847,49.52181658],[-125.12249589,49.52181729],[-125.12249454,49.52544618],[-125.11943233,49.52544475],[-125.11943187,49.52663539],[-125.11943095,49.5290658],[-125.11664864,49.52906474],[-125.11664692,49.53267333],[-125.11544292,49.53267297],[-125.11544063,49.53629082],[-125.12099948,49.53629295],[-125.120998,49.5381017],[-125.12516748,49.53810348],[-125.12516572,49.53991223],[-125.12933554,49.53991365],[-125.12933479,49.54081802],[-125.13350414,49.54081945],[-125.13350342,49.54262819],[-125.13628285,49.54262891],[-125.13628341,49.54172453],[-125.14462337,49.54172631],[-125.14462259,49.54353506],[-125.14323211,49.54353506],[-125.1432309,49.54624853],[-125.14184109,49.54624818],[-125.14184078,49.54715255],[-125.14045039,49.54715219],[-125.14044964,49.5489613],[-125.13905975,49.54896094],[-125.13905852,49.55077004],[-125.14044865,49.55077004],[-125.14044818,49.55166445],[-125.14044749,49.55348352],[-125.15156932,49.5534853],[-125.1515689,49.55438967],[-125.1529595,49.55439003],[-125.15295885,49.5571035],[-125.15434916,49.5571035],[-125.15434892,49.55800787],[-125.16399217,49.55800823],[-125.16384791,49.55926794],[-125.16173134,49.55926794],[-125.1617313,49.56107669],[-125.16034088,49.56107669],[-125.16034072,49.56288579],[-125.15755941,49.56288544],[-125.15755978,49.56379017],[-125.15338792,49.56378981],[-125.15338788,49.56469418],[-125.15060647,49.56469383],[-125.1506062,49.56650293],[-125.15199678,49.56650293],[-125.15199624,49.5692164],[-125.14782391,49.56921605],[-125.14782305,49.57192917],[-125.13239731,49.57194768],[-125.13240638,49.57525683],[-125.12550973,49.57525398],[-125.1255091,49.57349045],[-125.11438292,49.57348511],[-125.11438333,49.5751112],[-125.11577416,49.57511014],[-125.1157748,49.57691746],[-125.11132453,49.57691497],[-125.11132476,49.57872193],[-125.10715218,49.57871944],[-125.10715218,49.5796231],[-125.10576159,49.57962239],[-125.10576181,49.58142935],[-125.10715282,49.58142829],[-125.10715291,49.58233195],[-125.10854449,49.58233088],[-125.10854453,49.5843708],[-125.10868434,49.58437007],[-125.10920755,49.58435994],[-125.1092852,49.58438067],[-125.10945525,49.58446755],[-125.10965296,49.58458149],[-125.10973836,49.58462421],[-125.10984888,49.58463133],[-125.11009714,49.58462706],[-125.11031775,49.58459573],[-125.11066212,49.58456297],[-125.11084239,49.58454161],[-125.1109252,49.58453021],[-125.11103444,49.58451027],[-125.11136433,49.58445046],[-125.11161006,49.58438352],[-125.11173327,49.58435361],[-125.11177486,49.58434012],[-125.11223553,49.58424041],[-125.11289447,49.58420097],[-125.11341435,49.58419599],[-125.11412024,49.5842699],[-125.11431459,49.58426379],[-125.11433108,49.58427101],[-125.11445553,49.5842767],[-125.11454276,49.58425397],[-125.11466036,49.5842463],[-125.11486143,49.58418325],[-125.11498605,49.58409751],[-125.11506361,49.58407586],[-125.11553418,49.58397906],[-125.11564191,49.58390841],[-125.11572479,49.58388505],[-125.11577661,49.58386781],[-125.11580115,49.58527192],[-125.11580158,49.58529747],[-125.115879,49.58984821],[-125.1170638,49.5898353],[-125.12005527,49.58980277],[-125.12009023,49.59160596],[-125.12287229,49.59158673],[-125.12289761,49.59339026],[-125.12567457,49.59335781],[-125.12570726,49.59516139],[-125.13130375,49.5951318],[-125.13140425,49.60442182],[-125.12200452,49.60448711],[-125.11087314,49.60445649],[-125.11085261,49.60806358],[-125.08862701,49.60799841],[-125.08862694,49.60811477],[-125.07546233,49.60559427],[-125.07212861,49.60559285],[-125.06798651,49.60559071],[-125.06769586,49.60559071],[-125.06749972,49.60559071],[-125.0675911,49.60866237],[-125.06493497,49.60869572],[-125.05820886,49.60877987],[-125.05785876,49.60918399],[-125.0577914,49.60926161],[-125.05750682,49.60958953],[-125.05665474,49.61057331],[-125.05665596,49.61412493],[-125.06224183,49.614126],[-125.06224293,49.61638657],[-125.06925767,49.61645351],[-125.06930415,49.62013687],[-125.06933039,49.6222504],[-125.06933505,49.62264597],[-125.06933712,49.62279409],[-125.06933744,49.62283361],[-125.06932433,49.62405558],[-125.06932081,49.6241891],[-125.06932207,49.6242564],[-125.06932143,49.62433687],[-125.06930893,49.62549439],[-125.07284683,49.62552857],[-125.07304194,49.62553071],[-125.07332463,49.62553356],[-125.07380264,49.62553391],[-125.07421723,49.62553997],[-125.07503088,49.62554281],[-125.07584431,49.62555136],[-125.07598281,49.6255535],[-125.0764676,49.6255535],[-125.07697582,49.62555813],[-125.07706028,49.62555848],[-125.07871908,49.62556703],[-125.07907981,49.62556988],[-125.08108766,49.62557415],[-125.08108971,49.6256685],[-125.08110177,49.62607761],[-125.08110425,49.62616163],[-125.08110755,49.62626204],[-125.08111251,49.62649561],[-125.08091247,49.63816665],[-125.08095612,49.63974895],[-125.08096985,49.64016268],[-125.08102838,49.64183933],[-125.08111291,49.64559355],[-125.08113235,49.64704339],[-125.09175486,49.64715626],[-125.09288647,49.64796664],[-125.09335046,49.64824756],[-125.09323672,49.64966892],[-125.09341154,49.65084069],[-125.09265001,49.65238779],[-125.09262168,49.65241677],[-125.09261272,49.65242593],[-125.09185438,49.65320167],[-125.09166533,49.65334552],[-125.09082211,49.65398677],[-125.0905986,49.65415661],[-125.08991911,49.65467324],[-125.08630165,49.65647273],[-125.08533832,49.65681808],[-125.08478934,49.65686829],[-125.08410412,49.65693097],[-125.08309975,49.65694894],[-125.08058054,49.65699397],[-125.0790497,49.65732903],[-125.07820661,49.65714353],[-125.07788864,49.65707374],[-125.07695288,49.65695126],[-125.07564938,49.65678071],[-125.07476201,49.65666464],[-125.07443403,49.65662156],[-125.06963779,49.6548537],[-125.0678776,49.65400422],[-125.06737547,49.65400742],[-125.05877958,49.65404837],[-125.05779365,49.65405228],[-125.05147124,49.6540384],[-125.04999551,49.65406937],[-125.04722558,49.65412278],[-125.04706163,49.65409857],[-125.03621433,49.65420467],[-125.03552023,49.65421215],[-125.03374182,49.65420752],[-125.03360286,49.65420717],[-125.03346776,49.65420681],[-125.03285381,49.65420503],[-125.02645408,49.65418224],[-125.02557107,49.6534737],[-125.02541738,49.65335478],[-125.02532739,49.65328463],[-125.02211486,49.65066907],[-125.02129362,49.64999969],[-125.02034889,49.64904476],[-125.01842437,49.64758067],[-125.01824518,49.64744431],[-125.01818355,49.64748134],[-125.01389789,49.64968352],[-125.01327662,49.65000005],[-125.01032882,49.65153998],[-125.01004046,49.65163326],[-125.01029644,49.65196119],[-125.01035919,49.65238667],[-125.01032938,49.65268575],[-125.01022837,49.65299801],[-125.01001705,49.65336475],[-125.00912081,49.65437936],[-125.00907918,49.65442649],[-125.00900899,49.65450598],[-125.00897731,49.65454185],[-125.00870659,49.65454375],[-125.00813673,49.65454648],[-125.0078619,49.65455147],[-125.0072396,49.65456678],[-125.00698088,49.65457568],[-125.0064522,49.65460025],[-125.00637509,49.65468178],[-125.00577608,49.65518107],[-125.00518537,49.65560289],[-125.00426976,49.65614338],[-125.00118671,49.65771642],[-125.00035137,49.65825477],[-125.00000684,49.65854139],[-124.99962933,49.65885543],[-124.99927145,49.65919831],[-124.99870203,49.65987872],[-124.9986176,49.65986341],[-124.99562075,49.65931587],[-124.99564495,49.65915867],[-124.99328307,49.65731515],[-124.99178431,49.65728239],[-124.98991851,49.65724236],[-124.98869807,49.65721616],[-124.9871722,49.65724073],[-124.98615752,49.65722685],[-124.98619879,49.65647142],[-124.98621745,49.65612977],[-124.98622923,49.65591578],[-124.98627373,49.65510353],[-124.98628362,49.65492303],[-124.98633452,49.65399781],[-124.98624652,49.65399781],[-124.98500596,49.65402807],[-124.98228459,49.65407471],[-124.9811221,49.65410818],[-124.98108987,49.65305177],[-124.98105773,49.65226953],[-124.98105573,49.65221114],[-124.98105353,49.65216215],[-124.98101024,49.65109171],[-124.98096569,49.65000432],[-124.9809656,49.64999079],[-124.98095736,49.64979354],[-124.9751816,49.64979976],[-124.97501687,49.64979817],[-124.97011982,49.64960732],[-124.96445183,49.64938907],[-124.96436099,49.64689171],[-124.96417639,49.64689456],[-124.9578993,49.6470085],[-124.95790468,49.64717834],[-124.95790713,49.64724527],[-124.95791374,49.64744858],[-124.96050131,49.64740585],[-124.96064558,49.64740336],[-124.96189438,49.64738022],[-124.9620093,49.64930753],[-124.96201883,49.64935987],[-124.96202137,49.6494941],[-124.96224959,49.652559],[-124.96179624,49.6523475],[-124.96078935,49.65188677],[-124.96090599,49.65177284],[-124.95999937,49.6513445],[-124.95954883,49.65112767],[-124.95877364,49.65075631],[-124.95786976,49.65033545],[-124.95779149,49.65046541],[-124.95777386,49.65049496],[-124.95762343,49.65074527],[-124.95809734,49.65105219],[-124.9588197,49.65148158],[-124.95902504,49.6516087],[-124.95946346,49.65188143],[-124.95990171,49.65215346],[-124.96070114,49.65265976],[-124.96127434,49.65301154],[-124.96175171,49.65330457],[-124.96224499,49.6535766],[-124.96231219,49.65361541],[-124.96238489,49.65365422],[-124.96238619,49.6537678],[-124.9623934,49.65439587],[-124.96218817,49.65527212],[-124.96344497,49.65604902],[-124.96394157,49.65635594],[-124.9642681,49.65655782],[-124.96417862,49.65659361],[-124.9628255,49.65724273],[-124.96267808,49.65728154],[-124.96191748,49.65763009],[-124.95912312,49.65891054],[-124.95895477,49.65898767],[-124.95894526,49.65897878],[-124.9586933,49.65898305],[-124.9584413,49.6589866],[-124.95818929,49.65898945],[-124.95793726,49.65899157],[-124.95768522,49.65899298],[-124.95743316,49.65899368],[-124.95718111,49.65899367],[-124.95692906,49.65899295],[-124.95667702,49.65899151],[-124.95642499,49.65898936],[-124.95617298,49.6589865],[-124.95592098,49.65898292],[-124.95566901,49.65897863],[-124.95541709,49.65897363],[-124.95516518,49.65896792],[-124.95491332,49.65896149],[-124.95466151,49.65895434],[-124.95440975,49.65894649],[-124.95415804,49.65893792],[-124.95390639,49.65892865],[-124.95365482,49.65891866],[-124.9534033,49.65890796],[-124.95315185,49.65889655],[-124.9529005,49.65888443],[-124.95264922,49.6588716],[-124.95239803,49.65885805],[-124.95214693,49.65884379],[-124.95189594,49.65882883],[-124.95164504,49.65881316],[-124.95139425,49.65879677],[-124.95114359,49.65877968],[-124.95089302,49.65876187],[-124.95064259,49.65874336],[-124.95039228,49.65872415],[-124.95014209,49.65870421],[-124.94989205,49.65868358],[-124.94964215,49.65866223],[-124.94939241,49.65864019],[-124.9491428,49.65861743],[-124.94889335,49.65859397],[-124.94864406,49.6585698],[-124.94839493,49.65854492],[-124.94814597,49.65851935],[-124.94789719,49.65849307],[-124.94764858,49.65846608],[-124.94740017,49.6584384],[-124.94715193,49.65841001],[-124.94690388,49.65838091],[-124.94665605,49.65835112],[-124.94640841,49.65832063],[-124.94616097,49.65828943],[-124.94591375,49.65825753],[-124.94566674,49.65822495],[-124.94541996,49.65819165],[-124.9451734,49.65815766],[-124.94492708,49.65812297],[-124.94468098,49.65808759],[-124.94443512,49.65805151],[-124.94418951,49.65801473],[-124.94394415,49.65797727],[-124.94369905,49.6579391],[-124.9434542,49.65790025],[-124.94320961,49.6578607],[-124.94296529,49.65782046],[-124.94272124,49.65777953],[-124.94247748,49.65773791],[-124.94223398,49.65769559],[-124.94199079,49.6576526],[-124.94174788,49.65760891],[-124.94150526,49.65756454],[-124.94126294,49.65751948],[-124.94102093,49.65747373],[-124.94077923,49.65742731],[-124.94053784,49.65738019],[-124.94041137,49.65735512],[-124.94029677,49.6573324],[-124.94005602,49.65728393],[-124.9398156,49.65723477],[-124.93957552,49.65718494],[-124.93933576,49.65713442],[-124.93909635,49.65708322],[-124.93885729,49.65703136],[-124.93864369,49.65698435],[-124.93861857,49.65697882],[-124.93838021,49.6569256],[-124.9381422,49.65687171],[-124.93790456,49.65681713],[-124.9376673,49.6567619],[-124.93743041,49.65670599],[-124.93719388,49.65664941],[-124.93695775,49.65659216],[-124.936722,49.65653425],[-124.93648663,49.65647567],[-124.93625168,49.65641642],[-124.9360171,49.65635651],[-124.93578294,49.65629593],[-124.93554918,49.6562347],[-124.93531584,49.6561728],[-124.93508292,49.65611025],[-124.93485042,49.65604704],[-124.93461834,49.65598316],[-124.9343867,49.65591863],[-124.93415549,49.65585345],[-124.93392471,49.65578762],[-124.93369439,49.65572113],[-124.93346452,49.65565399],[-124.93323509,49.6555862],[-124.93300611,49.65551777],[-124.93277761,49.65544868],[-124.93254956,49.65537895],[-124.93232199,49.65530857],[-124.9320949,49.65523756],[-124.93186827,49.6551659],[-124.93164213,49.6550936],[-124.93141648,49.65502066],[-124.93119132,49.65494708],[-124.93096665,49.65487288],[-124.93074249,49.65479803],[-124.93051883,49.65472254],[-124.93029568,49.65464643],[-124.93007304,49.65456969],[-124.92985092,49.65449231],[-124.92962932,49.65441432],[-124.92940824,49.65433569],[-124.92918768,49.65425644],[-124.92896767,49.65417656],[-124.9287482,49.65409607],[-124.92852926,49.65401495],[-124.92831087,49.65393321],[-124.92809303,49.65385086],[-124.92787575,49.65376789],[-124.92765902,49.65368431],[-124.92744286,49.65360011],[-124.92722726,49.65351531],[-124.92701223,49.6534299],[-124.92679778,49.65334387],[-124.92658392,49.65325725],[-124.92637062,49.65317001],[-124.92615792,49.65308219],[-124.92594581,49.65299374],[-124.92573429,49.65290471],[-124.92552338,49.65281508],[-124.92531306,49.65272485],[-124.92510334,49.65263403],[-124.92489425,49.65254262],[-124.92128788,49.65254698],[-124.91677677,49.65255227],[-124.89718958,49.65257307],[-124.89182877,49.65257569],[-124.8847001,49.65258449],[-124.83964732,49.65261379],[-124.79125858,49.65262451],[-124.78868282,49.65262448],[-124.72522508,49.65260433],[-124.65519445,49.65253919],[-124.67633341,49.66872912],[-124.68046768,49.67189407],[-124.7021742,49.69027883],[-124.71038522,49.69722897],[-124.71365995,49.70000012],[-124.71656651,49.70245902],[-124.72460131,49.70967798],[-124.73242188,49.71699557],[-124.73699376,49.72151896],[-124.74002514,49.72440929],[-124.74383498,49.72828386],[-124.74616962,49.73065726],[-124.74740821,49.7319163],[-124.754568,49.7395141],[-124.76150162,49.74719878],[-124.76717499,49.75377257],[-124.76721653,49.75382064],[-124.76773202,49.75441774],[-124.76820672,49.75496749],[-124.77028411,49.75748727],[-124.7713547,49.75878566],[-124.77204652,49.75962465],[-124.77442861,49.7625133],[-124.77449551,49.76259413],[-124.77468071,49.7628188],[-124.77475414,49.76291244],[-124.77481774,49.76299326],[-124.77546864,49.76382037],[-124.78092124,49.77074879],[-124.78197887,49.77215876],[-124.7823411,49.77264228],[-124.78692719,49.77875641],[-124.78930051,49.78208158],[-124.78999485,49.78305439],[-124.79051681,49.78378565],[-124.7926949,49.78683702],[-124.79691871,49.7930761],[-124.79739172,49.79376748],[-124.79822276,49.79498505],[-124.79999977,49.79786218],[-124.80132289,49.79999992],[-124.80162065,49.80048114],[-124.80855256,49.81168057],[-124.81497107,49.82414276],[-124.82373983,49.84267991],[-124.82576074,49.84651032],[-124.82854228,49.85178239],[-124.83089821,49.85624622],[-124.83613793,49.86434926],[-124.84192098,49.87212199],[-124.85459752,49.87213637],[-124.87917522,49.87216006],[-124.96289168,49.87219936],[-125.02046177,49.87218925],[-125.07977419,49.87214229],[-125.10375898,49.87242697],[-125.11395515,49.8725464],[-125.11605361,49.87257086],[-125.11740226,49.87235723],[-125.11824921,49.87217066],[-125.11922094,49.87187762],[-125.11934961,49.87183882],[-125.12039785,49.8713845],[-125.12182517,49.87072082],[-125.12301142,49.87001868],[-125.12383817,49.86946181],[-125.12498142,49.8688608],[-125.12555485,49.86867102],[-125.12581169,49.86858592],[-125.12628561,49.86849762],[-125.12710524,49.86862296],[-125.12780378,49.86868277],[-125.12859171,49.86864574],[-125.12949794,49.86855032],[-125.1299769,49.86843923],[-125.1304894,49.86825729],[-125.13057707,49.86822524],[-125.13102027,49.86806751],[-125.13141055,49.86789661],[-125.13178066,49.86782112],[-125.13214306,49.8678254],[-125.13238269,49.86787952],[-125.13269448,49.86800414],[-125.13293259,49.86812163],[-125.13360406,49.86852326],[-125.13433952,49.86890352],[-125.13511964,49.86937351],[-125.13608759,49.86969254],[-125.13710994,49.86984065],[-125.13769996,49.86984493],[-125.13823389,49.86982926],[-125.13908859,49.86973954],[-125.1397846,49.8695843],[-125.1406339,49.8693023],[-125.14114124,49.86912713],[-125.14173458,49.86891777],[-125.14265253,49.86852326],[-125.14285273,49.86849584],[-125.14303431,49.86857168],[-125.14331631,49.86884512],[-125.14367088,49.8694732],[-125.14397665,49.86978226],[-125.14423808,49.86991471],[-125.14473223,49.87004147],[-125.14531319,49.87000301],[-125.14619925,49.8697139],[-125.14698683,49.86946609],[-125.14752673,49.86904167],[-125.147826,49.86866429],[-125.14782602,49.86866426],[-125.14789438,49.86824483],[-125.14826181,49.86790373],[-125.14878068,49.86739956],[-125.14917165,49.86716029],[-125.14966844,49.86687403],[-125.15011784,49.86675582],[-125.15039035,49.86675439],[-125.15081021,49.86690536],[-125.15106115,49.86700648],[-125.15150295,49.86712753],[-125.15208343,49.86714605],[-125.1526453,49.86698511],[-125.1532105,49.86658242],[-125.15352165,49.86618827],[-125.15389088,49.8655253],[-125.15439223,49.86534229],[-125.15506953,49.86528358],[-125.15508643,49.86528212],[-125.15608201,49.86532164],[-125.15706991,49.86536864],[-125.15792877,49.865249],[-125.15908036,49.86505389],[-125.15978259,49.86498125],[-125.16081426,49.86495134],[-125.16145106,49.86504107],[-125.16174551,49.86515216],[-125.16224949,49.86546691],[-125.16250828,49.86579447],[-125.1625083,49.8657945],[-125.16267446,49.8662901],[-125.16264913,49.86691818],[-125.16239329,49.8674138],[-125.16200231,49.86811309],[-125.16203104,49.86865286],[-125.16231301,49.86930231],[-125.1627438,49.86981644],[-125.16339209,49.87023374],[-125.16395668,49.87043455],[-125.16486485,49.87055988],[-125.16522627,49.87051858],[-125.16580636,49.87058979],[-125.16652802,49.87068663],[-125.16790257,49.87096293],[-125.16892105,49.87118368],[-125.16958625,49.87145144],[-125.17025792,49.87185021],[-125.17049282,49.87205957],[-125.17103717,49.87282295],[-125.17171391,49.8735436],[-125.17201666,49.87404492],[-125.17254195,49.87443088],[-125.17341426,49.87482539],[-125.1740992,49.87505041],[-125.17497838,49.87523271],[-125.17565948,49.87530535],[-125.17647638,49.87529822],[-125.17747251,49.87545061],[-125.17862444,49.8756614],[-125.17981104,49.87575682],[-125.18006948,49.87585651],[-125.18023823,49.87598469],[-125.18047432,49.87628378],[-125.18070728,49.87667116],[-125.1807073,49.8766712],[-125.18093318,49.87734481],[-125.1810996,49.8780441],[-125.1813171,49.87866079],[-125.18162873,49.87915844],[-125.1816676,49.8792205],[-125.18223952,49.87961073],[-125.18295254,49.87982436],[-125.18326196,49.87982436],[-125.18349178,49.8797033],[-125.18376648,49.87933871],[-125.18417658,49.87871775],[-125.18435843,49.87858245],[-125.18462715,49.87855397],[-125.18477627,49.87860381],[-125.18510817,49.8788972],[-125.18520019,49.87900259],[-125.18555643,49.87952955],[-125.1860086,49.87981902],[-125.18702071,49.88028438],[-125.18723905,49.88044104],[-125.18742434,49.88072731],[-125.18749673,49.88098367],[-125.18747422,49.88126246],[-125.18743527,49.88173138],[-125.18749069,49.88243636],[-125.1874907,49.88243639],[-125.18758016,49.88271123],[-125.18766916,49.88280096],[-125.18782514,49.88288071],[-125.18814751,49.88294196],[-125.18883251,49.88291205],[-125.18949531,49.88275681],[-125.19040817,49.8826443],[-125.19129512,49.88263005],[-125.19203649,49.88265854],[-125.19289689,49.88274826],[-125.19352625,49.88288356],[-125.19401099,49.88298611],[-125.19503938,49.88329552],[-125.19517965,49.88333789],[-125.19581197,49.88347176],[-125.19643806,49.88377369],[-125.19669353,49.88407421],[-125.19666198,49.88441744],[-125.19622444,49.88497573],[-125.19612994,49.88538163],[-125.19627889,49.88572201],[-125.19665156,49.88602252],[-125.19742627,49.88649678],[-125.19769953,49.88669759],[-125.19796126,49.88682578],[-125.19838647,49.88694114],[-125.19910921,49.88692832],[-125.19982833,49.88681865],[-125.20025738,49.8867446],[-125.20055301,49.88676738],[-125.2016327,49.88669617],[-125.2019656,49.88667623],[-125.20235842,49.88679444],[-125.20276937,49.88708071],[-125.20296959,49.8873684],[-125.20300703,49.88776718],[-125.20314768,49.88806769],[-125.20359923,49.88836107],[-125.20402115,49.88852628],[-125.20449612,49.88858752],[-125.20483566,49.88856758],[-125.20517336,49.88839098],[-125.20535522,49.88806056],[-125.205568,49.88772588],[-125.2060775,49.88735985],[-125.20647324,49.88716046],[-125.20682171,49.88704938],[-125.20731283,49.88700095],[-125.20781424,49.88705365],[-125.20919633,49.88723025],[-125.21011465,49.88726301],[-125.2108473,49.88729576],[-125.21136726,49.88736413],[-125.21160954,49.88734419],[-125.2118906,49.88728722],[-125.21231327,49.88714765],[-125.21257043,49.88704653],[-125.21307187,49.88679587],[-125.2132469,49.88664775],[-125.21327978,49.8866093],[-125.21336876,49.88627888],[-125.21328935,49.88589292],[-125.21304924,49.88528905],[-125.21311992,49.88486891],[-125.21342147,49.8844858],[-125.21364556,49.88429353],[-125.21364561,49.8842935],[-125.21412337,49.88403717],[-125.21448659,49.88393178],[-125.2150749,49.88387909],[-125.21527974,49.88388051],[-125.21543831,49.8839033],[-125.21592811,49.88408702],[-125.21630333,49.88442171],[-125.21648496,49.88478061],[-125.21664542,49.88526769],[-125.21687598,49.88586871],[-125.21702236,49.88624043],[-125.21729068,49.88655945],[-125.217531,49.88677735],[-125.21811659,49.88725446],[-125.21858142,49.8875393],[-125.2194355,49.88794948],[-125.21983305,49.88810187],[-125.22082022,49.88827277],[-125.22145544,49.88837959],[-125.22186382,49.88830268],[-125.22224291,49.88815314],[-125.22282219,49.88797084],[-125.22342164,49.88782699],[-125.22412039,49.88783305],[-125.22486133,49.88791245],[-125.22521627,49.88807908],[-125.22548666,49.88836819],[-125.22552473,49.88872709],[-125.22550205,49.8888453],[-125.22543323,49.88900197],[-125.22528014,49.88921987],[-125.22501453,49.88946768],[-125.22463289,49.88976641],[-125.22447241,49.89008009],[-125.2246477,49.89074662],[-125.22473549,49.89095171],[-125.22506556,49.89133197],[-125.22550068,49.89166666],[-125.22613418,49.89201987],[-125.22676911,49.89236595],[-125.22701886,49.89264367],[-125.22712456,49.89296981],[-125.2271116,49.89319911],[-125.22693755,49.89356229],[-125.22637498,49.89409352],[-125.22602611,49.8943399],[-125.22540918,49.89460908],[-125.22496702,49.89479992],[-125.22434203,49.89517164],[-125.22400553,49.89549351],[-125.22403076,49.89579972],[-125.22437658,49.89610592],[-125.2247909,49.89631243],[-125.2257546,49.89665567],[-125.22627943,49.89676248],[-125.22684508,49.89681091],[-125.22743764,49.89681518],[-125.2278693,49.89678812],[-125.22850236,49.89669555],[-125.22906075,49.89657164],[-125.22995221,49.89625831],[-125.23073577,49.89600053],[-125.23101348,49.89598487],[-125.23117059,49.89600196],[-125.23151158,49.89606605],[-125.23177184,49.89608029],[-125.23207261,49.89590653],[-125.23232175,49.89563451],[-125.2324424,49.89551488],[-125.23306788,49.89512037],[-125.23370491,49.8948811],[-125.23423791,49.89481132],[-125.23476637,49.89481986],[-125.23546384,49.89504346],[-125.23578695,49.89526849],[-125.23614847,49.89568721],[-125.23630434,49.89582393],[-125.23657993,49.89591223],[-125.23693109,49.89586523],[-125.23705725,49.89579117],[-125.23723098,49.89558466],[-125.23726439,49.89543227],[-125.2372537,49.89501925],[-125.23717253,49.89482271],[-125.23684386,49.89445669],[-125.23628657,49.89397531],[-125.23618388,49.89366483],[-125.23619702,49.89355659],[-125.23634759,49.89330878],[-125.236555,49.89316635],[-125.2368008,49.89303106],[-125.23693805,49.89296127],[-125.23714234,49.89289006],[-125.23737435,49.89278182],[-125.23754711,49.89272912],[-125.23797509,49.89270918],[-125.23823617,49.89273482],[-125.23848956,49.89281458],[-125.23904499,49.89306524],[-125.23916275,49.89313787],[-125.23947991,49.8933572],[-125.24020219,49.89382719],[-125.24094115,49.894169],[-125.2422732,49.89440114],[-125.24324017,49.89450369],[-125.24380107,49.89460481],[-125.24420058,49.89470593],[-125.24513199,49.89496513],[-125.24546301,49.89507052],[-125.24608392,49.89529697],[-125.24641483,49.89538955],[-125.24707203,49.89545791],[-125.24732907,49.89543939],[-125.24764611,49.89536818],[-125.24817186,49.89522576],[-125.24854231,49.89519729],[-125.24870489,49.8952303],[-125.24896308,49.89528273],[-125.24941145,49.89549636],[-125.2496754,49.89559891],[-125.24993421,49.895616],[-125.25017502,49.89559463],[-125.25046556,49.89552769],[-125.25100241,49.89521579],[-125.25128962,49.89510328],[-125.25170194,49.89505771],[-125.25208177,49.89509331],[-125.25255433,49.89520297],[-125.25318564,49.89543512],[-125.25397881,49.89572281],[-125.25454953,49.89593502],[-125.255083,49.89618568],[-125.25603242,49.89673115],[-125.25663558,49.89694051],[-125.257353,49.89698181],[-125.25778722,49.8969106],[-125.25834853,49.89670694],[-125.25867851,49.8965147],[-125.25867854,49.89651467],[-125.25911566,49.89618141],[-125.25955347,49.89575557],[-125.25992259,49.89522576],[-125.26021551,49.8947458],[-125.26047036,49.89448786],[-125.2607854,49.894169],[-125.26136786,49.894028],[-125.26159025,49.89409494],[-125.26197436,49.89437408],[-125.26237814,49.89479707],[-125.26248173,49.89493237],[-125.26268955,49.89536249],[-125.26307792,49.8959635],[-125.26363438,49.89613869],[-125.26407062,49.89613299],[-125.26460936,49.89596493],[-125.26497155,49.89574845],[-125.26526745,49.89553624],[-125.26538073,49.8953842],[-125.26567724,49.89494377],[-125.26585406,49.89459626],[-125.26595749,49.89428436],[-125.26606635,49.89383146],[-125.26612705,49.89334723],[-125.26619946,49.89293991],[-125.2663151,49.89233034],[-125.26634972,49.89189739],[-125.26648341,49.89150003],[-125.26658625,49.89111549],[-125.26669692,49.89097948],[-125.26686039,49.89087872],[-125.26710121,49.89081819],[-125.26729404,49.89076941],[-125.26740485,49.89075802],[-125.26755524,49.89070141],[-125.26785799,49.89062343],[-125.2681587,49.89050059],[-125.26828217,49.89046214],[-125.26854381,49.89040303],[-125.26879075,49.89032613],[-125.26901299,49.89031295],[-125.2691245,49.89031972],[-125.26937562,49.89032363],[-125.26958387,49.89031082],[-125.26992761,49.89022287],[-125.27023365,49.89020792],[-125.27035898,49.89021468],[-125.27062106,49.89016448],[-125.27096491,49.89006763],[-125.271185,49.8900185],[-125.27151645,49.88995797],[-125.27164151,49.88995547],[-125.27175383,49.8899715],[-125.27207741,49.89004591],[-125.27219151,49.89009754],[-125.27232352,49.89023889],[-125.27249564,49.89035247],[-125.27274157,49.89054581],[-125.27292698,49.89064088],[-125.27305375,49.89066544],[-125.27336054,49.8906512],[-125.27338604,49.89065011],[-125.27343997,49.89064779],[-125.27352462,49.89064372],[-125.27361853,49.89063945],[-125.27373455,49.89063411],[-125.27393993,49.89056717],[-125.27428332,49.89046143],[-125.27461596,49.89041051],[-125.27483698,49.89040624],[-125.27497678,49.89040303],[-125.27525479,49.89040624],[-125.27546359,49.89039342],[-125.27573218,49.89047816],[-125.27597135,49.8905273],[-125.27606942,49.89053442],[-125.27633252,49.89053869],[-125.27654094,49.89052445],[-125.27680155,49.89041193],[-125.27682702,49.89037491],[-125.2768321,49.89019545],[-125.27679696,49.89005161],[-125.27683782,49.89000603],[-125.27697626,49.88999464],[-125.27705928,49.88996616],[-125.27732974,49.88979952],[-125.27747704,49.88970553],[-125.27778851,49.88951041],[-125.27799329,49.88941641],[-125.27832144,49.88927541],[-125.27858162,49.88919851],[-125.27878647,49.88911305],[-125.27894906,49.88902048],[-125.27928049,49.88895995],[-125.27952696,49.88887414],[-125.27986669,49.88868757],[-125.28001442,49.88855904],[-125.28008033,49.88851204],[-125.28039172,49.88830838],[-125.28047246,49.88827135],[-125.28066745,49.88824002],[-125.28079269,49.88823717],[-125.28102167,49.88838671],[-125.28109329,49.88840237],[-125.28120298,49.88839098],[-125.28148627,49.88819693],[-125.28153467,49.88804312],[-125.28162792,49.88794235],[-125.28184424,49.8878213],[-125.28206412,49.88777145],[-125.28225733,49.88770451],[-125.28251393,49.88755639],[-125.28282554,49.88737837],[-125.28290257,49.88733885],[-125.28358524,49.88826743],[-125.28367547,49.88838991],[-125.28415927,49.8890479],[-125.28500123,49.88899627],[-125.28507487,49.88899164],[-125.28524187,49.88898167],[-125.28553737,49.88896351],[-125.28802255,49.88881148],[-125.2880614,49.88880899],[-125.28813143,49.88885385],[-125.28965653,49.8898248],[-125.29507526,49.89073594],[-125.29429051,49.89134906],[-125.29311264,49.8922691],[-125.29399032,49.89346188],[-125.29403335,49.89361427],[-125.29416623,49.89408141],[-125.29422257,49.89427831],[-125.295086,49.89731152],[-125.2980536,49.90000007],[-125.29974357,49.90155815],[-125.29996276,49.9017611],[-125.30161079,49.90185439],[-125.30358939,49.90196619],[-125.30407748,49.90556979],[-125.30173908,49.90597463],[-125.29790809,49.90663724],[-125.29650309,49.90688042],[-125.29805332,49.91061719],[-125.30031978,49.91608082],[-125.30151203,49.91895309],[-125.31127038,49.91949322],[-125.3115723,49.9195096],[-125.31187589,49.91952705],[-125.31195391,49.91953132],[-125.31664753,49.91979017],[-125.32019581,49.919986],[-125.32275629,49.92166692],[-125.33353115,49.92050049],[-125.33356224,49.92042821],[-125.33455471,49.91811387],[-125.33547448,49.9159683],[-125.3390692,49.91707385],[-125.33977403,49.91729033],[-125.34202421,49.91672029],[-125.34258831,49.91657715]]]},"geometry_name":"SHAPE","properties":{"id":274,"slug":"courtenay-comox","name":"Courtenay-Comox","abbreviation":"CRC","gazetteDate":"2023-12-07Z","boundarySet":11},"bbox":[-125.55096568,49.49031663,-124.65519445,49.92166692]}
