{"type":"Feature","id":281,"geometry":{"type":"Polygon","coordinates":[[[-120.52115821,50.73130254],[-120.52172966,50.7311886],[-120.52203525,50.73112415],[-120.52305532,50.73092441],[-120.52295218,50.7294354],[-120.52418996,50.72942151],[-120.52502451,50.72941225],[-120.5281305,50.729377],[-120.53891288,50.72925452],[-120.53890004,50.72871546],[-120.53889179,50.72837187],[-120.53885642,50.72691918],[-120.53884894,50.72660692],[-120.53887251,50.72659837],[-120.53889573,50.72658947],[-120.53900454,50.72654781],[-120.53911173,50.72650509],[-120.54101358,50.72575026],[-120.54113276,50.72570432],[-120.54121885,50.72567264],[-120.5413062,50.72564166],[-120.54139405,50.72561175],[-120.5414824,50.72558291],[-120.54158249,50.72555229],[-120.5416512,50.72553199],[-120.54172041,50.72551277],[-120.54179033,50.72549425],[-120.54186096,50.72547645],[-120.54193152,50.72545972],[-120.542003,50.72544334],[-120.54207441,50.72542803],[-120.54214709,50.72541343],[-120.54221936,50.72539954],[-120.54229212,50.72538673],[-120.5423658,50.72537426],[-120.54243921,50.72536323],[-120.54243882,50.72470809],[-120.54243858,50.72428474],[-120.54197743,50.72430575],[-120.54168397,50.72441577],[-120.5414238,50.72460519],[-120.54117571,50.7248555],[-120.54116804,50.72516099],[-120.54094598,50.72526531],[-120.53983448,50.72577838],[-120.53902627,50.72608032],[-120.53883079,50.72585458],[-120.53923219,50.7139254],[-120.53763562,50.71374559],[-120.53519328,50.7133753],[-120.53103029,50.71292561],[-120.52985802,50.71295124],[-120.52865729,50.71276681],[-120.52436276,50.71218324],[-120.52219371,50.71187739],[-120.52098333,50.71157261],[-120.51949819,50.7110072],[-120.51920208,50.71087474],[-120.5192021,50.70469012],[-120.51920155,50.70436575],[-120.51920151,50.70421657],[-120.51919832,50.7006596],[-120.51919841,50.70046911],[-120.51919802,50.70031672],[-120.5191982,50.69999984],[-120.51919806,50.69996851],[-120.51919688,50.6988448],[-120.51919683,50.69875116],[-120.51919124,50.69268973],[-120.5077658,50.69250707],[-120.4981708,50.6923497],[-120.49775099,50.69234293],[-120.49632126,50.69231979],[-120.48475078,50.6923084],[-120.48239163,50.6923059],[-120.48238294,50.68966577],[-120.47331606,50.68662544],[-120.4733182,50.68512397],[-120.47329153,50.6778605],[-120.47330716,50.67196499],[-120.47330783,50.67180085],[-120.47330923,50.67118844],[-120.47330963,50.67102287],[-120.47331101,50.67057923],[-120.47331136,50.67032893],[-120.4733119,50.67016408],[-120.4733144,50.66911337],[-120.47331506,50.66903218],[-120.47331527,50.66887267],[-120.47331545,50.66872847],[-120.47331579,50.66869358],[-120.47331699,50.66821504],[-120.47331763,50.66802527],[-120.47331779,50.66790492],[-120.47332931,50.66328799],[-120.4731992,50.65818683],[-120.47318947,50.65781476],[-120.47318667,50.65770331],[-120.47318508,50.65763459],[-120.47318409,50.65759436],[-120.47317611,50.65729171],[-120.47315343,50.65640835],[-120.47315219,50.65634568],[-120.47314639,50.65611126],[-120.47314185,50.65592803],[-120.47310769,50.65453765],[-120.47306353,50.65272926],[-120.47297339,50.64906762],[-120.4729786,50.6436428],[-120.47297926,50.64179489],[-120.47296497,50.63451683],[-120.47297719,50.6272409],[-120.47297809,50.62373699],[-120.47297849,50.62316517],[-120.47297889,50.62297539],[-120.4729789,50.62242992],[-120.47297949,50.62129625],[-120.4729795,50.62101212],[-120.47297975,50.62077036],[-120.47297969,50.61996568],[-120.47220482,50.61993791],[-120.47209153,50.61993399],[-120.47184762,50.61992509],[-120.47176513,50.61992224],[-120.47168228,50.61991904],[-120.4703479,50.61987133],[-120.47005545,50.619861],[-120.46151645,50.61955515],[-120.4500527,50.61914391],[-120.44300549,50.61912575],[-120.44278797,50.6191254],[-120.44257234,50.61912468],[-120.44251229,50.61912468],[-120.44235369,50.61912433],[-120.44213693,50.61912362],[-120.4413383,50.61912184],[-120.43843302,50.61911436],[-120.42681229,50.61908374],[-120.42154136,50.61908908],[-120.41536278,50.61909478],[-120.41496189,50.61909513],[-120.40864582,50.61910083],[-120.40418964,50.61910439],[-120.40391333,50.61910474],[-120.4000008,50.61910759],[-120.39235642,50.61911329],[-120.38079901,50.61912077],[-120.36972715,50.61912896],[-120.36923815,50.61912931],[-120.3576771,50.61912824],[-120.35709895,50.61912883],[-120.3569783,50.61912896],[-120.34613301,50.61913643],[-120.33458892,50.6191432],[-120.33458302,50.61550826],[-120.32817756,50.61551787],[-120.32806533,50.61551787],[-120.32806111,50.61566955],[-120.32804993,50.61605124],[-120.32814473,50.61633573],[-120.32919116,50.6180786],[-120.32939707,50.61863725],[-120.32967741,50.61913843],[-120.33014953,50.61998241],[-120.33092244,50.62135286],[-120.33186387,50.62254172],[-120.33249446,50.62333821],[-120.33226504,50.62408877],[-120.33266957,50.62419772],[-120.33279211,50.62425727],[-120.33300368,50.62436008],[-120.3331317,50.62448007],[-120.33340418,50.62477559],[-120.33345952,50.62483588],[-120.33352348,50.62490555],[-120.33361629,50.62519834],[-120.3336333,50.62525199],[-120.33402821,50.6270346],[-120.33405972,50.62717681],[-120.33415518,50.62735009],[-120.3344118,50.62781592],[-120.33495726,50.62836282],[-120.33655789,50.62950681],[-120.33705974,50.62984827],[-120.33813682,50.63058067],[-120.33880747,50.6310365],[-120.33930449,50.63137431],[-120.33941668,50.63145073],[-120.3394264,50.63145733],[-120.33978188,50.63169939],[-120.34000263,50.63184918],[-120.34002482,50.63186424],[-120.34086893,50.63235844],[-120.34414454,50.63414741],[-120.34514803,50.63477153],[-120.34567756,50.63514816],[-120.34581287,50.6352479],[-120.34622544,50.63560233],[-120.34675654,50.6361625],[-120.34679706,50.6362124],[-120.34683343,50.63625721],[-120.34711309,50.63660814],[-120.34744346,50.6371068],[-120.34757503,50.63734548],[-120.34792572,50.63802179],[-120.34833265,50.6387524],[-120.34863334,50.63931638],[-120.3489512,50.63977727],[-120.34965418,50.64053529],[-120.35184092,50.64247006],[-120.35251255,50.64307262],[-120.35314119,50.64364457],[-120.35422822,50.6445902],[-120.35535333,50.64562007],[-120.35577906,50.64601126],[-120.35582369,50.64605138],[-120.35573674,50.64607037],[-120.35514885,50.64614001],[-120.35409604,50.64627362],[-120.35298652,50.64635842],[-120.3510558,50.64650779],[-120.35016894,50.64660658],[-120.34937863,50.64670164],[-120.34844878,50.64685115],[-120.34788081,50.64694332],[-120.3472033,50.64705501],[-120.3468389,50.64711396],[-120.34490472,50.64742456],[-120.34317598,50.64770821],[-120.34244534,50.647825],[-120.34227531,50.64785312],[-120.34210429,50.64788018],[-120.34022868,50.64817784],[-120.34018732,50.64818603],[-120.33982904,50.64825618],[-120.3396978,50.64828184],[-120.33955592,50.64830958],[-120.33912058,50.64847657],[-120.33901564,50.64852901],[-120.3388812,50.6485962],[-120.33883764,50.64862697],[-120.33875466,50.64868557],[-120.3385973,50.64879754],[-120.33849145,50.64887286],[-120.33836913,50.64900816],[-120.33823402,50.64915692],[-120.33820259,50.64919152],[-120.33811052,50.6493705],[-120.33801467,50.64955683],[-120.33799756,50.64964865],[-120.33795675,50.64986767],[-120.33797542,50.65011366],[-120.33797585,50.65012153],[-120.33799851,50.65019906],[-120.33800476,50.65022052],[-120.33805745,50.65040068],[-120.33810452,50.65046739],[-120.33814839,50.65052957],[-120.33822433,50.65063624],[-120.3383068,50.6507521],[-120.33848101,50.65092336],[-120.33854853,50.65097682],[-120.33875848,50.65114305],[-120.33901513,50.65128126],[-120.33922369,50.65139371],[-120.33989659,50.65168643],[-120.34026482,50.65184661],[-120.34127559,50.65228633],[-120.34343598,50.65324625],[-120.34355081,50.65331341],[-120.34397104,50.65355922],[-120.34413028,50.65373312],[-120.34426187,50.65387682],[-120.34427135,50.65388754],[-120.34427667,50.65389355],[-120.34435868,50.65402722],[-120.34445122,50.65417804],[-120.34446597,50.65423465],[-120.34450105,50.65437125],[-120.34452064,50.65444757],[-120.34451764,50.65451874],[-120.34451553,50.65456898],[-120.34449983,50.65480683],[-120.34440058,50.65506247],[-120.34436313,50.65511462],[-120.34416281,50.6553936],[-120.34392692,50.65560972],[-120.34363197,50.65577671],[-120.34359605,50.65579283],[-120.34327089,50.65593872],[-120.34287624,50.65604838],[-120.34280662,50.6560616],[-120.34248071,50.65612351],[-120.3417004,50.65619685],[-120.34154514,50.65621164],[-120.34143494,50.65622213],[-120.34075289,50.65631542],[-120.34037048,50.65645151],[-120.34015698,50.65652749],[-120.34011084,50.656544],[-120.3400668,50.6565672],[-120.3400121,50.6565961],[-120.33970624,50.65675764],[-120.33943179,50.6569734],[-120.3393345,50.65707806],[-120.33926771,50.65714964],[-120.33925762,50.65716211],[-120.33903409,50.6575346],[-120.33903263,50.65753704],[-120.33902653,50.65755991],[-120.33895532,50.6578144],[-120.33894807,50.65790422],[-120.33894246,50.65797405],[-120.33893491,50.65806399],[-120.33894469,50.65810274],[-120.33903159,50.65845814],[-120.33911711,50.65858775],[-120.33923052,50.65875936],[-120.33955611,50.65907055],[-120.33996027,50.65929843],[-120.34052368,50.65951461],[-120.34052909,50.65951669],[-120.3407175,50.65955695],[-120.34090399,50.6595968],[-120.34173429,50.65966399],[-120.34201719,50.65968688],[-120.3426896,50.65973317],[-120.34322336,50.65976984],[-120.34373947,50.65984105],[-120.34392048,50.65989515],[-120.34410642,50.65995071],[-120.34420936,50.65999911],[-120.34425183,50.66001908],[-120.34429919,50.6600413],[-120.34450455,50.66013764],[-120.34453149,50.66015473],[-120.34465148,50.66023139],[-120.34471485,50.66027187],[-120.34496938,50.66043402],[-120.34504963,50.66048515],[-120.34556422,50.66079883],[-120.34628992,50.6612644],[-120.34647921,50.66137714],[-120.34696211,50.66180151],[-120.34732793,50.66221268],[-120.34737428,50.66225626],[-120.34728213,50.66226149],[-120.34688246,50.66224927],[-120.34401107,50.66215321],[-120.34122233,50.66202145],[-120.33645306,50.66180513],[-120.33470336,50.66177189],[-120.33370269,50.66177249],[-120.33307318,50.66177213],[-120.33274118,50.66177692],[-120.33123038,50.6617812],[-120.33049773,50.6617822],[-120.33003107,50.66178428],[-120.32966109,50.6617863],[-120.32845495,50.66180315],[-120.32777794,50.66180712],[-120.32472636,50.66184968],[-120.3233837,50.66186287],[-120.3221677,50.66199032],[-120.32014013,50.66230869],[-120.31909638,50.66256549],[-120.3188849,50.66262028],[-120.31751144,50.6630204],[-120.31590202,50.66363879],[-120.3147966,50.66417687],[-120.31400829,50.6646452],[-120.31304652,50.66538351],[-120.31244841,50.66587777],[-120.3116439,50.66655416],[-120.31085306,50.66711599],[-120.31014576,50.66750322],[-120.30871884,50.66808229],[-120.30672218,50.66885424],[-120.30618974,50.66905966],[-120.30505341,50.66951581],[-120.304596,50.66977308],[-120.30405746,50.67007161],[-120.30327893,50.67051847],[-120.30203179,50.67123427],[-120.30115397,50.67165748],[-120.30012103,50.67199416],[-120.29959514,50.67214951],[-120.29875944,50.67238483],[-120.29839479,50.67248484],[-120.29804491,50.67258652],[-120.29782625,50.67264426],[-120.2977604,50.6726628],[-120.29756935,50.67271661],[-120.29722273,50.67281883],[-120.29681977,50.67291889],[-120.29614004,50.67312889],[-120.29584876,50.67322673],[-120.29547683,50.67338168],[-120.29504573,50.67356772],[-120.29472594,50.67373443],[-120.29313436,50.67472399],[-120.29175363,50.67561915],[-120.29176438,50.67562621],[-120.29183754,50.67568039],[-120.29314025,50.67671227],[-120.29351706,50.67630064],[-120.29403591,50.67588859],[-120.29403819,50.67588677],[-120.29408445,50.67585002],[-120.29508942,50.67505161],[-120.29527208,50.67496152],[-120.29534326,50.67492914],[-120.2959569,50.67464998],[-120.29749883,50.67446768],[-120.2983957,50.67455456],[-120.2993882,50.67476819],[-120.29966115,50.6748625],[-120.30014874,50.67503096],[-120.30044856,50.67513785],[-120.30045824,50.6751413],[-120.30090472,50.67530049],[-120.30096785,50.67532301],[-120.3010494,50.67535211],[-120.30155018,50.67553075],[-120.30209147,50.67572383],[-120.30447941,50.67617388],[-120.30701712,50.67650501],[-120.30713522,50.67652043],[-120.30807816,50.67664349],[-120.30912874,50.6767806],[-120.30978536,50.67685393],[-120.3108662,50.67697465],[-120.31305355,50.67721925],[-120.31395239,50.67740538],[-120.3164462,50.67792174],[-120.31699527,50.67803532],[-120.31780158,50.6783928],[-120.31873396,50.67908936],[-120.32031617,50.68027133],[-120.32043161,50.6803161],[-120.32146949,50.68071854],[-120.32242675,50.68063483],[-120.32277021,50.68060479],[-120.32335369,50.68055376],[-120.32435197,50.68046645],[-120.32447727,50.6804699],[-120.32485565,50.68048034],[-120.32485608,50.68048035],[-120.32497119,50.68048354],[-120.32590939,50.68050872],[-120.3261185,50.68051433],[-120.32611995,50.68051437],[-120.32632468,50.68051986],[-120.33403784,50.68072863],[-120.33471831,50.68074702],[-120.3358298,50.68067011],[-120.33652071,50.68062223],[-120.33677164,50.68060484],[-120.3381209,50.68051131],[-120.33922097,50.68049223],[-120.33952139,50.68048701],[-120.33972138,50.68048354],[-120.33972163,50.68048353],[-120.34029763,50.68045779],[-120.34176057,50.68039239],[-120.34176057,50.68039245],[-120.34176058,50.68039251],[-120.34176071,50.68039251],[-120.34179542,50.68108178],[-120.3418305,50.68177799],[-120.34183032,50.68177815],[-120.3415118,50.68208924],[-120.34075189,50.68283139],[-120.34073075,50.68285203],[-120.34071884,50.68286367],[-120.34025565,50.68331602],[-120.34001854,50.68354758],[-120.34000021,50.68356548],[-120.33984302,50.68371899],[-120.33959616,50.68396039],[-120.33974071,50.68567858],[-120.33974131,50.68568572],[-120.3397454,50.68573425],[-120.33974542,50.68573429],[-120.33982544,50.68588318],[-120.34033055,50.68682288],[-120.34033999,50.6868405],[-120.34085852,50.68730084],[-120.3412494,50.68764784],[-120.34174143,50.68808459],[-120.34303144,50.68922961],[-120.34483577,50.69074516],[-120.34484402,50.69075209],[-120.34543647,50.69139272],[-120.34581848,50.69180578],[-120.34623863,50.69226008],[-120.34658529,50.6926349],[-120.34673694,50.69290634],[-120.34699559,50.69336928],[-120.34742885,50.69414482],[-120.34755748,50.69437507],[-120.34786594,50.69492719],[-120.34826645,50.69564402],[-120.34828133,50.69567062],[-120.3483018,50.6957073],[-120.348313,50.69572356],[-120.34916887,50.69694954],[-120.35105812,50.69965482],[-120.35172813,50.70068168],[-120.35248764,50.70307008],[-120.35277002,50.70395867],[-120.35283299,50.70415672],[-120.35283612,50.70422997],[-120.35287399,50.7051195],[-120.35293049,50.7057896],[-120.35293187,50.70580581],[-120.35295045,50.70602638],[-120.35296708,50.70622359],[-120.35296791,50.70623346],[-120.35306881,50.7074302],[-120.35309261,50.70771263],[-120.35309322,50.70771958],[-120.35310183,50.70782205],[-120.35310972,50.7079155],[-120.35311279,50.70795178],[-120.3531551,50.70845374],[-120.35315853,50.70849444],[-120.35322722,50.70930881],[-120.35322932,50.7093337],[-120.35322932,50.70933375],[-120.35342157,50.7098548],[-120.35362792,50.71041406],[-120.35366758,50.71052154],[-120.35369395,50.71060548],[-120.35415358,50.71206823],[-120.35417376,50.71213303],[-120.35418978,50.71218395],[-120.35422471,50.71229611],[-120.35429133,50.71247868],[-120.35435868,50.7126631],[-120.35449043,50.71302986],[-120.35450427,50.71306839],[-120.35463755,50.71343992],[-120.35724337,50.7127077],[-120.3573011,50.71267281],[-120.35751718,50.71263257],[-120.35760352,50.71259875],[-120.35794656,50.7125254],[-120.35822172,50.71241467],[-120.35832492,50.7123723],[-120.35864082,50.7122897],[-120.35878331,50.71225694],[-120.35887062,50.71221386],[-120.35900193,50.71217149],[-120.35914438,50.71215689],[-120.35943223,50.71207322],[-120.35953338,50.71203049],[-120.35981965,50.71197423],[-120.36015092,50.71188273],[-120.36026491,50.71186777],[-120.36040873,50.71182612],[-120.3605556,50.7117574],[-120.3607404,50.71171681],[-120.36103018,50.71161462],[-120.36131756,50.71154982],[-120.36161788,50.71149356],[-120.36170463,50.71145048],[-120.36197838,50.71139351],[-120.36218125,50.71130806],[-120.36248368,50.7112073],[-120.36278609,50.71113324],[-120.36287074,50.71110796],[-120.36321713,50.71102607],[-120.36353301,50.71094346],[-120.36379164,50.71087688],[-120.36406067,50.71077933],[-120.36409504,50.71076686],[-120.36433885,50.71070918],[-120.36445359,50.71068532],[-120.3646699,50.71061803],[-120.36481295,50.71058527],[-120.36494196,50.71056106],[-120.36502937,50.7105454],[-120.36510054,50.71052866],[-120.36531491,50.71047988],[-120.36548835,50.71041214],[-120.36556488,50.71038224],[-120.36564137,50.71035526],[-120.36593708,50.71025094],[-120.36611144,50.71019184],[-120.36625353,50.71017688],[-120.36677166,50.71002698],[-120.36717539,50.70992379],[-120.36744857,50.70984433],[-120.36767739,50.70977775],[-120.36789329,50.70972826],[-120.36816188,50.70970761],[-120.36826335,50.70969194],[-120.36855057,50.70962642],[-120.36889414,50.70955308],[-120.36917904,50.70953243],[-120.36927842,50.70953456],[-120.36954833,50.70950501],[-120.3698909,50.70946763],[-120.36997796,50.7094516],[-120.37028866,50.70944057],[-120.37053013,50.70942775],[-120.37085672,50.70941742],[-120.37113968,50.70942383],[-120.37125535,50.70940888],[-120.3715795,50.709416],[-120.3718058,50.70941173],[-120.37215928,50.70942917],[-120.37248588,50.70942739],[-120.37271142,50.70943202],[-120.37320582,50.70945267],[-120.37340458,50.70945694],[-120.3736735,50.70946335],[-120.3738998,50.70945908],[-120.37424019,50.70946727],[-120.3745812,50.70946585],[-120.37476091,50.70946847],[-120.37489115,50.70947225],[-120.37508899,50.70946763],[-120.3753158,50.70947297],[-120.37559801,50.70948828],[-120.37589595,50.70949504],[-120.37624907,50.70951213],[-120.37648957,50.70950857],[-120.3767731,50.70951498],[-120.37708396,50.7095132],[-120.37735329,50.7095189],[-120.37763814,50.70951641],[-120.37793573,50.70952281],[-120.37820295,50.70952922],[-120.37834576,50.70952353],[-120.37864127,50.70954774],[-120.37873912,50.70955913],[-120.37903817,50.70955735],[-120.37937673,50.70956483],[-120.37946136,50.70956625],[-120.37991255,50.70959438],[-120.38016782,50.70960008],[-120.38042252,50.70959723],[-120.38053596,50.70959936],[-120.38101809,50.70959224],[-120.38155308,50.70963177],[-120.38231967,50.70963995],[-120.38261764,50.70962856],[-120.38285682,50.7096339],[-120.38312727,50.70963105],[-120.38345274,50.70962927],[-120.38374843,50.70963604],[-120.38409963,50.70963355],[-120.38437429,50.70963212],[-120.38465711,50.70962927],[-120.38486972,50.7096339],[-120.38506791,50.70962963],[-120.38532262,50.70963533],[-120.38556181,50.70964067],[-120.38574652,50.70964494],[-120.38607236,50.70965206],[-120.38626828,50.70967449],[-120.3865958,50.70967307],[-120.38686441,50.70966951],[-120.38710396,50.70968375],[-120.38728943,50.70967912],[-120.38752822,50.70970226],[-120.38765205,50.70971906],[-120.38776717,50.70973466],[-120.38809168,50.70974214],[-120.38826274,50.70973716],[-120.38850154,50.7097603],[-120.38880023,50.70975816],[-120.38911202,50.70976529],[-120.38943822,50.70977276],[-120.38963606,50.70976813],[-120.38984832,50.70977241],[-120.39001769,50.70976742],[-120.39030063,50.70979199],[-120.39038464,50.70980303],[-120.39072417,50.70980125],[-120.39097852,50.70979804],[-120.3911911,50.70982083],[-120.39130433,50.70982332],[-120.39141684,50.70981656],[-120.39160099,50.70982083],[-120.3918411,50.70983507],[-120.39215289,50.70984219],[-120.39227981,50.70983578],[-120.39256334,50.70984219],[-120.3928903,50.70984077],[-120.39315905,50.70983792],[-120.39328669,50.70984077],[-120.39358407,50.70984753],[-120.39386629,50.70986284],[-120.39396436,50.70987388],[-120.39424717,50.70987103],[-120.39451665,50.70987744],[-120.39484271,50.70988421],[-120.39508189,50.70988955],[-120.39535233,50.7098867],[-120.39545003,50.70988884],[-120.39573262,50.70991305],[-120.39608614,50.70991234],[-120.3964408,50.70992017],[-120.39658229,50.70992337],[-120.39679643,50.70991874],[-120.39700884,50.70992373],[-120.39734757,50.70994046],[-120.39750292,50.70995257],[-120.39781378,50.70995079],[-120.39816788,50.70995862],[-120.39843664,50.70995577],[-120.3987187,50.70996183],[-120.39898761,50.70996824],[-120.39934096,50.70998497],[-120.39955337,50.70998995],[-120.39979408,50.70998604],[-120.4000067,50.70999067],[-120.40009146,50.7099928],[-120.40017644,50.70999458],[-120.40028967,50.70999708],[-120.40040326,50.70999992],[-120.40071526,50.71000669],[-120.40093869,50.71003873],[-120.40112152,50.71005191],[-120.4013624,50.71005725],[-120.40168881,50.71006437],[-120.40188474,50.7100868],[-120.40215407,50.7100925],[-120.40247917,50.71010852],[-120.40283079,50.71013487],[-120.40312763,50.71015018],[-120.40326984,50.71016264],[-120.40353859,50.71015979],[-120.40372126,50.71019041],[-120.40390503,50.71021249],[-120.40411669,50.71022637],[-120.40434278,50.71022246],[-120.40465156,50.71026518],[-120.40499085,50.71030862],[-120.40531501,50.71031574],[-120.40559855,50.71032215],[-120.40581096,50.71032714],[-120.40613606,50.71034316],[-120.4064452,50.71038624],[-120.40654195,50.71040618],[-120.40685375,50.7104133],[-120.40703736,50.71042612],[-120.40736131,50.7104603],[-120.40765829,50.71047632],[-120.40777117,50.71047846],[-120.40811009,50.710513],[-120.4083631,50.71053685],[-120.40868726,50.71057068],[-120.40898441,50.71059596],[-120.40922381,50.71060094],[-120.40950545,50.71063441],[-120.4098577,50.71065969],[-120.40994715,50.71066194],[-120.40995688,50.71066218],[-120.41015509,50.71066645],[-120.41048019,50.71068248],[-120.41062072,50.71069494],[-120.4108451,50.71073588],[-120.41109872,50.71075013],[-120.4112969,50.71077256],[-120.41157854,50.71080603],[-120.41183118,50.71084768],[-120.41194441,50.71085018],[-120.41221279,50.71086513],[-120.41255154,50.71088187],[-120.41273459,50.71089468],[-120.41293315,50.71089931],[-120.41319888,50.71095023],[-120.41353915,50.7109577],[-120.41384985,50.71097337],[-120.4141173,50.71097942],[-120.41439988,50.71102179],[-120.41466673,50.71107271],[-120.41489304,50.71106844],[-120.41516215,50.71109265],[-120.41546926,50.71113537],[-120.4157373,50.71114997],[-120.41606144,50.71117525],[-120.41634443,50.71118166],[-120.41666933,50.71119804],[-120.41686679,50.71121121],[-120.41719131,50.71124539],[-120.41745911,50.71127851],[-120.41778329,50.71131233],[-120.41800974,50.71133548],[-120.41829122,50.71135969],[-120.41860171,50.71137571],[-120.41869979,50.71138675],[-120.41896663,50.71142912],[-120.41919331,50.71143375],[-120.41941979,50.71143873],[-120.41977219,50.71146472],[-120.42005502,50.71148858],[-120.42032282,50.71152169],[-120.42043458,50.71152383],[-120.42064566,50.71155587],[-120.42077275,50.71155872],[-120.42098537,50.71156335],[-120.42133909,50.71158044],[-120.42155041,50.71159397],[-120.42184406,50.71164524],[-120.42194307,50.71166518],[-120.42223762,50.71170826],[-120.42252079,50.71173247],[-120.42281671,50.71173888],[-120.42294495,50.71175028],[-120.42318429,50.71178303],[-120.42333944,50.7117955],[-120.4235777,50.71181864],[-120.4238319,50.71183288],[-120.42407051,50.71185638],[-120.42425619,50.7118514],[-120.42453843,50.71186671],[-120.42477799,50.71189911],[-120.42507405,50.71193293],[-120.42529868,50.71195536],[-120.42556782,50.71196142],[-120.42583601,50.71197673],[-120.42596255,50.71198812],[-120.42618845,50.71201126],[-120.42627247,50.7120223],[-120.42654145,50.7120458],[-120.42666683,50.71206681],[-120.42689331,50.71207179],[-120.42723321,50.71207037],[-120.42757217,50.71208675],[-120.42785463,50.7121017],[-120.42809493,50.7121252],[-120.42844546,50.71217825],[-120.42869835,50.7122014],[-120.42898284,50.71221671],[-120.42922109,50.71225801],[-120.42954696,50.71226513],[-120.42987093,50.71227261],[-120.42998438,50.71227474],[-120.43026718,50.71229005],[-120.43056385,50.71233242],[-120.43081763,50.71234738],[-120.43101919,50.71236411],[-120.43107182,50.71236162],[-120.43125505,50.71235699],[-120.43159533,50.71236447],[-120.43182068,50.71236945],[-120.43212893,50.71243034],[-120.43241173,50.71244565],[-120.43269172,50.71250582],[-120.43296071,50.71252932],[-120.43320085,50.71254356],[-120.43342638,50.7125578],[-120.43370958,50.71256386],[-120.43382207,50.71257525],[-120.43407549,50.71260801],[-120.43427069,50.71263934],[-120.43448296,50.71266177],[-120.43475005,50.71268563],[-120.43501862,50.71270984],[-120.43534317,50.71274402],[-120.43565447,50.71274153],[-120.43579596,50.71274473],[-120.43612013,50.71277001],[-120.43626032,50.71278212],[-120.43661392,50.7127985],[-120.43683945,50.71281274],[-120.43698058,50.71283374],[-120.43717805,50.71284692],[-120.43743314,50.71285297],[-120.43768735,50.71286721],[-120.43781479,50.71287042],[-120.438025,50.71291065],[-120.43830689,50.71294376],[-120.43861607,50.71298685],[-120.43895374,50.71301213],[-120.43929272,50.71302851],[-120.43957592,50.71305272],[-120.43988496,50.71309509],[-120.44012469,50.71311004],[-120.44042231,50.71311645],[-120.44054886,50.71312784],[-120.4408006,50.7131606],[-120.44099714,50.71320974],[-120.44129606,50.71320724],[-120.44159252,50.71322327],[-120.44176174,50.71323573],[-120.44199966,50.71327667],[-120.44222801,50.71327276],[-120.44253831,50.71328914],[-120.44276391,50.71330231],[-120.44291791,50.71332438],[-120.44308883,50.71331869],[-120.44335667,50.7133518],[-120.44350943,50.71338171],[-120.44383305,50.71340699],[-120.44406083,50.71342123],[-120.44427049,50.71346146],[-120.44438277,50.71347321],[-120.44465308,50.71348781],[-120.44503343,50.71351416],[-120.44535668,50.71355724],[-120.44544146,50.71355938],[-120.44571117,50.71356543],[-120.44595207,50.71357077],[-120.44624503,50.71361279],[-120.44642884,50.71363486],[-120.44673882,50.71365943],[-120.44683875,50.71365302],[-120.44707833,50.71368542],[-120.44723184,50.71370643],[-120.44737521,50.71370073],[-120.44768501,50.7137342],[-120.44778272,50.71373634],[-120.44808087,50.71375236],[-120.44843448,50.71376874],[-120.44873006,50.71377479],[-120.44902652,50.71379081],[-120.44926706,50.71381396],[-120.44956337,50.71384743],[-120.44985707,50.7138987],[-120.45006745,50.71392148],[-120.45030835,50.71392683],[-120.45050583,50.71394],[-120.45083078,50.71398308],[-120.45109956,50.71398023],[-120.45122612,50.71399163],[-120.4514644,50.71403293],[-120.45157838,50.71404468],[-120.45187432,50.71405109],[-120.45221425,50.71407637],[-120.45229793,50.71408705],[-120.45252608,50.71408349],[-120.45266684,50.71409559],[-120.45298807,50.71413832],[-120.45325613,50.71417108],[-120.45352528,50.71417713],[-120.45382125,50.71421024],[-120.45413233,50.71422627],[-120.45438504,50.71424976],[-120.45452748,50.71426187],[-120.45483801,50.71427789],[-120.45516206,50.71430246],[-120.45533239,50.71430638],[-120.45561168,50.71435729],[-120.45588215,50.71435444],[-120.45601001,50.71435694],[-120.45625071,50.71436263],[-120.45641994,50.71437509],[-120.45650136,50.71440394],[-120.45678253,50.71444595],[-120.45713632,50.71447159],[-120.45734801,50.71448547],[-120.45765932,50.71448298],[-120.45788524,50.71450612],[-120.45815179,50.71454814],[-120.45842006,50.71458054],[-120.45850375,50.71459122],[-120.45880063,50.71460653],[-120.45904263,50.71460332],[-120.45936612,50.71462789],[-120.45966185,50.71465282],[-120.45991625,50.71467632],[-120.46021184,50.71470053],[-120.4603526,50.71471263],[-120.46059184,50.71474468],[-120.46083218,50.71478634],[-120.46115603,50.7147931],[-120.46128369,50.71479595],[-120.46142576,50.71479915],[-120.46153847,50.71481019],[-120.46155211,50.7148109],[-120.46190517,50.71482728],[-120.46224491,50.71485292],[-120.46256911,50.71486004],[-120.46265466,50.71486182],[-120.46297999,50.7148871],[-120.46326022,50.71492021],[-120.46352793,50.71495261],[-120.46364023,50.71496436],[-120.46378064,50.71499427],[-120.46399237,50.7150167],[-120.46420016,50.71507545],[-120.46443753,50.71515271],[-120.46475973,50.7152225],[-120.46487167,50.71523389],[-120.46513787,50.71531187],[-120.46541627,50.7154169],[-120.4654835,50.71544503],[-120.46581605,50.71563196],[-120.46599372,50.71571706],[-120.46613097,50.71578293],[-120.46642603,50.71587016],[-120.46673174,50.71598516],[-120.46700811,50.71608984],[-120.46713186,50.71615571],[-120.46733934,50.71625897],[-120.46759114,50.71631843],[-120.46774562,50.71634834],[-120.4679499,50.71647901],[-120.46821369,50.7166022],[-120.4684908,50.71671614],[-120.46862862,50.71678201],[-120.46877938,50.7168842],[-120.46890373,50.71694045],[-120.46914169,50.71699956],[-120.46946335,50.7170875],[-120.46968465,50.71716441],[-120.47003035,50.71734244],[-120.47034495,50.71752936],[-120.47065164,50.71763511],[-120.47095984,50.71771344],[-120.47130882,50.71781136],[-120.47136165,50.71785729],[-120.47146049,50.71787758],[-120.47176754,50.71796553],[-120.47207592,50.71799864],[-120.47235565,50.71809477],[-120.47256477,50.71814462],[-120.47278984,50.71817595],[-120.47287389,50.71818699],[-120.47298603,50.7182258],[-120.47330991,50.71825073],[-120.47362068,50.71826639],[-120.47374761,50.71827814],[-120.47391231,50.7183048],[-120.47399999,50.71831944],[-120.47411399,50.71833119],[-120.47438044,50.71839065],[-120.47458956,50.71842234],[-120.47484325,50.71845474],[-120.47505391,50.71850388],[-120.47525196,50.71852667],[-120.47539144,50.71854767],[-120.47570057,50.71859004],[-120.47579794,50.71860998],[-120.47611811,50.71870718],[-120.47641412,50.7187403],[-120.47652812,50.71875205],[-120.47684886,50.71883109],[-120.47718625,50.71889233],[-120.47738286,50.71892331],[-120.47760475,50.71900022],[-120.47794029,50.71908852],[-120.47819274,50.71917468],[-120.47849388,50.71932529],[-120.47874482,50.71942071],[-120.47944499,50.7198405],[-120.48005184,50.72015026],[-120.48043729,50.72036603],[-120.48082148,50.72058109],[-120.48136998,50.72091649],[-120.48190572,50.72122483],[-120.48243479,50.72141639],[-120.48294871,50.72161649],[-120.48343824,50.72175286],[-120.48401165,50.72187285],[-120.48454326,50.72198358],[-120.4851745,50.72209609],[-120.48570728,50.72221537],[-120.48640856,50.72234746],[-120.48725031,50.72252763],[-120.48845885,50.72272488],[-120.48917567,50.72282101],[-120.48978104,50.72289721],[-120.49038527,50.72295524],[-120.49121855,50.72304461],[-120.4917945,50.72311155],[-120.49247124,50.72318882],[-120.49306384,50.72323795],[-120.49368383,50.72329599],[-120.49437409,50.72339141],[-120.49511898,50.72348861],[-120.49590895,50.72354166],[-120.49670045,50.72362177],[-120.49743041,50.72370901],[-120.49796229,50.72381938],[-120.49845355,50.72394721],[-120.49880033,50.72408927],[-120.49918389,50.72430468],[-120.49949897,50.72451796],[-120.49967777,50.72463866],[-120.49996269,50.72485158],[-120.50022137,50.72504598],[-120.50055486,50.72519731],[-120.5009166,50.72533118],[-120.50130407,50.72549212],[-120.50151291,50.72554161],[-120.50199032,50.72563276],[-120.50245711,50.72565199],[-120.50280683,50.72574029],[-120.50340507,50.72579647],[-120.50370816,50.72584034],[-120.50404606,50.72591048],[-120.50428931,50.72593054],[-120.50446829,50.72594715],[-120.50480552,50.72599829],[-120.50534391,50.72599237],[-120.50572697,50.72598276],[-120.50620836,50.72598383],[-120.50707047,50.72592757],[-120.5071574,50.7260524],[-120.50717634,50.7260796],[-120.50738293,50.72622487],[-120.50901218,50.72687645],[-120.5090725,50.72688947],[-120.50953832,50.72699003],[-120.50979415,50.72704543],[-120.50996746,50.72708296],[-120.51169906,50.72751058],[-120.51264911,50.72789369],[-120.51265839,50.72789737],[-120.51267877,50.72790544],[-120.51310713,50.72803992],[-120.51345909,50.7281504],[-120.51361357,50.72821358],[-120.51368633,50.72824333],[-120.51391185,50.72839857],[-120.51423425,50.7287047],[-120.51441132,50.72887283],[-120.51457662,50.72898934],[-120.5149282,50.72923698],[-120.51497527,50.72926391],[-120.51541155,50.72951364],[-120.51515652,50.72951586],[-120.51606521,50.7300884],[-120.51622164,50.73007202],[-120.51771678,50.73116326],[-120.51771686,50.73116332],[-120.51922594,50.73168494],[-120.51960982,50.73181774],[-120.5204707,50.73162761],[-120.52115821,50.73130254]]]},"geometry_name":"SHAPE","properties":{"id":281,"slug":"kamloops-centre","name":"Kamloops Centre","abbreviation":"KAC","gazetteDate":"2023-12-07Z","boundarySet":11},"bbox":[-120.54243921,50.61550826,-120.29175363,50.73181774]}
