{"type":"Feature","id":291,"geometry":{"type":"Polygon","coordinates":[[[-122.46897109,49.17017893],[-122.46924521,49.17018605],[-122.46951948,49.17019103],[-122.46979357,49.17019352],[-122.47006817,49.17019424],[-122.47034217,49.17019317],[-122.4706168,49.17019103],[-122.47089097,49.17018783],[-122.47116521,49.17018356],[-122.47143987,49.17017857],[-122.47171399,49.17017359],[-122.4719881,49.1701686],[-122.47226222,49.17016362],[-122.47253667,49.17015899],[-122.47281125,49.17015507],[-122.47308303,49.17015224],[-122.47308309,49.17015224],[-122.47308521,49.17015222],[-122.47324895,49.17015116],[-122.47335963,49.17015044],[-122.47363384,49.17014902],[-122.47390813,49.17014653],[-122.47418271,49.17014261],[-122.47445695,49.17013834],[-122.47473112,49.17013513],[-122.47500565,49.17012944],[-122.47527745,49.170107],[-122.47554779,49.17007496],[-122.47581793,49.17004327],[-122.4760876,49.17001051],[-122.47635681,49.16997669],[-122.4766261,49.1699418],[-122.47689505,49.16990655],[-122.47716408,49.16987023],[-122.47743223,49.16983356],[-122.47770113,49.16979653],[-122.47796936,49.16975879],[-122.47823759,49.16972104],[-122.47850582,49.1696833],[-122.47877405,49.16964556],[-122.47904228,49.16960782],[-122.4793105,49.16957008],[-122.47957886,49.16953305],[-122.47984776,49.16949602],[-122.48011624,49.1694597],[-122.4803854,49.1694241],[-122.48065413,49.1693892],[-122.48092342,49.16935431],[-122.48119236,49.16931906],[-122.48146151,49.16928346],[-122.48173,49.16924714],[-122.48199902,49.16921082],[-122.48226771,49.16917415],[-122.48253585,49.16913747],[-122.48280475,49.16910044],[-122.4830731,49.16906341],[-122.48334145,49.16902639],[-122.48361034,49.16898936],[-122.48387869,49.16895233],[-122.48414683,49.16891565],[-122.48441552,49.16887898],[-122.4846842,49.16884231],[-122.48495323,49.16880599],[-122.48522204,49.16877003],[-122.48549098,49.16873478],[-122.48575992,49.16869953],[-122.48602919,49.16866464],[-122.4862986,49.16863045],[-122.48656813,49.16859699],[-122.48683799,49.16856387],[-122.48710744,49.16853147],[-122.4873779,49.16850014],[-122.48764815,49.16846916],[-122.48791832,49.16843926],[-122.48818937,49.1684097],[-122.48846,49.16838086],[-122.48873064,49.16835202],[-122.48900181,49.16832318],[-122.48927245,49.16829434],[-122.48954342,49.16826586],[-122.48981418,49.16823773],[-122.49008548,49.1682096],[-122.49035658,49.16818183],[-122.49062746,49.16815441],[-122.49089889,49.168127],[-122.49117012,49.16809994],[-122.49144113,49.16807323],[-122.49171248,49.16804689],[-122.49198383,49.16802054],[-122.49225585,49.1679949],[-122.49252733,49.16796927],[-122.49279894,49.16794434],[-122.49307088,49.16791977],[-122.49334261,49.16789556],[-122.49361468,49.16787171],[-122.49388654,49.16784821],[-122.49415853,49.16782542],[-122.49443085,49.16780299],[-122.49470297,49.16778091],[-122.49497576,49.16775955],[-122.49524779,49.16773854],[-122.4955205,49.16771825],[-122.49579355,49.16769831],[-122.49606617,49.16767908],[-122.49633893,49.16766057],[-122.49661181,49.16764277],[-122.49688503,49.16762532],[-122.49715838,49.16760859],[-122.49743131,49.16759256],[-122.49770471,49.16757761],[-122.49797823,49.16756337],[-122.49825222,49.16755019],[-122.49852579,49.16753773],[-122.49879928,49.16752634],[-122.49907311,49.1675153],[-122.49934706,49.16750497],[-122.49962148,49.16749572],[-122.49989515,49.16748681],[-122.50016915,49.16747827],[-122.50044328,49.16747044],[-122.50071754,49.16746332],[-122.5009918,49.16745619],[-122.50126564,49.16744979],[-122.50153982,49.16744373],[-122.50181434,49.16743804],[-122.50208831,49.16743234],[-122.50236261,49.167427],[-122.50263726,49.16742201],[-122.50291135,49.16741703],[-122.50318525,49.1674124],[-122.50345968,49.16740777],[-122.50373378,49.16740279],[-122.50400821,49.16739816],[-122.50428265,49.16739353],[-122.50455675,49.16738854],[-122.50483085,49.16738356],[-122.50510515,49.16737822],[-122.50537946,49.16737288],[-122.50565397,49.16736718],[-122.50592815,49.16736113],[-122.50620199,49.16735472],[-122.50647604,49.16734795],[-122.50675017,49.16734012],[-122.50702451,49.16733193],[-122.50729851,49.16732339],[-122.50757238,49.16731413],[-122.50784646,49.16730452],[-122.50812021,49.16729455],[-122.50839416,49.16728422],[-122.50866832,49.16727354],[-122.50894214,49.1672625],[-122.50921596,49.16725146],[-122.50948979,49.16724043],[-122.50976327,49.16722903],[-122.51003731,49.16721764],[-122.51031113,49.1672066],[-122.51058495,49.16719556],[-122.51085877,49.16718453],[-122.51113239,49.16717385],[-122.51140634,49.16716352],[-122.51168029,49.16715319],[-122.51195437,49.16714358],[-122.51222824,49.16713432],[-122.51250245,49.16712542],[-122.51277624,49.16711723],[-122.51305036,49.1671094],[-122.51332462,49.16710228],[-122.513599,49.16709587],[-122.51387331,49.16709053],[-122.5141472,49.1670859],[-122.51442176,49.16708198],[-122.51469624,49.16707913],[-122.5149703,49.167077],[-122.51524462,49.16707629],[-122.51551886,49.16707664],[-122.51579357,49.16707807],[-122.51606765,49.16708056],[-122.51634199,49.16708448],[-122.51661604,49.16708982],[-122.51689035,49.16709658],[-122.51716437,49.16710477],[-122.51743865,49.16711438],[-122.51771209,49.16712542],[-122.51798613,49.16713824],[-122.51825934,49.16715248],[-122.51853301,49.16716779],[-122.51880564,49.16718488],[-122.51907895,49.16720269],[-122.51935176,49.16722227],[-122.51962394,49.16724292],[-122.51989618,49.16726535],[-122.52016985,49.16728066],[-122.52044338,49.16729063],[-122.52071765,49.16730024],[-122.5209916,49.1673095],[-122.52126575,49.1673184],[-122.52153956,49.16732695],[-122.52181371,49.16733585],[-122.52208753,49.16734439],[-122.52236147,49.16735365],[-122.52263575,49.16736327],[-122.52290962,49.16737359],[-122.52318361,49.16738463],[-122.52345731,49.16739709],[-122.5237306,49.16741026],[-122.52400415,49.16742486],[-122.5242772,49.16744124],[-122.52455059,49.16745797],[-122.52482343,49.16747471],[-122.52488705,49.1674786],[-122.52524712,49.16266195],[-122.52528037,49.16221368],[-122.52530007,49.16195447],[-122.52665771,49.16197085],[-122.52999117,49.16201073],[-122.53064978,49.16201856],[-122.53077309,49.16201999],[-122.53112411,49.16216846],[-122.531741,49.16256368],[-122.53197224,49.16271215],[-122.53336887,49.16338794],[-122.53459113,49.16383657],[-122.53524011,49.16407441],[-122.53653883,49.16449384],[-122.53764797,49.16475589],[-122.53928803,49.1649592],[-122.53946628,49.1649738],[-122.54162304,49.16515111],[-122.54329439,49.16522161],[-122.55264481,49.16561362],[-122.55476562,49.16551215],[-122.5549341,49.16290157],[-122.55528276,49.16267833],[-122.55561826,49.16246363],[-122.55576205,49.1623796],[-122.55691537,49.16170595],[-122.55852936,49.16116653],[-122.55854273,49.16072574],[-122.55861143,49.15849543],[-122.55864596,49.15738053],[-122.55868138,49.1562288],[-122.5586932,49.15583927],[-122.55952306,49.15569258],[-122.55987683,49.15563027],[-122.55910816,49.15492244],[-122.55886965,49.1544731],[-122.55864249,49.15369014],[-122.55867064,49.15309091],[-122.55873437,49.15274589],[-122.55897959,49.1522905],[-122.55900323,49.15202346],[-122.55881551,49.15135302],[-122.55878607,49.15124869],[-122.55879238,49.1509489],[-122.55883096,49.14905114],[-122.55885326,49.14793456],[-122.55885984,49.14737805],[-122.55887626,49.145993],[-122.55891672,49.14249372],[-122.55892356,49.14191834],[-122.55892987,49.1413695],[-122.55893401,49.1410275],[-122.55894464,49.14011031],[-122.55895491,49.13921056],[-122.55897262,49.13770945],[-122.55899152,49.13664699],[-122.55900892,49.13564861],[-122.55903528,49.13418239],[-122.55905053,49.13332288],[-122.56438189,49.13337949],[-122.56613637,49.13339801],[-122.56653384,49.13340228],[-122.57075354,49.13344683],[-122.57129052,49.13345248],[-122.57221925,49.1334621],[-122.5727648,49.13351657],[-122.57332527,49.13366754],[-122.57690924,49.13506148],[-122.5774459,49.13531108],[-122.57783884,49.13561016],[-122.57805536,49.13592527],[-122.57884509,49.13739861],[-122.57910091,49.13773223],[-122.5791262,49.13776535],[-122.57959629,49.13808152],[-122.58012676,49.13822999],[-122.58035998,49.13824689],[-122.58086091,49.13825515],[-122.58111313,49.1382049],[-122.58116063,49.13815893],[-122.5812955,49.13808933],[-122.58130085,49.13771977],[-122.58130437,49.137504],[-122.58130465,49.13715863],[-122.58131284,49.13694607],[-122.58132153,49.13671214],[-122.58132271,49.13667191],[-122.58132423,49.13658076],[-122.58132469,49.13655014],[-122.58132854,49.1363301],[-122.5813325,49.13607445],[-122.58133808,49.13596052],[-122.58134542,49.13571306],[-122.58134959,49.1355596],[-122.58135622,49.13485391],[-122.58135714,49.13476845],[-122.58137161,49.13414536],[-122.5813837,49.13356642],[-122.58140753,49.13286678],[-122.58142905,49.13211596],[-122.58144358,49.1315946],[-122.58144539,49.13158499],[-122.58148583,49.13131261],[-122.58148987,49.13128519],[-122.5816365,49.13096795],[-122.58165186,49.13094445],[-122.5818174,49.13068987],[-122.58210722,49.13043494],[-122.5824776,49.13018926],[-122.58321391,49.12986205],[-122.58384483,49.1296883],[-122.58401063,49.12965875],[-122.58423232,49.12961922],[-122.58762109,49.12966409],[-122.59109196,49.12971002],[-122.59189726,49.12971749],[-122.59222643,49.12972034],[-122.59351494,49.12973245],[-122.59374767,49.12973459],[-122.59395319,49.12973672],[-122.59599574,49.12975559],[-122.59999853,49.12979262],[-122.60011598,49.12979369],[-122.60121157,49.12989303],[-122.60216421,49.13011983],[-122.60265407,49.13031353],[-122.6030026,49.13045901],[-122.61060417,49.13472893],[-122.61180983,49.13540579],[-122.617246,49.13169465],[-122.61757134,49.13147257],[-122.62098289,49.12914354],[-122.62233126,49.12821709],[-122.62405844,49.12702864],[-122.62420805,49.12692569],[-122.62459613,49.12665865],[-122.6248988,49.12645036],[-122.62874088,49.12377997],[-122.63182201,49.12165633],[-122.63263481,49.12101345],[-122.63276011,49.12092906],[-122.63302858,49.1207685],[-122.6333212,49.12055975],[-122.63441135,49.11980931],[-122.63635832,49.11847981],[-122.6379525,49.11739847],[-122.63812728,49.11726505],[-122.63838032,49.11700912],[-122.6385326,49.11676854],[-122.63869214,49.11640677],[-122.63891067,49.11589491],[-122.6391307,49.11554793],[-122.63938114,49.11527041],[-122.63963569,49.11505724],[-122.63975056,49.11498246],[-122.6402753,49.11468675],[-122.64073543,49.11449574],[-122.64118516,49.11436114],[-122.64167728,49.11424167],[-122.64228349,49.11413291],[-122.64284295,49.11400233],[-122.64318444,49.11388412],[-122.64352558,49.11372049],[-122.64378082,49.11357121],[-122.64414251,49.1131721],[-122.64518455,49.11240196],[-122.64133401,49.11024936],[-122.63792309,49.10834225],[-122.63841441,49.10796626],[-122.6393298,49.10726519],[-122.64052525,49.10634978],[-122.6416261,49.105507],[-122.64193981,49.10526667],[-122.6424015,49.10491346],[-122.6427283,49.10468986],[-122.64286505,49.10459622],[-122.6427295,49.10459551],[-122.64061488,49.10457984],[-122.6387706,49.10455385],[-122.63877063,49.10455241],[-122.63840662,49.10454851],[-122.63847991,49.10260582],[-122.63857212,49.10027731],[-122.63859365,49.09973362],[-122.63869739,49.09712398],[-122.63872458,49.09644],[-122.63875948,49.09556032],[-122.63877567,49.09515229],[-122.63960157,49.09517249],[-122.64059574,49.0951968],[-122.64060223,49.09484288],[-122.64013843,49.09415356],[-122.63892874,49.09414101],[-122.6378755,49.09413006],[-122.63787702,49.093963],[-122.63790731,49.09065105],[-122.63790732,49.09064996],[-122.63781712,49.0906831],[-122.63781416,49.09068419],[-122.63770549,49.0907027],[-122.63770514,49.09070247],[-122.63765327,49.09066826],[-122.63763641,49.09065713],[-122.63761038,49.09061014],[-122.6376077,49.0906053],[-122.63759617,49.09058449],[-122.63756543,49.09052846],[-122.63750241,49.09041359],[-122.63750165,49.09028826],[-122.63749104,49.09007178],[-122.63749028,49.08994645],[-122.63749138,49.08987381],[-122.63749248,49.08978942],[-122.63749337,49.08972142],[-122.63748097,49.08956761],[-122.63748119,49.0895142],[-122.63748117,49.0895142],[-122.63748189,49.08934258],[-122.63746982,49.08913607],[-122.63749791,49.08898368],[-122.63751226,49.08882132],[-122.63755622,49.08866039],[-122.63763778,49.08858775],[-122.6377201,49.0885436],[-122.63780332,49.08851654],[-122.63788494,49.08846242],[-122.63792659,49.08840973],[-122.63792731,49.08827443],[-122.637916,49.08819325],[-122.63782045,49.08808501],[-122.6376422,49.08795825],[-122.63762942,49.08788704],[-122.63760239,49.08770617],[-122.63761739,49.08753526],[-122.63762049,49.08731024],[-122.63763459,49.08712224],[-122.637622,49.08705815],[-122.63760928,49.08700546],[-122.63758217,49.08695134],[-122.63748594,49.08683313],[-122.63741751,49.08677901],[-122.63717431,49.08658104],[-122.63692823,49.08637311],[-122.63686207,49.08619223],[-122.63686308,49.08598572],[-122.63679434,49.08588745],[-122.63668635,49.08575215],[-122.63660476,49.085661],[-122.63645493,49.08557128],[-122.6363054,49.0855257],[-122.63603187,49.08546161],[-122.6358388,49.08539752],[-122.63573123,49.0853434],[-122.63552661,49.0851725],[-122.63534962,49.08501014],[-122.63522642,49.08487484],[-122.63510469,49.08472957],[-122.63503627,49.08467545],[-122.63480545,49.08446751],[-122.63464369,49.08430515],[-122.63458891,49.08422397],[-122.63457513,49.08409864],[-122.6345777,49.08390068],[-122.63459267,49.08371126],[-122.63457926,49.08364859],[-122.63453822,49.08357738],[-122.63434787,49.08346772],[-122.63415615,49.08340505],[-122.63407352,49.08340505],[-122.63378667,49.08341217],[-122.63362136,49.08339366],[-122.63348559,49.08335805],[-122.63322635,49.08325836],[-122.63311746,49.08320282],[-122.63309129,49.08306894],[-122.63307895,49.08291513],[-122.63308,49.08270862],[-122.6331494,49.08253771],[-122.633245,49.08240384],[-122.63326104,49.08228705],[-122.63322026,49.08224148],[-122.63305607,49.08215033],[-122.63293207,49.08213181],[-122.63263317,49.08207769],[-122.63246962,49.081978],[-122.63237412,49.08186976],[-122.63232,49.08178003],[-122.63229362,49.0815721],[-122.63225407,49.08149092],[-122.632145,49.08142825],[-122.63196723,49.08138268],[-122.63178887,49.08136416],[-122.6315692,49.08134565],[-122.63148811,49.08135419],[-122.6311867,49.08135277],[-122.63106329,49.08130719],[-122.63098154,49.08120892],[-122.6309551,49.08114626],[-122.63099778,49.0809839],[-122.63105233,49.08087566],[-122.63118985,49.08071472],[-122.6312867,49.0806606],[-122.63161715,49.08052673],[-122.6318923,49.08035725],[-122.63189213,49.08018634],[-122.63183826,49.08012225],[-122.63167478,49.08004107],[-122.63157999,49.0799428],[-122.63153916,49.07987871],[-122.6315263,49.07977047],[-122.63150075,49.07960954],[-122.63145845,49.07955542],[-122.63121471,49.079366],[-122.6311599,49.0792663],[-122.63114651,49.07920364],[-122.63116069,49.079131],[-122.63134105,49.07897861],[-122.63145101,49.07894301],[-122.63154667,49.07894301],[-122.63182045,49.07893588],[-122.63197166,49.07888177],[-122.63198673,49.07871086],[-122.63193256,49.07860262],[-122.63186535,49.07849438],[-122.63176958,49.07834199],[-122.63164797,49.07821524],[-122.63151124,49.07812551],[-122.63118479,49.07789906],[-122.63099479,49.07771819],[-122.63080331,49.07754728],[-122.63064094,49.07737495],[-122.63053144,49.07721259],[-122.6304089,49.07705023],[-122.63041138,49.07697902],[-122.63039726,49.07677251],[-122.63037841,49.07671763],[-122.63037231,49.07669988],[-122.6302352,49.07652897],[-122.63019752,49.07646496],[-122.63015555,49.07639367],[-122.63011386,49.07631249],[-122.63011619,49.07618574],[-122.63007513,49.07609601],[-122.63005925,49.07606426],[-122.63002099,49.07598777],[-122.62992272,49.07585012],[-122.6299122,49.07583538],[-122.62986127,49.07577917],[-122.62974831,49.07565451],[-122.62947632,49.07544657],[-122.62925966,49.07529276],[-122.62893067,49.0752202],[-122.62893034,49.07522012],[-122.62888939,49.07521426],[-122.62867152,49.07518309],[-122.62842514,49.07517312],[-122.62830032,49.07517745],[-122.62817882,49.07518167],[-122.62808158,49.07515461],[-122.62806595,49.07511754],[-122.62805516,49.07509194],[-122.62804268,49.07502821],[-122.62804261,49.07502785],[-122.62804417,49.07502259],[-122.62809813,49.07483989],[-122.62812227,49.0748395],[-122.62933267,49.07488793],[-122.63069423,49.07481351],[-122.6315331,49.07476758],[-122.63256574,49.07471097],[-122.63637256,49.07468782],[-122.63713734,49.07468498],[-122.63734291,49.07468417],[-122.63804113,49.07468142],[-122.63901341,49.07467785],[-122.64042319,49.07467251],[-122.64061732,49.07467176],[-122.64133948,49.07466895],[-122.64156878,49.07466814],[-122.64203883,49.07466646],[-122.64628358,49.07465008],[-122.6474749,49.07464545],[-122.6474686,49.07429159],[-122.64745848,49.07373111],[-122.64744842,49.07310746],[-122.64744148,49.0726772],[-122.64743707,49.07241984],[-122.64742721,49.07184475],[-122.64741022,49.07074585],[-122.64739993,49.07008015],[-122.64739907,49.06928696],[-122.64739783,49.06796466],[-122.64739716,49.0674888],[-122.64837456,49.06748275],[-122.64895834,49.06747883],[-122.65108691,49.06746601],[-122.6521669,49.06745925],[-122.65287935,49.06745462],[-122.6530981,49.0674532],[-122.65376883,49.06744928],[-122.65441191,49.06744504],[-122.6551256,49.06744038],[-122.65585013,49.06743646],[-122.65672453,49.06743183],[-122.6585077,49.06742792],[-122.6586918,49.0674272],[-122.65878007,49.06742691],[-122.66018703,49.06742222],[-122.66027254,49.06742165],[-122.66090292,49.06741694],[-122.6614014,49.06741332],[-122.66273075,49.06740762],[-122.66354387,49.06740833],[-122.66354404,49.06740833],[-122.66398277,49.06740869],[-122.66398277,49.0674087],[-122.6648312,49.06740635],[-122.6649711,49.06740597],[-122.66505026,49.06740576],[-122.66516404,49.06740545],[-122.66525419,49.0674052],[-122.66540515,49.06740477],[-122.66570701,49.06740393],[-122.66592336,49.0674033],[-122.66611337,49.06740264],[-122.6663416,49.06740311],[-122.66646003,49.06740329],[-122.6694454,49.06740798],[-122.66950736,49.06740798],[-122.66951823,49.06696398],[-122.66950945,49.06625451],[-122.66950069,49.06552954],[-122.66950018,49.06548992],[-122.66950063,49.06540897],[-122.66950222,49.0650885],[-122.66951311,49.06294771],[-122.66951431,49.06266928],[-122.67103826,49.0626707],[-122.67146084,49.06267106],[-122.67191252,49.06267144],[-122.67256546,49.06267213],[-122.67269286,49.06267237],[-122.67295704,49.06267313],[-122.67313093,49.06267362],[-122.67400426,49.06267604],[-122.67542665,49.06268388],[-122.67627921,49.06267864],[-122.67668376,49.06267604],[-122.67788293,49.06267996],[-122.67922788,49.06268174],[-122.68055783,49.06268316],[-122.68054864,49.06012528],[-122.68053784,49.05942528],[-122.68052565,49.05860672],[-122.68051887,49.05818373],[-122.68047768,49.05548877],[-122.68044897,49.05537697],[-122.68045532,49.05413613],[-122.68045482,49.05410907],[-122.68044692,49.05363231],[-122.68043442,49.05288994],[-122.68042914,49.05246268],[-122.68039126,49.04934081],[-122.68034557,49.04564713],[-122.68034079,49.04489657],[-122.68034014,49.04472566],[-122.68033751,49.04436569],[-122.68033753,49.04432475],[-122.68033681,49.04422185],[-122.68033343,49.04362795],[-122.68032678,49.04245583],[-122.6803248,49.04216173],[-122.68032446,49.04208981],[-122.68032409,49.04200863],[-122.68032263,49.04178894],[-122.68034789,49.03841713],[-122.68032861,49.03561286],[-122.68032581,49.03527105],[-122.68030094,49.03161012],[-122.68029743,49.03109776],[-122.6802701,49.03101444],[-122.68026976,49.03100946],[-122.6801667,49.02741084],[-122.68006491,49.02384711],[-122.68006498,49.02384141],[-122.68004702,49.02324538],[-122.68002943,49.02264223],[-122.68002938,49.02264045],[-122.6799632,49.02031472],[-122.6799426,49.01958872],[-122.67991895,49.01874452],[-122.67988993,49.01772764],[-122.67986257,49.01676737],[-122.67986008,49.01661106],[-122.67986237,49.01640668],[-122.67997137,49.01133009],[-122.67998704,49.01059449],[-122.67999136,49.01041361],[-122.68001533,49.00927887],[-122.68001561,49.00926819],[-122.6800738,49.00588142],[-122.68007364,49.00584368],[-122.68007699,49.00570161],[-122.68012881,49.00265381],[-122.68013482,49.00230416],[-122.68013814,49.0022002],[-122.68014099,49.00212115],[-122.68013176,49.00212115],[-122.68011331,49.00212115],[-122.66908285,49.00212649],[-122.65799803,49.0021329],[-122.64719393,49.00214002],[-122.64704414,49.00214002],[-122.64013781,49.00214002],[-122.62528451,49.00214964],[-122.62520038,49.00214964],[-122.61405068,49.00214358],[-122.60307232,49.00214892],[-122.60297571,49.00214892],[-122.58098649,49.00219272],[-122.58000155,49.00219343],[-122.55911212,49.00219343],[-122.55896178,49.00219343],[-122.53986328,49.00222405],[-122.53681897,49.00222512],[-122.51473526,49.00223936],[-122.51472441,49.00223936],[-122.51471355,49.00223936],[-122.49697178,49.00225076],[-122.49260407,49.00223864],[-122.48543271,49.00221835],[-122.48495432,49.00221693],[-122.47882993,49.00223189],[-122.47336276,49.00224506],[-122.46276792,49.00226998],[-122.45956575,49.00227461],[-122.44850568,49.00228957],[-122.4381761,49.00230274],[-122.4264429,49.00230706],[-122.42644259,49.00236256],[-122.42643745,49.00336452],[-122.42640815,49.00907414],[-122.42640767,49.00913871],[-122.42640701,49.00922689],[-122.42640683,49.00929824],[-122.42640662,49.00938391],[-122.42641165,49.0097129],[-122.42641704,49.01006936],[-122.42642727,49.01074688],[-122.42645114,49.01228574],[-122.42645542,49.01254755],[-122.42645644,49.01260974],[-122.42646248,49.01300253],[-122.42648837,49.01468802],[-122.42649885,49.01536488],[-122.42643828,49.01549763],[-122.42640072,49.01557993],[-122.42624599,49.01575125],[-122.42623318,49.01576543],[-122.42619926,49.01579071],[-122.4259931,49.01594262],[-122.42488847,49.01675811],[-122.42651807,49.01676024],[-122.42653188,49.01851149],[-122.42654327,49.01994193],[-122.42655826,49.02184004],[-122.42655896,49.02193126],[-122.42656122,49.02222529],[-122.42548906,49.02349426],[-122.42523546,49.02403831],[-122.42539767,49.02433312],[-122.42637159,49.02514813],[-122.42640482,49.0251823],[-122.4264571,49.02523607],[-122.42658331,49.02536639],[-122.42721054,49.0260144],[-122.42748815,49.02638612],[-122.427647,49.02659937],[-122.42768151,49.02664568],[-122.42765924,49.02676354],[-122.42765844,49.02676674],[-122.42687556,49.02755885],[-122.42570214,49.02874603],[-122.42572641,49.02889273],[-122.425752,49.02892514],[-122.42577055,49.02894863],[-122.42581603,49.02900595],[-122.42623956,49.0291644],[-122.42629652,49.02918569],[-122.42646336,49.02924807],[-122.42655911,49.02933708],[-122.42661359,49.03117858],[-122.42661628,49.03126795],[-122.42661626,49.03127721],[-122.4266068,49.03201308],[-122.42660402,49.03223001],[-122.42660319,49.03229626],[-122.42659538,49.03292253],[-122.42657779,49.03428772],[-122.4265584,49.03579195],[-122.42654874,49.03656547],[-122.42654459,49.03689785],[-122.42654638,49.03813122],[-122.4265466,49.03840668],[-122.42654673,49.03856275],[-122.42654706,49.03874083],[-122.42654788,49.03917445],[-122.42654807,49.03949234],[-122.42654807,49.03949846],[-122.42655189,49.04224362],[-122.42655183,49.04231377],[-122.42655019,49.04284464],[-122.42654857,49.04330359],[-122.4265454,49.0442749],[-122.42654499,49.04440094],[-122.42654438,49.04457911],[-122.42654167,49.04536335],[-122.42654149,49.04547584],[-122.42654146,49.0454983],[-122.4265412,49.04556608],[-122.42654013,49.04584747],[-122.42654012,49.04584901],[-122.42654006,49.04588052],[-122.42653995,49.04594322],[-122.42653991,49.04596829],[-122.42653965,49.0460463],[-122.42653434,49.0476841],[-122.42652818,49.04947745],[-122.4265217,49.05136319],[-122.42652081,49.05167861],[-122.4265197,49.05207387],[-122.42651806,49.05255988],[-122.42651752,49.05259585],[-122.42651628,49.05305444],[-122.42651573,49.05320754],[-122.42651493,49.05321664],[-122.42651354,49.05323247],[-122.42645202,49.05395205],[-122.42643417,49.05416132],[-122.42638219,49.05477061],[-122.42633998,49.0552628],[-122.42630378,49.05568496],[-122.42630288,49.05569386],[-122.42608727,49.05701089],[-122.42604342,49.05731318],[-122.42600477,49.05758071],[-122.42594348,49.05800499],[-122.42589824,49.05831796],[-122.42587466,49.05848068],[-122.42586542,49.05878973],[-122.42585172,49.05924003],[-122.42583668,49.05973434],[-122.4258152,49.06044894],[-122.42580822,49.06083169],[-122.42576308,49.06323362],[-122.42575066,49.0647091],[-122.42574063,49.06593883],[-122.4257343,49.06671474],[-122.42570754,49.06994948],[-122.42570021,49.07081682],[-122.42569499,49.07142871],[-122.4256869,49.07237669],[-122.4258788,49.07287338],[-122.42614487,49.07315359],[-122.42634525,49.07332894],[-122.4268785,49.07379556],[-122.42705183,49.0743008],[-122.42691712,49.07482704],[-122.42681438,49.07495451],[-122.42655416,49.07527567],[-122.42639839,49.07546829],[-122.42626252,49.07563635],[-122.42587967,49.07610954],[-122.4257535,49.0763424],[-122.42573435,49.07651583],[-122.42571446,49.07669596],[-122.42571012,49.07673283],[-122.42570998,49.07673406],[-122.42571887,49.07773492],[-122.42572454,49.07838294],[-122.42572794,49.07875687],[-122.42573795,49.07985842],[-122.42574181,49.08031865],[-122.42574458,49.08064992],[-122.42574708,49.08093761],[-122.42574851,49.08109962],[-122.4257487,49.08111777],[-122.42575038,49.08131538],[-122.42575695,49.08202267],[-122.42575713,49.08204209],[-122.42576136,49.08210974],[-122.42599246,49.08599755],[-122.42604692,49.08691359],[-122.42606173,49.08716568],[-122.42611433,49.08804762],[-122.42619461,49.08939742],[-122.42622214,49.09034986],[-122.42622502,49.09044278],[-122.42622576,49.09046664],[-122.42622711,49.09051495],[-122.42623152,49.09067315],[-122.42623628,49.09083515],[-122.42624717,49.09120809],[-122.42624942,49.0912852],[-122.42625192,49.09137252],[-122.42627082,49.09203185],[-122.4262962,49.09290489],[-122.42629747,49.09294831],[-122.42634849,49.09470402],[-122.42635591,49.09496877],[-122.42636135,49.09516297],[-122.42636746,49.09536885],[-122.42636749,49.09536984],[-122.42640408,49.09662813],[-122.4264747,49.09907377],[-122.42650153,49.10000279],[-122.42651466,49.10045378],[-122.42652285,49.10073519],[-122.42652584,49.10087441],[-122.4265276,49.10096969],[-122.42652977,49.10108697],[-122.42659243,49.10326815],[-122.42659883,49.10349317],[-122.4266003,49.10353495],[-122.42662315,49.10433207],[-122.42663457,49.10472582],[-122.42670829,49.10729403],[-122.42681409,49.110966],[-122.42686503,49.11336294],[-122.42687727,49.11394758],[-122.42689174,49.11462194],[-122.42689255,49.11466893],[-122.42690063,49.11504912],[-122.42690876,49.11544015],[-122.42696442,49.11805027],[-122.42696653,49.11814935],[-122.42700323,49.11975942],[-122.42704966,49.12179213],[-122.42706084,49.12227183],[-122.42707274,49.12278195],[-122.42713299,49.12541781],[-122.42715522,49.1263941],[-122.42715901,49.12656038],[-122.42716223,49.1267002],[-122.42719906,49.1282972],[-122.42720938,49.12875943],[-122.42721282,49.12891317],[-122.42721889,49.12906129],[-122.42725438,49.12990242],[-122.42729783,49.13093235],[-122.42729779,49.13098062],[-122.42729773,49.13103168],[-122.42730475,49.13280304],[-122.42731188,49.13320894],[-122.42732108,49.13373092],[-122.42733817,49.13468443],[-122.42736322,49.13607873],[-122.42737247,49.1366007],[-122.42747736,49.14244213],[-122.42753813,49.14582637],[-122.42753711,49.1458328],[-122.42753672,49.14583527],[-122.42749489,49.14613751],[-122.42743958,49.14653705],[-122.42746364,49.14669087],[-122.42746708,49.14671284],[-122.42753132,49.14712383],[-122.42763895,49.14781065],[-122.42770876,49.14810083],[-122.42778599,49.14815838],[-122.42784208,49.14820017],[-122.42785008,49.14820621],[-122.42785151,49.14820729],[-122.42791481,49.14822746],[-122.4280024,49.14825536],[-122.4289615,49.14829809],[-122.42959826,49.14836787],[-122.43037987,49.14832621],[-122.43044365,49.14834577],[-122.43044953,49.14834758],[-122.43047889,49.14841167],[-122.43045649,49.14847398],[-122.43002063,49.14879478],[-122.42977584,49.14908959],[-122.42959574,49.14920175],[-122.42934742,49.14931141],[-122.42926687,49.14936999],[-122.42916136,49.14944671],[-122.4291585,49.14947503],[-122.42913997,49.14965856],[-122.42926944,49.14998052],[-122.42928587,49.15002138],[-122.42919009,49.15007051],[-122.42859284,49.14995815],[-122.42848609,49.14993806],[-122.42838436,49.14997972],[-122.42838429,49.15033581],[-122.42850964,49.1506348],[-122.42851756,49.15065373],[-122.42852921,49.15069958],[-122.42861463,49.15103577],[-122.42854428,49.1512875],[-122.42815048,49.15159691],[-122.4280013,49.15180485],[-122.42789822,49.15194781],[-122.42782315,49.15205195],[-122.42782732,49.15226665],[-122.42799305,49.15248526],[-122.42816354,49.15271064],[-122.42829277,49.15473836],[-122.42836074,49.15656633],[-122.42852872,49.16110992],[-122.42853365,49.16124451],[-122.42853489,49.16128047],[-122.42854357,49.16151083],[-122.42589636,49.16876362],[-122.42614639,49.16883875],[-122.42639717,49.16891352],[-122.42664761,49.16898793],[-122.42689923,49.16906128],[-122.42715093,49.16913356],[-122.42740334,49.1692037],[-122.42765713,49.16927242],[-122.42791129,49.16933864],[-122.42816766,49.16940202],[-122.42842483,49.16946219],[-122.42868387,49.16951916],[-122.42894467,49.16957221],[-122.42920763,49.16962064],[-122.42947256,49.16966479],[-122.42973936,49.16970573],[-122.4300075,49.16974348],[-122.43027655,49.16977872],[-122.43054686,49.16981184],[-122.43081725,49.16984388],[-122.4310886,49.16987521],[-122.43135961,49.16990619],[-122.43163096,49.16993752],[-122.43190169,49.16996992],[-122.43217234,49.17000339],[-122.43244152,49.17003935],[-122.43270945,49.17007745],[-122.4329766,49.17011875],[-122.43324178,49.17016433],[-122.43350459,49.17021489],[-122.4337662,49.17026936],[-122.43402689,49.17032633],[-122.43428708,49.17038508],[-122.43454652,49.17044419],[-122.43480692,49.17050258],[-122.43506749,49.17055883],[-122.43532918,49.17061224],[-122.43559283,49.17066138],[-122.4358586,49.1707041],[-122.43612749,49.17073686],[-122.43639947,49.1707625],[-122.43667257,49.17078528],[-122.43694546,49.17080843],[-122.4372166,49.17083549],[-122.43748488,49.17087394],[-122.43775395,49.17090919],[-122.43802359,49.17094159],[-122.43829374,49.17097221],[-122.43856493,49.17100105],[-122.43883628,49.17102776],[-122.43910792,49.17105304],[-122.43937965,49.17107725],[-122.43965166,49.17110003],[-122.43992409,49.17112211],[-122.44019673,49.17114383],[-122.44046924,49.17116484],[-122.44074121,49.17118584],[-122.44101406,49.17120721],[-122.44128637,49.17122857],[-122.44155846,49.17125029],[-122.44183123,49.17127272],[-122.44210312,49.17129479],[-122.44237576,49.17131651],[-122.44264807,49.17133788],[-122.44292038,49.17135924],[-122.44319289,49.17138025],[-122.44346541,49.17140125],[-122.44373813,49.17142191],[-122.44401052,49.1714422],[-122.44428312,49.17146214],[-122.44455626,49.17148208],[-122.44482907,49.17150166],[-122.44510154,49.17152089],[-122.44537455,49.17154011],[-122.44564744,49.17155863],[-122.44592012,49.1715775],[-122.44619322,49.17159566],[-122.44646631,49.17161382],[-122.44673908,49.17163162],[-122.44701205,49.17164907],[-122.44728523,49.17166616],[-122.44755874,49.1716836],[-122.4478313,49.17170176],[-122.44810439,49.17171992],[-122.44837728,49.17173844],[-122.44865017,49.17175695],[-122.44892327,49.17177511],[-122.44919637,49.17179327],[-122.44946935,49.17181072],[-122.44974232,49.17182816],[-122.45001592,49.17184454],[-122.45028884,49.17186021],[-122.45056219,49.17187516],[-122.45083582,49.17188869],[-122.45110953,49.17190115],[-122.45138333,49.17191255],[-122.45165762,49.17192216],[-122.45193166,49.17193035],[-122.45220565,49.17193676],[-122.45248009,49.17193961],[-122.45275339,49.17192394],[-122.4530267,49.17190827],[-122.45329966,49.17189225],[-122.45357284,49.17187587],[-122.45384656,49.17185949],[-122.4541194,49.17184276],[-122.45439299,49.17182567],[-122.45446302,49.1718214],[-122.4546657,49.17180822],[-122.45493895,49.17179078],[-122.45521208,49.17177262],[-122.45548487,49.1717541],[-122.45575766,49.17173559],[-122.45603086,49.17171636],[-122.45630353,49.17169713],[-122.45657619,49.17167791],[-122.4568494,49.17165868],[-122.45712227,49.1716391],[-122.45739501,49.1716188],[-122.45766741,49.17159815],[-122.45794003,49.17157714],[-122.45821218,49.17155507],[-122.4584842,49.17153228],[-122.4587563,49.17150843],[-122.45902794,49.1714835],[-122.45929912,49.17145751],[-122.45957024,49.17142974],[-122.45984111,49.17140054],[-122.46011152,49.17137028],[-122.46038146,49.17133895],[-122.46065182,49.1713069],[-122.46092151,49.17127414],[-122.46119141,49.17124103],[-122.46146097,49.17120756],[-122.46131012,49.16846347],[-122.46137904,49.1684838],[-122.46310027,49.16899149],[-122.46333437,49.16908834],[-122.46356743,49.16918696],[-122.46380058,49.16928452],[-122.4640356,49.16937888],[-122.4642745,49.16946753],[-122.46451765,49.169548],[-122.46476718,49.1696185],[-122.46502276,49.16967867],[-122.46528185,49.16973564],[-122.46554369,49.16978976],[-122.46580741,49.16984068],[-122.46607335,49.16988874],[-122.46634116,49.16993361],[-122.46661084,49.16997527],[-122.46688098,49.17001336],[-122.46715232,49.17004754],[-122.46742411,49.17007816],[-122.46769602,49.17010487],[-122.46796859,49.17012766],[-122.46831044,49.17015115],[-122.4684236,49.17015507],[-122.46869681,49.17016931],[-122.46897109,49.17017893]]]},"geometry_name":"SHAPE","properties":{"id":291,"slug":"langley-abbotsford","name":"Langley-Abbotsford","abbreviation":"LLA","gazetteDate":"2023-12-07Z","boundarySet":11},"bbox":[-122.68055783,49.00212115,-122.42488847,49.17193961]}
