{"type":"Feature","id":290,"geometry":{"type":"Polygon","coordinates":[[[-123.50312967,48.55859992],[-123.50323511,48.55859992],[-123.50327384,48.55859992],[-123.50341909,48.55859992],[-123.50353206,48.55859992],[-123.5092015,48.55871421],[-123.51282214,48.5587872],[-123.51295889,48.55867576],[-123.51303703,48.55861456],[-123.51309891,48.5585661],[-123.51318,48.5585064],[-123.51324352,48.55845964],[-123.51339327,48.55835638],[-123.51354869,48.55825633],[-123.51370904,48.55815984],[-123.51387439,48.55806584],[-123.51404294,48.55797469],[-123.51421455,48.55788568],[-123.51438815,48.5577988],[-123.51456307,48.55771335],[-123.51473878,48.55762932],[-123.51481397,48.55759391],[-123.51491569,48.55754601],[-123.51509392,48.55746411],[-123.51523712,48.55739973],[-123.51527369,48.55738329],[-123.51545445,48.55730354],[-123.51552387,48.55727348],[-123.5156362,48.55722485],[-123.51581949,48.55714723],[-123.51600351,48.55707106],[-123.51600356,48.55707103],[-123.51618863,48.55699591],[-123.51637449,48.5569222],[-123.51637473,48.55692211],[-123.51656187,48.55684957],[-123.51662179,48.55682674],[-123.51674971,48.556778],[-123.51686899,48.55673408],[-123.51693921,48.55670822],[-123.51712991,48.55663914],[-123.5173214,48.55657149],[-123.51742436,48.55653587],[-123.51751388,48.55650491],[-123.51755464,48.55649117],[-123.51770714,48.55643975],[-123.51790155,48.55637533],[-123.51790161,48.55637531],[-123.51809633,48.55631228],[-123.51814469,48.5562969],[-123.51829224,48.55624998],[-123.51848841,48.55618909],[-123.51858132,48.5561609],[-123.51868557,48.55612927],[-123.51888385,48.55607124],[-123.51908291,48.55601463],[-123.5192833,48.55595944],[-123.5192835,48.55595938],[-123.51948502,48.55590567],[-123.51968665,48.55585298],[-123.5196868,48.55585294],[-123.51988928,48.55580135],[-123.51988941,48.55580132],[-123.52009257,48.55575043],[-123.52025347,48.55571097],[-123.52029578,48.55570059],[-123.52036434,48.55568392],[-123.52049932,48.5556511],[-123.52054426,48.55564052],[-123.52070365,48.55560303],[-123.52083708,48.5555724],[-123.52090843,48.55555603],[-123.52107846,48.55551843],[-123.52111454,48.55551046],[-123.52132056,48.55546595],[-123.52152725,48.55542215],[-123.52173373,48.55537872],[-123.52180074,48.55536466],[-123.52180095,48.55536461],[-123.52180126,48.55536455],[-123.52194075,48.55533528],[-123.52214756,48.5552922],[-123.52228861,48.55526281],[-123.52235437,48.55524911],[-123.52243679,48.55523165],[-123.52243724,48.55523155],[-123.52243756,48.55523149],[-123.52256106,48.55520532],[-123.52266951,48.55518256],[-123.52276808,48.55516188],[-123.52297456,48.55511844],[-123.52318137,48.55507536],[-123.52338851,48.55503263],[-123.52359578,48.55499062],[-123.5238037,48.55494932],[-123.52401155,48.55490908],[-123.52422039,48.55486992],[-123.52442936,48.55483146],[-123.52451777,48.55481537],[-123.52463865,48.55479337],[-123.52484787,48.55475634],[-123.52484802,48.55475631],[-123.52505778,48.55471969],[-123.52505795,48.55471966],[-123.52526762,48.5546837],[-123.52547795,48.55464845],[-123.52547803,48.55464844],[-123.52551014,48.55464317],[-123.52568841,48.55461392],[-123.5257366,48.5546061],[-123.5258992,48.55457973],[-123.52611044,48.55454662],[-123.52632128,48.55451422],[-123.52646314,48.55449373],[-123.52653322,48.5544836],[-123.5266291,48.55447026],[-123.52674563,48.55445405],[-123.52688579,48.55443551],[-123.52695829,48.55442592],[-123.52701282,48.55441881],[-123.52717127,48.55439815],[-123.52729006,48.55438307],[-123.52738438,48.55437109],[-123.52752418,48.55435308],[-123.52759716,48.55434367],[-123.52781015,48.5543159],[-123.52795843,48.55429601],[-123.52802247,48.55428742],[-123.52805761,48.55428246],[-123.52823455,48.55425751],[-123.52844617,48.5542262],[-123.52844637,48.55422618],[-123.52865674,48.55419271],[-123.52877029,48.55417368],[-123.52886707,48.55415746],[-123.52907595,48.55412007],[-123.52928458,48.55408126],[-123.52942905,48.55405337],[-123.52949295,48.55404103],[-123.5295716,48.55402552],[-123.52970067,48.55400008],[-123.52977182,48.55398569],[-123.52990847,48.55395807],[-123.53005186,48.553929],[-123.53011572,48.55391605],[-123.53032319,48.55387368],[-123.53053065,48.55383131],[-123.53073791,48.5537893],[-123.53094583,48.553748],[-123.53115387,48.55370741],[-123.53136237,48.55366788],[-123.53155189,48.55363367],[-123.53157146,48.55363014],[-123.53178132,48.55359383],[-123.53199111,48.55355858],[-123.53220189,48.55352439],[-123.5324128,48.55349093],[-123.53259785,48.55346192],[-123.53262404,48.55345781],[-123.53283507,48.55342506],[-123.53300051,48.55339969],[-123.53304643,48.55339266],[-123.53325746,48.5533599],[-123.53332878,48.55334858],[-123.53346836,48.55332643],[-123.53365736,48.55329615],[-123.53367947,48.55329261],[-123.53370706,48.55328802],[-123.53388959,48.55325771],[-123.5340516,48.55323081],[-123.5340997,48.55322282],[-123.5341536,48.5532137],[-123.53431023,48.55318721],[-123.53451989,48.55315125],[-123.53472997,48.55311458],[-123.53484027,48.55309484],[-123.53493884,48.55307719],[-123.53503746,48.5530587],[-123.53514766,48.55303803],[-123.53535603,48.55299779],[-123.53544857,48.55297969],[-123.53556353,48.5529572],[-123.53577145,48.5529159],[-123.53597903,48.55287424],[-123.53618628,48.55283223],[-123.53624824,48.55281945],[-123.53639341,48.5527895],[-123.53660053,48.55274678],[-123.53675786,48.552714],[-123.53680732,48.55270369],[-123.53701432,48.55266026],[-123.53715976,48.55262914],[-123.53722066,48.55261611],[-123.53742699,48.55257196],[-123.537633,48.55252745],[-123.53783855,48.55248187],[-123.53787428,48.55247377],[-123.53804418,48.55243523],[-123.53814085,48.55241304],[-123.53824893,48.55238823],[-123.53841312,48.55234995],[-123.53845357,48.55234052],[-123.53865766,48.55229281],[-123.53866607,48.55229084],[-123.5388625,48.55224474],[-123.53906693,48.55219739],[-123.53906708,48.55219735],[-123.53927223,48.55215039],[-123.53947711,48.5521041],[-123.53955568,48.55208673],[-123.53968319,48.55205853],[-123.53971337,48.55205207],[-123.53988952,48.55201438],[-123.54009664,48.55197165],[-123.54018313,48.55195429],[-123.54030422,48.55192999],[-123.54040114,48.55191054],[-123.54040124,48.55191052],[-123.54051179,48.55188833],[-123.5407197,48.55184703],[-123.54092728,48.55180537],[-123.5410134,48.55178791],[-123.54113452,48.55176336],[-123.54134098,48.55171992],[-123.54154713,48.55167507],[-123.54154718,48.55167506],[-123.54175206,48.55162846],[-123.54175227,48.55162842],[-123.54175809,48.55162706],[-123.54195689,48.55158071],[-123.54207661,48.55155344],[-123.54216326,48.55153371],[-123.54233652,48.551493],[-123.54233678,48.55149294],[-123.54233693,48.55149291],[-123.54236938,48.55148528],[-123.542415,48.55147401],[-123.54257404,48.55143472],[-123.5427756,48.55138025],[-123.54297306,48.55132079],[-123.54311597,48.55127113],[-123.54316367,48.55125456],[-123.54329595,48.55120183],[-123.54334767,48.55118121],[-123.5435283,48.55110253],[-123.54370549,48.55101957],[-123.54387957,48.55093269],[-123.5438798,48.55093257],[-123.54389107,48.5509266],[-123.54405034,48.55084225],[-123.54408549,48.55082269],[-123.54421792,48.55074897],[-123.54438123,48.55065283],[-123.54446486,48.55060108],[-123.54454061,48.55055421],[-123.54469598,48.55045416],[-123.54484633,48.55035161],[-123.54499056,48.5502448],[-123.54512931,48.55013442],[-123.54521887,48.55005903],[-123.54526381,48.5500212],[-123.5453947,48.54990584],[-123.54552319,48.54978905],[-123.54565048,48.54967155],[-123.54577703,48.54955441],[-123.54577709,48.54955435],[-123.54577837,48.54955318],[-123.54590477,48.54943798],[-123.54603252,48.54932155],[-123.54616047,48.54920477],[-123.54628755,48.54908763],[-123.54635703,48.54902193],[-123.54641256,48.54896942],[-123.5465353,48.5488505],[-123.54665492,48.54873033],[-123.54665509,48.54873015],[-123.54677013,48.54860874],[-123.54688083,48.54848554],[-123.54698522,48.54836021],[-123.54698531,48.54836009],[-123.54700317,48.54833591],[-123.5470046,48.54833397],[-123.54708039,48.54823132],[-123.54716753,48.54809958],[-123.54720213,48.54804268],[-123.54724892,48.54796571],[-123.54729836,48.54787865],[-123.54732575,48.54783041],[-123.5473428,48.54779953],[-123.54740064,48.54769475],[-123.547475,48.54755909],[-123.54754947,48.54742415],[-123.54754952,48.54742405],[-123.54762275,48.54728849],[-123.54766691,48.5472043],[-123.54769408,48.54715248],[-123.54776401,48.54701611],[-123.54780714,48.54693001],[-123.54783232,48.54687975],[-123.54786608,48.54681023],[-123.54786614,48.5468101],[-123.54789889,48.54674267],[-123.54793124,48.54667444],[-123.54796406,48.54660523],[-123.54798929,48.54655024],[-123.54802728,48.54646744],[-123.54808943,48.54632965],[-123.54815232,48.5461915],[-123.54821468,48.54605335],[-123.54827563,48.54591484],[-123.54833376,48.54577563],[-123.54838834,48.54563606],[-123.54843774,48.54549613],[-123.54846273,48.54541609],[-123.54848164,48.54535549],[-123.5485083,48.54525156],[-123.54851789,48.54521413],[-123.54852755,48.54517047],[-123.54854938,48.54507171],[-123.54856402,48.54499107],[-123.54856406,48.54499088],[-123.54856408,48.54499076],[-123.54857537,48.54492858],[-123.5485966,48.54478438],[-123.54860298,48.54472635],[-123.54861245,48.54464018],[-123.54861923,48.54454184],[-123.54862239,48.54449598],[-123.54862641,48.54435177],[-123.54862464,48.54420829],[-123.54862317,48.54418407],[-123.54862178,48.54416129],[-123.54861514,48.54406515],[-123.54860904,48.54402876],[-123.54859124,48.54392273],[-123.54855671,48.54378102],[-123.54851486,48.54363896],[-123.54847012,48.54349725],[-123.54842624,48.5433559],[-123.5484077,48.54328861],[-123.54838708,48.54321383],[-123.54835041,48.54307212],[-123.5483132,48.54293041],[-123.54827565,48.54278835],[-123.54824883,48.54268763],[-123.54823791,48.54264664],[-123.54822392,48.54259339],[-123.5482007,48.54250493],[-123.54816349,48.54236322],[-123.54812653,48.5422213],[-123.54812649,48.54222116],[-123.54809036,48.54207945],[-123.54806293,48.54197098],[-123.54805444,48.54193738],[-123.54801851,48.54179532],[-123.54798292,48.54165361],[-123.547947,48.54151155],[-123.54791055,48.54136948],[-123.5478843,48.54126805],[-123.54787388,48.54122777],[-123.54783561,48.54108606],[-123.54782726,48.54105664],[-123.54782722,48.54105649],[-123.54779551,48.54094471],[-123.54775455,48.540803],[-123.54771338,48.54066165],[-123.54768774,48.54057244],[-123.54767276,48.5405203],[-123.5476332,48.54037894],[-123.54760914,48.54028984],[-123.54759493,48.54023723],[-123.54755958,48.54009526],[-123.54755956,48.54009517],[-123.54752742,48.5399531],[-123.54751444,48.53989045],[-123.54749784,48.53981033],[-123.54747095,48.53966755],[-123.54744621,48.53952477],[-123.54742275,48.53938164],[-123.54740058,48.53923815],[-123.54737928,48.53909502],[-123.54737644,48.53907572],[-123.54735818,48.53895153],[-123.54734237,48.53884788],[-123.54734234,48.53884774],[-123.54734229,48.53884736],[-123.54733634,48.5388084],[-123.54731504,48.53866526],[-123.54731503,48.53866521],[-123.54729449,48.53852177],[-123.54727426,48.53837864],[-123.54727425,48.53837856],[-123.54725532,48.53823515],[-123.54725008,48.53819303],[-123.54723746,48.53809166],[-123.54722121,48.53794817],[-123.54720658,48.53780468],[-123.54720034,48.53772463],[-123.54719537,48.53766084],[-123.54718632,48.53751699],[-123.54717889,48.53737315],[-123.54717145,48.5372293],[-123.54716455,48.53711267],[-123.54716294,48.53708546],[-123.54716137,48.53706314],[-123.54715282,48.53694161],[-123.54713873,48.53679812],[-123.54712162,48.53665428],[-123.54710376,48.53651079],[-123.54708699,48.5363673],[-123.54708074,48.53630117],[-123.54708072,48.53630093],[-123.54707344,48.53622381],[-123.54706655,48.53607997],[-123.54707366,48.53597337],[-123.54707612,48.53593648],[-123.54709909,48.53572819],[-123.54326177,48.53234303],[-123.54079549,48.530167],[-123.54038523,48.52978354],[-123.54029939,48.52972073],[-123.54021541,48.52965928],[-123.54019757,48.52963257],[-123.54017074,48.52957026],[-123.5401275,48.52946985],[-123.54003445,48.52929015],[-123.54003432,48.5292899],[-123.53999366,48.52921136],[-123.53996287,48.52916018],[-123.53986943,48.52900485],[-123.53968042,48.52873674],[-123.53956104,48.5283739],[-123.53951782,48.52824254],[-123.53942666,48.52805597],[-123.53939099,48.52756355],[-123.53937704,48.52750053],[-123.53912139,48.52687495],[-123.53898441,48.52665063],[-123.53891089,48.52653741],[-123.53888653,48.52650251],[-123.53893374,48.52625079],[-123.53894195,48.52615464],[-123.53894682,48.52609768],[-123.53895181,48.52603212],[-123.53895857,48.52594316],[-123.53894759,48.52556126],[-123.53894758,48.52556111],[-123.53894726,48.52555873],[-123.5389328,48.52545323],[-123.53890939,48.52533917],[-123.53888268,48.52520898],[-123.5386945,48.52475552],[-123.53869444,48.52475537],[-123.53863232,48.52466856],[-123.53850715,48.52449367],[-123.53848972,48.52437043],[-123.53846555,48.52419957],[-123.53849394,48.52411743],[-123.53859437,48.52382678],[-123.53861145,48.5237418],[-123.5386197,48.52370074],[-123.53862537,48.52366691],[-123.53862541,48.52366679],[-123.53863006,48.52365491],[-123.53863043,48.52365397],[-123.53870735,48.5234572],[-123.53875609,48.52330659],[-123.53880375,48.52316524],[-123.53883563,48.52306127],[-123.5388794,48.52290323],[-123.53888809,48.52287185],[-123.53891459,48.52276325],[-123.5389163,48.52275501],[-123.53891632,48.52275491],[-123.53892571,48.52270984],[-123.53895256,48.52264756],[-123.53895672,48.52263792],[-123.53905702,48.52234204],[-123.53907905,48.5222541],[-123.53908538,48.52223461],[-123.53908587,48.52223309],[-123.53910547,48.52217434],[-123.53910718,48.52215517],[-123.53910811,48.52214479],[-123.53919814,48.52203741],[-123.53949109,48.52168798],[-123.53954414,48.52160679],[-123.53984089,48.52091427],[-123.53985491,48.52085125],[-123.53985574,48.5205308],[-123.53985688,48.52008966],[-123.53982827,48.51995471],[-123.53959761,48.51938666],[-123.53956658,48.51931026],[-123.539553,48.51928808],[-123.53949786,48.5191981],[-123.53945543,48.51912564],[-123.53945523,48.51912529],[-123.5394007,48.51903218],[-123.53930342,48.51887943],[-123.53917917,48.51869998],[-123.53915696,48.51866866],[-123.53913927,48.51864373],[-123.53908498,48.51857002],[-123.53900552,48.51846214],[-123.53899909,48.51844343],[-123.53898973,48.51841621],[-123.5389717,48.51836981],[-123.53897168,48.51836977],[-123.5389615,48.51834357],[-123.53894422,48.5182243],[-123.53893316,48.5180712],[-123.53892355,48.51798173],[-123.53891973,48.51794622],[-123.53891356,48.51790346],[-123.53889618,48.51778315],[-123.53889513,48.51777108],[-123.53889325,48.51774932],[-123.5389098,48.51771722],[-123.53894408,48.5176507],[-123.53902274,48.51746909],[-123.53906236,48.5173776],[-123.53910761,48.51724693],[-123.53916242,48.51711555],[-123.53927667,48.51674205],[-123.53929905,48.51662937],[-123.53931606,48.51654373],[-123.53932653,48.51647683],[-123.53933667,48.51641199],[-123.53936064,48.51621616],[-123.53936633,48.51617096],[-123.53937981,48.51606377],[-123.53939608,48.51597426],[-123.53940795,48.51590889],[-123.53942414,48.51580421],[-123.53942482,48.51579907],[-123.53942936,48.51576469],[-123.53953137,48.51565654],[-123.53953146,48.51565645],[-123.53957966,48.51559667],[-123.53979672,48.51532746],[-123.53984835,48.51525128],[-123.53992803,48.51513376],[-123.53996107,48.51508713],[-123.54005921,48.51494862],[-123.54020399,48.51471299],[-123.54022614,48.51467695],[-123.54024974,48.51463145],[-123.54029798,48.51453844],[-123.5403417,48.51447613],[-123.54043417,48.51435116],[-123.54050245,48.51426784],[-123.54061105,48.51414287],[-123.54069033,48.51404709],[-123.54073148,48.51399475],[-123.54074875,48.51397706],[-123.54076068,48.51396484],[-123.54089417,48.51382385],[-123.54103593,48.51363654],[-123.54123855,48.51336881],[-123.54131787,48.51323432],[-123.54134481,48.51318865],[-123.54135598,48.51316898],[-123.54136847,48.51314699],[-123.54140158,48.51308796],[-123.54147472,48.51295757],[-123.54151864,48.51287178],[-123.54154252,48.51282512],[-123.54158185,48.51274207],[-123.54164924,48.51259974],[-123.54169584,48.51249271],[-123.54169591,48.51249257],[-123.54176446,48.51232273],[-123.54179269,48.51226339],[-123.54181071,48.51222553],[-123.54183618,48.51218074],[-123.54183623,48.51218066],[-123.54186729,48.51212441],[-123.54188595,48.51208952],[-123.54192887,48.51203504],[-123.54202392,48.51189084],[-123.5420438,48.5118635],[-123.54206664,48.51183209],[-123.54215356,48.51172068],[-123.54216553,48.51170534],[-123.54222038,48.51162995],[-123.54225871,48.51157728],[-123.5422588,48.51157716],[-123.54229279,48.51152695],[-123.54232596,48.51147817],[-123.54238832,48.51138993],[-123.54246485,48.51128163],[-123.5425311,48.51121291],[-123.54254678,48.51119434],[-123.54256898,48.51116805],[-123.54296566,48.51091169],[-123.54312797,48.51078494],[-123.54316175,48.51075824],[-123.5431618,48.51075819],[-123.54319925,48.51072213],[-123.54342198,48.5105077],[-123.54356413,48.51037085],[-123.54366691,48.51022128],[-123.54377601,48.51006251],[-123.54377633,48.51006231],[-123.5438794,48.50999884],[-123.54389568,48.50998881],[-123.54398839,48.50992543],[-123.54400005,48.50991529],[-123.54457477,48.50941556],[-123.54469495,48.50927991],[-123.54475631,48.50920768],[-123.54477481,48.50918591],[-123.54481629,48.50914781],[-123.54505328,48.5089591],[-123.54551168,48.50897306],[-123.5524379,48.50918375],[-123.55247369,48.50918484],[-123.55249732,48.50918555],[-123.55258093,48.50918805],[-123.55307191,48.50920208],[-123.5565322,48.50930091],[-123.55667024,48.50930522],[-123.55706906,48.50931765],[-123.55714145,48.50931978],[-123.55714161,48.50931767],[-123.55718415,48.50877324],[-123.55717154,48.50838586],[-123.55719939,48.50776775],[-123.55714489,48.50727391],[-123.55705901,48.50662126],[-123.55685429,48.50618439],[-123.55657195,48.505797],[-123.55557181,48.50490687],[-123.5553813,48.50468897],[-123.55549792,48.5046936],[-123.55574813,48.50470321],[-123.55650601,48.5047381],[-123.55651138,48.5047381],[-123.55680037,48.50475128],[-123.55697029,48.50475894],[-123.55702921,48.5047616],[-123.55705116,48.50476267],[-123.55731734,48.50477442],[-123.55716289,48.50462025],[-123.55701459,48.50439629],[-123.55692607,48.50415916],[-123.55689951,48.50391527],[-123.55693488,48.50367208],[-123.55702183,48.5034613],[-123.55715428,48.50328968],[-123.55735465,48.50310845],[-123.55754656,48.50288627],[-123.55768284,48.50264701],[-123.55776124,48.50239635],[-123.55777881,48.50214034],[-123.55773537,48.50188577],[-123.55759723,48.50139086],[-123.55753282,48.50098923],[-123.55751908,48.50058546],[-123.55752536,48.50039426],[-123.55740513,48.49955683],[-123.55735855,48.49882301],[-123.55733287,48.49780719],[-123.55733711,48.49766762],[-123.55735652,48.49752875],[-123.55739177,48.49739132],[-123.55744243,48.49725602],[-123.55750776,48.49712321],[-123.55756187,48.49703562],[-123.55776675,48.49678745],[-123.55938893,48.49482383],[-123.55940672,48.49479783],[-123.5594231,48.49477149],[-123.55943915,48.49474478],[-123.55945467,48.49471808],[-123.5594691,48.49469137],[-123.55948268,48.49466431],[-123.55949592,48.4946369],[-123.55949828,48.49463191],[-123.55952413,48.49458741],[-123.55957839,48.4944635],[-123.55961657,48.49433675],[-123.55963751,48.49420821],[-123.55964147,48.49407932],[-123.55962878,48.49395043],[-123.55959935,48.49382261],[-123.55955289,48.49369728],[-123.5594906,48.49357515],[-123.55941206,48.49345694],[-123.55931881,48.49334372],[-123.55882744,48.49280608],[-123.5587512,48.4927135],[-123.55868746,48.49261701],[-123.55863673,48.49251661],[-123.55859961,48.49241406],[-123.55856727,48.49220435],[-123.55859068,48.49199392],[-123.55866967,48.49178955],[-123.55899489,48.49117714],[-123.55906145,48.49103578],[-123.55911139,48.49089158],[-123.55914538,48.49074525],[-123.55916227,48.49059784],[-123.55916271,48.49045008],[-123.55914703,48.49030232],[-123.55911387,48.49015598],[-123.55906497,48.49001178],[-123.55899991,48.48987043],[-123.55877002,48.48943213],[-123.55876227,48.48941681],[-123.55867202,48.48924484],[-123.55858196,48.48905685],[-123.55850645,48.488866],[-123.55844582,48.48867267],[-123.55840073,48.48847755],[-123.55837077,48.48828136],[-123.55835647,48.48808411],[-123.55835742,48.4878865],[-123.55837354,48.4876896],[-123.55840536,48.48749342],[-123.55845322,48.48725486],[-123.5584816,48.48707292],[-123.55849374,48.48689027],[-123.55848944,48.48670726],[-123.55846882,48.4865246],[-123.55843233,48.48634337],[-123.55837923,48.48616392],[-123.55831039,48.48598661],[-123.55822379,48.485789],[-123.55817672,48.48566295],[-123.55814432,48.48553478],[-123.55812704,48.48540553],[-123.55812502,48.48527593],[-123.5581375,48.48514632],[-123.55816547,48.48501779],[-123.55820853,48.48489103],[-123.55834439,48.484551],[-123.55839035,48.48441464],[-123.55841929,48.48427613],[-123.55843058,48.48413656],[-123.55842522,48.48399699],[-123.55840247,48.48385777],[-123.5583629,48.48372069],[-123.5583063,48.4835861],[-123.55823367,48.48345507],[-123.55814513,48.48332832],[-123.55799926,48.48314032],[-123.55799591,48.48313382],[-123.55797764,48.48309827],[-123.55797455,48.48309226],[-123.55795608,48.48305843],[-123.55794379,48.48303749],[-123.55793665,48.48302532],[-123.55792665,48.48300916],[-123.55789676,48.48296087],[-123.55755951,48.48249409],[-123.55752534,48.48245029],[-123.55720626,48.4820419],[-123.55720004,48.48203426],[-123.55717691,48.48200583],[-123.55716772,48.48199455],[-123.55716081,48.4819868],[-123.55712641,48.48194826],[-123.55708361,48.48190269],[-123.55703825,48.48185782],[-123.55697894,48.4818037],[-123.55692911,48.48176098],[-123.55687757,48.48171982],[-123.55687738,48.48171968],[-123.55686001,48.48170614],[-123.55682396,48.48167944],[-123.55681185,48.48167103],[-123.5567681,48.48164063],[-123.55671453,48.48160504],[-123.55671075,48.48160253],[-123.55670554,48.48159931],[-123.55665592,48.4815686],[-123.5566515,48.48156586],[-123.55664652,48.48156296],[-123.55659639,48.48153381],[-123.55659088,48.48153061],[-123.55658196,48.48152576],[-123.55653434,48.48149986],[-123.55652804,48.48149643],[-123.55652246,48.48149358],[-123.55646399,48.48146376],[-123.55646382,48.48146367],[-123.55586408,48.48117313],[-123.55586183,48.48117196],[-123.55575812,48.48111795],[-123.55565659,48.48105884],[-123.55556035,48.48099618],[-123.55548812,48.48094444],[-123.55548678,48.48094348],[-123.55548512,48.48094218],[-123.55542561,48.4808954],[-123.55541747,48.480889],[-123.55541329,48.48088535],[-123.55533878,48.48082027],[-123.55533554,48.48081744],[-123.5553327,48.48081464],[-123.55526043,48.48074338],[-123.55515301,48.48061951],[-123.55515174,48.48061805],[-123.55451713,48.47980132],[-123.55359199,48.47861063],[-123.55349099,48.4784753],[-123.55348995,48.4784739],[-123.55348924,48.47847271],[-123.55340275,48.47832828],[-123.55335487,48.47822841],[-123.55335154,48.47822146],[-123.55334904,48.4782147],[-123.55331123,48.47811251],[-123.55328638,48.47802736],[-123.55328557,48.47802456],[-123.55328486,48.47802123],[-123.55326782,48.4779409],[-123.55326676,48.47793591],[-123.55326632,48.47793239],[-123.55325282,48.47782411],[-123.55324878,48.47771826],[-123.55324855,48.47771231],[-123.55324889,48.4777075],[-123.5532584,48.47757345],[-123.55327311,48.47748443],[-123.55329995,48.4773757],[-123.55330044,48.4773737],[-123.55330103,48.47737204],[-123.55334689,48.47724303],[-123.55334694,48.47724291],[-123.55339686,48.47713586],[-123.55345613,48.47703118],[-123.5535055,48.47695635],[-123.5535104,48.47694893],[-123.55351911,48.47693724],[-123.55358366,48.47685066],[-123.55358915,48.47684307],[-123.55362746,48.47679013],[-123.55366811,48.47673247],[-123.55367038,48.47672925],[-123.5536722,48.47672654],[-123.55372553,48.47664735],[-123.55377873,48.47656511],[-123.5538109,48.47651362],[-123.55381744,48.47650315],[-123.55382382,48.4764925],[-123.55384953,48.47644956],[-123.55385496,48.47644049],[-123.55385869,48.47643396],[-123.55389086,48.47637782],[-123.5539259,48.4763148],[-123.55395251,48.47626545],[-123.55396007,48.47625142],[-123.55398203,48.47620905],[-123.55399034,48.4761922],[-123.55401839,48.47613532],[-123.554024,48.47612396],[-123.55404455,48.47608123],[-123.55407397,48.47601678],[-123.55409013,48.47597933],[-123.55410178,48.47595234],[-123.55413759,48.47586582],[-123.55413762,48.47586574],[-123.55416314,48.47580066],[-123.55417574,48.47576634],[-123.55418121,48.47575145],[-123.55418706,48.4757355],[-123.55419026,48.47572624],[-123.55421515,48.47565397],[-123.55423289,48.47559977],[-123.5542366,48.47558845],[-123.5542377,48.47558478],[-123.55426013,48.47551017],[-123.55426304,48.47550051],[-123.55426575,48.47549093],[-123.55434749,48.47520155],[-123.55442538,48.47492584],[-123.55454865,48.47448844],[-123.55462989,48.47420021],[-123.55463052,48.47419837],[-123.55466021,48.47411297],[-123.5546857,48.47405503],[-123.55468856,48.47404853],[-123.55469518,48.47403575],[-123.55470525,48.47401633],[-123.55471052,48.47400616],[-123.55471265,48.47400259],[-123.55474859,48.47394236],[-123.5547528,48.4739353],[-123.55476082,48.47392339],[-123.55476901,48.47391123],[-123.55478038,48.47389436],[-123.55479533,48.47387431],[-123.5548072,48.4738584],[-123.55481037,48.47385457],[-123.55485943,48.47379537],[-123.55490171,48.47374944],[-123.55494245,48.47370887],[-123.5549464,48.47370494],[-123.55494962,48.47370206],[-123.55500962,48.47364857],[-123.55501109,48.47364726],[-123.55501264,48.47364603],[-123.55508004,48.47359242],[-123.55508013,48.47359236],[-123.55510794,48.47357184],[-123.55511672,48.47356536],[-123.5551286,48.47355703],[-123.55516708,48.47353004],[-123.55517205,48.47352655],[-123.55517557,48.47352424],[-123.55524872,48.473476],[-123.55530785,48.47343897],[-123.55531479,48.47343479],[-123.5553475,48.47341511],[-123.55534804,48.4734148],[-123.55536531,48.47340492],[-123.55538856,48.47339161],[-123.55544078,48.47336277],[-123.55545223,48.47335643],[-123.55546137,48.47335138],[-123.55547536,48.47334409],[-123.55550375,48.4733293],[-123.55553296,48.47331444],[-123.55554645,48.47330758],[-123.5555551,48.47330334],[-123.55557255,48.47329479],[-123.55557259,48.47329477],[-123.55559003,48.47328622],[-123.55560383,48.47327977],[-123.55563426,48.47326557],[-123.55567883,48.47324527],[-123.55573685,48.47321993],[-123.5557465,48.47321572],[-123.55651312,48.47289802],[-123.55687371,48.47274858],[-123.55687867,48.47274645],[-123.55693161,48.47272372],[-123.55694171,48.47271938],[-123.55694922,48.47271596],[-123.55698627,48.47269909],[-123.55698634,48.47269906],[-123.55703017,48.47267808],[-123.55707321,48.47265672],[-123.55711016,48.47263771],[-123.55711612,48.47263464],[-123.55715763,48.47261221],[-123.55716999,48.47260511],[-123.55721895,48.47257696],[-123.55723888,48.47256486],[-123.55727874,48.47254065],[-123.55727896,48.4725405],[-123.5573174,48.47251572],[-123.5573234,48.47251183],[-123.55734155,48.47250006],[-123.55735599,48.47248995],[-123.55737868,48.47247406],[-123.55741549,48.47244772],[-123.55744497,48.47242581],[-123.55745143,48.47242101],[-123.55745664,48.4724169],[-123.55748617,48.4723936],[-123.55751685,48.47236884],[-123.55752058,48.47236582],[-123.55752561,48.47236153],[-123.55755359,48.4723377],[-123.55758594,48.47230886],[-123.557626,48.47227149],[-123.55763289,48.47226506],[-123.55763817,48.47225972],[-123.55767724,48.4722202],[-123.55769469,48.47220191],[-123.55770612,48.47218993],[-123.55771506,48.47217973],[-123.55773326,48.47215896],[-123.55775987,48.47212798],[-123.55777961,48.47210388],[-123.55778582,48.47209629],[-123.55779217,48.47208802],[-123.55781016,48.4720646],[-123.55782518,48.47204432],[-123.55783967,48.47202401],[-123.55786724,48.47198307],[-123.55789341,48.47194177],[-123.5579139,48.4719073],[-123.55791818,48.47190011],[-123.55792986,48.4718791],[-123.55793986,48.4718598],[-123.55794182,48.47185602],[-123.55795181,48.47183673],[-123.55796209,48.47181537],[-123.55796795,48.47180251],[-123.55797405,48.47178913],[-123.55798157,48.47177264],[-123.5579886,48.47175543],[-123.55799044,48.47175092],[-123.55801491,48.47168576],[-123.55803546,48.47162168],[-123.55803603,48.47161989],[-123.5580367,48.47161729],[-123.55805054,48.47156351],[-123.55805307,48.47155367],[-123.55805538,48.47154184],[-123.55806177,48.47150916],[-123.55807221,48.47144237],[-123.55807223,48.47144222],[-123.55807227,48.47144188],[-123.55807841,48.47137529],[-123.55808033,48.47133042],[-123.55808065,48.47128556],[-123.55807964,48.47125075],[-123.55807935,48.4712407],[-123.55807861,48.47123166],[-123.5580757,48.47119619],[-123.55807064,48.47115133],[-123.55806737,48.47112925],[-123.55805963,48.47108439],[-123.55805528,48.47106232],[-123.55804498,48.47101817],[-123.55804496,48.47101808],[-123.55803948,48.47099716],[-123.55786565,48.47036161],[-123.55785448,48.4703171],[-123.55784656,48.47028126],[-123.55784472,48.47027295],[-123.55784354,48.47026634],[-123.55783677,48.47022844],[-123.5578299,48.47018394],[-123.55782778,48.47016827],[-123.55782696,48.47016222],[-123.55778823,48.46984121],[-123.55756443,48.46798602],[-123.55755934,48.46791909],[-123.55755858,48.46787422],[-123.55756121,48.46780693],[-123.55756583,48.46776207],[-123.55757663,48.46769549],[-123.55759101,48.46763209],[-123.55759174,48.4676289],[-123.55759456,48.46761927],[-123.55760233,48.4675928],[-123.55760594,48.46758048],[-123.55761321,48.46755876],[-123.55761646,48.46755029],[-123.55763456,48.46750313],[-123.55763822,48.4674936],[-123.55764327,48.46748255],[-123.55765791,48.46745052],[-123.55769048,48.46738714],[-123.55770957,48.46735359],[-123.55771439,48.46734513],[-123.55772455,48.4673291],[-123.55772747,48.46732448],[-123.55775451,48.46728353],[-123.55775458,48.46728343],[-123.55778587,48.46723977],[-123.5577859,48.46723974],[-123.55778653,48.46723891],[-123.55781044,48.46720769],[-123.55782278,48.46719203],[-123.55783553,48.46717612],[-123.55784819,48.46716034],[-123.55785671,48.46715062],[-123.55787534,48.46712936],[-123.55788353,48.4671198],[-123.55788875,48.4671137],[-123.55790249,48.46709839],[-123.55791091,48.46708956],[-123.55793137,48.46706812],[-123.55796079,48.46703786],[-123.55799087,48.4670083],[-123.55801631,48.4669843],[-123.55802182,48.46697911],[-123.55802607,48.46697531],[-123.55805416,48.46695027],[-123.55810372,48.46690754],[-123.55815513,48.46686624],[-123.55818909,48.46684004],[-123.55819021,48.46683918],[-123.5581924,48.46683755],[-123.55822009,48.46681698],[-123.55822615,48.46681248],[-123.55824455,48.4667993],[-123.55825993,48.46678861],[-123.55826349,48.46678613],[-123.55828039,48.46677456],[-123.55830096,48.46676049],[-123.55832002,48.46674803],[-123.55833929,48.46673521],[-123.55837828,48.46671064],[-123.55839821,48.46669854],[-123.55841834,48.46668659],[-123.5584384,48.46667468],[-123.55845368,48.46666603],[-123.55847925,48.46665154],[-123.55849364,48.4666436],[-123.55852117,48.4666284],[-123.55854209,48.46661736],[-123.55855284,48.46661183],[-123.55856355,48.46660632],[-123.55857115,48.46660231],[-123.55858447,48.46659528],[-123.55860344,48.466586],[-123.55860774,48.46658389],[-123.55865089,48.46656222],[-123.55865098,48.46656217],[-123.55869402,48.46654081],[-123.55873706,48.46651945],[-123.55873795,48.46651901],[-123.55916381,48.46631348],[-123.5591738,48.46630866],[-123.55918834,48.46630193],[-123.55943837,48.46618618],[-123.56005433,48.46590454],[-123.5601068,48.46588105],[-123.56012113,48.46587463],[-123.56016668,48.46585541],[-123.56016681,48.46585535],[-123.56021257,48.46583654],[-123.56023567,48.46582728],[-123.56026943,48.46581446],[-123.56028254,48.46580948],[-123.56029088,48.46580631],[-123.56029092,48.4658063],[-123.56030598,48.46580057],[-123.56031786,48.4657963],[-123.56035351,48.46578348],[-123.56036476,48.46577944],[-123.56037727,48.46577494],[-123.56042492,48.46575856],[-123.56046737,48.46574467],[-123.5604812,48.4657404],[-123.56049159,48.4657372],[-123.56052297,48.46572743],[-123.56054076,48.46572189],[-123.56059007,48.46570729],[-123.5606075,48.46570255],[-123.56061494,48.46570052],[-123.56062235,48.46569838],[-123.56063949,48.4656934],[-123.56066437,48.46568664],[-123.56068457,48.4656815],[-123.56068958,48.46568023],[-123.56073999,48.46566741],[-123.56074653,48.46566575],[-123.5607652,48.465661],[-123.56079073,48.46565495],[-123.56081606,48.46564925],[-123.56081931,48.46564854],[-123.56084193,48.46564356],[-123.56086365,48.46563867],[-123.56086726,48.46563786],[-123.56089313,48.46563216],[-123.56093076,48.46562464],[-123.56094478,48.46562184],[-123.56097826,48.46561535],[-123.56099622,48.46561187],[-123.5610124,48.46560902],[-123.56102254,48.46560724],[-123.56103618,48.46560479],[-123.56104832,48.46560261],[-123.56105744,48.46560112],[-123.56107443,48.46559834],[-123.56108509,48.46559646],[-123.56110075,48.46559371],[-123.5611182,48.46559112],[-123.56112719,48.46558979],[-123.56117954,48.46558196],[-123.56118669,48.4655809],[-123.56120598,48.46557804],[-123.56122401,48.46557576],[-123.56122569,48.46557555],[-123.56123151,48.46557478],[-123.56125246,48.46557199],[-123.56127217,48.4655695],[-123.56131191,48.46556487],[-123.56133195,48.46556273],[-123.56135199,48.4655606],[-123.56137202,48.46555846],[-123.56137735,48.46555798],[-123.56139185,48.46555668],[-123.56139708,48.46555612],[-123.56141189,48.46555454],[-123.56143172,48.46555276],[-123.56145209,48.46555098],[-123.56147027,48.46554966],[-123.56147171,48.46554956],[-123.56149187,48.46554813],[-123.5614993,48.46554748],[-123.56151223,48.46554635],[-123.56152858,48.46554548],[-123.56153219,48.46554529],[-123.5615723,48.46554279],[-123.56161274,48.46554066],[-123.561633,48.4655396],[-123.56163323,48.46553959],[-123.56165298,48.46553888],[-123.56166001,48.46553851],[-123.56167347,48.46553781],[-123.56168385,48.46553762],[-123.56169354,48.46553745],[-123.56171382,48.46553674],[-123.56171443,48.46553672],[-123.56173411,48.46553603],[-123.56175418,48.46553567],[-123.56177426,48.46553532],[-123.56178432,48.46553532],[-123.56179466,48.46553532],[-123.56180271,48.46553532],[-123.56182312,48.46553532],[-123.56184332,48.46553567],[-123.56188351,48.46553674],[-123.5619237,48.46553781],[-123.56194422,48.46553852],[-123.56198454,48.4655403],[-123.56202464,48.46554244],[-123.56206507,48.46554493],[-123.5621053,48.46554778],[-123.56214532,48.46555098],[-123.56216523,48.46555276],[-123.56218567,48.46555454],[-123.56220558,48.46555632],[-123.56222528,48.46555846],[-123.56226542,48.46556238],[-123.56228545,48.46556487],[-123.56231064,48.46556772],[-123.56303203,48.46565317],[-123.56305206,48.46565566],[-123.563092,48.46565993],[-123.56313161,48.46566385],[-123.56317196,48.46566741],[-123.56319207,48.46566883],[-123.56321198,48.46567062],[-123.5632522,48.46567346],[-123.56327232,48.46567489],[-123.56329264,48.46567596],[-123.56333274,48.46567809],[-123.56335306,48.46567916],[-123.56337338,48.46568023],[-123.56341337,48.46568165],[-123.56343389,48.46568237],[-123.56345409,48.46568272],[-123.56349428,48.46568379],[-123.56353488,48.46568415],[-123.56356669,48.46568486],[-123.56356688,48.46568486],[-123.56358689,48.46568521],[-123.56360708,48.46568557],[-123.56362728,48.46568593],[-123.56364769,48.46568593],[-123.56365759,48.46568593],[-123.56366809,48.46568593],[-123.56367552,48.46568593],[-123.56368796,48.46568593],[-123.56370837,48.46568593],[-123.56372576,48.46568562],[-123.56372844,48.46568557],[-123.56374905,48.46568521],[-123.56376913,48.46568486],[-123.56378044,48.46568466],[-123.5637892,48.4656845],[-123.563804,48.46568398],[-123.56380408,48.46568398],[-123.56380949,48.46568379],[-123.56382977,48.46568308],[-123.56385005,48.46568236],[-123.5638698,48.46568165],[-123.56387377,48.46568151],[-123.56389008,48.46568094],[-123.56391057,48.46567987],[-123.56393052,48.4656788],[-123.56395047,48.46567774],[-123.56396632,48.46567662],[-123.56397063,48.46567631],[-123.56399079,48.46567489],[-123.56401095,48.46567346],[-123.56403111,48.46567204],[-123.56403725,48.46567161],[-123.56405127,48.46567062],[-123.5640711,48.46566883],[-123.56408347,48.46566774],[-123.56410449,48.46566588],[-123.5641113,48.46566527],[-123.56413113,48.46566349],[-123.56415116,48.46566136],[-123.5641712,48.46565922],[-123.56419124,48.46565709],[-123.56423098,48.46565246],[-123.56427093,48.46564747],[-123.5643234,48.46564035],[-123.56434984,48.46563643],[-123.56435693,48.46563538],[-123.56437628,48.46563252],[-123.56437884,48.46563214],[-123.56440273,48.4656286],[-123.56443689,48.46562281],[-123.56444681,48.46562112],[-123.56447313,48.4656165],[-123.56449891,48.46561187],[-123.56451388,48.46560924],[-123.56452523,48.46560724],[-123.56455122,48.46560225],[-123.56457667,48.46559727],[-123.56460287,48.46559193],[-123.56462853,48.46558659],[-123.56464192,48.46558358],[-123.56465386,48.46558089],[-123.56467972,48.46557519],[-123.56470505,48.4655695],[-123.56473059,48.46556344],[-123.56473339,48.46556277],[-123.56475559,48.46555739],[-123.56476464,48.46555525],[-123.56478113,48.46555134],[-123.56480633,48.46554493],[-123.56482341,48.46554028],[-123.56483121,48.46553816],[-123.56485662,48.4655314],[-123.5648815,48.46552463],[-123.56488522,48.46552362],[-123.56490638,48.46551787],[-123.56493092,48.46551075],[-123.56495568,48.46550327],[-123.56498022,48.46549615],[-123.56499817,48.46549039],[-123.56500465,48.46548832],[-123.56502886,48.46548084],[-123.56502894,48.46548082],[-123.56505329,48.46547301],[-123.56507717,48.46546517],[-123.56509194,48.46546015],[-123.56510127,48.46545698],[-123.56511172,48.46545343],[-123.56512536,48.46544879],[-123.56513337,48.46544592],[-123.56514913,48.46544025],[-123.56515845,48.46543708],[-123.56517322,48.46543206],[-123.56518965,48.46542582],[-123.56519665,48.46542316],[-123.56520455,48.46542032],[-123.56522042,48.46541461],[-123.56524174,48.46540633],[-123.56524332,48.46540571],[-123.56526696,48.46539646],[-123.56527992,48.46539142],[-123.56528986,48.46538755],[-123.56531296,48.4653783],[-123.56533627,48.46536868],[-123.56535233,48.4653619],[-123.56535905,48.46535907],[-123.56538128,48.46534946],[-123.56539069,48.46534548],[-123.56540406,48.46533984],[-123.5654265,48.46532987],[-123.56543502,48.4653259],[-123.56544862,48.46531955],[-123.56546286,48.46531322],[-123.56547106,48.46530958],[-123.56549318,48.46529925],[-123.56551475,48.46528893],[-123.56553057,48.46528117],[-123.56553654,48.46527825],[-123.56554427,48.46527446],[-123.56555832,48.46526756],[-123.56558011,48.46525688],[-123.5655977,48.4652476],[-123.56560103,48.46524584],[-123.5656436,48.46522341],[-123.56565025,48.46521991],[-123.56566452,48.46521238],[-123.56568511,48.46520098],[-123.56569292,48.46519657],[-123.56570591,48.46518923],[-123.56571569,48.4651837],[-123.5657267,48.46517748],[-123.56574076,48.46516933],[-123.56574696,48.46516573],[-123.56585879,48.46510053],[-123.56622633,48.46488623],[-123.56623317,48.46488218],[-123.56624436,48.46487555],[-123.56626515,48.4648638],[-123.56628287,48.464854],[-123.56630633,48.46484101],[-123.56634837,48.46481858],[-123.5663618,48.46481149],[-123.56636929,48.46480754],[-123.56639074,48.46479651],[-123.56639084,48.46479646],[-123.56641219,48.46478547],[-123.56643398,48.46477479],[-123.56645556,48.46476446],[-123.56647734,48.46475378],[-123.56649946,48.46474345],[-123.56651042,48.46473858],[-123.5665219,48.46473349],[-123.56653206,48.46472874],[-123.56654401,48.46472316],[-123.56656646,48.46471319],[-123.5665795,48.46470769],[-123.56658923,48.46470358],[-123.56659658,48.46470031],[-123.56661168,48.46469361],[-123.56662402,48.46468866],[-123.56663478,48.46468435],[-123.56665756,48.46467474],[-123.56668066,48.46466548],[-123.56670363,48.46465627],[-123.56670376,48.46465622],[-123.56672666,48.46464732],[-123.56674029,48.46464214],[-123.56675009,48.46463842],[-123.56677406,48.46462952],[-123.56679729,48.46462097],[-123.56681348,48.46461515],[-123.56682106,48.46461243],[-123.56684482,48.46460388],[-123.56686891,48.46459569],[-123.56689301,48.4645875],[-123.56691689,48.46457967],[-123.56694132,48.46457184],[-123.56694304,48.46457128],[-123.56696574,48.46456401],[-123.56698996,48.46455653],[-123.56701471,48.46454905],[-123.56703374,48.46454353],[-123.56703926,48.46454193],[-123.5670495,48.46453896],[-123.5670638,48.46453481],[-123.56708888,48.46452769],[-123.56711376,48.46452092],[-123.56713864,48.46451416],[-123.5671413,48.46451348],[-123.56716384,48.46450775],[-123.56717639,48.46450441],[-123.56718926,48.46450098],[-123.56720607,48.46449691],[-123.56721426,48.46449493],[-123.56723979,48.46448888],[-123.56726479,48.46448283],[-123.56727311,48.46448085],[-123.56729033,48.46447677],[-123.56731619,48.46447108],[-123.56732003,48.46447028],[-123.56734185,48.46446573],[-123.56735376,48.46446306],[-123.56736718,48.46446004],[-123.5673819,48.46445721],[-123.56739317,48.46445505],[-123.56740991,48.46445157],[-123.56741883,48.46444971],[-123.56744482,48.46444473],[-123.56745649,48.46444263],[-123.5674706,48.4644401],[-123.56748293,48.46443773],[-123.56749658,48.46443511],[-123.56751841,48.46443154],[-123.5675227,48.46443084],[-123.56752864,48.4644298],[-123.56754901,48.46442621],[-123.56757513,48.46442194],[-123.56759528,48.46441895],[-123.56762801,48.46441411],[-123.56875355,48.46424852],[-123.56944071,48.46414742],[-123.57013165,48.46404581],[-123.57124921,48.46388145],[-123.57126555,48.4639298],[-123.57127171,48.46394803],[-123.57128126,48.46394662],[-123.57129815,48.46394412],[-123.57132405,48.4639402],[-123.57135016,48.46393593],[-123.57136509,48.4639333],[-123.57137648,48.4639313],[-123.57138848,48.46392934],[-123.57140259,48.46392703],[-123.57142837,48.4639224],[-123.57144825,48.46391859],[-123.57145436,48.46391741],[-123.57148035,48.46391243],[-123.57149576,48.46390947],[-123.57150634,48.46390744],[-123.57153199,48.4639021],[-123.57153249,48.463902],[-123.57155765,48.46389676],[-123.5715629,48.46389567],[-123.57158331,48.46389142],[-123.57160918,48.46388572],[-123.57162751,48.46388138],[-123.57163471,48.46387967],[-123.57164264,48.46387789],[-123.57166004,48.46387398],[-123.57168557,48.46386792],[-123.57171066,48.46386154],[-123.57171078,48.46386151],[-123.57173599,48.4638551],[-123.57176119,48.4638487],[-123.57177401,48.46384521],[-123.57178607,48.46384193],[-123.57181094,48.46383517],[-123.5718242,48.46383156],[-123.57183582,48.4638284],[-123.5718609,48.46382128],[-123.57188544,48.46381416],[-123.57190992,48.46380676],[-123.57191019,48.46380668],[-123.57191153,48.46380627],[-123.57193441,48.4637992],[-123.57195863,48.46379173],[-123.57198305,48.46378389],[-123.57200747,48.46377606],[-123.57202055,48.46377177],[-123.57203136,48.46376823],[-123.57205545,48.46376004],[-123.57205556,48.46376],[-123.5720572,48.46375944],[-123.57207954,48.46375185],[-123.57209632,48.46374582],[-123.57210331,48.4637433],[-123.57212707,48.46373476],[-123.57214112,48.46372971],[-123.57215083,48.46372621],[-123.57217426,48.46371731],[-123.5721977,48.46370841],[-123.57222059,48.46369951],[-123.57223073,48.46369554],[-123.57224423,48.46369025],[-123.57225407,48.46368622],[-123.5722668,48.463681],[-123.57227693,48.46367694],[-123.5722899,48.46367174],[-123.57231267,48.46366212],[-123.57231281,48.46366206],[-123.57233545,48.46365251],[-123.57234691,48.46364742],[-123.57235789,48.46364254],[-123.57238033,48.46363257],[-123.57240278,48.4636226],[-123.57240284,48.46362258],[-123.57242489,48.46361228],[-123.57245275,48.46359946],[-123.57247432,48.46358913],[-123.57249611,48.46357845],[-123.57251789,48.46356777],[-123.57252828,48.46356268],[-123.57253967,48.46355709],[-123.57256113,48.46354605],[-123.57256808,48.46354238],[-123.57258204,48.46353501],[-123.57259266,48.46352955],[-123.5726035,48.46352398],[-123.57261554,48.46351731],[-123.57262408,48.46351258],[-123.57264521,48.46350119],[-123.57265234,48.46349724],[-123.57266579,48.46348979],[-123.57268638,48.4634784],[-123.57270664,48.46346665],[-123.5727271,48.46345455],[-123.57274682,48.4634428],[-123.57275849,48.46343571],[-123.57276674,48.46343069],[-123.57277431,48.46342609],[-123.57278667,48.46341858],[-123.57279761,48.46341163],[-123.57280627,48.46340612],[-123.57282586,48.46339366],[-123.57283999,48.46338468],[-123.57284546,48.4633812],[-123.57286452,48.46336874],[-123.57287377,48.46336241],[-123.57288325,48.46335592],[-123.57289432,48.46334855],[-123.57290252,48.4633431],[-123.57292125,48.46333028],[-123.57293964,48.46331711],[-123.57295784,48.46330429],[-123.57297624,48.46329112],[-123.57299431,48.46327759],[-123.57299939,48.46327367],[-123.57301184,48.46326406],[-123.57302265,48.46325608],[-123.5730297,48.46325088],[-123.57304745,48.463237],[-123.57305201,48.46323336],[-123.57305209,48.4632333],[-123.57306444,48.46322347],[-123.57308164,48.46320958],[-123.57310613,48.46318964],[-123.57311084,48.4631858],[-123.57311828,48.46317974],[-123.57311837,48.46317967],[-123.57316186,48.46319711],[-123.5732072,48.46321528],[-123.57322354,48.46320104],[-123.5732292,48.4631961],[-123.57323987,48.46318679],[-123.57325621,48.46317255],[-123.5732645,48.46316524],[-123.57327275,48.46315795],[-123.57328855,48.46314371],[-123.57330456,48.46312911],[-123.57331122,48.46312282],[-123.57332003,48.46311452],[-123.5733355,48.46309992],[-123.57335097,48.46308532],[-123.57335102,48.46308526],[-123.5733661,48.46307037],[-123.57337304,48.46306382],[-123.57338157,48.46305577],[-123.57339407,48.46304297],[-123.57339618,48.46304081],[-123.57339835,48.46303867],[-123.57341132,48.46302586],[-123.57341991,48.46301664],[-123.57342559,48.46301055],[-123.57343564,48.46300025],[-123.57344019,48.46299559],[-123.57344713,48.46298815],[-123.57345446,48.46298028],[-123.57346865,48.46296507],[-123.57346874,48.46296497],[-123.57348247,48.46294966],[-123.57348938,48.46294226],[-123.57349674,48.46293435],[-123.5735063,48.46292326],[-123.57350994,48.46291904],[-123.57351469,48.46291371],[-123.57352389,48.46290338],[-123.57353729,48.46288771],[-123.57354226,48.46288167],[-123.57355016,48.46287204],[-123.57356303,48.46285638],[-123.5735759,48.46284071],[-123.57358876,48.46282504],[-123.57358885,48.46282494],[-123.57360131,48.46280902],[-123.57361376,48.46279315],[-123.57362618,48.46277733],[-123.57363407,48.46276626],[-123.57363785,48.46276096],[-123.57364985,48.46274493],[-123.57365248,48.46274139],[-123.57366467,48.46272499],[-123.57367637,48.46270797],[-123.57367862,48.4627047],[-123.57369277,48.46268405],[-123.57370422,48.4626674],[-123.57370672,48.46266375],[-123.57372034,48.4626431],[-123.57372178,48.46264083],[-123.57373343,48.46262245],[-123.57374651,48.4626018],[-123.5737716,48.4625605],[-123.57378382,48.46253949],[-123.5737898,48.46252919],[-123.57379603,48.46251848],[-123.57381455,48.46248438],[-123.57381463,48.46248424],[-123.57381885,48.46247647],[-123.57384081,48.4624341],[-123.57384084,48.46243404],[-123.57385162,48.46241274],[-123.57386189,48.46239137],[-123.57386957,48.46237454],[-123.57387163,48.46237001],[-123.57389078,48.46232693],[-123.57389998,48.46230556],[-123.57391773,48.46226213],[-123.57392606,48.46224041],[-123.57393386,48.46221869],[-123.57394912,48.46217489],[-123.57396331,48.4621311],[-123.57397004,48.46210938],[-123.5739759,48.46208731],[-123.57398229,48.46206523],[-123.57398815,48.46204315],[-123.57399879,48.461999],[-123.57400802,48.4619545],[-123.57401619,48.46190999],[-123.5740201,48.46188756],[-123.57402666,48.46184305],[-123.57402983,48.46182098],[-123.57403444,48.46177611],[-123.57403675,48.46175368],[-123.5740392,48.46171808],[-123.57404043,48.46169565],[-123.57404112,48.46167322],[-123.57404182,48.46165078],[-123.57404251,48.46162835],[-123.57404267,48.46160592],[-123.57404229,48.46158349],[-123.57404191,48.46156106],[-123.574041,48.46153863],[-123.57403863,48.46149377],[-123.57403664,48.46147133],[-123.57403246,48.46142683],[-123.57402993,48.4614044],[-123.5740274,48.46138196],[-123.57402053,48.46133746],[-123.57401312,48.46129295],[-123.57400878,48.46127088],[-123.57399923,48.46122637],[-123.57399804,48.46122103],[-123.57399435,48.46120429],[-123.57398893,48.46118222],[-123.57398306,48.46115908],[-123.5739771,48.461137],[-123.57397061,48.46111493],[-123.57396412,48.46109285],[-123.57395688,48.46107113],[-123.57394262,48.46102734],[-123.57393382,48.46100277],[-123.5739172,48.46095933],[-123.57390889,48.46093761],[-123.57389099,48.46089453],[-123.57388107,48.46087281],[-123.57386136,48.46083008],[-123.57384057,48.46078736],[-123.57381903,48.46074499],[-123.57379568,48.46070297],[-123.57378373,48.46068197],[-123.5737591,48.46064031],[-123.57374662,48.4606193],[-123.57373339,48.46059865],[-123.57371996,48.46057836],[-123.57369277,48.46053741],[-123.5736645,48.46049646],[-123.57364979,48.46047652],[-123.57362568,48.46044412],[-123.57360115,48.46041243],[-123.57358536,48.4603925],[-123.5735601,48.46036116],[-123.57353375,48.46032983],[-123.57350127,48.46029244],[-123.57347212,48.4602604],[-123.5734386,48.46022479],[-123.57341563,48.46020058],[-123.57340433,48.46018955],[-123.57336388,48.46014646],[-123.57321851,48.4600133],[-123.57305954,48.4598869],[-123.57288817,48.45976798],[-123.57270452,48.45965725],[-123.57251053,48.45955506],[-123.57230632,48.45946213],[-123.57209351,48.45937846],[-123.57187189,48.4593044],[-123.57164373,48.45924067],[-123.57140935,48.45918761],[-123.57117038,48.45914524],[-123.57092734,48.45911356],[-123.57068142,48.45909326],[-123.56808986,48.45893638],[-123.56807576,48.45893553],[-123.56801847,48.45904132],[-123.56801792,48.45904235],[-123.56800366,48.45906869],[-123.56514697,48.45889672],[-123.56474958,48.45887286],[-123.56448476,48.45885186],[-123.56422186,48.45882017],[-123.56396261,48.45877851],[-123.56370776,48.45872653],[-123.56345763,48.45866457],[-123.56321364,48.45859301],[-123.56297611,48.45851218],[-123.56274665,48.4584221],[-123.56252526,48.45832276],[-123.56231273,48.45821559],[-123.56211054,48.45809987],[-123.56191881,48.45797632],[-123.56173875,48.45784565],[-123.56009599,48.45658238],[-123.55987029,48.45641575],[-123.55979107,48.45636091],[-123.55976702,48.45634596],[-123.55963422,48.45625588],[-123.55938906,48.45610242],[-123.55913384,48.45595608],[-123.55886998,48.45581722],[-123.55859715,48.45568548],[-123.55857211,48.45567409],[-123.55831675,48.45556122],[-123.5583245,48.45554698],[-123.55849536,48.45522033],[-123.55864035,48.45494312],[-123.55893868,48.45437272],[-123.55895933,48.45433355],[-123.55921642,48.4538568],[-123.55933689,48.45363322],[-123.56009317,48.45222964],[-123.56039243,48.45167491],[-123.56045342,48.45156275],[-123.56118326,48.45022278],[-123.56191387,48.44888132],[-123.56372959,48.44554832],[-123.56327369,48.44543415],[-123.56238745,48.4452122],[-123.5643691,48.44233957],[-123.5660639,48.43961684],[-123.56636497,48.43913297],[-123.56636508,48.43913297],[-123.5667642,48.4391457],[-123.56940317,48.43922981],[-123.57105349,48.43924747],[-123.57209939,48.43925865],[-123.57209939,48.43925854],[-123.57226279,48.43554502],[-123.57239857,48.43245876],[-123.57118146,48.43245553],[-123.57092479,48.43245485],[-123.57092459,48.43245485],[-123.57103838,48.43228648],[-123.57452178,48.42713176],[-123.57463589,48.42696288],[-123.57530911,48.4259665],[-123.57538007,48.42586147],[-123.57454165,48.4256133],[-123.57417492,48.42550506],[-123.57365099,48.42534982],[-123.57297961,48.42515115],[-123.57264191,48.4250511],[-123.57193977,48.42484352],[-123.5715088,48.42472032],[-123.57102142,48.4245779],[-123.57091952,48.42454835],[-123.56860414,48.42388289],[-123.56629931,48.42322063],[-123.56611594,48.42316794],[-123.56595179,48.42312094],[-123.5654522,48.42297745],[-123.56542003,48.42296819],[-123.56559872,48.4226929],[-123.56671168,48.42097817],[-123.56612024,48.42081463],[-123.56305293,48.41996641],[-123.56337231,48.41947474],[-123.56392171,48.41862895],[-123.56385684,48.41859273],[-123.56255334,48.41786492],[-123.56191158,48.41785201],[-123.56084397,48.41765219],[-123.55999363,48.4169452],[-123.55942271,48.41602042],[-123.558809,48.41519207],[-123.5582445,48.41355642],[-123.55705528,48.41304124],[-123.55669766,48.4118828],[-123.55526914,48.41151577],[-123.55482583,48.41047324],[-123.55111236,48.40942082],[-123.54748252,48.40839192],[-123.54643432,48.40809477],[-123.54631369,48.40828696],[-123.5459839,48.40881231],[-123.54578158,48.40913461],[-123.54573346,48.40921127],[-123.5454815,48.40914375],[-123.54536003,48.4091112],[-123.54506753,48.40903282],[-123.54442201,48.40885984],[-123.54417874,48.40924702],[-123.54415839,48.4092794],[-123.54409788,48.40926414],[-123.54337052,48.40908072],[-123.54246086,48.40885178],[-123.54097189,48.40847401],[-123.54077964,48.40842844],[-123.54067792,48.40840422],[-123.54009014,48.40825611],[-123.53975567,48.40817208],[-123.53968099,48.40815392],[-123.53959909,48.40813434],[-123.53877018,48.40792427],[-123.5379726,48.40772025],[-123.53685196,48.40743299],[-123.53633639,48.40730082],[-123.53475759,48.40689641],[-123.53412336,48.40673395],[-123.53302177,48.40645175],[-123.53125628,48.40599945],[-123.53112814,48.40621984],[-123.52543121,48.40471245],[-123.51840587,48.40285301],[-123.51741406,48.40473083],[-123.51710755,48.40531155],[-123.5165785,48.40631277],[-123.51460901,48.40971129],[-123.51418892,48.41045259],[-123.51410439,48.41060285],[-123.51406167,48.41065946],[-123.51373492,48.41122167],[-123.5134427,48.41172477],[-123.51332263,48.41193128],[-123.51320547,48.41213281],[-123.51313135,48.41226063],[-123.51309702,48.412324],[-123.51308083,48.41235356],[-123.51299453,48.41251236],[-123.51297888,48.41254191],[-123.51283023,48.41281571],[-123.51281126,48.41285096],[-123.51264634,48.41315539],[-123.5123311,48.41307243],[-123.51185026,48.41294603],[-123.51166149,48.41327518],[-123.51044101,48.41540315],[-123.51056284,48.41546367],[-123.51064598,48.41534796],[-123.51077212,48.41524862],[-123.51092973,48.41520838],[-123.51109376,48.4152536],[-123.51112499,48.4152828],[-123.5113396,48.41548575],[-123.51137576,48.41552029],[-123.51149115,48.41571861],[-123.51151875,48.41576596],[-123.51155252,48.41597639],[-123.51156135,48.41603015],[-123.51145139,48.41625981],[-123.51158351,48.41647451],[-123.51181992,48.41664292],[-123.51199416,48.41672303],[-123.51215205,48.41679531],[-123.51313266,48.41724465],[-123.51347071,48.41720869],[-123.51388788,48.41716952],[-123.51379457,48.41763346],[-123.51382875,48.41765945],[-123.51409854,48.41773671],[-123.51424828,48.41777979],[-123.5143635,48.41777908],[-123.51476968,48.41799948],[-123.51480839,48.41796993],[-123.51483767,48.41795747],[-123.5146062,48.41782466],[-123.51458222,48.41773066],[-123.51455905,48.41763987],[-123.51469969,48.41756438],[-123.51463433,48.41752379],[-123.51496892,48.41740096],[-123.51507107,48.41752094],[-123.51525784,48.41761637],[-123.51551928,48.41754622],[-123.51570545,48.41776306],[-123.51541961,48.41785385],[-123.51549963,48.41800624],[-123.51556141,48.4181476],[-123.51558148,48.41819317],[-123.51538647,48.41832135],[-123.51535906,48.41838117],[-123.51512242,48.41844098],[-123.51504258,48.41858234],[-123.51505336,48.41868702],[-123.51514059,48.4187949],[-123.51520906,48.41885863],[-123.51536435,48.41926347],[-123.51511089,48.41929052],[-123.51508545,48.41929551],[-123.51491467,48.41936565],[-123.51467627,48.4196334],[-123.5145425,48.41987908],[-123.51447571,48.4203188],[-123.51425869,48.42069515],[-123.51441019,48.42093834],[-123.51428129,48.42114627],[-123.51405989,48.42139871],[-123.51476071,48.4215819],[-123.51511421,48.4216743],[-123.5151387,48.42168106],[-123.51497209,48.42197658],[-123.51459184,48.4226335],[-123.51423239,48.42325481],[-123.51403115,48.42360232],[-123.51379887,48.42400395],[-123.51345094,48.42460461],[-123.51328795,48.4248866],[-123.51322846,48.42499128],[-123.51319429,48.42505074],[-123.51315837,48.42511412],[-123.51314769,48.42513334],[-123.51293301,48.42550115],[-123.51292523,48.42551539],[-123.51292066,48.42552322],[-123.51281566,48.42569484],[-123.51278329,48.42574753],[-123.51261631,48.42606763],[-123.51260667,48.42608507],[-123.51259981,48.42609682],[-123.51247302,48.42631864],[-123.51246421,48.42633466],[-123.51232361,48.42658105],[-123.5123205,48.42658639],[-123.51217492,48.42684133],[-123.51215821,48.42687088],[-123.51196529,48.42720877],[-123.51193456,48.42726325],[-123.5119334,48.42726432],[-123.51180449,48.42749255],[-123.51179015,48.42751711],[-123.51163164,48.42779697],[-123.51162677,48.42780623],[-123.51162137,48.42781549],[-123.51159311,48.42786391],[-123.51149698,48.42802769],[-123.51149428,48.42803232],[-123.51148205,48.42805511],[-123.51147145,48.42807327],[-123.51129625,48.42838909],[-123.51127871,48.42842006],[-123.51128238,48.42842113],[-123.51156498,48.42849591],[-123.51315416,48.4289164],[-123.51424168,48.42920445],[-123.51438893,48.42924361],[-123.51450067,48.42927281],[-123.51495242,48.42939244],[-123.51504207,48.4294163],[-123.51517971,48.42945262],[-123.51586436,48.42963385],[-123.51594505,48.42965557],[-123.51621279,48.42972642],[-123.51628721,48.429746],[-123.51679939,48.42988166],[-123.51682129,48.42988735],[-123.51707834,48.42995536],[-123.51710758,48.42996319],[-123.51748826,48.43006396],[-123.51765016,48.43009458],[-123.51717017,48.43080134],[-123.51689647,48.43120973],[-123.51522551,48.43391644],[-123.51465453,48.43498068],[-123.51456713,48.43513877],[-123.51427091,48.43567321],[-123.51420001,48.4358021],[-123.51400124,48.43583557],[-123.51398178,48.43583948],[-123.51358965,48.43591461],[-123.51328201,48.43597371],[-123.51300998,48.43602605],[-123.51290786,48.43604564],[-123.51242538,48.43613857],[-123.5121234,48.43619625],[-123.51189916,48.43623933],[-123.51160478,48.43629594],[-123.51147956,48.43632015],[-123.51133509,48.43634792],[-123.50751038,48.43708353],[-123.50736484,48.4371113],[-123.50725363,48.43713266],[-123.50531808,48.43750474],[-123.50527627,48.43751293],[-123.50481601,48.43759959],[-123.50469385,48.43762259],[-123.5046684,48.43762758],[-123.5046475,48.4376316],[-123.50464571,48.43763193],[-123.50457226,48.43764609],[-123.50448414,48.43766283],[-123.50325159,48.43789947],[-123.50307287,48.43793378],[-123.50287116,48.43796583],[-123.50256463,48.43803312],[-123.50240144,48.43806445],[-123.5023009,48.43834894],[-123.50216982,48.43871888],[-123.50214498,48.43878902],[-123.50209899,48.43891933],[-123.50196629,48.4392939],[-123.50190524,48.43946659],[-123.50184418,48.43963927],[-123.50180888,48.43973932],[-123.50194164,48.43976567],[-123.50194745,48.43976674],[-123.5023498,48.43984614],[-123.50273772,48.43992269],[-123.50268348,48.43998714],[-123.50246166,48.44024955],[-123.50222525,48.44052869],[-123.50210217,48.44067432],[-123.50198444,48.44081353],[-123.50186356,48.44095631],[-123.50174185,48.44110051],[-123.50168624,48.44116638],[-123.50155012,48.44124329],[-123.50135741,48.44135188],[-123.50132172,48.44137716],[-123.50153146,48.44143164],[-123.50141177,48.44148683],[-123.50133269,48.44152671],[-123.5011305,48.44162854],[-123.50085593,48.44176704],[-123.50061643,48.44188774],[-123.50041031,48.44199171],[-123.50018517,48.44210529],[-123.49995034,48.4422235],[-123.49968321,48.44235844],[-123.49930903,48.44254715],[-123.49913778,48.44263367],[-123.49907792,48.44266358],[-123.49918075,48.44269064],[-123.49930268,48.44272269],[-123.49955977,48.44278891],[-123.49973974,48.44283555],[-123.50083939,48.44312645],[-123.50069955,48.44317202],[-123.50041538,48.4432589],[-123.49985894,48.44343828],[-123.49969413,48.4434914],[-123.49800454,48.44405147],[-123.49753834,48.44412375],[-123.49726692,48.44416577],[-123.49702126,48.44422986],[-123.49687397,48.44426795],[-123.49670586,48.44459837],[-123.49668694,48.4446354],[-123.49666834,48.44463967],[-123.49600745,48.44479171],[-123.49598137,48.44479776],[-123.4959367,48.44480808],[-123.49574711,48.44485152],[-123.49574562,48.44485223],[-123.49516402,48.44498611],[-123.49467614,48.44509827],[-123.49387139,48.44528341],[-123.4932854,48.44541836],[-123.49299766,48.44544969],[-123.49254742,48.44549918],[-123.49221094,48.44553586],[-123.49168185,48.44559354],[-123.49167825,48.4457064],[-123.49208454,48.44587019],[-123.49217363,48.44590793],[-123.49186277,48.44598163],[-123.49173218,48.44601225],[-123.49143983,48.44604964],[-123.49117171,48.44596917],[-123.49054816,48.44569109],[-123.49046143,48.44567507],[-123.49046788,48.44560885],[-123.4904685,48.44560778],[-123.49049344,48.44555401],[-123.49053301,48.44546322],[-123.48988353,48.44528662],[-123.48926271,48.44500391],[-123.48889264,48.44486363],[-123.48849424,48.44471302],[-123.48755468,48.44429501],[-123.48725457,48.4441857],[-123.48725284,48.44418499],[-123.48697652,48.4446354],[-123.48706638,48.44480239],[-123.48714387,48.44500712],[-123.4867411,48.4453799],[-123.48679094,48.44588123],[-123.48679212,48.44609165],[-123.4868035,48.44625793],[-123.48671928,48.44624404],[-123.4856317,48.4460621],[-123.48422405,48.44582711],[-123.48256906,48.44554689],[-123.481435,48.44538026],[-123.48073505,48.4452681],[-123.48062596,48.44538418],[-123.48044948,48.44570854],[-123.48041608,48.44576943],[-123.48035864,48.44587517],[-123.48028164,48.44601902],[-123.48018452,48.44619918],[-123.48007807,48.44639715],[-123.47998365,48.44657268],[-123.47979106,48.44693016],[-123.47966167,48.44719043],[-123.47959461,48.44718117],[-123.47956469,48.44717726],[-123.47934368,48.44715127],[-123.4792366,48.44714343],[-123.47912027,48.44713489],[-123.47889621,48.44712883],[-123.47864348,48.44718936],[-123.47849281,48.4469914],[-123.47833057,48.44679486],[-123.47823289,48.44660544],[-123.47819081,48.44647156],[-123.4781216,48.4463548],[-123.47812158,48.44635478],[-123.47797214,48.44626505],[-123.47770224,48.44623087],[-123.47743172,48.44618672],[-123.47720045,48.44619669],[-123.4770809,48.44623229],[-123.47691887,48.4463149],[-123.47685078,48.44636902],[-123.47673168,48.44649577],[-123.47662477,48.44663107],[-123.47650361,48.44673931],[-123.47626128,48.44691164],[-123.47597831,48.44704694],[-123.47576268,48.44711103],[-123.47546616,48.44716658],[-123.47519623,48.4472207],[-123.4749398,48.44728479],[-123.47464258,48.44734887],[-123.47431883,48.44739587],[-123.47415772,48.44741439],[-123.47395437,48.44742436],[-123.47377823,48.44744287],[-123.47345463,48.44745284],[-123.47314246,48.44745427],[-123.47295414,48.44746423],[-123.47276511,48.44748275],[-123.47261551,48.4474742],[-123.47249315,48.4473859],[-123.47241104,48.44726912],[-123.47228745,48.44716088],[-123.47212575,48.44708112],[-123.47185523,48.44703697],[-123.47158461,48.44705549],[-123.47131385,48.44711103],[-123.47116615,48.44720218],[-123.47104489,48.44732893],[-123.47088514,48.44741866],[-123.47060097,48.44740157],[-123.47041066,48.44733036],[-123.47021951,48.44730472],[-123.47003186,48.4473503],[-123.46982978,48.44744999],[-123.46972148,48.44755823],[-123.46968259,48.44765793],[-123.46967081,48.44787298],[-123.46963184,48.44799119],[-123.4695786,48.44812649],[-123.46945802,48.44828885],[-123.46922948,48.44839709],[-123.46901461,48.44843412],[-123.4689337,48.44846973],[-123.46874435,48.44860645],[-123.46862455,48.44874175],[-123.46854409,48.44886851],[-123.46846516,48.44898529],[-123.46839705,48.44903941],[-123.46823509,48.4491035],[-123.4679794,48.44918468],[-123.46784917,48.44924592],[-123.46891269,48.45028915],[-123.46933194,48.45069185],[-123.46939005,48.45074953],[-123.46951969,48.45088056],[-123.46979219,48.45113834],[-123.46980914,48.45115436],[-123.47067359,48.4519715],[-123.47075862,48.45205482],[-123.47087023,48.45216341],[-123.4710384,48.45232684],[-123.47137825,48.4526569],[-123.47172753,48.45299658],[-123.47186486,48.4531301],[-123.47200219,48.45326362],[-123.4722309,48.45348615],[-123.47242526,48.45367557],[-123.47258732,48.45383294],[-123.47271273,48.45395471],[-123.47283727,48.45407613],[-123.47296268,48.4541979],[-123.47315408,48.45438411],[-123.47350473,48.45472521],[-123.47352694,48.45474693],[-123.47365215,48.45486906],[-123.47417249,48.45534439],[-123.47443541,48.45558472],[-123.47497169,48.45609993],[-123.47572817,48.45682663],[-123.47668015,48.45774097],[-123.47873458,48.45976762],[-123.47961761,48.46063853],[-123.47978757,48.46080552],[-123.48023951,48.46125307],[-123.48062213,48.46163263],[-123.48065148,48.46166147],[-123.48238572,48.46338013],[-123.48292124,48.463911],[-123.48305702,48.46404737],[-123.48313154,48.46412214],[-123.4832145,48.46420546],[-123.4833607,48.46435251],[-123.48341938,48.46440841],[-123.48360287,48.46458359],[-123.48428602,48.46526009],[-123.48442485,48.46525866],[-123.48431569,48.46772112],[-123.48428371,48.46846249],[-123.4841615,48.47129553],[-123.48559211,48.47316837],[-123.48417256,48.47495575],[-123.49747435,48.47488561],[-123.49744952,48.47849562],[-123.4974187,48.48036205],[-123.49739022,48.48205223],[-123.4973896,48.48208926],[-123.49738924,48.48210279],[-123.49738842,48.4844392],[-123.49736213,48.48854377],[-123.49735768,48.4895247],[-123.49735691,48.48964042],[-123.49275167,48.48858721],[-123.49037108,48.48855339],[-123.48992734,48.48868157],[-123.48872684,48.4886748],[-123.48811838,48.48871041],[-123.48768969,48.48868548],[-123.48674873,48.4889073],[-123.48524644,48.48938904],[-123.48478033,48.48924484],[-123.48470087,48.48903726],[-123.48454993,48.48873569],[-123.48416867,48.48868192],[-123.48313383,48.48896712],[-123.48310386,48.4889162],[-123.4830748,48.48886743],[-123.48292343,48.48861178],[-123.48185482,48.49352067],[-123.48167222,48.49433959],[-123.48161045,48.49466147],[-123.48152931,48.4950784],[-123.48152147,48.49511401],[-123.48133752,48.49596391],[-123.48105589,48.49727952],[-123.478305,48.49776909],[-123.47826774,48.49777586],[-123.47424416,48.49849188],[-123.47330438,48.49754834],[-123.47258039,48.49682199],[-123.47129575,48.49553273],[-123.4712682,48.49550531],[-123.471013,48.49524895],[-123.47080761,48.49506202],[-123.47069024,48.49504031],[-123.46786849,48.49451833],[-123.46602614,48.49447133],[-123.46372114,48.49439585],[-123.46359695,48.49439229],[-123.4635402,48.49437627],[-123.4634063,48.4945931],[-123.46340671,48.49479427],[-123.46316956,48.49471167],[-123.46278492,48.49465719],[-123.46267264,48.49465256],[-123.46240063,48.49464081],[-123.46220255,48.49460272],[-123.46167206,48.49441686],[-123.46137145,48.49436203],[-123.46100465,48.49434422],[-123.46057255,48.49439514],[-123.46023921,48.49438446],[-123.46002961,48.4943136],[-123.45927663,48.49384977],[-123.4590957,48.49382396],[-123.45853475,48.49378024],[-123.45806126,48.49374178],[-123.45797957,48.49373537],[-123.45726999,48.4935342],[-123.45723216,48.49352352],[-123.45694866,48.49351676],[-123.45652895,48.49350679],[-123.45650304,48.49350608],[-123.45629559,48.49347118],[-123.45622733,48.49344911],[-123.45622393,48.49360791],[-123.45620131,48.49463369],[-123.45616329,48.49637906],[-123.45615459,48.49679493],[-123.45612306,48.49832845],[-123.45759014,48.49897896],[-123.45858154,48.49941868],[-123.45856874,48.50045942],[-123.45854576,48.50168923],[-123.4585353,48.50224752],[-123.45853115,48.50247503],[-123.45852225,48.50298917],[-123.4585039,48.50404522],[-123.45849588,48.50440021],[-123.45849499,48.50442941],[-123.45847758,48.50519065],[-123.45847456,48.50530743],[-123.45845303,48.50624456],[-123.45843862,48.50686053],[-123.45843224,48.50714359],[-123.45842557,48.50742808],[-123.45842031,48.50764741],[-123.45841306,48.50821424],[-123.45841086,48.50837945],[-123.45840335,48.50892279],[-123.45839725,48.50938067],[-123.45838844,48.51006465],[-123.45837835,48.51082375],[-123.45837427,48.51113245],[-123.45837273,48.51126241],[-123.45836827,48.51156256],[-123.45836714,48.51163092],[-123.45836189,48.51202009],[-123.4583544,48.51254135],[-123.45834277,48.51336133],[-123.45832562,48.51461535],[-123.45831466,48.51516759],[-123.46136047,48.51516332],[-123.46625534,48.51515619],[-123.46609721,48.52234916],[-123.47405202,48.52228401],[-123.47395554,48.52956563],[-123.47395229,48.52968028],[-123.47374742,48.53682625],[-123.47799251,48.53704131],[-123.47791258,48.54330035],[-123.47790238,48.54410895],[-123.48869135,48.54409969],[-123.48876083,48.54628122],[-123.48850097,48.55022343],[-123.48867037,48.55033737],[-123.48899649,48.55064358],[-123.48915082,48.55091774],[-123.48909543,48.55124459],[-123.48910914,48.55133859],[-123.48925234,48.55134393],[-123.49423756,48.55139841],[-123.49454756,48.55859992],[-123.50312321,48.55859992],[-123.50312967,48.55859992]]]},"geometry_name":"SHAPE","properties":{"id":290,"slug":"langford-highlands","name":"Langford-Highlands","abbreviation":"LFH","gazetteDate":"2023-12-07Z","boundarySet":11},"bbox":[-123.57538007,48.40285301,-123.45612306,48.5587872]}
