{"type":"Feature","id":293,"geometry":{"type":"Polygon","coordinates":[[[-122.63713473,49.13332217],[-122.63831257,49.13333107],[-122.64014792,49.13334531],[-122.64166559,49.13335564],[-122.64383921,49.13337024],[-122.64594448,49.13338448],[-122.64696283,49.1333916],[-122.64885432,49.13340477],[-122.64976718,49.13341083],[-122.65155733,49.13342329],[-122.654324,49.1334418],[-122.65499541,49.13344572],[-122.65613314,49.13345248],[-122.65707995,49.13345818],[-122.66002372,49.13348844],[-122.6608797,49.13349779],[-122.66128649,49.13350197],[-122.66136198,49.13350368],[-122.66143719,49.13350537],[-122.6614444,49.13350554],[-122.6645891,49.13351408],[-122.66464441,49.13351439],[-122.66464489,49.13351439],[-122.66659263,49.13352511],[-122.66821475,49.13353402],[-122.66832235,49.13353616],[-122.66843027,49.13353865],[-122.67031977,49.13355644],[-122.67032126,49.13355645],[-122.67061625,49.13355075],[-122.67230392,49.13356072],[-122.67490329,49.13357781],[-122.67618692,49.13358636],[-122.67772466,49.13359775],[-122.67949901,49.13360559],[-122.67953899,49.13093199],[-122.67954702,49.13008708],[-122.67954618,49.13005112],[-122.6795455,49.13001302],[-122.6795774,49.12837838],[-122.67974155,49.12766735],[-122.67975071,49.1274441],[-122.67978182,49.1263382],[-122.67984209,49.12370947],[-122.6798622,49.12281235],[-122.67987172,49.12238775],[-122.67987407,49.12228277],[-122.67991922,49.12029635],[-122.67994676,49.11907189],[-122.67996767,49.11859691],[-122.67997591,49.11841461],[-122.67990164,49.11813298],[-122.67984326,49.11783247],[-122.67984375,49.11778867],[-122.67984495,49.11766797],[-122.67984718,49.11750348],[-122.67984886,49.11733898],[-122.67985055,49.11717448],[-122.67985203,49.11701034],[-122.67985372,49.11684585],[-122.67985595,49.11668135],[-122.67985781,49.11649229],[-122.67985861,49.11642927],[-122.67986003,49.1162783],[-122.67986389,49.11588593],[-122.679942,49.114278],[-122.67995201,49.11406935],[-122.67995287,49.11405012],[-122.67995638,49.113975],[-122.67996001,49.11390058],[-122.67996339,49.11383222],[-122.67997392,49.11356198],[-122.67998548,49.11258212],[-122.68000168,49.11123767],[-122.67999655,49.1111338],[-122.67993169,49.10982093],[-122.67992969,49.10977881],[-122.67992763,49.10973548],[-122.67992054,49.10959733],[-122.67992633,49.10882355],[-122.67993116,49.10817775],[-122.67993169,49.10811616],[-122.67993266,49.1079894],[-122.67993308,49.10791214],[-122.67994344,49.10636153],[-122.67994565,49.10600583],[-122.67995373,49.10492415],[-122.67994759,49.10462328],[-122.67994329,49.10441285],[-122.67994344,49.10439114],[-122.67994476,49.10326423],[-122.67993676,49.10266108],[-122.67991368,49.10092958],[-122.67990449,49.10024019],[-122.67990129,49.09999994],[-122.6798993,49.0998326],[-122.67980958,49.09776785],[-122.67980374,49.09749333],[-122.67979502,49.09710061],[-122.67973379,49.09511704],[-122.67973257,49.09509675],[-122.67973192,49.09505402],[-122.6796792,49.09333963],[-122.67965335,49.09320397],[-122.67963354,49.09268769],[-122.67965487,49.09176979],[-122.67962291,49.0913201],[-122.67958124,49.09040682],[-122.67957279,49.09007071],[-122.6795641,49.0897378],[-122.67956307,49.08969294],[-122.67956014,49.08958327],[-122.67957292,49.08940845],[-122.67959961,49.08923399],[-122.67961386,49.08908088],[-122.67961391,49.08906308],[-122.67961421,49.08905418],[-122.67961477,49.08900006],[-122.6796148,49.08894594],[-122.67962901,49.08887402],[-122.67962963,49.0888021],[-122.67963026,49.08870311],[-122.67963068,49.08860449],[-122.67963125,49.08855037],[-122.67963131,49.0885055],[-122.67963158,49.08846029],[-122.67963189,49.08842432],[-122.67966037,49.08826268],[-122.6796752,49.08811883],[-122.67967614,49.08798389],[-122.67970453,49.08783078],[-122.67974654,49.08768694],[-122.67977447,49.08755235],[-122.6797893,49.08740851],[-122.6798038,49.08726431],[-122.6798051,49.08710266],[-122.67980576,49.08694956],[-122.67980671,49.08681461],[-122.67979408,49.08665261],[-122.67982227,49.08649986],[-122.67983712,49.08632896],[-122.67983813,49.08617621],[-122.67985936,49.08599996],[-122.67986244,49.08584366],[-122.67988561,49.08546553],[-122.67993164,49.08458679],[-122.67998127,49.08438705],[-122.67998711,49.08436212],[-122.68001108,49.08406375],[-122.68001649,49.08399575],[-122.6800256,49.08388038],[-122.68002299,49.08319605],[-122.68003106,49.08307037],[-122.6800664,49.08252418],[-122.68009056,49.08215282],[-122.68008926,49.08201993],[-122.68007448,49.0805075],[-122.68006993,49.08003537],[-122.6801919,49.07847978],[-122.68024226,49.07761636],[-122.6802631,49.07724428],[-122.68026538,49.07719657],[-122.68028872,49.07677643],[-122.68035555,49.07556158],[-122.68037473,49.07521941],[-122.6804024,49.07471738],[-122.68042576,49.07160156],[-122.68046839,49.07145772],[-122.68054341,49.07115685],[-122.68054384,49.07099592],[-122.68054382,49.07048],[-122.68054387,49.07031693],[-122.68054402,49.07015741],[-122.68054399,49.06964897],[-122.68054405,49.0694859],[-122.68054448,49.06932034],[-122.68054446,49.06923097],[-122.68054451,49.06880157],[-122.68054485,49.06864455],[-122.68054461,49.06847827],[-122.680545,49.06795986],[-122.6805449,49.06781103],[-122.68054538,49.06750945],[-122.68056606,49.06740976],[-122.68056504,49.06680162],[-122.68056428,49.06631597],[-122.68056227,49.06544328],[-122.68056227,49.06528128],[-122.68056046,49.06434593],[-122.68055972,49.06385102],[-122.68055783,49.06268316],[-122.67922788,49.06268174],[-122.67788293,49.06267996],[-122.67668376,49.06267604],[-122.67627921,49.06267864],[-122.67542665,49.06268388],[-122.67400426,49.06267604],[-122.67313093,49.06267362],[-122.67295704,49.06267313],[-122.67269286,49.06267237],[-122.67256546,49.06267213],[-122.67191252,49.06267144],[-122.67146084,49.06267106],[-122.67103826,49.0626707],[-122.66951431,49.06266928],[-122.66951311,49.06294771],[-122.66950222,49.0650885],[-122.66950063,49.06540897],[-122.66950018,49.06548992],[-122.66950069,49.06552954],[-122.66950945,49.06625451],[-122.66951823,49.06696398],[-122.66950736,49.06740798],[-122.6694454,49.06740798],[-122.66646003,49.06740329],[-122.6663416,49.06740311],[-122.66611337,49.06740264],[-122.66592336,49.0674033],[-122.66570701,49.06740393],[-122.66540515,49.06740477],[-122.66525419,49.0674052],[-122.66516404,49.06740545],[-122.66505026,49.06740576],[-122.6649711,49.06740597],[-122.6648312,49.06740635],[-122.66398277,49.0674087],[-122.66398277,49.06740869],[-122.66354404,49.06740833],[-122.66354387,49.06740833],[-122.66273075,49.06740762],[-122.6614014,49.06741332],[-122.66090292,49.06741694],[-122.66027254,49.06742165],[-122.66018703,49.06742222],[-122.65878007,49.06742691],[-122.6586918,49.0674272],[-122.6585077,49.06742792],[-122.65672453,49.06743183],[-122.65585013,49.06743646],[-122.6551256,49.06744038],[-122.65441191,49.06744504],[-122.65376883,49.06744928],[-122.6530981,49.0674532],[-122.65287935,49.06745462],[-122.6521669,49.06745925],[-122.65108691,49.06746601],[-122.64895834,49.06747883],[-122.64837456,49.06748275],[-122.64739716,49.0674888],[-122.64739783,49.06796466],[-122.64739907,49.06928696],[-122.64739993,49.07008015],[-122.64741022,49.07074585],[-122.64742721,49.07184475],[-122.64743707,49.07241984],[-122.64744148,49.0726772],[-122.64744842,49.07310746],[-122.64745848,49.07373111],[-122.6474686,49.07429159],[-122.6474749,49.07464545],[-122.64628358,49.07465008],[-122.64203883,49.07466646],[-122.64156878,49.07466814],[-122.64133948,49.07466895],[-122.64061732,49.07467176],[-122.64042319,49.07467251],[-122.63901341,49.07467785],[-122.63804113,49.07468142],[-122.63734291,49.07468417],[-122.63713734,49.07468498],[-122.63637256,49.07468782],[-122.63256574,49.07471097],[-122.6315331,49.07476758],[-122.63069423,49.07481351],[-122.62933267,49.07488793],[-122.62812227,49.0748395],[-122.62809813,49.07483989],[-122.62804417,49.07502259],[-122.62804261,49.07502785],[-122.62804268,49.07502821],[-122.62805516,49.07509194],[-122.62806595,49.07511754],[-122.62808158,49.07515461],[-122.62817882,49.07518167],[-122.62830032,49.07517745],[-122.62842514,49.07517312],[-122.62867152,49.07518309],[-122.62888939,49.07521426],[-122.62893034,49.07522012],[-122.62893067,49.0752202],[-122.62925966,49.07529276],[-122.62947632,49.07544657],[-122.62974831,49.07565451],[-122.62986127,49.07577917],[-122.6299122,49.07583538],[-122.62992272,49.07585012],[-122.63002099,49.07598777],[-122.63005925,49.07606426],[-122.63007513,49.07609601],[-122.63011619,49.07618574],[-122.63011386,49.07631249],[-122.63015555,49.07639367],[-122.63019752,49.07646496],[-122.6302352,49.07652897],[-122.63037231,49.07669988],[-122.63037841,49.07671763],[-122.63039726,49.07677251],[-122.63041138,49.07697902],[-122.6304089,49.07705023],[-122.63053144,49.07721259],[-122.63064094,49.07737495],[-122.63080331,49.07754728],[-122.63099479,49.07771819],[-122.63118479,49.07789906],[-122.63151124,49.07812551],[-122.63164797,49.07821524],[-122.63176958,49.07834199],[-122.63186535,49.07849438],[-122.63193256,49.07860262],[-122.63198673,49.07871086],[-122.63197166,49.07888177],[-122.63182045,49.07893588],[-122.63154667,49.07894301],[-122.63145101,49.07894301],[-122.63134105,49.07897861],[-122.63116069,49.079131],[-122.63114651,49.07920364],[-122.6311599,49.0792663],[-122.63121471,49.079366],[-122.63145845,49.07955542],[-122.63150075,49.07960954],[-122.6315263,49.07977047],[-122.63153916,49.07987871],[-122.63157999,49.0799428],[-122.63167478,49.08004107],[-122.63183826,49.08012225],[-122.63189213,49.08018634],[-122.6318923,49.08035725],[-122.63161715,49.08052673],[-122.6312867,49.0806606],[-122.63118985,49.08071472],[-122.63105233,49.08087566],[-122.63099778,49.0809839],[-122.6309551,49.08114626],[-122.63098154,49.08120892],[-122.63106329,49.08130719],[-122.6311867,49.08135277],[-122.63148811,49.08135419],[-122.6315692,49.08134565],[-122.63178887,49.08136416],[-122.63196723,49.08138268],[-122.632145,49.08142825],[-122.63225407,49.08149092],[-122.63229362,49.0815721],[-122.63232,49.08178003],[-122.63237412,49.08186976],[-122.63246962,49.081978],[-122.63263317,49.08207769],[-122.63293207,49.08213181],[-122.63305607,49.08215033],[-122.63322026,49.08224148],[-122.63326104,49.08228705],[-122.633245,49.08240384],[-122.6331494,49.08253771],[-122.63308,49.08270862],[-122.63307895,49.08291513],[-122.63309129,49.08306894],[-122.63311746,49.08320282],[-122.63322635,49.08325836],[-122.63348559,49.08335805],[-122.63362136,49.08339366],[-122.63378667,49.08341217],[-122.63407352,49.08340505],[-122.63415615,49.08340505],[-122.63434787,49.08346772],[-122.63453822,49.08357738],[-122.63457926,49.08364859],[-122.63459267,49.08371126],[-122.6345777,49.08390068],[-122.63457513,49.08409864],[-122.63458891,49.08422397],[-122.63464369,49.08430515],[-122.63480545,49.08446751],[-122.63503627,49.08467545],[-122.63510469,49.08472957],[-122.63522642,49.08487484],[-122.63534962,49.08501014],[-122.63552661,49.0851725],[-122.63573123,49.0853434],[-122.6358388,49.08539752],[-122.63603187,49.08546161],[-122.6363054,49.0855257],[-122.63645493,49.08557128],[-122.63660476,49.085661],[-122.63668635,49.08575215],[-122.63679434,49.08588745],[-122.63686308,49.08598572],[-122.63686207,49.08619223],[-122.63692823,49.08637311],[-122.63717431,49.08658104],[-122.63741751,49.08677901],[-122.63748594,49.08683313],[-122.63758217,49.08695134],[-122.63760928,49.08700546],[-122.637622,49.08705815],[-122.63763459,49.08712224],[-122.63762049,49.08731024],[-122.63761739,49.08753526],[-122.63760239,49.08770617],[-122.63762942,49.08788704],[-122.6376422,49.08795825],[-122.63782045,49.08808501],[-122.637916,49.08819325],[-122.63792731,49.08827443],[-122.63792659,49.08840973],[-122.63788494,49.08846242],[-122.63780332,49.08851654],[-122.6377201,49.0885436],[-122.63763778,49.08858775],[-122.63755622,49.08866039],[-122.63751226,49.08882132],[-122.63749791,49.08898368],[-122.63746982,49.08913607],[-122.63748189,49.08934258],[-122.63748117,49.0895142],[-122.63748119,49.0895142],[-122.63748097,49.08956761],[-122.63749337,49.08972142],[-122.63749248,49.08978942],[-122.63749138,49.08987381],[-122.63749028,49.08994645],[-122.63749104,49.09007178],[-122.63750165,49.09028826],[-122.63750241,49.09041359],[-122.63756543,49.09052846],[-122.63759617,49.09058449],[-122.6376077,49.0906053],[-122.63761038,49.09061014],[-122.63763641,49.09065713],[-122.63765327,49.09066826],[-122.63770514,49.09070247],[-122.63770549,49.0907027],[-122.63781416,49.09068419],[-122.63781712,49.0906831],[-122.63790732,49.09064996],[-122.63790731,49.09065105],[-122.63787702,49.093963],[-122.6378755,49.09413006],[-122.63892874,49.09414101],[-122.64013843,49.09415356],[-122.64060223,49.09484288],[-122.64059574,49.0951968],[-122.63960157,49.09517249],[-122.63877567,49.09515229],[-122.63875948,49.09556032],[-122.63872458,49.09644],[-122.63869739,49.09712398],[-122.63859365,49.09973362],[-122.63857212,49.10027731],[-122.63847991,49.10260582],[-122.63840662,49.10454851],[-122.63877063,49.10455241],[-122.6387706,49.10455385],[-122.64061488,49.10457984],[-122.6427295,49.10459551],[-122.64286505,49.10459622],[-122.6427283,49.10468986],[-122.6424015,49.10491346],[-122.64193981,49.10526667],[-122.6416261,49.105507],[-122.64052525,49.10634978],[-122.6393298,49.10726519],[-122.63841441,49.10796626],[-122.63792309,49.10834225],[-122.64133401,49.11024936],[-122.64518455,49.11240196],[-122.64414251,49.1131721],[-122.64378082,49.11357121],[-122.64352558,49.11372049],[-122.64318444,49.11388412],[-122.64284295,49.11400233],[-122.64228349,49.11413291],[-122.64167728,49.11424167],[-122.64118516,49.11436114],[-122.64073543,49.11449574],[-122.6402753,49.11468675],[-122.63975056,49.11498246],[-122.63963569,49.11505724],[-122.63938114,49.11527041],[-122.6391307,49.11554793],[-122.63891067,49.11589491],[-122.63869214,49.11640677],[-122.6385326,49.11676854],[-122.63838032,49.11700912],[-122.63812728,49.11726505],[-122.6379525,49.11739847],[-122.63635832,49.11847981],[-122.63441135,49.11980931],[-122.6333212,49.12055975],[-122.63302858,49.1207685],[-122.63276011,49.12092906],[-122.63263481,49.12101345],[-122.63182201,49.12165633],[-122.62874088,49.12377997],[-122.6248988,49.12645036],[-122.62575311,49.12693067],[-122.63035878,49.12951953],[-122.6314874,49.13015401],[-122.63260754,49.13078352],[-122.6357489,49.13254882],[-122.63713473,49.13332217]]]},"geometry_name":"SHAPE","properties":{"id":293,"slug":"langley-willowbrook","name":"Langley-Willowbrook","abbreviation":"LWI","gazetteDate":"2023-12-07Z","boundarySet":11},"bbox":[-122.68056606,49.06266928,-122.6248988,49.13360559]}
