{"type":"Feature","id":292,"geometry":{"type":"Polygon","coordinates":[[[-122.61864831,49.21048583],[-122.61892117,49.21046554],[-122.61919364,49.21044311],[-122.6194655,49.21041889],[-122.61973731,49.2103929],[-122.62000852,49.21036513],[-122.62027947,49.21033593],[-122.62055016,49.21030531],[-122.62082092,49.21027363],[-122.62109066,49.21024087],[-122.62136082,49.2102074],[-122.62163031,49.21017322],[-122.6219002,49.21013833],[-122.62216942,49.21010272],[-122.62243797,49.2100664],[-122.62270625,49.21002866],[-122.62297481,49.2099895],[-122.62324236,49.20994926],[-122.62350944,49.20990796],[-122.62377693,49.20986595],[-122.62404341,49.20982286],[-122.62430975,49.20977907],[-122.62457597,49.20973456],[-122.62484137,49.20968863],[-122.62510631,49.20964163],[-122.62537098,49.20959321],[-122.62563464,49.20954372],[-122.62589851,49.20949387],[-122.62616224,49.20944331],[-122.62642598,49.20939275],[-122.62668916,49.20934219],[-122.62694779,49.20928166],[-122.62720514,49.20921864],[-122.62746228,49.20915598],[-122.62771996,49.20909331],[-122.62797677,49.20903029],[-122.62823411,49.20896727],[-122.62849112,49.20890389],[-122.62874813,49.20884051],[-122.6290048,49.20877678],[-122.62926167,49.20871269],[-122.62951766,49.20864825],[-122.62977407,49.20858309],[-122.63002993,49.20851793],[-122.63028511,49.20845206],[-122.6305405,49.20838584],[-122.63079575,49.2083189],[-122.63105013,49.2082516],[-122.63130437,49.2081836],[-122.63155827,49.20811524],[-122.63181251,49.20804723],[-122.63206675,49.20797922],[-122.63232112,49.20791193],[-122.63257604,49.20784464],[-122.63283041,49.20777734],[-122.63308566,49.2077104],[-122.63334036,49.20764347],[-122.63359278,49.20757297],[-122.63384574,49.20750247],[-122.63409815,49.20743197],[-122.63435077,49.20736112],[-122.63460251,49.20728991],[-122.63485432,49.20721763],[-122.63510478,49.20714393],[-122.6353549,49.20706987],[-122.63560603,49.20699688],[-122.63585805,49.20692424],[-122.63610986,49.20685196],[-122.63636167,49.20677968],[-122.63661334,49.20670669],[-122.63686413,49.20663335],[-122.63711412,49.20655857],[-122.63736275,49.20648238],[-122.63761057,49.20640476],[-122.63785603,49.20632465],[-122.6381,49.2062424],[-122.63834127,49.2061573],[-122.63858017,49.20606972],[-122.63881813,49.20597999],[-122.63905419,49.20588884],[-122.63928944,49.20579627],[-122.63952355,49.20570191],[-122.63975643,49.20560685],[-122.63998864,49.20551107],[-122.64022038,49.20541422],[-122.64045178,49.20531702],[-122.64068318,49.20521982],[-122.64091424,49.20512226],[-122.6411453,49.2050247],[-122.64137703,49.20492786],[-122.6416091,49.20483137],[-122.64184185,49.20473559],[-122.64207528,49.20464052],[-122.64230951,49.20454688],[-122.64254475,49.20445431],[-122.64278236,49.20436422],[-122.64302471,49.20427913],[-122.64327145,49.20419866],[-122.64352056,49.20412068],[-122.64377013,49.20404378],[-122.64401957,49.20396616],[-122.64426556,49.20388605],[-122.64450749,49.20380166],[-122.64474291,49.20371158],[-122.6449709,49.20361367],[-122.64518799,49.20350543],[-122.64539588,49.20338864],[-122.64559693,49.2032658],[-122.64579439,49.20313976],[-122.64599158,49.20301229],[-122.64619047,49.20288661],[-122.6463943,49.20276555],[-122.64660584,49.2026509],[-122.64682592,49.20254408],[-122.64704789,49.20243869],[-122.64727041,49.2023333],[-122.6474936,49.20222862],[-122.64771767,49.2021243],[-122.64794263,49.20202033],[-122.64816806,49.20191743],[-122.64839436,49.20181489],[-122.64862135,49.20171306],[-122.64884901,49.20161194],[-122.64907789,49.20151153],[-122.64930669,49.20141219],[-122.64953672,49.20131357],[-122.64976742,49.20121565],[-122.64999913,49.20111881],[-122.65023132,49.20102303],[-122.65046417,49.20092796],[-122.65069839,49.20083432],[-122.65093252,49.20074175],[-122.65116902,49.20065167],[-122.65141309,49.20057013],[-122.65166297,49.20049643],[-122.65191757,49.20042771],[-122.65217413,49.2003622],[-122.65243157,49.20029704],[-122.65268698,49.20022974],[-122.65293943,49.20015818],[-122.6531862,49.20007949],[-122.65338105,49.20001326],[-122.65342831,49.19999475],[-122.65366941,49.19990894],[-122.65390929,49.19982242],[-122.65414924,49.19973483],[-122.65438831,49.19964689],[-122.65462745,49.19955787],[-122.6548655,49.19946886],[-122.65510342,49.19937914],[-122.655341,49.19928905],[-122.65557879,49.19919862],[-122.65581603,49.19910818],[-122.65605293,49.19901739],[-122.65629004,49.19892624],[-122.65652695,49.19883544],[-122.65676405,49.19874429],[-122.6570015,49.1986535],[-122.65723874,49.19856306],[-122.65747598,49.19847263],[-122.65771376,49.19838219],[-122.65795167,49.19829246],[-122.65818992,49.19820309],[-122.65842885,49.19811444],[-122.65855995,49.19806602],[-122.65866811,49.19802614],[-122.65890805,49.19793855],[-122.65914799,49.19785096],[-122.65938848,49.19776337],[-122.65962943,49.19767685],[-122.65987139,49.1975914],[-122.66011451,49.19750773],[-122.66035964,49.19742619],[-122.66060552,49.19734715],[-122.66085409,49.19727095],[-122.66110462,49.19719796],[-122.66135676,49.19712782],[-122.66161161,49.19706052],[-122.66186794,49.19699537],[-122.66212555,49.1969327],[-122.66238443,49.19687253],[-122.66264466,49.19681378],[-122.66290529,49.19675717],[-122.66316673,49.19670198],[-122.66342911,49.19664893],[-122.66369336,49.19660015],[-122.66395902,49.19655457],[-122.66422582,49.19651078],[-122.6644931,49.19646805],[-122.66475983,49.19642533],[-122.66502629,49.19638117],[-122.66529182,49.19633489],[-122.66550827,49.1962943],[-122.66555539,49.1962854],[-122.66568498,49.19625834],[-122.66581621,49.19623128],[-122.66607352,49.19617004],[-122.66632566,49.19609989],[-122.66657476,49.1960237],[-122.66682226,49.19594466],[-122.66706975,49.19586561],[-122.66731852,49.19578906],[-122.66750852,49.19554908],[-122.66763656,49.19538957],[-122.66776316,49.1952297],[-122.66788493,49.19506877],[-122.66800086,49.19490569],[-122.66810932,49.19474049],[-122.66821315,49.19457385],[-122.66831434,49.19440615],[-122.66841321,49.19423774],[-122.66851154,49.19406933],[-122.66861021,49.19390127],[-122.66871085,49.19373357],[-122.66881414,49.19356694],[-122.6689226,49.19340173],[-122.66903581,49.19323866],[-122.66915684,49.19307808],[-122.66928765,49.19292035],[-122.6694288,49.19276546],[-122.66957898,49.19261378],[-122.66973602,49.19246531],[-122.66989848,49.19231969],[-122.67006495,49.19217655],[-122.67023474,49.1920352],[-122.67040801,49.19189349],[-122.67058603,49.19175392],[-122.67077083,49.19161862],[-122.67096369,49.19149008],[-122.67116663,49.19137045],[-122.67138094,49.19126221],[-122.67161203,49.19116821],[-122.67185545,49.1910849],[-122.67210638,49.19100834],[-122.67235955,49.19093357],[-122.67261034,49.19085631],[-122.67285275,49.19077193],[-122.67308168,49.19067508],[-122.67329018,49.19055901],[-122.67348386,49.19042905],[-122.67366844,49.1902941],[-122.67384711,49.19015809],[-122.67401622,49.19001603],[-122.67418146,49.18987218],[-122.67434969,49.18972976],[-122.67452402,49.1895909],[-122.67469829,49.18945026],[-122.67487568,49.18931176],[-122.6750631,49.18918037],[-122.67526495,49.18906074],[-122.67548251,49.1889525],[-122.67571045,49.18885174],[-122.67594488,49.18875667],[-122.67618256,49.18866445],[-122.67641907,49.1885733],[-122.67665943,49.18848678],[-122.67690385,49.18840453],[-122.67714928,49.18832335],[-122.67739336,49.18824075],[-122.67764482,49.1881642],[-122.67789594,49.18808729],[-122.67813095,49.18799685],[-122.67833664,49.18788185],[-122.6785212,49.18774975],[-122.67869546,49.18760911],[-122.67886926,49.1874674],[-122.67905132,49.1873321],[-122.6792539,49.18721212],[-122.67947587,49.18710566],[-122.67948762,49.18528587],[-122.67948789,49.1846756],[-122.67948851,49.18345968],[-122.6794887,49.18231212],[-122.67948893,49.18222169],[-122.67948923,49.18213018],[-122.67950484,49.18204439],[-122.6795347,49.18188023],[-122.67953836,49.18183359],[-122.67954577,49.18173923],[-122.67961102,49.18090465],[-122.67963844,49.18055073],[-122.67948693,49.17885806],[-122.67948757,49.1784162],[-122.67948897,49.17709346],[-122.67949009,49.17698558],[-122.67949018,49.17698166],[-122.67948864,49.17689336],[-122.67948861,49.17688873],[-122.67944878,49.17534738],[-122.6794439,49.17517577],[-122.67940591,49.17382455],[-122.67940524,49.17379571],[-122.6793993,49.17357531],[-122.67935721,49.17200726],[-122.67935357,49.17188228],[-122.67930978,49.17023768],[-122.67930673,49.17013513],[-122.67930479,49.17005787],[-122.67930455,49.1700536],[-122.67927537,49.16902318],[-122.67925537,49.16830787],[-122.67923363,49.16753559],[-122.6792253,49.16724256],[-122.67922184,49.16711545],[-122.67921723,49.16693315],[-122.67921062,49.16669246],[-122.67920114,49.16633677],[-122.67916771,49.16507314],[-122.67914018,49.16404023],[-122.67911185,49.16298347],[-122.67911381,49.16287985],[-122.67917349,49.15922142],[-122.67919231,49.15836297],[-122.67923142,49.15660906],[-122.67924083,49.156164],[-122.67924723,49.15561923],[-122.67926635,49.1547202],[-122.67928313,49.1539554],[-122.67928593,49.15380266],[-122.67931224,49.15282209],[-122.67931392,49.1519373],[-122.67944163,49.14824397],[-122.67944519,49.14812647],[-122.67946427,49.14630704],[-122.67946565,49.14620735],[-122.67946866,49.14589616],[-122.67947629,49.1451812],[-122.67948275,49.14459087],[-122.67948306,49.14452108],[-122.679484,49.14440999],[-122.67948384,49.14440465],[-122.67949226,49.14270878],[-122.67949204,49.14269418],[-122.67950022,49.14097551],[-122.6795014,49.1408687],[-122.67951846,49.13951043],[-122.67952796,49.13875378],[-122.67953688,49.13804297],[-122.67954624,49.1372975],[-122.67956054,49.13615848],[-122.67957444,49.13567354],[-122.6795911,49.13440556],[-122.679596,49.13403027],[-122.67959686,49.13396518],[-122.67960165,49.13360594],[-122.67951983,49.13360566],[-122.67949901,49.13360559],[-122.67772466,49.13359775],[-122.67618692,49.13358636],[-122.67490329,49.13357781],[-122.67230392,49.13356072],[-122.67061625,49.13355075],[-122.67032126,49.13355645],[-122.67031977,49.13355644],[-122.66843027,49.13353865],[-122.66832235,49.13353616],[-122.66821475,49.13353402],[-122.66659263,49.13352511],[-122.66464489,49.13351439],[-122.66464441,49.13351439],[-122.6645891,49.13351408],[-122.6614444,49.13350554],[-122.66143719,49.13350537],[-122.66136198,49.13350368],[-122.66128649,49.13350197],[-122.6608797,49.13349779],[-122.66002372,49.13348844],[-122.65707995,49.13345818],[-122.65613314,49.13345248],[-122.65499541,49.13344572],[-122.654324,49.1334418],[-122.65155733,49.13342329],[-122.64976718,49.13341083],[-122.64885432,49.13340477],[-122.64696283,49.1333916],[-122.64594448,49.13338448],[-122.64383921,49.13337024],[-122.64166559,49.13335564],[-122.64014792,49.13334531],[-122.63831257,49.13333107],[-122.63713473,49.13332217],[-122.6357489,49.13254882],[-122.63260754,49.13078352],[-122.6314874,49.13015401],[-122.63035878,49.12951953],[-122.62575311,49.12693067],[-122.6248988,49.12645036],[-122.62459613,49.12665865],[-122.62420805,49.12692569],[-122.62405844,49.12702864],[-122.62233126,49.12821709],[-122.62098289,49.12914354],[-122.61757134,49.13147257],[-122.617246,49.13169465],[-122.61180983,49.13540579],[-122.61060417,49.13472893],[-122.6030026,49.13045901],[-122.60265407,49.13031353],[-122.60216421,49.13011983],[-122.60121157,49.12989303],[-122.60011598,49.12979369],[-122.59999853,49.12979262],[-122.59599574,49.12975559],[-122.59395319,49.12973672],[-122.59374767,49.12973459],[-122.59351494,49.12973245],[-122.59222643,49.12972034],[-122.59189726,49.12971749],[-122.59109196,49.12971002],[-122.58762109,49.12966409],[-122.58423232,49.12961922],[-122.58401063,49.12965875],[-122.58384483,49.1296883],[-122.58321391,49.12986205],[-122.5824776,49.13018926],[-122.58210722,49.13043494],[-122.5818174,49.13068987],[-122.58165186,49.13094445],[-122.5816365,49.13096795],[-122.58148987,49.13128519],[-122.58148583,49.13131261],[-122.58144539,49.13158499],[-122.58144358,49.1315946],[-122.58142905,49.13211596],[-122.58140753,49.13286678],[-122.5813837,49.13356642],[-122.58137161,49.13414536],[-122.58135714,49.13476845],[-122.58135622,49.13485391],[-122.58134959,49.1355596],[-122.58134542,49.13571306],[-122.58133808,49.13596052],[-122.5813325,49.13607445],[-122.58132854,49.1363301],[-122.58132469,49.13655014],[-122.58132423,49.13658076],[-122.58132271,49.13667191],[-122.58132153,49.13671214],[-122.58131284,49.13694607],[-122.58130465,49.13715863],[-122.58130437,49.137504],[-122.58130085,49.13771977],[-122.5812955,49.13808933],[-122.58116063,49.13815893],[-122.58111313,49.1382049],[-122.58086091,49.13825515],[-122.58035998,49.13824689],[-122.58012676,49.13822999],[-122.57959629,49.13808152],[-122.5791262,49.13776535],[-122.57910091,49.13773223],[-122.57884509,49.13739861],[-122.57805536,49.13592527],[-122.57783884,49.13561016],[-122.5774459,49.13531108],[-122.57690924,49.13506148],[-122.57332527,49.13366754],[-122.5727648,49.13351657],[-122.57221925,49.1334621],[-122.57129052,49.13345248],[-122.57075354,49.13344683],[-122.56653384,49.13340228],[-122.56613637,49.13339801],[-122.56438189,49.13337949],[-122.55905053,49.13332288],[-122.55903528,49.13418239],[-122.55900892,49.13564861],[-122.55899152,49.13664699],[-122.55897262,49.13770945],[-122.55895491,49.13921056],[-122.55894464,49.14011031],[-122.55893401,49.1410275],[-122.55892987,49.1413695],[-122.55892356,49.14191834],[-122.55891672,49.14249372],[-122.55887626,49.145993],[-122.55885984,49.14737805],[-122.55885326,49.14793456],[-122.55883096,49.14905114],[-122.55879238,49.1509489],[-122.55878607,49.15124869],[-122.55881551,49.15135302],[-122.55900323,49.15202346],[-122.55897959,49.1522905],[-122.55873437,49.15274589],[-122.55867064,49.15309091],[-122.55864249,49.15369014],[-122.55886965,49.1544731],[-122.55910816,49.15492244],[-122.55987683,49.15563027],[-122.55952306,49.15569258],[-122.5586932,49.15583927],[-122.55868138,49.1562288],[-122.55864596,49.15738053],[-122.55861143,49.15849543],[-122.55854273,49.16072574],[-122.55852936,49.16116653],[-122.55691537,49.16170595],[-122.55576205,49.1623796],[-122.55561826,49.16246363],[-122.55528276,49.16267833],[-122.5549341,49.16290157],[-122.55476562,49.16551215],[-122.55264481,49.16561362],[-122.54329439,49.16522161],[-122.54162304,49.16515111],[-122.53946628,49.1649738],[-122.53928803,49.1649592],[-122.53764797,49.16475589],[-122.53653883,49.16449384],[-122.53524011,49.16407441],[-122.53459113,49.16383657],[-122.53336887,49.16338794],[-122.53197224,49.16271215],[-122.531741,49.16256368],[-122.53112411,49.16216846],[-122.53077309,49.16201999],[-122.53064978,49.16201856],[-122.52999117,49.16201073],[-122.52665771,49.16197085],[-122.52530007,49.16195447],[-122.52528037,49.16221368],[-122.52524712,49.16266195],[-122.52488705,49.1674786],[-122.52509682,49.16749144],[-122.52524292,49.16750078],[-122.52536979,49.16750889],[-122.5256431,49.16752669],[-122.52591599,49.16754521],[-122.52618881,49.16756479],[-122.526461,49.16758544],[-122.52673365,49.16760716],[-122.52700548,49.1676303],[-122.52727735,49.16765523],[-122.52754839,49.16768158],[-122.52781961,49.16771042],[-122.52808979,49.16774104],[-122.52835961,49.16777415],[-122.5286283,49.16781011],[-122.52889447,49.16785319],[-122.52915749,49.16790446],[-122.52941752,49.16796179],[-122.52967539,49.16802374],[-122.52993064,49.16808926],[-122.53018539,49.16815655],[-122.53043919,49.16822456],[-122.53069394,49.16829185],[-122.53094878,49.16835807],[-122.53120341,49.16842466],[-122.53145754,49.16849302],[-122.53171051,49.16856245],[-122.53196306,49.16863259],[-122.5322154,49.16870309],[-122.53246788,49.1687743],[-122.53272001,49.16884516],[-122.53297236,49.16891565],[-122.53322471,49.16898615],[-122.53347768,49.16905558],[-122.53373128,49.16912394],[-122.53398605,49.16919124],[-122.53424131,49.16925675],[-122.53449795,49.16932084],[-122.53475758,49.16937888],[-122.53502257,49.16942588],[-122.53528995,49.16946504],[-122.5355585,49.16950314],[-122.53582511,49.16954551],[-122.53608752,49.16959785],[-122.53634695,49.16965624],[-122.53660617,49.16971499],[-122.5368656,49.16977338],[-122.53712536,49.16983213],[-122.53738438,49.16989124],[-122.53764297,49.16995105],[-122.53790116,49.17001158],[-122.53815926,49.17007318],[-122.53841579,49.17013656],[-122.53867202,49.17020136],[-122.53892668,49.17026794],[-122.53918029,49.1703363],[-122.53943245,49.17040716],[-122.53968295,49.17048086],[-122.53993165,49.1705567],[-122.54017753,49.17063645],[-122.54042058,49.17072013],[-122.54066046,49.17080736],[-122.54089813,49.17089744],[-122.54113443,49.17098895],[-122.54117291,49.17100556],[-122.54136364,49.17108793],[-122.54159223,49.17118798],[-122.54182253,49.17128696],[-122.54205401,49.17138488],[-122.54228527,49.17148315],[-122.542516,49.17158142],[-122.54274589,49.17168111],[-122.54297311,49.17178259],[-122.54319691,49.1718862],[-122.54341741,49.17199266],[-122.54363311,49.17210268],[-122.54384305,49.17221697],[-122.54404724,49.17233554],[-122.54424696,49.17245802],[-122.54426725,49.17247084],[-122.54444208,49.1725837],[-122.54463337,49.17271224],[-122.54482178,49.17284291],[-122.54500785,49.17297572],[-122.54519201,49.17310995],[-122.54537466,49.17324489],[-122.54555635,49.17338055],[-122.54573805,49.17351621],[-122.5459205,49.17365151],[-122.54610336,49.17378609],[-122.54628815,49.17391926],[-122.54644783,49.17406559],[-122.5466205,49.17420552],[-122.54679715,49.17434331],[-122.54697668,49.17447897],[-122.54715976,49.1746132],[-122.54734552,49.17474565],[-122.5475332,49.17487668],[-122.54772335,49.17500628],[-122.54791596,49.17513446],[-122.54811009,49.17526193],[-122.54830558,49.17538797],[-122.5485028,49.17551295],[-122.54870076,49.17563757],[-122.5488999,49.17576112],[-122.54910054,49.17588395],[-122.54930289,49.17600572],[-122.54950684,49.17612571],[-122.54971303,49.17624463],[-122.54981323,49.1763016],[-122.54992061,49.17636213],[-122.55013066,49.17647821],[-122.55034208,49.17659285],[-122.55055617,49.17670572],[-122.55077185,49.17681681],[-122.55098966,49.17692612],[-122.5512096,49.17703365],[-122.55143187,49.17713904],[-122.55165607,49.17724301],[-122.55188227,49.17734448],[-122.55211134,49.17744382],[-122.55234242,49.17754067],[-122.55257625,49.17763466],[-122.55281263,49.17772617],[-122.55305217,49.17781411],[-122.55329434,49.1778985],[-122.55353967,49.17797932],[-122.55378646,49.17805765],[-122.5540338,49.17813598],[-122.55428079,49.17821396],[-122.55452834,49.17829194],[-122.55477609,49.17836956],[-122.55502384,49.17844717],[-122.55527126,49.17852444],[-122.55551943,49.17860134],[-122.5557676,49.17867825],[-122.55601544,49.1787548],[-122.55626437,49.17883136],[-122.55651241,49.17890755],[-122.55676155,49.17898375],[-122.55686881,49.1790165],[-122.55701055,49.17905923],[-122.55725936,49.17913507],[-122.55750857,49.17921019],[-122.55775779,49.17928532],[-122.55800776,49.17936009],[-122.5582574,49.17943451],[-122.55850758,49.17950892],[-122.55875763,49.17958263],[-122.55900769,49.17965633],[-122.55925828,49.17973003],[-122.5595093,49.17980302],[-122.55975977,49.17987601],[-122.560011,49.17994865],[-122.56026243,49.18002093],[-122.56051407,49.18009285],[-122.56076538,49.18016441],[-122.56101723,49.18023598],[-122.5612695,49.18030684],[-122.56152177,49.18037769],[-122.56177445,49.18044783],[-122.56202714,49.18051798],[-122.56228003,49.18058776],[-122.56253368,49.18065719],[-122.5627872,49.18072591],[-122.56304217,49.18079214],[-122.56330109,49.1808516],[-122.56356292,49.18090607],[-122.56382614,49.18095628],[-122.56409124,49.18100327],[-122.56435663,49.18104885],[-122.56462263,49.18109336],[-122.56488823,49.18113857],[-122.56515333,49.18118557],[-122.56541697,49.18123506],[-122.56567868,49.18128883],[-122.56593802,49.18134758],[-122.56619321,49.18141345],[-122.56643617,49.18149747],[-122.56666711,49.18159468],[-122.56689179,49.18169793],[-122.56711743,49.18180048],[-122.56735091,49.18189519],[-122.56759658,49.18197459],[-122.56785274,49.18203974],[-122.56811354,49.182096],[-122.56837699,49.18214585],[-122.56864252,49.18219213],[-122.56890791,49.18223771],[-122.56917248,49.18228471],[-122.56943565,49.18233598],[-122.56968857,49.18240576],[-122.56994203,49.18247555],[-122.57019461,49.18254498],[-122.57044754,49.18261477],[-122.570701,49.18268455],[-122.57103241,49.18278603],[-122.57128168,49.18286116],[-122.57153274,49.18293415],[-122.57178387,49.18300607],[-122.57203576,49.18307764],[-122.57228766,49.1831492],[-122.57253955,49.18322077],[-122.57279082,49.1832934],[-122.57304092,49.18336711],[-122.57329019,49.18344223],[-122.57353843,49.18351914],[-122.57378467,49.18359854],[-122.57402871,49.18368079],[-122.57427034,49.18376624],[-122.5745088,49.18385525],[-122.57474389,49.18394818],[-122.57497528,49.18404467],[-122.57520446,49.18414401],[-122.57543172,49.18424478],[-122.57565644,49.18434803],[-122.57587979,49.18445271],[-122.57610101,49.18455917],[-122.57632032,49.18466705],[-122.57653804,49.18477672],[-122.57675385,49.18488781],[-122.57696828,49.18500032],[-122.57718046,49.1851139],[-122.57739181,49.1852289],[-122.57760145,49.18534498],[-122.57780972,49.18546247],[-122.57801648,49.18558068],[-122.57822228,49.1856996],[-122.57842617,49.18581995],[-122.57862985,49.18594065],[-122.57883182,49.18606242],[-122.57903284,49.1861849],[-122.57923385,49.18630739],[-122.57943391,49.18643058],[-122.57963417,49.18655342],[-122.57983402,49.18667697],[-122.58003237,49.18680123],[-122.58023072,49.18692549],[-122.58042791,49.18705082],[-122.58062359,49.18717687],[-122.58081832,49.18730362],[-122.58101133,49.18743144],[-122.58120318,49.18756033],[-122.58139332,49.18769029],[-122.5815812,49.18782132],[-122.58176662,49.18795377],[-122.58195033,49.18808729],[-122.58213137,49.18822259],[-122.58230995,49.18835932],[-122.58248833,49.1884964],[-122.58264476,49.18864309],[-122.58277829,49.18880011],[-122.58290956,49.1889582],[-122.58303955,49.18911664],[-122.58316857,49.18927579],[-122.58329726,49.18943459],[-122.58342703,49.18959339],[-122.58355853,49.18975112],[-122.58369316,49.18990814],[-122.58383039,49.19006445],[-122.58396891,49.1902204],[-122.58410799,49.19037635],[-122.58424597,49.1905323],[-122.58438191,49.19068897],[-122.58451547,49.19084599],[-122.58464472,49.19100478],[-122.58476899,49.19116465],[-122.58481805,49.19123195],[-122.58488732,49.1913263],[-122.58499733,49.19149008],[-122.58509621,49.19165707],[-122.58518526,49.19182691],[-122.58526708,49.19199888],[-122.58534391,49.19217192],[-122.58541925,49.19234568],[-122.58549534,49.19251908],[-122.58557436,49.19269212],[-122.58565932,49.19286338],[-122.58575132,49.19303286],[-122.58584461,49.19320198],[-122.58593812,49.19337075],[-122.58603305,49.19353988],[-122.58612819,49.19370865],[-122.58622354,49.19387706],[-122.58631977,49.19404583],[-122.58641567,49.19421424],[-122.58651266,49.19438265],[-122.58660911,49.19455107],[-122.5867061,49.19471948],[-122.5868031,49.19488789],[-122.5869003,49.19505595],[-122.5869973,49.19522436],[-122.58709375,49.19539277],[-122.58719021,49.19556119],[-122.58728667,49.1957296],[-122.58738292,49.19589837],[-122.58747829,49.19606678],[-122.58757346,49.19623555],[-122.58766808,49.19640432],[-122.58776196,49.19657344],[-122.58785399,49.19674292],[-122.58793975,49.19691383],[-122.58802161,49.1970858],[-122.58810219,49.19725813],[-122.58818372,49.19742975],[-122.58827023,49.1976003],[-122.58836508,49.19776871],[-122.58848286,49.19793143],[-122.58860992,49.19809129],[-122.58872771,49.19825401],[-122.58884256,49.19841708],[-122.58896164,49.19857944],[-122.58908298,49.19874073],[-122.58920692,49.19890131],[-122.58933366,49.19906083],[-122.58946299,49.19921962],[-122.58959459,49.19937736],[-122.5896209,49.19940798],[-122.58972877,49.19953437],[-122.58986522,49.19969033],[-122.59000372,49.19984556],[-122.59014482,49.20000009],[-122.59021017,49.2000713],[-122.59035529,49.20022547],[-122.59050246,49.20037893],[-122.59065134,49.20053132],[-122.59080207,49.20068336],[-122.59095471,49.20083397],[-122.59110887,49.20098386],[-122.59126507,49.20113305],[-122.59142244,49.20128117],[-122.59158153,49.20142822],[-122.59174233,49.2015742],[-122.59190409,49.20171947],[-122.59206702,49.20186367],[-122.59223112,49.2020068],[-122.59239789,49.20214815],[-122.59256821,49.20228808],[-122.59274251,49.20242588],[-122.59291927,49.20256224],[-122.59309958,49.20269719],[-122.59328257,49.20283035],[-122.59346815,49.2029628],[-122.59365565,49.20309383],[-122.59384542,49.20322379],[-122.59403668,49.20335304],[-122.59423,49.20348157],[-122.59442428,49.20360939],[-122.59461931,49.20373686],[-122.5948151,49.20386397],[-122.59501164,49.20399073],[-122.59520839,49.20411712],[-122.59540548,49.20424388],[-122.59560202,49.20437063],[-122.59579782,49.20449774],[-122.59599341,49.20462521],[-122.5961877,49.20475303],[-122.59638103,49.20488157],[-122.59657287,49.20501082],[-122.59676299,49.20514113],[-122.59695107,49.20527216],[-122.59713647,49.20540497],[-122.59731914,49.20554062],[-122.59749871,49.20567877],[-122.59767596,49.20581905],[-122.59785109,49.20596112],[-122.5980245,49.20610425],[-122.59819654,49.20624881],[-122.59836838,49.20639372],[-122.59853946,49.20653899],[-122.5987113,49.20668391],[-122.59888281,49.20682846],[-122.59905582,49.20697231],[-122.59922987,49.20711437],[-122.59940584,49.20725501],[-122.59958448,49.20739387],[-122.59976477,49.20752989],[-122.59994891,49.20766305],[-122.60000014,49.20769866],[-122.60032647,49.20791905],[-122.60052505,49.20804331],[-122.60072918,49.20816366],[-122.60093949,49.20827902],[-122.60115576,49.20838975],[-122.60137882,49.20849443],[-122.60160709,49.20859484],[-122.60183852,49.20869169],[-122.60207216,49.20878568],[-122.60230909,49.20887683],[-122.60254843,49.20896478],[-122.60279031,49.20905023],[-122.6030346,49.20913248],[-122.60328088,49.20921223],[-122.60352862,49.2092895],[-122.60377856,49.20936391],[-122.60403049,49.20943583],[-122.60428387,49.20950526],[-122.60453871,49.2095722],[-122.60479479,49.209637],[-122.60505169,49.20970038],[-122.60530845,49.2097659],[-122.60556487,49.20983105],[-122.60582253,49.20989407],[-122.60608096,49.20995389],[-122.6063425,49.21000837],[-122.60660655,49.21005572],[-122.6068737,49.21009774],[-122.60714329,49.2101337],[-122.60741468,49.21016467],[-122.607687,49.21019031],[-122.60795908,49.21021167],[-122.608232,49.21022876],[-122.6085057,49.21024265],[-122.60877976,49.21025404],[-122.6090539,49.21026437],[-122.60932866,49.21027363],[-122.60960321,49.21028324],[-122.60987768,49.21029392],[-122.61015167,49.21030638],[-122.61042537,49.21032027],[-122.6106992,49.21033487],[-122.61097262,49.21035018],[-122.61124638,49.21036584],[-122.61151959,49.21038151],[-122.61179335,49.21039718],[-122.6120671,49.21041284],[-122.61234073,49.2104278],[-122.61261423,49.21044204],[-122.61288814,49.21045557],[-122.61316212,49.21046803],[-122.61343585,49.21047907],[-122.61370999,49.21048939],[-122.61398467,49.21049972],[-122.61425901,49.21050969],[-122.61453323,49.21051895],[-122.61480765,49.21052785],[-122.61508249,49.21053604],[-122.61535685,49.21054316],[-122.6156313,49.21054921],[-122.61590581,49.21055419],[-122.61618062,49.21055776],[-122.61645482,49.21055954],[-122.61672896,49.21055954],[-122.6170036,49.21055776],[-122.61727792,49.21055277],[-122.61755246,49.21054458],[-122.61782648,49.21053354],[-122.61810086,49.21052001],[-122.61837505,49.21050399],[-122.61864831,49.21048583]]]},"geometry_name":"SHAPE","properties":{"id":292,"slug":"langley-walnut-grove","name":"Langley-Walnut Grove","abbreviation":"LWG","gazetteDate":"2023-12-07Z","boundarySet":11},"bbox":[-122.67963844,49.12645036,-122.52488705,49.21055954]}
