{"type":"Feature","id":310,"geometry":{"type":"Polygon","coordinates":[[[-122.8766217,49.38265566],[-122.87661405,49.38256664],[-122.87655367,49.38184172],[-122.89260987,49.35744323],[-122.89482829,49.35597381],[-122.92815397,49.33388289],[-122.92912071,49.33168],[-122.93043987,49.32867278],[-122.93137318,49.32654507],[-122.93390429,49.32077376],[-122.93517974,49.31786525],[-122.93674294,49.31430001],[-122.93832007,49.31070246],[-122.94022822,49.30634937],[-122.94053168,49.30565684],[-122.94393844,49.29788102],[-122.93232758,49.29545345],[-122.92000799,49.29168606],[-122.91962073,49.29168642],[-122.91959889,49.29168642],[-122.91383742,49.29169283],[-122.91371404,49.29169283],[-122.91128355,49.2916939],[-122.90785669,49.29169888],[-122.90672363,49.29189649],[-122.89570539,49.29381739],[-122.89430423,49.29381597],[-122.89441287,49.2913325],[-122.89448404,49.28969893],[-122.89448744,49.28962306],[-122.89449093,49.28954512],[-122.89465169,49.28586389],[-122.89463958,49.28569065],[-122.89463711,49.28565525],[-122.89431839,49.28056192],[-122.89367652,49.27586416],[-122.89367423,49.27581396],[-122.89364443,49.27515847],[-122.89361424,49.27448987],[-122.89344611,49.27076692],[-122.89344625,49.27076478],[-122.89343408,49.27049703],[-122.89343028,49.27041336],[-122.8933941,49.26967989],[-122.89331094,49.26763793],[-122.89327159,49.26636184],[-122.89326737,49.26621621],[-122.89326321,49.26607237],[-122.89326148,49.26601077],[-122.8932518,49.26571026],[-122.89312684,49.26294267],[-122.8931267,49.26293341],[-122.89312689,49.26288748],[-122.89312674,49.2628355],[-122.89310869,49.26225798],[-122.8931047,49.26213194],[-122.89305788,49.26067462],[-122.89304757,49.26034776],[-122.89308455,49.25949888],[-122.89300821,49.25913067],[-122.89308136,49.25901904],[-122.89308063,49.25894541],[-122.89308293,49.25888139],[-122.89308155,49.25881708],[-122.89307286,49.25779005],[-122.89306097,49.25709968],[-122.89305698,49.25701792],[-122.89305565,49.25699073],[-122.89305118,49.25680943],[-122.89303087,49.25617468],[-122.89303043,49.25614824],[-122.89301509,49.2552376],[-122.89300438,49.25482453],[-122.8929784,49.25384026],[-122.89297072,49.25339964],[-122.89293735,49.25200522],[-122.89293125,49.25177408],[-122.89290986,49.25085389],[-122.89290086,49.2506252],[-122.89285205,49.24938526],[-122.89284833,49.24912542],[-122.89284655,49.24906512],[-122.89275761,49.24906268],[-122.88975608,49.24907585],[-122.88963977,49.24907229],[-122.88756087,49.2490641],[-122.88754723,49.2490641],[-122.88727205,49.24906268],[-122.88695631,49.24906161],[-122.88609055,49.24905805],[-122.88575249,49.2490566],[-122.88542511,49.2490552],[-122.87715056,49.24902316],[-122.87296653,49.24900215],[-122.87283112,49.24900144],[-122.87214979,49.24899681],[-122.87147459,49.24899948],[-122.87066181,49.24900268],[-122.86920228,49.24900195],[-122.8691738,49.2490427],[-122.86911803,49.2493461],[-122.86910653,49.24972173],[-122.86909226,49.25060581],[-122.86908536,49.25084543],[-122.86907686,49.25125098],[-122.86907105,49.25151339],[-122.86902345,49.2530939],[-122.86900119,49.25392849],[-122.868981,49.25506501],[-122.86895954,49.25627594],[-122.8689143,49.25810427],[-122.86890248,49.2589912],[-122.86889511,49.25991978],[-122.86886772,49.26082164],[-122.86884141,49.2616883],[-122.86883695,49.26182904],[-122.86882754,49.26212624],[-122.86881231,49.26259124],[-122.86879094,49.26305048],[-122.86878958,49.26307975],[-122.8687672,49.26356291],[-122.86874679,49.26398385],[-122.86871803,49.26457303],[-122.86868545,49.26505691],[-122.86866558,49.26535065],[-122.86865915,49.26550803],[-122.86855874,49.26815314],[-122.86850777,49.26937653],[-122.86848721,49.26990413],[-122.86847918,49.27011],[-122.86847847,49.27052908],[-122.86848226,49.27080276],[-122.86566788,49.27079335],[-122.86295572,49.27078407],[-122.85978435,49.27077343],[-122.85772204,49.27076638],[-122.85658799,49.27076248],[-122.84641488,49.27072665],[-122.84640739,49.27273056],[-122.84545182,49.27273387],[-122.83792342,49.27267898],[-122.83792329,49.2729011],[-122.83792374,49.27312897],[-122.83665789,49.27312292],[-122.83571483,49.27311829],[-122.8354018,49.27312194],[-122.83495172,49.27312719],[-122.83489967,49.27312755],[-122.83212982,49.27315567],[-122.83151651,49.2731603],[-122.830407,49.27318483],[-122.82922871,49.27321086],[-122.82392833,49.27321157],[-122.82392976,49.2733191],[-122.8239369,49.27374957],[-122.82377908,49.27484514],[-122.82382731,49.27572495],[-122.82381367,49.27664499],[-122.8238125,49.27751589],[-122.82381194,49.27768288],[-122.82381197,49.27773878],[-122.82381358,49.27779005],[-122.82383998,49.27860363],[-122.82382002,49.27927624],[-122.82379464,49.2801311],[-122.82378398,49.28049783],[-122.82377525,49.28049783],[-122.82215737,49.28048757],[-122.82186593,49.28048572],[-122.82125096,49.28048074],[-122.82123547,49.2804811],[-122.82123461,49.28055658],[-122.82123418,49.28061141],[-122.82123375,49.2809461],[-122.82123339,49.28112697],[-122.82123157,49.2825049],[-122.82123163,49.28252377],[-122.82122905,49.28394327],[-122.82122788,49.2845846],[-122.82122773,49.28462092],[-122.82103387,49.28467486],[-122.82102427,49.28467753],[-122.82102091,49.28467812],[-122.82051524,49.2847663],[-122.82044377,49.28477876],[-122.82043653,49.28477879],[-122.81974612,49.28478142],[-122.81902139,49.28466261],[-122.81848254,49.28449594],[-122.81808773,49.28433811],[-122.81671577,49.28385037],[-122.81592423,49.28356896],[-122.81558597,49.2835073],[-122.81486126,49.28337518],[-122.81432857,49.28335058],[-122.81420092,49.28334468],[-122.81390541,49.28333103],[-122.8138872,49.28333019],[-122.81380855,49.2833367],[-122.81324629,49.2833832],[-122.81280153,49.28343811],[-122.8121529,49.28358062],[-122.8106076,49.28411968],[-122.80966125,49.28437453],[-122.80928828,49.28444654],[-122.80860756,49.28457798],[-122.80619546,49.28490109],[-122.80557203,49.28495689],[-122.80442905,49.28505068],[-122.80169535,49.28516817],[-122.80162875,49.28517121],[-122.80162364,49.28517145],[-122.80162591,49.2852433],[-122.80158847,49.28620211],[-122.80154001,49.28751313],[-122.80146103,49.28938626],[-122.80144949,49.28996206],[-122.80139558,49.29020226],[-122.80136661,49.29025583],[-122.80125955,49.29045382],[-122.80073008,49.29112653],[-122.80065601,49.29124454],[-122.8005997,49.29152393],[-122.80060932,49.29312309],[-122.80063647,49.29354573],[-122.80063666,49.29354628],[-122.80065607,49.29360403],[-122.80073423,49.29383646],[-122.80092777,49.29408646],[-122.80153726,49.29480426],[-122.80186379,49.29548122],[-122.80192597,49.29545666],[-122.80193757,49.29545167],[-122.80242838,49.29527329],[-122.80252815,49.29523701],[-122.80271627,49.29516861],[-122.80290912,49.29511316],[-122.80357192,49.29492258],[-122.80430104,49.2947525],[-122.80509223,49.29456795],[-122.80511296,49.29456414],[-122.80512519,49.2945619],[-122.80584292,49.29443452],[-122.80607614,49.29439313],[-122.80718091,49.29424928],[-122.80878765,49.29412965],[-122.80879649,49.29412901],[-122.80885146,49.29412502],[-122.80938307,49.29412716],[-122.80938613,49.29412714],[-122.80954867,49.29412782],[-122.81045012,49.29413143],[-122.81126534,49.2941922],[-122.81126741,49.29419236],[-122.81141493,49.29420335],[-122.81180937,49.2942532],[-122.81255725,49.2943473],[-122.81320738,49.29442909],[-122.8143817,49.29465127],[-122.8145711,49.29468724],[-122.81472475,49.29471642],[-122.81540227,49.29488163],[-122.81544872,49.29489285],[-122.81546123,49.29489587],[-122.81569711,49.29495344],[-122.81576764,49.29497064],[-122.81589683,49.29500233],[-122.81736701,49.29549257],[-122.819443,49.29618514],[-122.82049603,49.29654605],[-122.8206325,49.29659282],[-122.8209992,49.29671851],[-122.82120812,49.29679007],[-122.82158001,49.2968904],[-122.82184952,49.29696311],[-122.8224568,49.29705213],[-122.82265561,49.29705391],[-122.82265585,49.29860736],[-122.82265574,49.29983574],[-122.82265531,49.29999988],[-122.8226545,49.30048768],[-122.82265412,49.30059093],[-122.82265345,49.30106804],[-122.82265304,49.30108015],[-122.82264295,49.30772444],[-122.8226132,49.30977601],[-122.82260633,49.31022998],[-122.82259778,49.31081711],[-122.82257959,49.31202377],[-122.82257236,49.31249554],[-122.82254586,49.31428243],[-122.8225358,49.31496085],[-122.82250733,49.32083921],[-122.82249983,49.32238774],[-122.82253058,49.32729515],[-122.82254459,49.32953193],[-122.82259107,49.33679362],[-122.82259107,49.33695741],[-122.82263768,49.34018644],[-122.82266092,49.34391609],[-122.82266212,49.34411406],[-122.82265678,49.34839096],[-122.82265317,49.3513259],[-122.82265295,49.35137966],[-122.82386681,49.35139684],[-122.82388587,49.35139711],[-122.82398453,49.35139853],[-122.82397976,49.35143449],[-122.82397444,49.35147045],[-122.82396913,49.35150642],[-122.82396401,49.35154202],[-122.82395924,49.35157798],[-122.82395447,49.35161394],[-122.82395079,49.35164991],[-122.82394766,49.35168587],[-122.82394528,49.35172147],[-122.82394379,49.35175743],[-122.82394394,49.35179339],[-122.82394464,49.35182936],[-122.82394588,49.35186532],[-122.82394712,49.35190128],[-122.82394891,49.35193724],[-122.82395125,49.3519732],[-122.82395413,49.35200916],[-122.82395701,49.35204512],[-122.82396044,49.35208108],[-122.82396387,49.35211705],[-122.82396839,49.35215301],[-122.82397237,49.35218897],[-122.82397744,49.35222493],[-122.82398271,49.35226054],[-122.82398778,49.3522965],[-122.8239936,49.3523321],[-122.82399976,49.35236806],[-122.82400613,49.35240367],[-122.82401359,49.35243927],[-122.82402159,49.35247488],[-122.82403069,49.35251048],[-122.82404,49.35254573],[-122.82405019,49.35258134],[-122.82406059,49.35261659],[-122.82407153,49.35265184],[-122.82408302,49.35268709],[-122.82409451,49.35272234],[-122.82410655,49.35275758],[-122.82411859,49.35279283],[-122.82413083,49.35282773],[-122.82414362,49.35286262],[-122.82415805,49.35289751],[-122.82417268,49.35293205],[-122.82418786,49.35296659],[-122.82420358,49.35300112],[-122.82421985,49.35303566],[-122.82423633,49.35306984],[-122.82425315,49.35310438],[-122.82426908,49.35313856],[-122.82428645,49.3531731],[-122.82430347,49.35320728],[-122.82432124,49.3532411],[-122.82433881,49.35327528],[-122.82435713,49.35330911],[-122.8243747,49.35334329],[-122.82439227,49.35337747],[-122.8244093,49.35341165],[-122.82442577,49.35344583],[-122.8244426,49.35348037],[-122.82445853,49.35351455],[-122.8244748,49.35354909],[-122.82449053,49.35358363],[-122.8245068,49.35361816],[-122.82452273,49.35365234],[-122.824539,49.35368688],[-122.82455548,49.35372106],[-122.82457251,49.35375524],[-122.82459008,49.35378942],[-122.82460765,49.3538236],[-122.82462522,49.35385779],[-122.82464299,49.35389161],[-122.82466057,49.35392579],[-122.82467814,49.35395997],[-122.82469571,49.35399415],[-122.82471403,49.35402798],[-122.82473215,49.35406216],[-122.82475047,49.35409599],[-122.8247688,49.35412981],[-122.82478766,49.35416364],[-122.82480708,49.35419746],[-122.8248267,49.35423093],[-122.82484687,49.3542644],[-122.82486758,49.35429787],[-122.8248885,49.35433098],[-122.82490942,49.35436409],[-122.82493068,49.35439756],[-122.82495214,49.35443067],[-122.82497361,49.35446379],[-122.82499562,49.3544969],[-122.82501763,49.35453001],[-122.82503984,49.35456277],[-122.8250624,49.35459588],[-122.82508516,49.35462864],[-122.82510847,49.3546614],[-122.82512979,49.35469095],[-122.82513178,49.35469415],[-122.82515529,49.35472655],[-122.82517936,49.35475895],[-122.82520417,49.354791],[-122.82522898,49.35482304],[-122.82525433,49.35485509],[-122.8252799,49.35488678],[-122.82530601,49.35491847],[-122.82533307,49.35494944],[-122.82536122,49.35498042],[-122.82539013,49.35501104],[-122.82541979,49.3550413],[-122.8254502,49.35507121],[-122.82548095,49.35510148],[-122.82551136,49.35513139],[-122.82554252,49.35516094],[-122.82557402,49.35519085],[-122.82560518,49.3552204],[-122.82563614,49.35525031],[-122.82566655,49.35528022],[-122.82569676,49.35531048],[-122.82572696,49.35534074],[-122.82575607,49.35537101],[-122.82578553,49.35540163],[-122.82581464,49.35543189],[-122.8258441,49.35546251],[-122.82587301,49.35549313],[-122.82590246,49.35552376],[-122.82593212,49.35555402],[-122.82596178,49.35558428],[-122.82599219,49.35561419],[-122.8260226,49.3556441],[-122.82605376,49.35567365],[-122.82608622,49.35570285],[-122.82611998,49.35573169],[-122.82615394,49.35576017],[-122.8261879,49.35578866],[-122.8262224,49.35581714],[-122.82625637,49.35584563],[-122.82629033,49.35587411],[-122.82632333,49.35590331],[-122.82635524,49.3559325],[-122.82638586,49.35596206],[-122.82641497,49.35599232],[-122.82644204,49.3560233],[-122.8264676,49.35605499],[-122.82649242,49.35608703],[-122.82651594,49.35611943],[-122.82653815,49.35615219],[-122.82656017,49.3561853],[-122.82658089,49.35621877],[-122.82660106,49.35625224],[-122.82662048,49.35628606],[-122.8266397,49.35632024],[-122.82665782,49.35635442],[-122.82667594,49.35638861],[-122.82669352,49.35642279],[-122.82671055,49.35645697],[-122.82672758,49.35649115],[-122.82674406,49.35652533],[-122.82676034,49.35655987],[-122.82677553,49.3565944],[-122.82678997,49.3566293],[-122.82680365,49.35666455],[-122.82681645,49.35669944],[-122.82682829,49.35673504],[-122.82683924,49.35677029],[-122.8268489,49.3568059],[-122.82685711,49.35684115],[-122.82686458,49.35687675],[-122.82687041,49.35691236],[-122.82687494,49.35694832],[-122.82687818,49.35698464],[-122.82687977,49.35702096],[-122.82687972,49.35705727],[-122.82687804,49.35709359],[-122.82687383,49.35712955],[-122.82686763,49.35716516],[-122.8268589,49.35720041],[-122.82684765,49.3572353],[-122.82683475,49.35727019],[-122.82681933,49.35730473],[-122.82680281,49.35733927],[-122.82678486,49.35737345],[-122.82676581,49.35740763],[-122.82674587,49.35744145],[-122.82672505,49.35747492],[-122.82670422,49.35750839],[-122.82668182,49.35754079],[-122.82665402,49.35757212],[-122.82662301,49.35760239],[-122.82659254,49.35763265],[-122.82656494,49.35766363],[-122.82654343,49.35769639],[-122.82652459,49.35773021],[-122.82650773,49.35776439],[-122.82649176,49.35779893],[-122.82647722,49.35783382],[-122.82646413,49.35786907],[-122.82645267,49.35790432],[-122.82644175,49.35793957],[-122.82643228,49.35797518],[-122.8264241,49.35801042],[-122.82641572,49.35804603],[-122.82640843,49.35808164],[-122.82640114,49.35811724],[-122.82639439,49.35815285],[-122.82638799,49.35818881],[-122.8263818,49.35822441],[-122.82637594,49.35826037],[-122.82637009,49.35829633],[-122.82636444,49.35833194],[-122.82635913,49.3583679],[-122.82635348,49.35840351],[-122.82634763,49.35843947],[-122.82634178,49.35847543],[-122.82633558,49.35851103],[-122.82632863,49.358547],[-122.82632005,49.35858296],[-122.82631091,49.35861892],[-122.82630178,49.35865488],[-122.82629319,49.35869084],[-122.8262857,49.3587268],[-122.82628005,49.35876241],[-122.82627714,49.35879801],[-122.82627695,49.35883362],[-122.82628135,49.35886887],[-122.82628848,49.35890412],[-122.82629745,49.35893901],[-122.82630895,49.35897426],[-122.8263223,49.35900915],[-122.82633674,49.35904404],[-122.82635302,49.35907858],[-122.82636965,49.35911347],[-122.82638757,49.35914801],[-122.8264057,49.35918219],[-122.82642437,49.35921637],[-122.8264425,49.35925055],[-122.82646083,49.35928438],[-122.82647971,49.3593182],[-122.82649859,49.35935203],[-122.82651856,49.35938585],[-122.82653874,49.35941932],[-122.82655946,49.35945279],[-122.82658094,49.35948591],[-122.82660296,49.35951902],[-122.82662518,49.35955178],[-122.8266485,49.35958453],[-122.82667257,49.35961693],[-122.82669719,49.35964933],[-122.82672221,49.35968102],[-122.82674983,49.359712],[-122.82677875,49.35974262],[-122.82680896,49.35977288],[-122.82683938,49.35980279],[-122.82687034,49.3598327],[-122.82690131,49.35986261],[-122.82693207,49.35989287],[-122.82696119,49.35992314],[-122.82698936,49.35995411],[-122.82701547,49.3599858],[-122.8270403,49.36001785],[-122.82706457,49.36004989],[-122.82708789,49.36008265],[-122.82711012,49.36011541],[-122.82713214,49.36014852],[-122.82715341,49.36018199],[-122.82717434,49.3602151],[-122.82719452,49.36024857],[-122.82721504,49.36028239],[-122.82723467,49.36031586],[-122.82725485,49.36034933],[-122.82727448,49.3603828],[-122.82729445,49.36041663],[-122.82731409,49.3604501],[-122.82733406,49.36048392],[-122.82735315,49.36051739],[-122.82737258,49.36055121],[-122.82739146,49.36058504],[-122.82741034,49.36061886],[-122.82742867,49.36065269],[-122.8274468,49.36068687],[-122.82746459,49.36072069],[-122.82748218,49.36075488],[-122.82749901,49.36078941],[-122.82751496,49.36082359],[-122.8275307,49.36085813],[-122.82754589,49.36089267],[-122.82755999,49.3609272],[-122.82757334,49.3609621],[-122.82758594,49.36099735],[-122.8275982,49.36103224],[-122.82761025,49.36106749],[-122.82762176,49.36110274],[-122.82763326,49.36113799],[-122.82764477,49.36117324],[-122.82765628,49.36120849],[-122.82766833,49.36124374],[-122.82768059,49.36127863],[-122.82769319,49.36131388],[-122.82770654,49.36134877],[-122.82772064,49.36138331],[-122.82773529,49.36141785],[-122.82775287,49.36145203],[-122.8277734,49.36148585],[-122.82779576,49.36151932],[-122.82781943,49.36155243],[-122.82784255,49.36158555],[-122.82786437,49.36161902],[-122.82788346,49.36165248],[-122.82789961,49.36168631],[-122.82791043,49.36172085],[-122.82791756,49.3617561],[-122.82792066,49.3617917],[-122.82792103,49.36182731],[-122.82791956,49.36186327],[-122.82791679,49.36189958],[-122.82791292,49.3619359],[-122.82790906,49.36197222],[-122.82790574,49.36200854],[-122.82790297,49.36204485],[-122.82790259,49.36208081],[-122.82790385,49.36211678],[-122.82790784,49.36215274],[-122.82791272,49.36218905],[-122.8279187,49.36222537],[-122.82792631,49.36226169],[-122.82793598,49.36229729],[-122.82794858,49.36233254],[-122.82796453,49.36236673],[-122.82798382,49.36239984],[-122.82800735,49.36243224],[-122.82803306,49.36246464],[-122.82806226,49.36249668],[-122.82809426,49.36252766],[-122.82812871,49.36255721],[-122.82816549,49.36258463],[-122.82820444,49.3626092],[-122.82824523,49.36263056],[-122.82829181,49.36264658],[-122.82834384,49.36265691],[-122.82839976,49.36266332],[-122.82845704,49.3626683],[-122.82851398,49.36267293],[-122.82856846,49.36267898],[-122.82862274,49.36268539],[-122.82865295,49.36268895],[-122.82867702,49.3626918],[-122.8287315,49.36269785],[-122.82878619,49.36270355],[-122.82884073,49.36270853],[-122.82889549,49.36271316],[-122.82894989,49.36271744],[-122.82900492,49.36272064],[-122.82905946,49.36272278],[-122.8291144,49.3627242],[-122.82916942,49.36272456],[-122.82922484,49.3627242],[-122.82927992,49.36272349],[-122.82933465,49.36272242],[-122.82939014,49.362721],[-122.82944508,49.36271957],[-122.82950057,49.36271815],[-122.8295553,49.36271708],[-122.82961038,49.36271637],[-122.8296658,49.36271601],[-122.82972102,49.36271601],[-122.82977644,49.36271566],[-122.82983152,49.36271494],[-122.8298868,49.36271388],[-122.8299414,49.3627121],[-122.82999606,49.36270925],[-122.83005045,49.36270497],[-122.83010462,49.36269821],[-122.83015749,49.36268895],[-122.83021097,49.36267863],[-122.83026356,49.36266794],[-122.83031684,49.36265798],[-122.83073286,49.36260172],[-122.83089661,49.36262985],[-122.83094583,49.36275767],[-122.83095483,49.36292324],[-122.83099829,49.36306779],[-122.83105814,49.36320665],[-122.83113485,49.36334088],[-122.8312397,49.36346799],[-122.8313031,49.36360543],[-122.83135284,49.36374572],[-122.83140292,49.36388636],[-122.83145949,49.36402522],[-122.8315188,49.36416408],[-122.83157811,49.36430294],[-122.83163523,49.3644418],[-122.83168737,49.36458173],[-122.83173014,49.36472272],[-122.83175933,49.3648655],[-122.83177697,49.36500935],[-122.83178661,49.36515284],[-122.83179038,49.36529704],[-122.83178724,49.36544088],[-122.83177755,49.36558473],[-122.83176348,49.36572857],[-122.83174886,49.36587242],[-122.83173281,49.36601591],[-122.83171437,49.36615975],[-122.83169395,49.36630324],[-122.83166936,49.36644637],[-122.8316408,49.36658879],[-122.83160575,49.36673015],[-122.83155313,49.36686972],[-122.83148875,49.36700787],[-122.83142293,49.36714566],[-122.83136471,49.36728452],[-122.83131133,49.36742445],[-122.8312594,49.36756473],[-122.83120514,49.36770431],[-122.83114459,49.36784245],[-122.83107378,49.36797847],[-122.83099148,49.36811163],[-122.83090111,49.36824266],[-122.83080657,49.36837333],[-122.83071224,49.36850364],[-122.8306231,49.36863538],[-122.83054313,49.36876926],[-122.83048326,49.36890812],[-122.8304286,49.3690484],[-122.83035998,49.36918442],[-122.83026783,49.36931473],[-122.83016693,49.3694422],[-122.83006062,49.3695686],[-122.82995199,49.36969428],[-122.8298439,49.36981997],[-122.82973903,49.36994672],[-122.82964025,49.37007526],[-122.82954468,49.37020486],[-122.82945001,49.37033482],[-122.82935711,49.37046549],[-122.82926565,49.37059652],[-122.82917473,49.37072755],[-122.8290856,49.37085929],[-122.82899701,49.37099102],[-122.82890986,49.37112312],[-122.8288236,49.37125557],[-122.82873823,49.37138838],[-122.82865429,49.37152154],[-122.82857234,49.37165506],[-122.82849183,49.37178894],[-122.82841255,49.37192353],[-122.82833491,49.37205811],[-122.82825815,49.37219306],[-122.82818175,49.37232836],[-122.82810712,49.37246437],[-122.82803666,49.37260074],[-122.82797072,49.37273782],[-122.82791161,49.37287632],[-122.82790395,49.37289733],[-122.82786119,49.37301589],[-122.8278196,49.37315725],[-122.82778361,49.37329931],[-122.82775179,49.37344173],[-122.82772066,49.37358487],[-122.82770495,49.37365145],[-122.82768775,49.37372729],[-122.82765088,49.373869],[-122.82761271,49.37401106],[-122.82757364,49.37415277],[-122.82753602,49.37429483],[-122.82750168,49.3744369],[-122.82747205,49.37457932],[-122.82744858,49.37472245],[-122.82742525,49.3748663],[-122.82740261,49.37501086],[-122.82738304,49.37515577],[-122.82736969,49.37530033],[-122.82736441,49.37544417],[-122.82737068,49.37558695],[-122.82739055,49.37572795],[-122.82743318,49.3758693],[-122.82749925,49.37600887],[-122.82758472,49.37614417],[-122.82768754,49.37627306],[-122.82780229,49.37639448],[-122.82792203,49.37651482],[-122.82804677,49.3766341],[-122.8281758,49.3767516],[-122.82830968,49.37686731],[-122.82844752,49.37698089],[-122.82858952,49.37709198],[-122.82873514,49.37720058],[-122.82888499,49.37730561],[-122.82903886,49.37740744],[-122.82919914,49.37750571],[-122.8293655,49.37760007],[-122.82953657,49.37769193],[-122.82971111,49.37778059],[-122.82988886,49.37786746],[-122.83006818,49.37795256],[-122.83024797,49.37803588],[-122.83042898,49.37811706],[-122.83062308,49.37818399],[-122.83082589,49.37824239],[-122.83102612,49.37830434],[-122.83121682,49.37837626],[-122.83140861,49.37844819],[-122.83160074,49.37852046],[-122.83179226,49.37859381],[-122.83198092,49.37866929],[-122.83216576,49.37874763],[-122.83234542,49.37883023],[-122.8325184,49.37891782],[-122.83268409,49.37901146],[-122.83284385,49.37910973],[-122.83299822,49.37921263],[-122.83314837,49.37931909],[-122.83329456,49.37942769],[-122.83343809,49.37953806],[-122.83357937,49.37964951],[-122.83371922,49.37976059],[-122.83385531,49.37987346],[-122.83398799,49.37998847],[-122.83411843,49.38010454],[-122.83424716,49.38022168],[-122.83437513,49.38033918],[-122.83450332,49.38045632],[-122.8346328,49.38057311],[-122.83476419,49.38068847],[-122.83489914,49.3808024],[-122.83503824,49.38091385],[-122.83518779,49.38102138],[-122.83534759,49.38112534],[-122.83551244,49.38122717],[-122.83567954,49.38132794],[-122.8358435,49.38142941],[-122.83600097,49.38153267],[-122.83614841,49.38163913],[-122.83628062,49.38175021],[-122.83639405,49.38186736],[-122.83648481,49.38199162],[-122.83655639,49.38212265],[-122.83661048,49.38225937],[-122.83665099,49.38240072],[-122.83667982,49.38254528],[-122.83669303,49.3826407],[-122.84736839,49.38264569],[-122.85833603,49.38265031],[-122.85834915,49.38265032],[-122.86315474,49.38265174],[-122.86333612,49.38265209],[-122.86336565,49.3826521],[-122.86382452,49.3826521],[-122.86881169,49.38265352],[-122.87266474,49.38265459],[-122.87624616,49.3826553],[-122.8766217,49.38265566]]]},"geometry_name":"SHAPE","properties":{"id":310,"slug":"port-moody-burquitlam","name":"Port Moody-Burquitlam","abbreviation":"POM","gazetteDate":"2023-12-07Z","boundarySet":11},"bbox":[-122.94393844,49.24899681,-122.8005997,49.38265566]}
