{"type":"Feature","id":309,"geometry":{"type":"Polygon","coordinates":[[[-122.7631596,49.28933398],[-122.76712284,49.28933861],[-122.76712245,49.28926918],[-122.76712224,49.28911038],[-122.76712399,49.28896903],[-122.76713164,49.28847447],[-122.76713842,49.28803261],[-122.76723991,49.28651511],[-122.7672307,49.28576669],[-122.76722817,49.28552386],[-122.76721348,49.28432753],[-122.76720724,49.28280505],[-122.76721449,49.28206232],[-122.76722467,49.28108069],[-122.76723311,49.28027458],[-122.76723937,49.27967748],[-122.76725276,49.27836757],[-122.76739868,49.27837006],[-122.76801722,49.2783811],[-122.76881348,49.27839534],[-122.76961269,49.27839783],[-122.770431,49.27840033],[-122.77315789,49.27848044],[-122.77635358,49.27844127],[-122.78204116,49.27842311],[-122.78307232,49.27844896],[-122.78393062,49.27847047],[-122.78433027,49.27846833],[-122.78573351,49.27847011],[-122.78736489,49.27846904],[-122.78761389,49.27847545],[-122.79047947,49.27847688],[-122.79048742,49.27736492],[-122.79048862,49.27721787],[-122.79048869,49.27715806],[-122.79049253,49.27637545],[-122.79049375,49.27610806],[-122.79049626,49.27526813],[-122.79050666,49.2745973],[-122.79052186,49.27361712],[-122.79052363,49.27351457],[-122.79052535,49.27340455],[-122.79054912,49.27186392],[-122.79056336,49.27092999],[-122.79057873,49.27059174],[-122.79060426,49.27002562],[-122.79060935,49.26990883],[-122.79059794,49.26955741],[-122.79059695,49.26953355],[-122.79060502,49.26925156],[-122.79060509,49.2692448],[-122.79063812,49.26804454],[-122.79063834,49.26803564],[-122.79068898,49.26689485],[-122.79073954,49.26575335],[-122.79074769,49.26556499],[-122.79075513,49.26531825],[-122.79085064,49.26517619],[-122.79083497,49.26439879],[-122.79081445,49.26338079],[-122.79081184,49.26325172],[-122.79076164,49.2610766],[-122.79081533,49.2608765],[-122.79128286,49.26085763],[-122.79307384,49.26074903],[-122.79488631,49.26070915],[-122.79563724,49.26058382],[-122.7960364,49.26038728],[-122.79707427,49.25964669],[-122.7973158,49.25926928],[-122.79741453,49.25850732],[-122.79740136,49.25748901],[-122.79716129,49.25691363],[-122.79715676,49.25641801],[-122.79783036,49.25532137],[-122.79793778,49.25491547],[-122.7979788,49.25429167],[-122.79776828,49.25301415],[-122.79759774,49.25236756],[-122.79731142,49.25180072],[-122.79699626,49.2513407],[-122.79654144,49.25086466],[-122.79616351,49.25046909],[-122.79590163,49.2505638],[-122.79565619,49.25064889],[-122.79461383,49.25108969],[-122.7934275,49.25173094],[-122.79269961,49.25222229],[-122.79178546,49.25218811],[-122.78651502,49.25215499],[-122.78652337,49.25159506],[-122.7865368,49.25069359],[-122.78653989,49.25048618],[-122.78656092,49.24938491],[-122.78655736,49.24796861],[-122.78654592,49.24342067],[-122.7866929,49.24341925],[-122.78914698,49.24339967],[-122.79031255,49.24339005],[-122.79147847,49.2433808],[-122.79264459,49.24337118],[-122.79380996,49.24336193],[-122.79497609,49.24335231],[-122.79614166,49.2433427],[-122.79730758,49.24333344],[-122.79963927,49.24331421],[-122.79987699,49.24331243],[-122.80136469,49.24330033],[-122.80138671,49.24329997],[-122.80176651,49.24329677],[-122.80199706,49.24330175],[-122.80206339,49.24321132],[-122.80252123,49.24285242],[-122.80372632,49.24233258],[-122.80454297,49.24211183],[-122.80583864,49.24192668],[-122.80658307,49.24167602],[-122.806873,49.24140399],[-122.80695332,49.24072749],[-122.80682772,49.24043838],[-122.80681033,49.24005242],[-122.80685531,49.23982027],[-122.80699949,49.23901702],[-122.80731992,49.23829495],[-122.8073553,49.23785914],[-122.80724039,49.2375629],[-122.80624096,49.23671265],[-122.8056709,49.23646056],[-122.80448009,49.23618427],[-122.80226185,49.23616148],[-122.80097799,49.23624693],[-122.80066374,49.23619708],[-122.80022852,49.23590512],[-122.80011744,49.23573849],[-122.80010881,49.23506911],[-122.80032641,49.234639],[-122.80043875,49.23411916],[-122.80150632,49.23260523],[-122.80289432,49.23106139],[-122.80313624,49.23069501],[-122.80349656,49.23014989],[-122.8036287,49.23005127],[-122.80374384,49.22996795],[-122.80551565,49.22891083],[-122.80580754,49.2286648],[-122.80595871,49.22853697],[-122.8062971,49.22825569],[-122.80647962,49.22790534],[-122.80652654,49.22729862],[-122.80646314,49.22706078],[-122.80636632,49.22692904],[-122.80633184,49.22688204],[-122.80627871,49.22682009],[-122.80608091,49.22656195],[-122.8050609,49.22522782],[-122.80522249,49.22039014],[-122.8036842,49.22041079],[-122.79999996,49.21884381],[-122.79554018,49.21694676],[-122.78867617,49.21582982],[-122.77885702,49.21423115],[-122.77132083,49.2134667],[-122.77028466,49.21355821],[-122.75641338,49.21478089],[-122.75093839,49.21526299],[-122.75117195,49.2153577],[-122.75141023,49.21544991],[-122.75165008,49.21554035],[-122.75189089,49.21563008],[-122.75213108,49.21572087],[-122.75236786,49.2158138],[-122.75260006,49.21590993],[-122.75282577,49.2160107],[-122.75304396,49.21611787],[-122.75325224,49.21623181],[-122.75345055,49.21635358],[-122.75364044,49.2164814],[-122.75382289,49.21661456],[-122.75400035,49.21675164],[-122.75417303,49.21689228],[-122.75434284,49.21703506],[-122.75451094,49.2171789],[-122.75467863,49.21732346],[-122.75484749,49.21746695],[-122.75518627,49.2177436],[-122.75532749,49.21789813],[-122.75546892,49.2180523],[-122.7556096,49.21820683],[-122.75575028,49.21836135],[-122.75589096,49.21851588],[-122.7560324,49.21867005],[-122.75617384,49.21882422],[-122.75631582,49.21897839],[-122.75645876,49.21913185],[-122.7566028,49.21928531],[-122.75674649,49.21943841],[-122.75688923,49.21959223],[-122.75703252,49.21974604],[-122.75717527,49.21989986],[-122.75731952,49.22005296],[-122.75746506,49.22020571],[-122.75761287,49.22035738],[-122.75776292,49.22050799],[-122.75791598,49.22065718],[-122.7580728,49.22080459],[-122.75823413,49.22094986],[-122.75840072,49.22109263],[-122.7585716,49.22123363],[-122.75874474,49.22137356],[-122.75891959,49.22151242],[-122.75909445,49.22165128],[-122.7592691,49.22179049],[-122.75944149,49.22193078],[-122.75961089,49.22207249],[-122.75977598,49.22221598],[-122.75993842,49.22236125],[-122.76009956,49.22250687],[-122.7602592,49.22265321],[-122.76041713,49.22280061],[-122.76057377,49.22294838],[-122.7607287,49.22309721],[-122.76088159,49.22324675],[-122.76103298,49.223397],[-122.76118157,49.22354832],[-122.76132812,49.22370036],[-122.76146961,49.22385453],[-122.76160606,49.22401084],[-122.76173787,49.22416857],[-122.76186777,49.22432772],[-122.76199637,49.22448723],[-122.76212594,49.22464603],[-122.76225755,49.22480412],[-122.76239271,49.22496078],[-122.76253367,49.22511495],[-122.7626814,49.22526592],[-122.76283377,49.22541546],[-122.76298832,49.22556501],[-122.76314546,49.22571384],[-122.76330616,49.22586124],[-122.7634704,49.22600722],[-122.76363848,49.22615036],[-122.76381072,49.226291],[-122.76398829,49.22642808],[-122.7641716,49.22656088],[-122.76436012,49.22668942],[-122.76455777,49.22681439],[-122.76476444,49.22693509],[-122.76497979,49.22705117],[-122.76520286,49.22716048],[-122.76543332,49.22726266],[-122.76566967,49.22735559],[-122.76591233,49.22743855],[-122.76615939,49.22751012],[-122.76641406,49.22757136],[-122.76667455,49.22762441],[-122.76694024,49.22767034],[-122.76720936,49.22771129],[-122.76748054,49.22774867],[-122.76775309,49.22778464],[-122.7680253,49.22782024],[-122.76829593,49.22785763],[-122.76863203,49.22788362],[-122.76675292,49.23014811],[-122.76648392,49.23036174],[-122.76630972,49.23050096],[-122.76613517,49.23063982],[-122.76596096,49.23077904],[-122.76578641,49.2309179],[-122.7656122,49.23105711],[-122.76543819,49.23119597],[-122.76526344,49.23133519],[-122.76508888,49.23147405],[-122.76491433,49.23161291],[-122.76473944,49.23175141],[-122.76456435,49.23189028],[-122.76438891,49.23202878],[-122.76421313,49.23216693],[-122.76403681,49.23230508],[-122.76386104,49.23244322],[-122.7636875,49.23258315],[-122.76351465,49.23272379],[-122.76334179,49.23286443],[-122.76316771,49.23300436],[-122.76299152,49.23314322],[-122.76281275,49.23327995],[-122.76263017,49.23341382],[-122.7624429,49.23354449],[-122.76224916,49.23367125],[-122.76204938,49.23379338],[-122.76184368,49.23391158],[-122.76163219,49.23402659],[-122.7614169,49.23413875],[-122.76119868,49.23424841],[-122.76097768,49.23435629],[-122.76075511,49.23446311],[-122.76053206,49.23456886],[-122.76030902,49.2346746],[-122.76008707,49.23478035],[-122.75986232,49.23488432],[-122.75963609,49.23498615],[-122.75940849,49.23508656],[-122.75917968,49.23518625],[-122.75895031,49.23528595],[-122.75872169,49.23538529],[-122.75849301,49.23548569],[-122.75826609,49.23558681],[-122.75804087,49.23568971],[-122.75781768,49.23579475],[-122.75759763,49.23590192],[-122.75737872,49.23601087],[-122.75716138,49.23612089],[-122.75694506,49.23623198],[-122.75672908,49.23634342],[-122.7565133,49.23645451],[-122.75629698,49.2365656],[-122.75607997,49.23667597],[-122.75586127,49.23678457],[-122.75564236,49.23689352],[-122.75542447,49.23700354],[-122.75520692,49.23711392],[-122.75498849,49.23722394],[-122.75476992,49.23733325],[-122.7545491,49.23744078],[-122.75432679,49.23754617],[-122.75410089,49.23764835],[-122.75387192,49.23774734],[-122.75363942,49.23784205],[-122.75340366,49.23793391],[-122.75316552,49.23802328],[-122.75292535,49.23811051],[-122.75268347,49.23819596],[-122.75244058,49.23828035],[-122.75219701,49.23836402],[-122.75195343,49.23844769],[-122.75170952,49.23853101],[-122.75146608,49.23861539],[-122.75122386,49.23870049],[-122.750983,49.23878701],[-122.75074418,49.23887567],[-122.75050719,49.23896682],[-122.75027224,49.2390601],[-122.75003986,49.23915552],[-122.74980776,49.23925237],[-122.74957722,49.23935028],[-122.74934613,49.2394482],[-122.74911525,49.23954576],[-122.74888335,49.23964225],[-122.74865009,49.23973731],[-122.74841534,49.23983024],[-122.74817732,49.23992032],[-122.74793714,49.24000756],[-122.74769546,49.24009265],[-122.74745221,49.24017668],[-122.74720863,49.24026035],[-122.74696538,49.24034438],[-122.7467237,49.24042948],[-122.7464833,49.24051707],[-122.74624583,49.24060715],[-122.74600916,49.24069865],[-122.7457742,49.24079194],[-122.74553937,49.24088594],[-122.74530542,49.24098029],[-122.74507093,49.24107465],[-122.74483685,49.24116829],[-122.74460099,49.24126122],[-122.74436487,49.24135272],[-122.74412671,49.24144209],[-122.74388652,49.24152932],[-122.74364449,49.24161407],[-122.74340076,49.24169703],[-122.74315567,49.24177856],[-122.74290943,49.24185832],[-122.74266217,49.241937],[-122.74241423,49.24201498],[-122.74216582,49.24209189],[-122.74191741,49.24216879],[-122.74166865,49.24224535],[-122.74142024,49.24232225],[-122.74117182,49.24239916],[-122.74092341,49.24247607],[-122.74067397,49.24255191],[-122.74042508,49.24262775],[-122.74017551,49.24270287],[-122.73992594,49.242778],[-122.73967582,49.24285313],[-122.73942591,49.2429279],[-122.73917634,49.24300303],[-122.73892677,49.24307815],[-122.73867719,49.24315328],[-122.73842741,49.24322876],[-122.73817852,49.2433046],[-122.73792806,49.24337937],[-122.73767399,49.24345094],[-122.73741878,49.24352073],[-122.73716302,49.24359051],[-122.73690929,49.24366243],[-122.73665917,49.24373756],[-122.73641448,49.24381839],[-122.73617712,49.24390633],[-122.73594792,49.24400282],[-122.73572762,49.2441075],[-122.73551397,49.24421859],[-122.73530508,49.24433466],[-122.73510026,49.24445501],[-122.73489871,49.2445782],[-122.73469797,49.24470282],[-122.73449845,49.24482815],[-122.73429737,49.24495241],[-122.73409458,49.24507489],[-122.7338882,49.24519417],[-122.73367699,49.24530953],[-122.73346163,49.24542169],[-122.73324382,49.24553242],[-122.73302622,49.2456428],[-122.73281052,49.2457546],[-122.73259951,49.2458696],[-122.73239456,49.24598924],[-122.73219906,49.24611421],[-122.73200995,49.24624417],[-122.73182553,49.24637733],[-122.73164568,49.24651299],[-122.7314684,49.24665078],[-122.73129269,49.24678964],[-122.73111786,49.24692886],[-122.73094215,49.24706772],[-122.73076488,49.24720551],[-122.73058481,49.24734152],[-122.73040441,49.24747718],[-122.73022413,49.24761355],[-122.73004441,49.24774991],[-122.729864,49.24788557],[-122.72972229,49.24802977],[-122.72966345,49.24808816],[-122.72961855,49.24813659],[-122.72930842,49.24828435],[-122.72911597,49.24841253],[-122.7289204,49.24853857],[-122.72872271,49.24866355],[-122.728524,49.24878745],[-122.72832318,49.24891029],[-122.72812169,49.24903242],[-122.72791876,49.24915419],[-122.72771569,49.24927524],[-122.72751175,49.24939594],[-122.72730759,49.249517],[-122.72710364,49.2496377],[-122.72690024,49.24975841],[-122.72669717,49.24987946],[-122.72649424,49.25000123],[-122.72629029,49.25012194],[-122.72608477,49.25024157],[-122.72587803,49.25036049],[-122.72567095,49.25047906],[-122.72546455,49.25059833],[-122.72525937,49.25071832],[-122.72505664,49.25083974],[-122.72485725,49.25096293],[-122.72466166,49.25108897],[-122.72447077,49.25121822],[-122.72428266,49.25134925],[-122.72409701,49.2514817],[-122.72391359,49.25161593],[-122.72373297,49.25175194],[-122.72355425,49.25188938],[-122.72337873,49.25202788],[-122.72320566,49.25216781],[-122.72303504,49.25230916],[-122.72286708,49.25245159],[-122.72270231,49.25259508],[-122.72254122,49.2527407],[-122.72238456,49.25288811],[-122.72223034,49.25303694],[-122.72207913,49.25318719],[-122.72192947,49.25333851],[-122.72178125,49.25349019],[-122.72163336,49.25364223],[-122.72148568,49.2537939],[-122.72133691,49.25394558],[-122.72118692,49.25409655],[-122.72103713,49.25424716],[-122.72088802,49.25439848],[-122.72074,49.2545498],[-122.72059211,49.25470184],[-122.72044444,49.25485352],[-122.72029587,49.25500484],[-122.72014642,49.2551558],[-122.71999575,49.25530606],[-122.71984276,49.2554556],[-122.7196882,49.25560407],[-122.71953133,49.25575184],[-122.71937357,49.25589924],[-122.71921404,49.25604593],[-122.71905384,49.25619192],[-122.71889274,49.25633754],[-122.71873056,49.25648317],[-122.71856858,49.25662844],[-122.71840606,49.25677371],[-122.71824374,49.25691862],[-122.71808033,49.25706353],[-122.71791249,49.25720667],[-122.71774112,49.25734837],[-122.71756797,49.25748937],[-122.71739448,49.25763001],[-122.71722276,49.25777136],[-122.71705404,49.25791414],[-122.7168894,49.25805834],[-122.71673171,49.25820468],[-122.71658145,49.25835422],[-122.71644024,49.25850697],[-122.71630823,49.25866363],[-122.71618364,49.2588235],[-122.71606613,49.25898621],[-122.71595447,49.25915107],[-122.71584813,49.25931806],[-122.71574752,49.25948647],[-122.71565099,49.25965631],[-122.71555917,49.2598265],[-122.71547021,49.2599974],[-122.71538418,49.26016795],[-122.71530463,49.26033957],[-122.71523332,49.26051297],[-122.71516883,49.26068779],[-122.71510884,49.26086332],[-122.71505171,49.26103957],[-122.71499602,49.26121617],[-122.71493923,49.26139277],[-122.71488047,49.26156902],[-122.71481741,49.2617442],[-122.71474788,49.26191831],[-122.71467297,49.26209135],[-122.71459465,49.26226368],[-122.71451347,49.26243529],[-122.71442977,49.26260656],[-122.71434388,49.26277782],[-122.71425677,49.26294837],[-122.71416857,49.26311891],[-122.71408037,49.26328946],[-122.71399163,49.26346001],[-122.71390418,49.26363021],[-122.71381653,49.26380075],[-122.71372833,49.2639713],[-122.71364013,49.26414185],[-122.71355105,49.26431205],[-122.71346088,49.26448224],[-122.71336948,49.26465172],[-122.71327556,49.26482084],[-122.71317966,49.26498961],[-122.71308166,49.26515731],[-122.71298058,49.26532466],[-122.71287774,49.26549129],[-122.71277237,49.26565757],[-122.71266523,49.26582313],[-122.71255646,49.2659887],[-122.71244701,49.26615355],[-122.71233592,49.2663184],[-122.71222415,49.26648254],[-122.71211163,49.26664704],[-122.71199877,49.26681118],[-122.71188611,49.26697496],[-122.71177359,49.26713946],[-122.71166128,49.2673036],[-122.71154787,49.26746774],[-122.71143413,49.26763152],[-122.71131841,49.26779495],[-122.71120091,49.26795767],[-122.71108165,49.26811967],[-122.71095919,49.26828061],[-122.71083352,49.26844047],[-122.71070376,49.26859892],[-122.71056992,49.26875594],[-122.71043254,49.26891153],[-122.71029174,49.26906641],[-122.71014938,49.26922023],[-122.71000559,49.26937369],[-122.7098618,49.26952714],[-122.70971835,49.26968096],[-122.70957688,49.26983513],[-122.70943697,49.26999037],[-122.70930047,49.27014632],[-122.7091684,49.27030405],[-122.70904008,49.27046285],[-122.7089153,49.27062307],[-122.70879263,49.27078436],[-122.70867193,49.27094601],[-122.70855158,49.27110802],[-122.70843144,49.27126966],[-122.70830965,49.27143131],[-122.70818576,49.27159189],[-122.70805866,49.2717514],[-122.70792836,49.27190985],[-122.70779718,49.27206793],[-122.70766456,49.27222566],[-122.70753106,49.27238304],[-122.70739579,49.2725397],[-122.70725909,49.27269601],[-122.70712027,49.27285125],[-122.70697968,49.27300578],[-122.70683644,49.27315923],[-122.70669088,49.27331198],[-122.70654321,49.27346366],[-122.70639587,49.27361569],[-122.70624725,49.27376808],[-122.70609705,49.27391941],[-122.70594508,49.27407002],[-122.70579012,49.2742192],[-122.70563182,49.27436661],[-122.70546929,49.27451188],[-122.70530187,49.2746543],[-122.70512974,49.27479352],[-122.70495183,49.27492953],[-122.70476826,49.27506305],[-122.70458013,49.27519407],[-122.70438777,49.27532296],[-122.70419195,49.27544936],[-122.70399258,49.27557434],[-122.70379062,49.27569718],[-122.70358621,49.27581859],[-122.70338044,49.27593858],[-122.70317277,49.27605714],[-122.70296428,49.27617429],[-122.70275375,49.27628929],[-122.70253852,49.27640109],[-122.70231969,49.27650969],[-122.70209861,49.2766165],[-122.70187541,49.27672225],[-122.70165174,49.27682693],[-122.70142787,49.27693197],[-122.70120468,49.27703771],[-122.70098339,49.27714488],[-122.70076523,49.27725419],[-122.70055,49.27736599],[-122.70033769,49.27748029],[-122.70012729,49.277596],[-122.69991879,49.27771314],[-122.69971009,49.27783064],[-122.69950227,49.27794849],[-122.69929411,49.27806599],[-122.69908439,49.27818242],[-122.6988731,49.27829778],[-122.6986601,49.27841136],[-122.69847848,49.2785075],[-122.70834686,49.2784815],[-122.70947914,49.27847901],[-122.70994128,49.2784783],[-122.71428991,49.27853135],[-122.7210651,49.27851818],[-122.72762327,49.27850465],[-122.72918111,49.27850144],[-122.73331521,49.2785253],[-122.73376076,49.27852779],[-122.73375861,49.27874997],[-122.73378054,49.27926802],[-122.73378159,49.27955465],[-122.73378008,49.28035973],[-122.73378007,49.28036648],[-122.73377669,49.28216878],[-122.73377616,49.28351573],[-122.73377609,49.28358017],[-122.73377528,49.28558902],[-122.7339863,49.285667],[-122.73415213,49.28575138],[-122.73525475,49.28575138],[-122.73659264,49.28575138],[-122.73732762,49.28575565],[-122.73804256,49.28575209],[-122.74066765,49.28574518],[-122.74074754,49.28574497],[-122.74363089,49.28573714],[-122.74383688,49.28573678],[-122.74490402,49.28573394],[-122.74495042,49.28573393],[-122.7456326,49.28573322],[-122.74755399,49.28574177],[-122.75040427,49.2857553],[-122.75311549,49.28573073],[-122.75604178,49.28574212],[-122.75745084,49.28574008],[-122.76018392,49.28573607],[-122.76162784,49.28573393],[-122.76161496,49.2866465],[-122.76159981,49.28756413],[-122.76158971,49.28817539],[-122.76158641,49.28839329],[-122.76158336,49.28857096],[-122.76156985,49.28931618],[-122.7631596,49.28933398]]]},"geometry_name":"SHAPE","properties":{"id":309,"slug":"port-coquitlam","name":"Port Coquitlam","abbreviation":"POC","gazetteDate":"2023-12-07Z","boundarySet":11},"bbox":[-122.8073553,49.2134667,-122.69847848,49.28933861]}
