{"type":"Feature","id":316,"geometry":{"type":"Polygon","coordinates":[[[-123.11845015,49.17727076],[-123.12128253,49.1772735],[-123.12447218,49.17729528],[-123.12456846,49.177297],[-123.12465499,49.17729855],[-123.12871618,49.17732098],[-123.13395529,49.17735231],[-123.13652154,49.17737261],[-123.1365876,49.17737408],[-123.13659306,49.17734368],[-123.13675802,49.17637582],[-123.13676011,49.17636354],[-123.13675205,49.1754056],[-123.13674286,49.17391053],[-123.13674038,49.17385907],[-123.1367383,49.173816],[-123.13655072,49.17201794],[-123.13653985,49.17068331],[-123.1365383,49.17049308],[-123.13654373,49.17024901],[-123.13654634,49.17021058],[-123.13654636,49.17021023],[-123.1366169,49.17021062],[-123.1379766,49.17020758],[-123.14014425,49.17020278],[-123.14020687,49.17020278],[-123.14026154,49.17020243],[-123.14272252,49.17018996],[-123.14462063,49.17018],[-123.14770571,49.17017038],[-123.15115364,49.17017857],[-123.15251774,49.17017679],[-123.15869922,49.17014154],[-123.15879418,49.17014119],[-123.15879416,49.17010309],[-123.15879592,49.16921505],[-123.15879452,49.16882376],[-123.15879546,49.16840042],[-123.15879597,49.16650696],[-123.15879479,49.16526932],[-123.15881029,49.1646181],[-123.1588296,49.16379064],[-123.15884241,49.16321877],[-123.15884776,49.16302334],[-123.15885248,49.16281936],[-123.15885297,49.16279796],[-123.15885318,49.16278025],[-123.15885338,49.162762],[-123.15885357,49.1627531],[-123.1588542,49.16269008],[-123.15887919,49.16109354],[-123.15888109,49.16060296],[-123.15888264,49.16020163],[-123.15890073,49.15718978],[-123.15891594,49.15638238],[-123.15893106,49.15557971],[-123.15850232,49.15558203],[-123.15615579,49.15559467],[-123.15575812,49.15559431],[-123.15548376,49.15559397],[-123.15434519,49.15559253],[-123.15293484,49.15559081],[-123.15086446,49.15558826],[-123.14991841,49.15559467],[-123.14895111,49.15559451],[-123.14780083,49.15559431],[-123.14723686,49.1555958],[-123.14647265,49.1555978],[-123.1460858,49.15559882],[-123.14371704,49.15560499],[-123.14229448,49.15560784],[-123.14034377,49.15561176],[-123.13973164,49.15560642],[-123.13734441,49.15558541],[-123.13664667,49.15557936],[-123.13580765,49.15557188],[-123.13435329,49.15555925],[-123.13413162,49.15555732],[-123.13277617,49.15554553],[-123.1309512,49.15552951],[-123.13005106,49.15551913],[-123.12998803,49.15551839],[-123.12995648,49.15551803],[-123.12828333,49.15549853],[-123.12805826,49.15549593],[-123.12533964,49.15546435],[-123.12255584,49.15546756],[-123.12082835,49.15547717],[-123.11980152,49.15548393],[-123.11692797,49.15549177],[-123.11637994,49.15549141],[-123.11410456,49.15549284],[-123.11410119,49.15649512],[-123.11408596,49.15822091],[-123.1140789,49.15916391],[-123.11406567,49.16089985],[-123.11406153,49.16128615],[-123.11405101,49.16282894],[-123.11403257,49.16443545],[-123.11401755,49.16572792],[-123.11401053,49.1663624],[-123.11400712,49.16670421],[-123.11399118,49.16816118],[-123.11398624,49.16862084],[-123.11399031,49.17009632],[-123.11399091,49.1701419],[-123.11399133,49.17019637],[-123.1139913,49.17038294],[-123.11399225,49.17074291],[-123.11400201,49.1770397],[-123.11400246,49.1772398],[-123.11400335,49.1772868],[-123.11845015,49.17727076]]]},"geometry_name":"SHAPE","properties":{"id":316,"slug":"richmond-centre","name":"Richmond Centre","abbreviation":"RCC","gazetteDate":"2023-12-07Z","boundarySet":11},"bbox":[-123.15893106,49.15546435,-123.11398624,49.17737408]}
