{"type":"Feature","id":319,"geometry":{"type":"Polygon","coordinates":[[[-123.58961837,49.01482083],[-123.59043784,49.01409519],[-123.5907405,49.01378721],[-123.59127302,49.01318762],[-123.59130277,49.01315237],[-123.59156178,49.01282943],[-123.59213701,49.01201656],[-123.59253247,49.01115883],[-123.59265577,49.01080527],[-123.59324012,49.00922262],[-123.59354139,49.00872557],[-123.59426623,49.00796005],[-123.59458116,49.00766204],[-123.59505028,49.00727394],[-123.59931153,49.00571514],[-123.59999989,49.00546306],[-123.60071114,49.00520314],[-123.60593652,49.00329114],[-123.60560584,49.00297247],[-123.6048544,49.0022212],[-123.60442123,49.00176261],[-123.60387048,49.00114094],[-123.6031338,49.00017711],[-123.60292322,48.99983245],[-123.60256941,48.99915168],[-123.60241257,48.99880702],[-123.60219224,48.99828718],[-123.60190972,48.99759181],[-123.60176518,48.99724466],[-123.60153575,48.9967266],[-123.60143623,48.99651831],[-123.60147116,48.99633993],[-123.6015347,48.99580194],[-123.60168426,48.99436669],[-123.60185988,48.99383973],[-123.60218922,48.99334695],[-123.60289348,48.9927997],[-123.60375612,48.99235784],[-123.60421158,48.99215845],[-123.60490178,48.99186756],[-123.60513115,48.99176929],[-123.6067225,48.99107],[-123.60695438,48.99097493],[-123.60906096,48.99013821],[-123.61066125,48.98944889],[-123.61222404,48.98872326],[-123.61348187,48.98831344],[-123.61423094,48.98809376],[-123.6147349,48.98795419],[-123.61887396,48.98703201],[-123.6199336,48.98685398],[-123.62099069,48.98666991],[-123.62229589,48.98640322],[-123.62331908,48.98614971],[-123.62482323,48.9857196],[-123.62605765,48.98533364],[-123.62679394,48.98509615],[-123.62890893,48.9842726],[-123.62976031,48.98382149],[-123.63015996,48.98357581],[-123.630893,48.98304244],[-123.63097931,48.98296482],[-123.63117151,48.98273481],[-123.63141827,48.98203232],[-123.63153614,48.98131701],[-123.63165346,48.98042083],[-123.63168566,48.98006157],[-123.63169248,48.97952215],[-123.63167423,48.97862312],[-123.63150219,48.97809688],[-123.63123423,48.97778391],[-123.63070673,48.97737089],[-123.63017999,48.97695751],[-123.62946818,48.97641133],[-123.62865263,48.97569032],[-123.62790297,48.97493834],[-123.62673946,48.97371957],[-123.62621377,48.97308936],[-123.62577908,48.97253783],[-123.62540245,48.9720504],[-123.62499312,48.97150492],[-123.62425769,48.97045955],[-123.62339141,48.96919272],[-123.62247502,48.96783082],[-123.62229334,48.96755737],[-123.62078417,48.96523128],[-123.62016024,48.96423291],[-123.6201065,48.96414603],[-123.61995529,48.96389929],[-123.61865882,48.96172203],[-123.61788935,48.96037473],[-123.61742309,48.9595405],[-123.61653921,48.95792509],[-123.61649221,48.95783785],[-123.61624751,48.95738246],[-123.6159471,48.9568199],[-123.61511671,48.955296],[-123.61463197,48.95441263],[-123.61432032,48.95382514],[-123.61380053,48.95276589],[-123.6135637,48.95222433],[-123.61315986,48.95110811],[-123.61299303,48.95054839],[-123.61298549,48.95052062],[-123.61268449,48.94940582],[-123.61259735,48.94905048],[-123.612514,48.94869514],[-123.61229984,48.94767007],[-123.61229151,48.94762556],[-123.6120315,48.94596743],[-123.61197554,48.94547714],[-123.61191605,48.94479459],[-123.61189033,48.94439901],[-123.61186052,48.94331982],[-123.61193717,48.94192837],[-123.6124612,48.93877481],[-123.61298586,48.93620055],[-123.61316893,48.93534532],[-123.61387639,48.93250331],[-123.61401586,48.93193469],[-123.61432626,48.93051048],[-123.61461789,48.92879431],[-123.61484251,48.92736013],[-123.61488447,48.9270728],[-123.61500205,48.92621115],[-123.61516121,48.92477412],[-123.61522831,48.92391176],[-123.61527655,48.92276243],[-123.61528071,48.92218811],[-123.61522814,48.92075215],[-123.6151852,48.92017784],[-123.61515124,48.9198898],[-123.61481379,48.91701823],[-123.6146134,48.91558263],[-123.61457421,48.9152953],[-123.6144259,48.91414738],[-123.61432242,48.91328645],[-123.61428685,48.91299947],[-123.61421444,48.91242587],[-123.61406478,48.91127867],[-123.61383125,48.90955822],[-123.61379119,48.9092716],[-123.61371109,48.90869836],[-123.61358933,48.90783849],[-123.61354875,48.90755187],[-123.61329755,48.90583249],[-123.61325355,48.90554623],[-123.61307396,48.90440081],[-123.61298328,48.90382827],[-123.61284809,48.90296948],[-123.61267155,48.9018237],[-123.61258709,48.90125081],[-123.61248517,48.90038988],[-123.61244009,48.9],[-123.61249791,48.89976714],[-123.61250356,48.89973154],[-123.61261933,48.89908673],[-123.61263908,48.89901587],[-123.61279689,48.89876913],[-123.61283576,48.89872177],[-123.61330569,48.89807233],[-123.61352249,48.89747844],[-123.61358343,48.89712025],[-123.6136219,48.89694899],[-123.61351102,48.89580535],[-123.61347838,48.89566293],[-123.61341492,48.89530545],[-123.61335767,48.89465743],[-123.61300362,48.89331334],[-123.6127515,48.89261298],[-123.61261918,48.89226334],[-123.61203694,48.89080103],[-123.61190993,48.8905258],[-123.61156465,48.8897667],[-123.61149869,48.88962962],[-123.61112694,48.88899702],[-123.61110492,48.88895953],[-123.61097454,48.88876156],[-123.61029867,48.88777779],[-123.60969283,48.88685277],[-123.60931135,48.8861784],[-123.60877274,48.88539117],[-123.60829013,48.8848279],[-123.60817287,48.88462602],[-123.60769618,48.88406096],[-123.60701872,48.88323919],[-123.60697247,48.88317403],[-123.60659236,48.88265527],[-123.6057014,48.8816658],[-123.60517238,48.88111961],[-123.60437478,48.88034555],[-123.60430966,48.88028787],[-123.60325432,48.87946361],[-123.60225109,48.8787038],[-123.60140363,48.87783895],[-123.60138143,48.87781616],[-123.60128532,48.87771789],[-123.60125601,48.87768762],[-123.60093298,48.877354],[-123.600743,48.87715639],[-123.60032199,48.87671453],[-123.60023556,48.87662303],[-123.59980482,48.87616408],[-123.59977626,48.87613345],[-123.59919199,48.87550039],[-123.59918759,48.87549577],[-123.59915924,48.87546479],[-123.59864855,48.87490116],[-123.59784945,48.87400035],[-123.59783565,48.87398468],[-123.59717273,48.87321917],[-123.59673284,48.87270147],[-123.59670598,48.87266978],[-123.59665295,48.87260711],[-123.59595852,48.87177075],[-123.59521301,48.87085035],[-123.59442132,48.86984308],[-123.59434671,48.86974801],[-123.59395884,48.86924277],[-123.59350912,48.86864674],[-123.59289429,48.86781358],[-123.59282329,48.86771602],[-123.59220548,48.86685402],[-123.59188447,48.86639685],[-123.59138776,48.86567655],[-123.59134254,48.86561068],[-123.59132009,48.86557793],[-123.590966,48.86505168],[-123.59040003,48.86419395],[-123.59010115,48.86373037],[-123.58970133,48.86309945],[-123.58947345,48.86273342],[-123.58906462,48.86206618],[-123.5886834,48.86143027],[-123.58825142,48.86069182],[-123.58809658,48.86042265],[-123.58779056,48.85988358],[-123.58760245,48.85954569],[-123.58701215,48.85846186],[-123.58672508,48.85791817],[-123.58614907,48.8567934],[-123.58604645,48.85658832],[-123.5860297,48.85655414],[-123.58556163,48.85559493],[-123.58485897,48.854081],[-123.58470479,48.85373598],[-123.58468934,48.85370144],[-123.58455265,48.85339025],[-123.58414314,48.85242072],[-123.58386465,48.85176096],[-123.58362668,48.85116956],[-123.58346285,48.85075155],[-123.58336806,48.8505073],[-123.58332829,48.85040262],[-123.5830394,48.84963426],[-123.58274767,48.84882922],[-123.58255149,48.84826809],[-123.58240794,48.84784688],[-123.58216375,48.84710842],[-123.5821525,48.84707317],[-123.58179847,48.84594556],[-123.58177706,48.84587506],[-123.5817243,48.84569846],[-123.58161933,48.84534525],[-123.58105758,48.8433097],[-123.58098459,48.84302557],[-123.58085236,48.84249292],[-123.58074932,48.84206637],[-123.58062563,48.841533],[-123.58059287,48.84139058],[-123.58041349,48.8405713],[-123.58038344,48.84042888],[-123.58016201,48.83932263],[-123.58006849,48.83882273],[-123.58005584,48.83875116],[-123.57992438,48.8380006],[-123.57990632,48.83789308],[-123.57977962,48.83710585],[-123.57973627,48.83681922],[-123.57966644,48.8363357],[-123.57955123,48.83547548],[-123.57954637,48.83543952],[-123.57947255,48.8348296],[-123.57946823,48.83479364],[-123.57936073,48.83378851],[-123.57932304,48.83339364],[-123.57926073,48.83267477],[-123.57925783,48.83263917],[-123.57925513,48.83260321],[-123.57920258,48.83188434],[-123.57919772,48.83181242],[-123.57914112,48.83084146],[-123.5791395,48.8308055],[-123.57910366,48.82997803],[-123.57907079,48.82866491],[-123.57906624,48.82830494],[-123.57906625,48.82826898],[-123.57906572,48.82823302],[-123.57906573,48.82819706],[-123.5790652,48.8281611],[-123.57910763,48.82713638],[-123.5791198,48.82614762],[-123.57911853,48.82611202],[-123.57907002,48.82521334],[-123.57906713,48.82517774],[-123.57896207,48.82428155],[-123.57895667,48.82424559],[-123.57885306,48.82363817],[-123.57878002,48.82328176],[-123.57877226,48.82324615],[-123.5780577,48.82088481],[-123.57781603,48.82029483],[-123.57780118,48.8202603],[-123.57767784,48.81998436],[-123.57766245,48.81994982],[-123.57764631,48.81991564],[-123.57724197,48.81909494],[-123.577224,48.81906111],[-123.57686864,48.81841951],[-123.57646254,48.81775226],[-123.57604689,48.81712632],[-123.57582307,48.81680873],[-123.5757933,48.81676814],[-123.57560292,48.81650929],[-123.5750019,48.81574342],[-123.5749757,48.81571173],[-123.57472488,48.815413],[-123.57421661,48.81485649],[-123.57372723,48.81431992],[-123.57358712,48.81417643],[-123.57252491,48.81316417],[-123.57230603,48.81296941],[-123.57164695,48.81240827],[-123.5706675,48.81163706],[-123.56989914,48.81107806],[-123.56983385,48.81103249],[-123.56963659,48.81089541],[-123.56927543,48.8106508],[-123.56839825,48.81008646],[-123.5683482,48.81005584],[-123.56805883,48.80987852],[-123.56637418,48.80892573],[-123.56632109,48.8088976],[-123.56563344,48.80854439],[-123.56535046,48.80840411],[-123.56491039,48.80819261],[-123.56487719,48.80817695],[-123.56484399,48.80816128],[-123.55893993,48.80583056],[-123.55865838,48.8057209],[-123.55705188,48.80495147],[-123.55584796,48.80417207],[-123.55582066,48.80415178],[-123.55566034,48.80402965],[-123.55562523,48.80400223],[-123.5553504,48.80377899],[-123.55416339,48.80257589],[-123.55368337,48.80191078],[-123.55332059,48.80127131],[-123.5531059,48.80078851],[-123.55283515,48.79990835],[-123.5527369,48.79953556],[-123.55282168,48.79865575],[-123.55335352,48.79726003],[-123.55389248,48.7961641],[-123.55492923,48.79457788],[-123.55609717,48.7930344],[-123.55726311,48.79148878],[-123.55808686,48.79047225],[-123.55865726,48.78884651],[-123.55734217,48.78735287],[-123.55711852,48.78710577],[-123.55549364,48.78546757],[-123.55544176,48.78542236],[-123.55499595,48.78493136],[-123.55426482,48.78388635],[-123.55376982,48.78308736],[-123.55348143,48.78254438],[-123.55300204,48.78114083],[-123.55303876,48.77999256],[-123.55308922,48.77979815],[-123.55372332,48.77863244],[-123.55391962,48.77837501],[-123.55526191,48.77724632],[-123.55620861,48.77664994],[-123.55788933,48.7757356],[-123.55857254,48.77537812],[-123.55993995,48.77466423],[-123.56062281,48.7743064],[-123.56165008,48.77377197],[-123.56324361,48.77279282],[-123.56419636,48.77220178],[-123.56562442,48.77111546],[-123.56620365,48.77068392],[-123.56740672,48.76948972],[-123.56891818,48.76774186],[-123.56936798,48.76693042],[-123.57005801,48.76438571],[-123.57002364,48.76265957],[-123.56958901,48.76124996],[-123.56923209,48.76041858],[-123.56898604,48.75986563],[-123.568224,48.75851868],[-123.56785843,48.75799529],[-123.56678516,48.75674483],[-123.56655323,48.75650058],[-123.56523813,48.75500836],[-123.5648227,48.75450241],[-123.56382538,48.75322276],[-123.56306764,48.75218629],[-123.56288395,48.75192495],[-123.5623446,48.75113843],[-123.56131395,48.74955151],[-123.56099013,48.74901707],[-123.5606735,48.7484805],[-123.56007265,48.74739988],[-123.55993467,48.74712679],[-123.55920396,48.74546865],[-123.55880235,48.74464688],[-123.55839273,48.7438269],[-123.55799687,48.7430037],[-123.5577353,48.74245431],[-123.55675227,48.7405473],[-123.55614261,48.73946882],[-123.55564956,48.73866948],[-123.554582,48.73709252],[-123.55439815,48.73683189],[-123.55382242,48.73605641],[-123.55342535,48.73554405],[-123.55280174,48.7347853],[-123.55258886,48.73453393],[-123.55170963,48.73353912],[-123.55098498,48.73282203],[-123.5491788,48.7311995],[-123.54786033,48.73005372],[-123.547598,48.72982371],[-123.54496934,48.72752967],[-123.54481191,48.72739051],[-123.54481155,48.72739019],[-123.54184102,48.72476421],[-123.54104142,48.72408166],[-123.54077433,48.7238545],[-123.53969877,48.72294905],[-123.53915645,48.72249865],[-123.53861002,48.72205073],[-123.53778742,48.72138029],[-123.53723805,48.7209338],[-123.53641125,48.72026513],[-123.53613489,48.72004296],[-123.53558089,48.71959896],[-123.53446456,48.71871524],[-123.53333644,48.71783899],[-123.53248022,48.71718706],[-123.53190609,48.71675481],[-123.53074947,48.71589459],[-123.53016848,48.7154659],[-123.52900315,48.71461066],[-123.52754595,48.7135418],[-123.52550291,48.71204744],[-123.52520931,48.71183488],[-123.52377148,48.71075533],[-123.52182821,48.70920365],[-123.52021099,48.70784781],[-123.51787808,48.70576704],[-123.51762462,48.70553275],[-123.51589319,48.70387497],[-123.51565669,48.70363286],[-123.51497869,48.70289405],[-123.51382855,48.70134309],[-123.5136673,48.70107533],[-123.51320063,48.69978678],[-123.51301282,48.69915621],[-123.51182166,48.69515758],[-123.51037126,48.69028772],[-123.51008295,48.68931955],[-123.50935677,48.68685638],[-123.50827363,48.6831805],[-123.50826721,48.68315985],[-123.50748052,48.68048981],[-123.50712517,48.67929818],[-123.50484882,48.67166328],[-123.50290357,48.66350247],[-123.50272981,48.66277336],[-123.50262622,48.66209359],[-123.50168974,48.65594748],[-123.50145509,48.65440776],[-123.50140219,48.6540518],[-123.50136695,48.65382933],[-123.50120467,48.64720675],[-123.50119833,48.64695858],[-123.50114635,48.6448301],[-123.50117205,48.64344826],[-123.50131347,48.6358348],[-123.50132761,48.63469488],[-123.50142505,48.62683913],[-123.50148653,48.61784312],[-123.50148488,48.61266077],[-123.50148392,48.60884674],[-123.50132751,48.60063689],[-123.50131534,48.59999991],[-123.50131378,48.58890959],[-123.50131449,48.5843845],[-123.47855934,48.57904363],[-123.47444004,48.57807614],[-123.47444012,48.57807644],[-123.47443928,48.57807624],[-123.47443869,48.5780761],[-123.47436472,48.57802542],[-123.47417248,48.57789582],[-123.47397937,48.57776586],[-123.4739271,48.57773101],[-123.47378498,48.57763626],[-123.47359006,48.57750666],[-123.47339534,48.5773767],[-123.47320063,48.57724674],[-123.47300645,48.57711678],[-123.47281323,48.57698611],[-123.47262075,48.57685508],[-123.4724301,48.5767237],[-123.47224127,48.57659196],[-123.47205447,48.57645951],[-123.47187044,48.57632599],[-123.47168931,48.57619211],[-123.47151096,48.57605717],[-123.47133645,48.57592116],[-123.47116559,48.57578443],[-123.47099933,48.57564628],[-123.47083692,48.57550707],[-123.47067964,48.57536643],[-123.47052783,48.57522472],[-123.47038115,48.57508158],[-123.47026054,48.57493062],[-123.47019068,48.57476363],[-123.47016187,48.57458525],[-123.47016332,48.57439832],[-123.47018459,48.57420783],[-123.47021597,48.57401663],[-123.47024615,48.57382935],[-123.47025508,48.5737528],[-123.47026669,48.57364847],[-123.47028239,48.5734676],[-123.47028555,48.57342879],[-123.47029825,48.57328459],[-123.47031722,48.57310087],[-123.47032835,48.57301764],[-123.47034169,48.57291785],[-123.4703747,48.57273591],[-123.47041843,48.57255682],[-123.47046846,48.572403],[-123.47048219,48.57238769],[-123.47050009,48.57233927],[-123.47054782,48.57221073],[-123.47063904,48.57204624],[-123.47075162,48.57188851],[-123.47088597,48.57173683],[-123.47168999,48.57095921],[-123.4717489,48.57090224],[-123.4718076,48.57084563],[-123.4718598,48.57078261],[-123.47191254,48.57071959],[-123.47196507,48.57065692],[-123.47201722,48.5705946],[-123.47201781,48.5705939],[-123.47207001,48.57053088],[-123.47212188,48.5704675],[-123.47217201,48.57040341],[-123.47222214,48.57033932],[-123.47227261,48.57027559],[-123.47232414,48.57021186],[-123.47237668,48.57014919],[-123.47243202,48.57008724],[-123.47248977,48.57002671],[-123.472551,48.5699676],[-123.47261724,48.56991099],[-123.47268728,48.56985616],[-123.47275907,48.56980204],[-123.47283259,48.56974863],[-123.47290611,48.56969522],[-123.47297823,48.56964146],[-123.473004,48.56962117],[-123.47304794,48.56958627],[-123.47311471,48.56952966],[-123.47314586,48.56950011],[-123.47317735,48.56947091],[-123.47323737,48.56941109],[-123.47329533,48.56935021],[-123.47335241,48.56928897],[-123.47340896,48.56922773],[-123.47346626,48.56916613],[-123.47352421,48.56910525],[-123.47358424,48.56904543],[-123.47364513,48.56898597],[-123.4737069,48.56892686],[-123.4737692,48.56886776],[-123.47383183,48.56880901],[-123.4738936,48.56874991],[-123.47395503,48.56869044],[-123.47401559,48.56863063],[-123.47407475,48.56857046],[-123.47413217,48.56850957],[-123.47418785,48.56844797],[-123.47424232,48.56838566],[-123.47429539,48.568323],[-123.47434813,48.56825998],[-123.47440141,48.56819696],[-123.47445448,48.56813429],[-123.47450842,48.56807198],[-123.47456377,48.56801003],[-123.47461999,48.56794843],[-123.47467707,48.56788719],[-123.47473383,48.56782559],[-123.47479004,48.567764],[-123.47484518,48.5677024],[-123.47489933,48.56763973],[-123.47495099,48.56757671],[-123.47500059,48.56751262],[-123.47504877,48.56744818],[-123.47509555,48.56738338],[-123.47514113,48.56731786],[-123.4751853,48.56725199],[-123.47522806,48.56718577],[-123.47524138,48.56716461],[-123.47526975,48.56711954],[-123.47531078,48.5670526],[-123.47535019,48.56698567],[-123.47538873,48.56691837],[-123.47542619,48.56685108],[-123.475463,48.56678307],[-123.47549872,48.56671507],[-123.47553337,48.56664706],[-123.47556716,48.5665787],[-123.47560007,48.56650998],[-123.47563244,48.56644126],[-123.47566428,48.56637254],[-123.47569579,48.56630347],[-123.47572675,48.5662344],[-123.47575685,48.56616497],[-123.47578554,48.56609518],[-123.47581262,48.56602539],[-123.47583754,48.56595561],[-123.47585912,48.56588511],[-123.47587767,48.56581425],[-123.47589299,48.5657434],[-123.47590583,48.56567219],[-123.47591565,48.56560062],[-123.47592406,48.5655287],[-123.47593086,48.56545678],[-123.47593712,48.56538485],[-123.47594251,48.56531258],[-123.47594823,48.56524065],[-123.47595449,48.56516873],[-123.47596236,48.56509681],[-123.47597077,48.56502489],[-123.47598005,48.56495332],[-123.47599008,48.5648814],[-123.47599957,48.56480947],[-123.47600906,48.56473755],[-123.47601801,48.56466563],[-123.47602642,48.56459371],[-123.47603302,48.56452214],[-123.4760382,48.56445022],[-123.47604124,48.56437829],[-123.47604245,48.56430673],[-123.47604043,48.56423516],[-123.47603594,48.56416324],[-123.476028,48.56409167],[-123.47601792,48.56402011],[-123.47600622,48.56394854],[-123.47599291,48.56387697],[-123.47597852,48.56380541],[-123.47596392,48.5637342],[-123.47594954,48.56366263],[-123.47593569,48.56359106],[-123.47592238,48.5635195],[-123.47591122,48.56344793],[-123.47590134,48.56337601],[-123.47589308,48.56330408],[-123.47588536,48.56323216],[-123.47587838,48.56315988],[-123.47587173,48.56308796],[-123.47586421,48.56301568],[-123.47585595,48.56294376],[-123.47584695,48.56287219],[-123.47583633,48.56280063],[-123.47582356,48.56272906],[-123.47580876,48.56265821],[-123.47579107,48.56258771],[-123.47577014,48.56251721],[-123.47574558,48.56244742],[-123.47571779,48.56237764],[-123.47568689,48.56230856],[-123.4756531,48.56223984],[-123.47561641,48.56217148],[-123.4755777,48.56210383],[-123.47553696,48.56203689],[-123.47549418,48.56197067],[-123.47545046,48.56190516],[-123.47540567,48.56183964],[-123.47535872,48.56177413],[-123.47531028,48.56170933],[-123.47526002,48.56164488],[-123.47520753,48.5615815],[-123.47515301,48.56151884],[-123.47509605,48.5614576],[-123.47503611,48.56139778],[-123.47497319,48.56133939],[-123.47490816,48.56128278],[-123.47484044,48.56122616],[-123.47477102,48.56117062],[-123.47469904,48.56111579],[-123.47462537,48.56106202],[-123.47454945,48.56100933],[-123.47447197,48.56095841],[-123.47439259,48.56090892],[-123.4743113,48.56086085],[-123.47422802,48.56081528],[-123.47414318,48.56077148],[-123.47405527,48.56073018],[-123.47396538,48.56069137],[-123.47387209,48.5606547],[-123.47377756,48.56062016],[-123.47368026,48.56058669],[-123.47358247,48.56055501],[-123.47348298,48.56052438],[-123.47338381,48.56049412],[-123.4732835,48.56046492],[-123.47318392,48.56043537],[-123.47308501,48.56040653],[-123.47298556,48.56037769],[-123.47288549,48.56034992],[-123.47278534,48.56032322],[-123.47268444,48.56029687],[-123.4725828,48.56027087],[-123.47248128,48.56024559],[-123.47237956,48.56022067],[-123.47227763,48.5601961],[-123.4721757,48.56017154],[-123.47207356,48.56014732],[-123.47197109,48.56012276],[-123.47186916,48.56009819],[-123.47176723,48.56007362],[-123.47166551,48.5600487],[-123.47156399,48.56002342],[-123.47146173,48.55999849],[-123.4713598,48.55997393],[-123.47125787,48.55994936],[-123.47115553,48.5599255],[-123.47105277,48.55990236],[-123.47094961,48.55987993],[-123.47084635,48.55985857],[-123.47074248,48.55983827],[-123.47063832,48.5598194],[-123.47053291,48.55980267],[-123.47042714,48.55978842],[-123.47031999,48.55977561],[-123.47021331,48.55976386],[-123.47010588,48.55975246],[-123.46999824,48.55974143],[-123.46989081,48.55973003],[-123.469784,48.55971757],[-123.46967802,48.55970368],[-123.4695722,48.55968766],[-123.46946742,48.55966986],[-123.46936272,48.55965099],[-123.4692581,48.55963105],[-123.46915423,48.55961075],[-123.46905023,48.55958975],[-123.46894678,48.55956874],[-123.46884299,48.55954738],[-123.4687392,48.55952601],[-123.4686352,48.55950501],[-123.46853133,48.55948471],[-123.46842725,48.55946477],[-123.46832255,48.5594459],[-123.46821777,48.5594281],[-123.46811216,48.55941172],[-123.46800606,48.55939712],[-123.46789987,48.55938359],[-123.46779286,48.55937149],[-123.46768555,48.5593608],[-123.46757762,48.55935119],[-123.46746982,48.55934229],[-123.46736215,48.5593341],[-123.46725406,48.55932662],[-123.4671463,48.5593195],[-123.46703845,48.55931345],[-123.46693044,48.55930953],[-123.46682215,48.55930704],[-123.46671344,48.55930526],[-123.46660464,48.55930455],[-123.46649626,48.55930313],[-123.46634956,48.55930099],[-123.46599185,48.55928888],[-123.46570681,48.55928319],[-123.46530925,48.55926467],[-123.46507424,48.55924509],[-123.46480903,48.5591988],[-123.46451509,48.55914361],[-123.46447126,48.55915042],[-123.46433176,48.5591721],[-123.46424035,48.55918314],[-123.46416073,48.55914148],[-123.4640874,48.55911121],[-123.46403046,48.55908237],[-123.46400941,48.55907067],[-123.4639837,48.55905638],[-123.46390922,48.55902718],[-123.46385546,48.55900119],[-123.46380113,48.55897805],[-123.46376347,48.55894102],[-123.46375755,48.55892693],[-123.4637506,48.5589104],[-123.46377817,48.55888334],[-123.4637816,48.55885984],[-123.46374514,48.55884667],[-123.46369776,48.55884951],[-123.46365199,48.55887551],[-123.4636079,48.55892025],[-123.46359691,48.55893141],[-123.46343225,48.5590222],[-123.46340282,48.55903858],[-123.4632992,48.55907525],[-123.46323497,48.55908949],[-123.46316297,48.55910231],[-123.46307648,48.55911228],[-123.46301283,48.55912367],[-123.46295287,48.55913151],[-123.46287586,48.5591372],[-123.46285066,48.55913151],[-123.46283146,48.55912011],[-123.46278974,48.55909839],[-123.46276947,48.55909163],[-123.4627412,48.5590886],[-123.46273959,48.55908843],[-123.4626985,48.55909804],[-123.46269365,48.55910306],[-123.46267549,48.55912189],[-123.46267453,48.55915501],[-123.46265462,48.55921518],[-123.46264552,48.55924936],[-123.46262776,48.55934656],[-123.46262139,48.55938715],[-123.46261555,48.55941386],[-123.46259374,48.5594338],[-123.46256283,48.5594694],[-123.46252484,48.55949219],[-123.46247845,48.55947759],[-123.46243169,48.55944234],[-123.46239341,48.55941564],[-123.46235029,48.55939356],[-123.46229438,48.5593722],[-123.46222908,48.55934015],[-123.46216954,48.55930562],[-123.46203761,48.55925399],[-123.46198816,48.559228],[-123.461958,48.55919845],[-123.46189589,48.55915536],[-123.46183576,48.55912367],[-123.46178428,48.55908914],[-123.46172188,48.55903822],[-123.46167169,48.55900333],[-123.46161603,48.5589695],[-123.46156323,48.55893354],[-123.46151217,48.55888904],[-123.46147059,48.5588634],[-123.46140342,48.55884845],[-123.46130407,48.55880465],[-123.46125272,48.55878934],[-123.46120596,48.55877724],[-123.46112447,48.55879433],[-123.46102905,48.55879468],[-123.46092145,48.55880394],[-123.46083658,48.55879539],[-123.46077571,48.55878721],[-123.46070875,48.55878578],[-123.46062102,48.55879789],[-123.46045019,48.5588456],[-123.46039523,48.55886981],[-123.46027589,48.55890114],[-123.46011524,48.5589193],[-123.46001344,48.55892322],[-123.45992604,48.55893568],[-123.45985068,48.55893853],[-123.45965681,48.55892037],[-123.45957483,48.55892998],[-123.45951333,48.55895526],[-123.45946321,48.55899799],[-123.45943337,48.55903359],[-123.45939306,48.5590724],[-123.45935437,48.55910196],[-123.45933409,48.55911833],[-123.45931,48.55914682],[-123.45927056,48.55915358],[-123.45923725,48.55915536],[-123.4592022,48.55914717],[-123.45911426,48.55911335],[-123.45905658,48.55910338],[-123.45887222,48.55909199],[-123.45879248,48.55909127],[-123.45872677,48.55909234],[-123.45869875,48.5590813],[-123.45861839,48.55903537],[-123.4585209,48.55898837],[-123.45847654,48.55897306],[-123.4584331,48.55896452],[-123.45837529,48.5589631],[-123.45832765,48.55896915],[-123.45821902,48.55900333],[-123.45814217,48.55903003],[-123.45801153,48.55890381],[-123.45800472,48.55889723],[-123.45798511,48.55890318],[-123.45796487,48.55890933],[-123.4579426,48.55891432],[-123.45794217,48.55890216],[-123.45793824,48.55879041],[-123.45793807,48.55878329],[-123.45792831,48.55850023],[-123.45792741,48.55847495],[-123.45791111,48.55800603],[-123.45790949,48.55800603],[-123.45677958,48.55800175],[-123.45579794,48.55799784],[-123.45482651,48.55799392],[-123.45177494,48.55798146],[-123.45159535,48.55798039],[-123.45135128,48.55797363],[-123.45057195,48.55797149],[-123.44947477,48.55796828],[-123.44837726,48.55796472],[-123.44728008,48.55796152],[-123.44722575,48.55796152],[-123.44645771,48.55795938],[-123.44551741,48.55795653],[-123.44548588,48.55795618],[-123.44457119,48.55795369],[-123.44443583,48.55795333],[-123.44444675,48.55430807],[-123.4414336,48.55430486],[-123.43889446,48.55430237],[-123.43886165,48.55430237],[-123.43870007,48.55430273],[-123.43852548,48.55430392],[-123.4367094,48.55430745],[-123.43490676,48.55431091],[-123.43474022,48.554313],[-123.43325291,48.55431234],[-123.43226327,48.55431305],[-123.43184584,48.55431305],[-123.4316956,48.55431519],[-123.43160816,48.55431661],[-123.4308161,48.55431519],[-123.4308207,48.55426107],[-123.43082098,48.55422546],[-123.43082413,48.55357211],[-123.43082637,48.55319113],[-123.43082943,48.55248899],[-123.43083318,48.55176443],[-123.43083861,48.55065995],[-123.42893009,48.55066387],[-123.42744281,48.55066672],[-123.42742506,48.55066672],[-123.42402472,48.55067206],[-123.42375235,48.55067242],[-123.42333341,48.55067278],[-123.4173544,48.55067776],[-123.41720692,48.55066316],[-123.41721628,48.55204749],[-123.41723197,48.55431448],[-123.41723258,48.55439565],[-123.41723772,48.55516295],[-123.41723776,48.55607343],[-123.41723778,48.55656366],[-123.41723822,48.55782337],[-123.4172383,48.55900155],[-123.41723872,48.55960435],[-123.41723862,48.55966737],[-123.41723852,48.56026091],[-123.41723855,48.56050765],[-123.41723672,48.56065684],[-123.41722677,48.56141986],[-123.41723335,48.56199737],[-123.41723791,48.56237408],[-123.41723764,48.56251044],[-123.41723441,48.56337387],[-123.41722884,48.56513633],[-123.41716875,48.56766217],[-123.41714885,48.56844726],[-123.41714702,48.56852809],[-123.41714197,48.56872356],[-123.41711959,48.57060707],[-123.41711796,48.57071531],[-123.4170964,48.57213703],[-123.41709316,48.57232574],[-123.41706569,48.57411205],[-123.41703487,48.57611342],[-123.41702485,48.5767885],[-123.41701852,48.57719725],[-123.41699721,48.57796027],[-123.41694643,48.57974658],[-123.41548479,48.57974088],[-123.41373623,48.57973626],[-123.41203005,48.57972166],[-123.41075141,48.57971133],[-123.4089359,48.5796978],[-123.40925839,48.58022868],[-123.40957099,48.5806239],[-123.41010689,48.58113768],[-123.41012122,48.58115192],[-123.40932262,48.58169953],[-123.40912411,48.58182984],[-123.40901045,48.58190497],[-123.40899803,48.58191956],[-123.40683521,48.58195449],[-123.40551541,48.5819566],[-123.4045211,48.58194592],[-123.40346588,48.58193168],[-123.40344429,48.58327791],[-123.40344333,48.58330176],[-123.40332107,48.58329358],[-123.40310898,48.58329279],[-123.40083932,48.58328432],[-123.40062991,48.58328254],[-123.40056574,48.58328183],[-123.40050343,48.58328254],[-123.40028441,48.58328432],[-123.39786754,48.58327827],[-123.39772739,48.58327862],[-123.39759693,48.58327898],[-123.39750974,48.58327898],[-123.39525491,48.58328396],[-123.38993294,48.58327933],[-123.38982368,48.58327933],[-123.38966006,48.58327933],[-123.37615728,48.58323554],[-123.37131991,48.58327919],[-123.3712249,48.58328005],[-123.3710978,48.58328111],[-123.36935326,48.58323838],[-123.36919761,48.58323457],[-123.36663744,48.5831718],[-123.36663513,48.58316326],[-123.36658605,48.58298417],[-123.36653796,48.58280614],[-123.36649013,48.58262954],[-123.36643542,48.58245365],[-123.36637438,48.58227847],[-123.36630721,48.58210365],[-123.36623586,48.58192954],[-123.36616013,48.5817565],[-123.36608096,48.58158381],[-123.36599868,48.58141184],[-123.36591492,48.58124058],[-123.36582966,48.58107003],[-123.36574482,48.58089877],[-123.36565945,48.58072751],[-123.36557246,48.58055625],[-123.36548419,48.58038534],[-123.36539282,48.58021515],[-123.36535638,48.58014928],[-123.36533486,48.58011047],[-123.36531648,48.58007736],[-123.36529004,48.58005991],[-123.36520142,48.57987761],[-123.36509937,48.57971098],[-123.36499326,48.57954577],[-123.36488127,48.57938234],[-123.36476298,48.5792214],[-123.36463497,48.57906332],[-123.36449337,48.57890915],[-123.3643413,48.57875818],[-123.36421031,48.5786357],[-123.36419492,48.57862146],[-123.36401716,48.57846194],[-123.36385109,48.57831561],[-123.36368577,48.57816891],[-123.36354612,48.57804158],[-123.3635241,48.57802151],[-123.36336939,48.57787232],[-123.36322453,48.577721],[-123.36309177,48.57756647],[-123.36297421,48.57740803],[-123.36287495,48.57724496],[-123.36279218,48.57707761],[-123.36271806,48.57690742],[-123.36265198,48.57673545],[-123.36259381,48.57656098],[-123.36254239,48.57638509],[-123.36249739,48.57620742],[-123.36245732,48.57602868],[-123.36242239,48.57584852],[-123.3623911,48.57566765],[-123.36236325,48.57548642],[-123.3623383,48.57530483],[-123.36231518,48.57512289],[-123.36229292,48.5749413],[-123.36227662,48.57480151],[-123.36227174,48.57475971],[-123.36224994,48.57457919],[-123.36222794,48.57439903],[-123.36220423,48.57421994],[-123.36218074,48.57404049],[-123.36215746,48.57386068],[-123.36213492,48.57368052],[-123.36211366,48.5735],[-123.36209403,48.57331948],[-123.36207567,48.57313861],[-123.36205981,48.57295809],[-123.36204576,48.57277721],[-123.36203474,48.5725967],[-123.36202695,48.57241618],[-123.36202238,48.57223566],[-123.36202117,48.57205585],[-123.3620246,48.5718764],[-123.36203159,48.57169731],[-123.36204354,48.57151892],[-123.36206067,48.5713409],[-123.36208471,48.57116394],[-123.36212676,48.57098841],[-123.36218594,48.57081394],[-123.36225828,48.5706409],[-123.36234097,48.57046857],[-123.36243078,48.57029695],[-123.36252468,48.57012569],[-123.36261946,48.56995479],[-123.36271208,48.56978388],[-123.36279899,48.56961262],[-123.3628871,48.56944207],[-123.36298527,48.56927366],[-123.36308807,48.5691056],[-123.36318926,48.56893755],[-123.36328333,48.56876878],[-123.36336465,48.56859787],[-123.36342719,48.56842412],[-123.36347484,48.56824823],[-123.36351578,48.56807091],[-123.36355002,48.56789218],[-123.36357909,48.56771308],[-123.36360286,48.56753292],[-123.36362233,48.56735276],[-123.36363717,48.56717224],[-123.36364932,48.56699172],[-123.36365803,48.56681156],[-123.36366418,48.56663211],[-123.36366279,48.56645266],[-123.36365334,48.56627321],[-123.36364528,48.56617351],[-123.36363818,48.5660934],[-123.36363142,48.56602931],[-123.36362613,48.56597839],[-123.36362384,48.56595739],[-123.36361539,48.56591466],[-123.3636123,48.56588582],[-123.36360527,48.5658139],[-123.36359742,48.56573414],[-123.36356864,48.56567183],[-123.3635542,48.56560062],[-123.36353922,48.56552941],[-123.3635237,48.5654582],[-123.36350819,48.56538699],[-123.36349213,48.56531578],[-123.36347608,48.56524457],[-123.36346002,48.56517336],[-123.36344343,48.56510215],[-123.36342737,48.56503094],[-123.36341132,48.56495973],[-123.36339527,48.56488852],[-123.36337975,48.56481731],[-123.36336424,48.5647461],[-123.36334872,48.56467489],[-123.36333428,48.56460368],[-123.36332005,48.56453211],[-123.36330615,48.5644609],[-123.363293,48.56438933],[-123.36328092,48.56431777],[-123.36326938,48.5642462],[-123.36325892,48.56417463],[-123.36324899,48.56410307],[-123.3632396,48.5640315],[-123.36323042,48.56395958],[-123.36322211,48.56388801],[-123.36321347,48.56381609],[-123.36320483,48.56374417],[-123.36319652,48.5636726],[-123.36318788,48.56360068],[-123.36317903,48.56352911],[-123.36316985,48.56345719],[-123.36316047,48.56338562],[-123.36315237,48.5633137],[-123.3631446,48.56324213],[-123.3631365,48.56317021],[-123.36312947,48.56309829],[-123.36312191,48.56302636],[-123.36311381,48.56295444],[-123.3631055,48.56288287],[-123.36309686,48.56281095],[-123.36308748,48.56273939],[-123.36307702,48.56266782],[-123.36306549,48.56259625],[-123.36305288,48.56252469],[-123.36303844,48.56245348],[-123.36302294,48.56238227],[-123.36300668,48.56231141],[-123.36298956,48.5622402],[-123.36297116,48.56216935],[-123.36295221,48.56209849],[-123.36293273,48.56202764],[-123.36291218,48.56195678],[-123.36289142,48.56188628],[-123.36287032,48.56181543],[-123.36284848,48.56174493],[-123.36282611,48.56167443],[-123.36280373,48.56160394],[-123.36278061,48.56153379],[-123.3627577,48.56146329],[-123.36273457,48.56139315],[-123.36271282,48.56132159],[-123.3626936,48.56124753],[-123.36267297,48.56117311],[-123.36264712,48.56110119],[-123.36261233,48.56103354],[-123.3625637,48.56097301],[-123.36249941,48.56091996],[-123.36242282,48.56087047],[-123.36233555,48.56082454],[-123.36224128,48.56078323],[-123.3621412,48.56074727],[-123.36203834,48.56071701],[-123.3619351,48.56069387],[-123.36183254,48.56067784],[-123.36172782,48.56066645],[-123.36162135,48.56065897],[-123.36151356,48.5606547],[-123.36140485,48.56065292],[-123.36129552,48.56065221],[-123.36118556,48.56065256],[-123.36107486,48.56065328],[-123.36096478,48.56065292],[-123.36085499,48.56065114],[-123.36074612,48.56064687],[-123.36071817,48.56064511],[-123.36063816,48.5606401],[-123.36053038,48.5606312],[-123.36042301,48.56062159],[-123.36031564,48.56061197],[-123.36020815,48.56060165],[-123.36010086,48.56059097],[-123.35999345,48.56057957],[-123.35988658,48.56056818],[-123.35977926,48.56055572],[-123.35967268,48.5605429],[-123.35956577,48.56052973],[-123.35946867,48.56051726],[-123.359353,48.5605016],[-123.35924713,48.56048664],[-123.35914147,48.56047133],[-123.35903589,48.56045495],[-123.35893031,48.56043858],[-123.35882366,48.5604222],[-123.35871743,48.56040511],[-123.35861065,48.56038802],[-123.35850429,48.56037021],[-123.35839835,48.5603517],[-123.35829282,48.56033247],[-123.35818791,48.56031218],[-123.35808363,48.56029081],[-123.35798051,48.56026838],[-123.35787855,48.56024488],[-123.35777817,48.5602196],[-123.35767969,48.5601929],[-123.35758279,48.56016442],[-123.35749228,48.56012774],[-123.35741057,48.56007968],[-123.35733677,48.56002449],[-123.3572687,48.55996503],[-123.35720514,48.55990521],[-123.35714298,48.55984575],[-123.35708087,48.55978344],[-123.35702432,48.55971899],[-123.35697794,48.55965277],[-123.35694639,48.55958512],[-123.35693408,48.55951676],[-123.35693497,48.55944697],[-123.35694671,48.55937612],[-123.35696586,48.55930455],[-123.35699059,48.55923263],[-123.35701856,48.5591607],[-123.35704718,48.55908949],[-123.3570739,48.55901971],[-123.35710169,48.55894992],[-123.35713015,48.55888085],[-123.35715988,48.55881142],[-123.35719049,48.55874234],[-123.35722196,48.55867362],[-123.35725398,48.55860491],[-123.35728653,48.55853619],[-123.35731908,48.55846747],[-123.35735163,48.55839875],[-123.35738418,48.55833003],[-123.35741673,48.55826132],[-123.35744841,48.55819224],[-123.35748043,48.55812352],[-123.35751244,48.55805481],[-123.35754499,48.55798609],[-123.35757754,48.55791737],[-123.35761042,48.55784901],[-123.35764351,48.55778029],[-123.35767607,48.55771157],[-123.35770895,48.55764321],[-123.3577415,48.55757449],[-123.35777405,48.55750577],[-123.3578066,48.55743705],[-123.35783862,48.55736834],[-123.35788139,48.55729962],[-123.35788211,48.55727256],[-123.35790124,48.55723054],[-123.35791543,48.55715827],[-123.35796138,48.5570924],[-123.35799112,48.55702297],[-123.35802012,48.55695389],[-123.35804878,48.55688446],[-123.35807691,48.55681503],[-123.3581047,48.55674524],[-123.35813283,48.55667581],[-123.35816009,48.55660603],[-123.35818768,48.5565366],[-123.3582144,48.55646681],[-123.35824166,48.55639703],[-123.35826871,48.5563276],[-123.35829543,48.55625781],[-123.35832215,48.55618802],[-123.35834888,48.55611824],[-123.35835616,48.55606056],[-123.3583962,48.55599469],[-123.35844342,48.55591742],[-123.35844783,48.55589143],[-123.3584563,48.55583909],[-123.35848389,48.55576966],[-123.35851115,48.55569988],[-123.35853874,48.55563044],[-123.358566,48.55556066],[-123.35859413,48.55549123],[-123.35862226,48.5554218],[-123.35865093,48.55535237],[-123.35868013,48.55528294],[-123.35870934,48.55521351],[-123.35873833,48.55514443],[-123.35876808,48.555075],[-123.35879761,48.55500593],[-123.35882736,48.5549365],[-123.35885689,48.55486742],[-123.35888697,48.55479835],[-123.35891704,48.55472928],[-123.35894732,48.55465985],[-123.3589774,48.55459077],[-123.35900801,48.5545217],[-123.35903862,48.55445262],[-123.35906923,48.55438355],[-123.35909964,48.55431483],[-123.35913079,48.55424576],[-123.35916194,48.55417668],[-123.35919255,48.55410761],[-123.35924149,48.55404031],[-123.35924562,48.55399082],[-123.35925518,48.55396982],[-123.35926874,48.5539392],[-123.35927533,48.55389932],[-123.35931781,48.55383202],[-123.3593493,48.55376331],[-123.35938045,48.55369423],[-123.35941247,48.55362551],[-123.35944395,48.5535568],[-123.35947564,48.55348772],[-123.35950819,48.553419],[-123.35954021,48.55335029],[-123.35957256,48.55328192],[-123.35960512,48.55321321],[-123.35963768,48.55314449],[-123.35967078,48.55307577],[-123.35970313,48.55300741],[-123.35973622,48.55293869],[-123.35976911,48.55287033],[-123.35980221,48.55280161],[-123.35983563,48.55273325],[-123.35986873,48.55266453],[-123.35990216,48.55259617],[-123.35993525,48.55252745],[-123.35996868,48.55245909],[-123.36000211,48.55239072],[-123.36000221,48.5523905],[-123.3600352,48.55232201],[-123.36006863,48.55225364],[-123.36010173,48.55218493],[-123.36013462,48.55211656],[-123.36016804,48.5520482],[-123.36020114,48.55197948],[-123.36023457,48.55191112],[-123.360268,48.55184276],[-123.36030163,48.55177404],[-123.36033506,48.55170568],[-123.36036849,48.55163732],[-123.36040245,48.55156896],[-123.36042671,48.55149418],[-123.36046657,48.55143508],[-123.36050993,48.55136814],[-123.36055174,48.55130476],[-123.36056052,48.55126667],[-123.3605829,48.55123569],[-123.36067717,48.5511036],[-123.36077274,48.55093518],[-123.36086235,48.55076499],[-123.36091358,48.55065782],[-123.36094439,48.55059302],[-123.36100676,48.55044731],[-123.36101846,48.55041998],[-123.36106301,48.55030212],[-123.36111001,48.54976982],[-123.36096594,48.5496185],[-123.3607983,48.54947715],[-123.36061451,48.54934505],[-123.36044369,48.54920548],[-123.36029224,48.54906128],[-123.36013941,48.54890746],[-123.35998947,48.54875792],[-123.35983249,48.54861123],[-123.35966657,48.54846881],[-123.35949501,48.54832959],[-123.35931409,48.54819536],[-123.35911278,48.54807395],[-123.35885697,48.54801092],[-123.35870429,48.54786886],[-123.35860753,48.54770009],[-123.35852771,48.54752812],[-123.35846117,48.54735365],[-123.35840751,48.54717741],[-123.35835621,48.5470008],[-123.35831718,48.5468769],[-123.3583004,48.54682456],[-123.35824438,48.54664867],[-123.35818836,48.54647278],[-123.35813202,48.54629653],[-123.35807601,48.54612064],[-123.35801999,48.54594475],[-123.35796365,48.54576851],[-123.35790711,48.54559262],[-123.35785056,48.54541673],[-123.35779531,48.54524048],[-123.35774981,48.54506317],[-123.35770722,48.5448855],[-123.35765433,48.5447089],[-123.35758277,48.54453479],[-123.35753278,48.54447853],[-123.35744492,48.54438026],[-123.35723469,48.54426775],[-123.35705328,48.54413351],[-123.3569866,48.54396118],[-123.35695163,48.54378245],[-123.35692548,48.54360335],[-123.35690653,48.5434239],[-123.35689478,48.5432441],[-123.35688733,48.54306429],[-123.35688311,48.54288448],[-123.3568805,48.54270468],[-123.35687864,48.54252451],[-123.3568755,48.54234471],[-123.35686968,48.5421649],[-123.35685632,48.54198509],[-123.3568406,48.54180564],[-123.35683284,48.54162548],[-123.35684261,48.54144568],[-123.3568834,48.54126801],[-123.35696864,48.5410971],[-123.35709576,48.5409383],[-123.35724684,48.54078911],[-123.35740813,48.54064456],[-123.35756648,48.54049858],[-123.35771116,48.54034654],[-123.3578503,48.54019201],[-123.35796907,48.54003001],[-123.35803166,48.53985555],[-123.35804359,48.53967574],[-123.35803852,48.53949558],[-123.35805186,48.53931613],[-123.35808307,48.53913739],[-123.35811676,48.53895901],[-123.35815065,48.53878027],[-123.35818898,48.53860224],[-123.35823441,48.53842493],[-123.35829085,48.53824904],[-123.3583613,48.53807493],[-123.35845412,48.5379058],[-123.35858331,48.53774807],[-123.35873906,48.53760102],[-123.35890382,48.53745789],[-123.35906338,48.53731262],[-123.35920199,48.53715809],[-123.3593225,48.5369968],[-123.35943284,48.53683266],[-123.35953496,48.53666603],[-123.35962973,48.53649726],[-123.3597192,48.53632742],[-123.35979863,48.53615545],[-123.35986392,48.53598098],[-123.3599209,48.53580509],[-123.35997594,48.53562885],[-123.36003735,48.53545367],[-123.36010955,48.53528027],[-123.36018142,48.53510652],[-123.36023452,48.53492992],[-123.36023928,48.53475047],[-123.36019783,48.5345728],[-123.36014864,48.53439548],[-123.36014352,48.53421639],[-123.36018918,48.53403872],[-123.36025361,48.5338639],[-123.36032669,48.53369086],[-123.36040666,48.53351888],[-123.3604914,48.53334798],[-123.3605784,48.53317778],[-123.36066615,48.53300723],[-123.36075229,48.53283669],[-123.36083454,48.53266542],[-123.36091171,48.53249274],[-123.36098587,48.5323197],[-123.36106035,48.53214701],[-123.36113806,48.53197433],[-123.36122226,48.53180342],[-123.36131369,48.53163394],[-123.36143649,48.53147336],[-123.36159822,48.53135017],[-123.36178514,48.53119671],[-123.36183824,48.53102474],[-123.36180774,48.53084493],[-123.36174058,48.53067082],[-123.36164995,48.53050098],[-123.36154981,48.53033364],[-123.36144615,48.53016772],[-123.36134163,48.53000144],[-123.36126152,48.52986792],[-123.36124128,48.52983445],[-123.36114917,48.52966533],[-123.36106895,48.52949335],[-123.36100908,48.52931782],[-123.36097508,48.52913944],[-123.36096287,48.52895963],[-123.36096788,48.52877982],[-123.36098417,48.52860002],[-123.36101684,48.52842164],[-123.36103892,48.52834331],[-123.36106695,48.52824468],[-123.36112592,48.52806915],[-123.36118595,48.52789361],[-123.36123855,48.52771701],[-123.36126713,48.52753827],[-123.36126515,48.52735846],[-123.36123641,48.52717937],[-123.36121004,48.52699992],[-123.36123907,48.52682225],[-123.36130429,48.52664707],[-123.36133944,48.52646905],[-123.36131083,48.52629066],[-123.36124648,48.52611549],[-123.36116865,48.52594316],[-123.36108576,48.52577118],[-123.36106406,48.52559387],[-123.36111386,48.52541655],[-123.36117888,48.52524173],[-123.36123839,48.5250662],[-123.36129683,48.52489067],[-123.36135689,48.52471513],[-123.36141641,48.5245396],[-123.36147399,48.52436371],[-123.36152908,48.52418746],[-123.36158063,48.52401086],[-123.36163056,48.52383426],[-123.3616807,48.5236573],[-123.36172976,48.52348034],[-123.36177775,48.52330338],[-123.36182488,48.52312607],[-123.36187039,48.52294876],[-123.3619145,48.52277109],[-123.361957,48.52259342],[-123.36199702,48.52241539],[-123.36203542,48.52223736],[-123.36207028,48.52205898],[-123.36210211,48.52188024],[-123.3621318,48.52170151],[-123.36215901,48.52152241],[-123.36218514,48.52134332],[-123.36220966,48.52116422],[-123.36223278,48.52098477],[-123.36225569,48.52080568],[-123.36227666,48.52062623],[-123.36229441,48.52044678],[-123.36230753,48.52026697],[-123.36231312,48.52008716],[-123.36231387,48.51990736],[-123.36231215,48.51972719],[-123.36230968,48.51954739],[-123.36230399,48.51936758],[-123.36229346,48.51918778],[-123.36227702,48.51900797],[-123.36225264,48.51882887],[-123.36221817,48.51865049],[-123.36217287,48.51847318],[-123.36211544,48.51829729],[-123.36204912,48.51812282],[-123.36197573,48.51794943],[-123.36189849,48.5177771],[-123.3618189,48.51760512],[-123.36173984,48.51743315],[-123.36166153,48.51726082],[-123.36158066,48.5170892],[-123.36149069,48.51691937],[-123.36139012,48.51675202],[-123.36125954,48.51659465],[-123.36109911,48.51644973],[-123.36092078,48.51631336],[-123.36070468,48.51620762],[-123.36045466,48.51613783],[-123.36019748,48.51608122],[-123.3599366,48.5160328],[-123.35967037,48.51599719],[-123.35941639,48.5159388],[-123.35919358,48.51583625],[-123.35898886,48.5157184],[-123.35879198,48.5155945],[-123.35860168,48.51546667],[-123.35841554,48.51533636],[-123.35822981,48.51520533],[-123.35804449,48.51507359],[-123.35786196,48.51494078],[-123.35768166,48.51480691],[-123.35750252,48.51467196],[-123.35732434,48.51453631],[-123.3571467,48.51440065],[-123.35696853,48.514265],[-123.35690797,48.51421871],[-123.35679035,48.51412934],[-123.35661102,48.51399475],[-123.35643019,48.51386088],[-123.35624693,48.51372842],[-123.35606122,48.5135974],[-123.35587211,48.51346851],[-123.35567919,48.51334246],[-123.35548213,48.51321891],[-123.35528199,48.51309786],[-123.35507942,48.51297822],[-123.35487548,48.51286001],[-123.35467079,48.51274216],[-123.3544661,48.51262431],[-123.35426237,48.51250574],[-123.35406034,48.51238611],[-123.35386064,48.51226434],[-123.35366433,48.51214043],[-123.35347238,48.51201368],[-123.35328446,48.51188372],[-123.35310101,48.51175162],[-123.35292606,48.51161419],[-123.35277145,48.51146678],[-123.35262322,48.51131581],[-123.35244329,48.51118229],[-123.35222826,48.51107299],[-123.35199907,48.51097685],[-123.35177307,48.51088998],[-123.35152986,48.51079669],[-123.351301,48.51070091],[-123.35108386,48.51059338],[-123.35088015,48.51047482],[-123.35068557,48.51034984],[-123.3504982,48.51021988],[-123.35031614,48.51008637],[-123.35013558,48.50995213],[-123.35010341,48.50992258],[-123.34997664,48.50980758],[-123.34984388,48.50964949],[-123.34967168,48.50951383],[-123.34945019,48.50940915],[-123.34922198,48.50931231],[-123.34899239,48.50921689],[-123.34876871,48.50911505],[-123.34855676,48.50900325],[-123.34835403,48.50888398],[-123.34815586,48.50876149],[-123.3479596,48.50863759],[-123.34776334,48.50851368],[-123.34756348,48.50839227],[-123.34735789,48.50827513],[-123.34714426,48.5081644],[-123.34691627,48.50806719],[-123.34667128,48.50799171],[-123.34641635,48.50793047],[-123.34629318,48.50790305],[-123.34615987,48.50787279],[-123.3459064,48.50780905],[-123.34565617,48.50774069],[-123.34465993,48.50745834],[-123.34441766,48.50737823],[-123.3441802,48.50729171],[-123.34395106,48.50719558],[-123.34374615,48.50707915],[-123.34356998,48.50694207],[-123.34353904,48.50691964],[-123.34338681,48.50680962],[-123.34318867,48.50668713],[-123.34299074,48.5065643],[-123.34279165,48.50644253],[-123.34259107,48.50632147],[-123.34238837,48.50620219],[-123.34218356,48.50608469],[-123.3419761,48.50596898],[-123.34176366,48.50585718],[-123.34154637,48.50575],[-123.3413258,48.50564568],[-123.34129304,48.50563001],[-123.34118526,48.5055798],[-123.34088391,48.50543739],[-123.34066737,48.50532986],[-123.34045705,48.50521628],[-123.3402635,48.5050906],[-123.34008545,48.50495494],[-123.33990379,48.50482178],[-123.33970684,48.50469822],[-123.33949939,48.50458251],[-123.33928792,48.50447],[-123.33907604,48.5043582],[-123.33886669,48.5042439],[-123.33866381,48.50412498],[-123.33847048,48.50399894],[-123.3382832,48.50386898],[-123.33809783,48.5037376],[-123.33791544,48.50360479],[-123.33773571,48.5034702],[-123.33755917,48.50333383],[-123.33738529,48.50319568],[-123.33721493,48.50305611],[-123.33704797,48.5029144],[-123.33688474,48.50277091],[-123.30668211,48.50278944],[-123.27119001,48.50280023],[-123.19122214,48.50278101],[-123.1906158,48.50278064],[-123.19070677,48.50292722],[-123.20000016,48.51789709],[-123.21240494,48.5378645],[-123.2127649,48.53844344],[-123.21932537,48.54899612],[-123.21985758,48.5505802],[-123.21988476,48.55066138],[-123.22921829,48.5784267],[-123.23647864,48.59999991],[-123.24811632,48.63454624],[-123.25134695,48.64412654],[-123.26092047,48.67249288],[-123.26120896,48.67334669],[-123.26632793,48.6885017],[-123.2664633,48.68890226],[-123.2681216,48.69380866],[-123.26812834,48.6938286],[-123.26827711,48.69426939],[-123.24804754,48.70000006],[-123.19999978,48.71359129],[-123.13791969,48.73111342],[-123.10796128,48.73955142],[-123.07684448,48.74830354],[-123.00893363,48.76736765],[-123.00893395,48.76753891],[-123.00893533,48.80000021],[-123.00893637,48.82332769],[-123.00893671,48.83147737],[-123.13438851,48.9],[-123.14897186,48.90794523],[-123.15826584,48.91300624],[-123.19999999,48.93570849],[-123.21092717,48.941649],[-123.21100433,48.94168981],[-123.21361419,48.9431089],[-123.26170916,48.96921515],[-123.31115191,48.9959999],[-123.31873915,49.00000015],[-123.32065357,49.00114201],[-123.32262436,49.00220839],[-123.3227747,49.00228992],[-123.33753435,49.00315442],[-123.39999995,49.00679327],[-123.46902579,49.01077394],[-123.50600857,49.0128896],[-123.57888518,49.01702337],[-123.57915582,49.01699702],[-123.57969752,49.01694646],[-123.58105376,49.01682469],[-123.58240847,49.01669794],[-123.58321853,49.01661355],[-123.58429308,49.01648395],[-123.58482667,49.0164017],[-123.58613342,49.01613252],[-123.58692794,49.0159577],[-123.58773405,49.01577968],[-123.58961837,49.01482083]]]},"geometry_name":"SHAPE","properties":{"id":319,"slug":"saanich-north-and-the-islands","name":"Saanich North and the Islands","abbreviation":"SAN","gazetteDate":"2023-12-07Z","boundarySet":11},"bbox":[-123.63169248,48.50277091,-123.00893363,49.01702337]}
