{"type":"Feature","id":327,"geometry":{"type":"Polygon","coordinates":[[[-122.83251112,49.14817988],[-122.83414574,49.1481959],[-122.83456588,49.14819982],[-122.83527101,49.14820979],[-122.83533301,49.14821],[-122.83648132,49.14821406],[-122.83819983,49.14819234],[-122.83947666,49.14819426],[-122.84009683,49.14819519],[-122.84022154,49.1481954],[-122.84114473,49.14819697],[-122.84275828,49.14818166],[-122.84307912,49.14817845],[-122.84332279,49.14817596],[-122.84367532,49.1481733],[-122.84417021,49.14816955],[-122.84449934,49.14816706],[-122.84500621,49.14816314],[-122.84556499,49.14815887],[-122.84559177,49.14815897],[-122.84566385,49.14815923],[-122.84574081,49.14815967],[-122.845787,49.14815994],[-122.84995127,49.14815317],[-122.8506352,49.14815501],[-122.85128065,49.14815673],[-122.85265379,49.14815994],[-122.85397804,49.14815638],[-122.85433069,49.14815745],[-122.85485428,49.14815941],[-122.85537246,49.14816136],[-122.85555851,49.14816198],[-122.85669635,49.14816574],[-122.85677199,49.14816599],[-122.856952,49.14816664],[-122.85896549,49.14817382],[-122.86101335,49.14818088],[-122.86228044,49.14818522],[-122.8642686,49.14816693],[-122.86440868,49.14816563],[-122.86450753,49.14816472],[-122.86517649,49.14815851],[-122.86530094,49.14815722],[-122.86531394,49.14815709],[-122.86571465,49.14815355],[-122.86599949,49.14815104],[-122.86791441,49.14813323],[-122.86797231,49.14813288],[-122.86803369,49.14813217],[-122.86994965,49.14818415],[-122.87080123,49.14820729],[-122.87213132,49.14823791],[-122.87278745,49.14825166],[-122.87325268,49.14826141],[-122.87376091,49.14827209],[-122.87419974,49.14828135],[-122.87465197,49.14829097],[-122.87485799,49.14829524],[-122.87521061,49.14830283],[-122.87553651,49.14830984],[-122.87628841,49.14833058],[-122.87696923,49.14834936],[-122.87753174,49.14836502],[-122.87813445,49.14838176],[-122.8783919,49.14838894],[-122.87910408,49.14840882],[-122.87990326,49.14841808],[-122.88049704,49.14842484],[-122.88147204,49.14844144],[-122.88185649,49.14844798],[-122.88321143,49.14846009],[-122.88414244,49.14848145],[-122.88468339,49.14849392],[-122.88551264,49.14851332],[-122.88667759,49.14854056],[-122.88803784,49.14856842],[-122.88815541,49.14857082],[-122.89030952,49.14860073],[-122.89038041,49.14860144],[-122.89037489,49.14677062],[-122.8903699,49.14495796],[-122.89036195,49.14229576],[-122.89035783,49.14017867],[-122.89035818,49.1390482],[-122.89035863,49.13706214],[-122.8903522,49.13571377],[-122.89034405,49.13407273],[-122.89034543,49.13403926],[-122.89034428,49.13403748],[-122.89034507,49.13399938],[-122.89035436,49.13252141],[-122.89036104,49.13109613],[-122.8903644,49.13036231],[-122.8903652,49.12891068],[-122.8903652,49.12865361],[-122.89036555,49.12671989],[-122.89028544,49.12671918],[-122.88996536,49.12671756],[-122.88901595,49.12671277],[-122.88884082,49.1267117],[-122.88757268,49.12670672],[-122.88693312,49.12670244],[-122.88608373,49.12669781],[-122.88567069,49.12669537],[-122.88554312,49.12669461],[-122.88470889,49.12669105],[-122.88430911,49.12668935],[-122.88320544,49.12668464],[-122.88189854,49.12666577],[-122.8808704,49.1266594],[-122.88040436,49.12665651],[-122.87901141,49.12665473],[-122.87830927,49.12665561],[-122.87787287,49.12665616],[-122.87742215,49.12665651],[-122.87683116,49.1266501],[-122.87622024,49.12664334],[-122.87577533,49.12663835],[-122.8753092,49.12663337],[-122.87492762,49.12662901],[-122.87462381,49.12662554],[-122.87389996,49.12661771],[-122.87337259,49.12661201],[-122.87314435,49.12661058],[-122.8706313,49.12659527],[-122.87003302,49.12659439],[-122.86942988,49.12659349],[-122.86890127,49.12659279],[-122.86783255,49.12659136],[-122.867794,49.12659029],[-122.86777835,49.12490331],[-122.86778752,49.12284818],[-122.86781111,49.12075993],[-122.8678284,49.11918404],[-122.86782883,49.11910714],[-122.86779258,49.11910678],[-122.863705,49.11906797],[-122.86228268,49.11906654],[-122.85849881,49.11903308],[-122.85833809,49.11903165],[-122.85649139,49.11901527],[-122.8509935,49.11902667],[-122.84558804,49.11903628],[-122.84549359,49.11903592],[-122.845398,49.11903662],[-122.83986772,49.11907695],[-122.83433031,49.11909432],[-122.8315758,49.119102],[-122.82881872,49.11910963],[-122.82606255,49.11911745],[-122.82327591,49.11912529],[-122.82327475,49.11916766],[-122.82328252,49.12022616],[-122.82328443,49.1204855],[-122.82328882,49.12108323],[-122.82331841,49.12274029],[-122.82330724,49.12400392],[-122.82330651,49.12422966],[-122.82330625,49.12423856],[-122.82330189,49.1251853],[-122.82330936,49.12620468],[-122.82471061,49.12620544],[-122.82598928,49.12620611],[-122.82724684,49.1262069],[-122.82885345,49.12620789],[-122.82880669,49.1281539],[-122.82880509,49.12822029],[-122.82882535,49.12869177],[-122.82884335,49.12911078],[-122.82886037,49.12966684],[-122.8288721,49.13004969],[-122.82887546,49.13090564],[-122.8288775,49.13155995],[-122.82887828,49.13181144],[-122.82890104,49.13274394],[-122.82892845,49.13364404],[-122.82892987,49.13368356],[-122.82603898,49.13371065],[-122.82333664,49.1337359],[-122.82333614,49.13377435],[-122.82334391,49.13452029],[-122.82334513,49.13464882],[-122.82334727,49.1350518],[-122.82335478,49.13646397],[-122.82335994,49.1373452],[-122.82336354,49.13823106],[-122.82338978,49.14005654],[-122.82339769,49.14100186],[-122.82340036,49.14150496],[-122.82340111,49.14189168],[-122.82340112,49.14189863],[-122.8234012,49.14194202],[-122.82340197,49.1423456],[-122.82340039,49.14278746],[-122.82339874,49.14323039],[-122.82340257,49.14347108],[-122.82340422,49.14361493],[-122.82341093,49.14407353],[-122.82341529,49.14439326],[-122.82342326,49.14508293],[-122.82341789,49.14556716],[-122.8234167,49.14568395],[-122.82355374,49.14571991],[-122.82380061,49.14586518],[-122.82388174,49.14590933],[-122.82404654,49.14598197],[-122.82414251,49.14600048],[-122.82425355,49.14600048],[-122.82451265,49.14600048],[-122.82478774,49.14601045],[-122.82503435,49.1460546],[-122.8252118,49.14615429],[-122.82537592,49.14635226],[-122.82544317,49.14639783],[-122.82556644,49.14645195],[-122.82582721,49.1465958],[-122.8259643,49.14665989],[-122.82610046,49.14669549],[-122.82622474,49.14671401],[-122.8263336,49.14671401],[-122.82662177,49.14672398],[-122.82691076,49.14673252],[-122.82722505,49.14674249],[-122.82754016,49.14675104],[-122.82782833,49.14676101],[-122.82795102,49.14677098],[-122.8280474,49.14681513],[-122.82819772,49.14695043],[-122.82823826,49.14700455],[-122.82827872,49.14717545],[-122.82828016,49.14736487],[-122.82826578,49.14756284],[-122.82825005,49.14770668],[-122.82827786,49.14785053],[-122.82831732,49.14805704],[-122.82835804,49.14812967],[-122.82899963,49.14813751],[-122.82949653,49.14814351],[-122.83251112,49.14817988]]]},"geometry_name":"SHAPE","properties":{"id":327,"slug":"surrey-newton","name":"Surrey-Newton","abbreviation":"SRN","gazetteDate":"2023-12-07Z","boundarySet":11},"bbox":[-122.89038041,49.11901527,-122.82327475,49.14860144]}
