{"type":"Feature","id":330,"geometry":{"type":"Polygon","coordinates":[[[-122.73837642,49.17698522],[-122.74146022,49.17697775],[-122.74209314,49.17698237],[-122.74540996,49.17700605],[-122.74587695,49.17700944],[-122.74999662,49.17700018],[-122.7508339,49.17699804],[-122.75237024,49.17699448],[-122.75337201,49.17699234],[-122.75411268,49.17699056],[-122.75659033,49.17698487],[-122.75752929,49.17698772],[-122.75765272,49.17698807],[-122.75851707,49.17699092],[-122.75995792,49.17699519],[-122.76012166,49.17699555],[-122.76024516,49.17699484],[-122.76108246,49.17698985],[-122.76194719,49.17698451],[-122.76300337,49.17697775],[-122.76355206,49.17697454],[-122.76437519,49.17696956],[-122.76444369,49.17696885],[-122.76651588,49.17695603],[-122.76770374,49.17694855],[-122.76771768,49.17591895],[-122.76772137,49.17563899],[-122.76772287,49.17553295],[-122.76772647,49.17527938],[-122.76773158,49.17486992],[-122.76774693,49.17386727],[-122.76775702,49.17320288],[-122.76775463,49.17288635],[-122.76775226,49.17252222],[-122.76775064,49.17227358],[-122.76773556,49.17097292],[-122.76774847,49.17013549],[-122.76825289,49.17013361],[-122.76879851,49.17013157],[-122.76912805,49.1701305],[-122.76941981,49.17012954],[-122.76999231,49.17012766],[-122.77056862,49.17012552],[-122.77057813,49.17012546],[-122.77062492,49.17012516],[-122.77074723,49.17012334],[-122.7709122,49.17012089],[-122.77110544,49.17011777],[-122.77141905,49.1701127],[-122.77206742,49.17010273],[-122.77226746,49.17010197],[-122.77299635,49.17009917],[-122.77321133,49.17009846],[-122.77322423,49.16789663],[-122.77322965,49.1672301],[-122.77323001,49.16720445],[-122.77323067,49.16715782],[-122.77320892,49.1665493],[-122.77320636,49.16647776],[-122.77320965,49.16611198],[-122.77322426,49.16448779],[-122.77320573,49.16277055],[-122.77320459,49.16243933],[-122.77320426,49.1623439],[-122.77320306,49.16199506],[-122.77320138,49.1615507],[-122.77320018,49.16123596],[-122.7732097,49.16090034],[-122.773221,49.16050178],[-122.77322208,49.16047356],[-122.77322277,49.16045549],[-122.77323264,49.16001933],[-122.77325436,49.15907223],[-122.77325875,49.15887565],[-122.77329306,49.15736674],[-122.77329377,49.1573176],[-122.77330349,49.15644492],[-122.77330491,49.15631864],[-122.77331442,49.15547717],[-122.77344191,49.15528348],[-122.77347234,49.15523755],[-122.77216163,49.15472003],[-122.77194789,49.15463565],[-122.77007305,49.15389533],[-122.7694732,49.15365845],[-122.76850768,49.1532773],[-122.76776227,49.15298302],[-122.76776254,49.15292997],[-122.76776376,49.15255505],[-122.76776491,49.15226642],[-122.76776666,49.15182977],[-122.7677581,49.15140936],[-122.76774791,49.15090902],[-122.76773929,49.15051196],[-122.76773856,49.15047829],[-122.76773783,49.15044705],[-122.7677278,49.15001319],[-122.76768794,49.14822296],[-122.76848513,49.1482267],[-122.76981486,49.14823293],[-122.77021746,49.14823274],[-122.77122037,49.14823256],[-122.77200534,49.14823186],[-122.77202292,49.14823241],[-122.77304618,49.14823445],[-122.77314952,49.14823471],[-122.77453917,49.14824126],[-122.77511574,49.14824397],[-122.77592415,49.1482429],[-122.7788432,49.14825643],[-122.78012169,49.14824886],[-122.78172557,49.14823934],[-122.78444678,49.1482486],[-122.78581853,49.14824575],[-122.78860514,49.14823966],[-122.79008386,49.14823649],[-122.7920011,49.14824326],[-122.79208599,49.14824361],[-122.79282447,49.1482461],[-122.79399721,49.14825759],[-122.79518798,49.14826911],[-122.79547396,49.1482719],[-122.7955715,49.14827281],[-122.79599822,49.14827696],[-122.7964132,49.148281],[-122.79831298,49.14829595],[-122.79971585,49.14828918],[-122.80117196,49.14830984],[-122.80122109,49.14830848],[-122.80121433,49.14772607],[-122.80117452,49.14481104],[-122.80123432,49.14481127],[-122.80138456,49.14481127],[-122.80148095,49.14480272],[-122.80178346,49.14473151],[-122.80197505,49.14473151],[-122.80227686,49.14473293],[-122.80261884,49.14475145],[-122.8028801,49.14475145],[-122.80312771,49.14475999],[-122.80334559,49.14477851],[-122.80340133,49.14483263],[-122.80345594,49.14498644],[-122.80353635,49.14510323],[-122.80378371,49.14529265],[-122.80386542,49.14532825],[-122.8041662,49.14536528],[-122.80435838,49.14554473],[-122.80445377,49.14570709],[-122.804521,49.14575267],[-122.80479449,49.14594209],[-122.80501383,49.14608593],[-122.80527398,49.14618563],[-122.80550608,49.14623975],[-122.80573921,49.14625826],[-122.80605449,49.14628532],[-122.8061651,49.14631238],[-122.80635617,49.14640353],[-122.80648014,49.14652032],[-122.80656057,49.1466371],[-122.80671156,49.14683507],[-122.80690294,49.14701594],[-122.80701184,49.14715124],[-122.80702564,49.14721391],[-122.80705253,49.14741187],[-122.80703802,49.14747454],[-122.80703733,49.14754717],[-122.80703704,49.14764544],[-122.80702402,49.14778074],[-122.80703637,49.14790607],[-122.80713264,49.14801431],[-122.80733837,49.14811401],[-122.80743259,49.14810546],[-122.80754231,49.14805134],[-122.807613,49.14801574],[-122.80783214,49.14781777],[-122.80803842,49.14777362],[-122.80816193,49.14778217],[-122.80842151,49.14789041],[-122.80869635,49.14794595],[-122.80896984,49.14800007],[-122.80905216,49.14802713],[-122.80939422,49.14818095],[-122.80966712,49.14824361],[-122.80991491,49.14827067],[-122.81014805,49.14828919],[-122.81042299,49.14828064],[-122.81053087,49.14826355],[-122.81086109,49.14820088],[-122.81117765,49.14814676],[-122.81130077,49.14812967],[-122.81157412,49.14811258],[-122.811739,49.14812113],[-122.81201352,49.14813964],[-122.81228701,49.14819376],[-122.8124658,49.14823554],[-122.81256127,49.14825785],[-122.81284942,49.14832052],[-122.81294598,49.14833049],[-122.81320467,49.14835755],[-122.81353537,49.14840312],[-122.81364424,49.14840312],[-122.81391934,49.14841309],[-122.8142606,49.14842164],[-122.81452105,49.14842306],[-122.81461669,49.14840455],[-122.81472815,49.14837749],[-122.81494675,49.14827067],[-122.81516652,49.14819946],[-122.81523585,49.14816243],[-122.81546969,49.14805561],[-122.81549641,49.14804707],[-122.81552396,49.1480371],[-122.81553761,49.14802856],[-122.81555067,49.14802855],[-122.81569013,49.14791177],[-122.81575747,49.14784056],[-122.8157632,49.14782358],[-122.81578487,49.14775938],[-122.81578639,49.14763262],[-122.81578548,49.14755144],[-122.81574498,49.14744463],[-122.81573276,49.14739051],[-122.81573318,49.14736345],[-122.81573301,49.14734493],[-122.81573343,49.14731787],[-122.81571862,49.14729081],[-122.81570608,49.14714697],[-122.81574739,49.14701167],[-122.8158712,49.14686925],[-122.81602253,49.14676955],[-122.81621567,49.1465901],[-122.81642189,49.14641065],[-122.816613,49.14630241],[-122.81673812,49.14626681],[-122.81706625,49.14608736],[-122.81728584,49.14599763],[-122.81752041,49.14595348],[-122.81772552,49.14587373],[-122.81789025,49.14581106],[-122.81804274,49.14574697],[-122.81821686,49.14567926],[-122.81824785,49.14566722],[-122.81850863,49.14555898],[-122.81859062,49.14549631],[-122.81888047,49.14539804],[-122.819086,49.14529122],[-122.81916698,49.14526416],[-122.81944198,49.14519153],[-122.81973115,49.14516589],[-122.81992333,49.14515735],[-122.82014105,49.14515735],[-122.82040308,49.14516732],[-122.82060873,49.14518441],[-122.82095131,49.14519438],[-122.82115614,49.14521289],[-122.82148524,49.14524992],[-122.82175915,49.14527698],[-122.82200651,49.1453311],[-122.82226752,49.14537668],[-122.82244363,49.14542225],[-122.82269198,49.14549346],[-122.82296406,49.14555755],[-122.82326543,49.14563873],[-122.8234167,49.14568395],[-122.82341789,49.14556716],[-122.82342326,49.14508293],[-122.82341529,49.14439326],[-122.82341093,49.14407353],[-122.82340422,49.14361493],[-122.82340257,49.14347108],[-122.82339874,49.14323039],[-122.82340039,49.14278746],[-122.82340197,49.1423456],[-122.8234012,49.14194202],[-122.82340112,49.14189863],[-122.82340111,49.14189168],[-122.82340036,49.14150496],[-122.82339769,49.14100186],[-122.82338978,49.14005654],[-122.82336354,49.13823106],[-122.82335994,49.1373452],[-122.82335478,49.13646397],[-122.82334727,49.1350518],[-122.82334513,49.13464882],[-122.82334391,49.13452029],[-122.82333614,49.13377435],[-122.82333664,49.1337359],[-122.82603898,49.13371065],[-122.82892987,49.13368356],[-122.82892845,49.13364404],[-122.82890104,49.13274394],[-122.82887828,49.13181144],[-122.8288775,49.13155995],[-122.82887546,49.13090564],[-122.8288721,49.13004969],[-122.82886037,49.12966684],[-122.82884335,49.12911078],[-122.82882535,49.12869177],[-122.82880509,49.12822029],[-122.82880669,49.1281539],[-122.82885345,49.12620789],[-122.82724684,49.1262069],[-122.82598928,49.12620611],[-122.82471061,49.12620544],[-122.82330936,49.12620468],[-122.82330189,49.1251853],[-122.82330625,49.12423856],[-122.82330651,49.12422966],[-122.82330724,49.12400392],[-122.82331841,49.12274029],[-122.82328882,49.12108323],[-122.82328443,49.1204855],[-122.82328252,49.12022616],[-122.82327475,49.11916766],[-122.82327591,49.11912529],[-122.81772859,49.11913277],[-122.81222262,49.11912992],[-122.80658554,49.11909695],[-122.80106431,49.11907082],[-122.8010108,49.11906832],[-122.8009573,49.11906583],[-122.79783935,49.11898564],[-122.79667306,49.11898466],[-122.79666532,49.11898465],[-122.79664626,49.11898437],[-122.79149984,49.11890842],[-122.78987461,49.11890081],[-122.78987414,49.11886531],[-122.78982308,49.11513395],[-122.78982915,49.11451969],[-122.7898312,49.11431176],[-122.78983144,49.11428797],[-122.78984117,49.11325543],[-122.78987188,49.10999825],[-122.78988262,49.1088101],[-122.78988276,49.10864354],[-122.78988282,49.10855766],[-122.78988252,49.10736524],[-122.78993086,49.10444098],[-122.78993118,49.10440858],[-122.7807134,49.10449068],[-122.77906836,49.10447766],[-122.76996516,49.10445576],[-122.76936216,49.10445428],[-122.76868294,49.10444491],[-122.76766094,49.10443081],[-122.76756952,49.10443101],[-122.76685515,49.10440216],[-122.76505832,49.1043481],[-122.76392241,49.10434642],[-122.75665857,49.10428432],[-122.7460883,49.1041654],[-122.74480433,49.10413265],[-122.74160989,49.10409497],[-122.73839854,49.10409098],[-122.73829648,49.10409098],[-122.73829414,49.1041129],[-122.73829163,49.10415044],[-122.73823573,49.10598803],[-122.73823304,49.10687957],[-122.73821837,49.10693789],[-122.73821366,49.10695662],[-122.73814089,49.10724591],[-122.73792906,49.10760041],[-122.73769284,49.1078284],[-122.73762777,49.10787425],[-122.73761548,49.10788291],[-122.73757143,49.10791395],[-122.73751799,49.1079516],[-122.73747411,49.10797759],[-122.73717983,49.10815189],[-122.73685747,49.10830578],[-122.73676629,49.10834602],[-122.73589676,49.1087309],[-122.73589508,49.10873191],[-122.73575263,49.10881737],[-122.73553237,49.10894952],[-122.73540836,49.1090559],[-122.73528918,49.10915815],[-122.73515648,49.10932948],[-122.73506986,49.10944132],[-122.73504503,49.10949359],[-122.73494309,49.10970817],[-122.73488049,49.11000296],[-122.73486711,49.11149438],[-122.73489335,49.1137563],[-122.73491617,49.1157225],[-122.73493503,49.11872046],[-122.73493398,49.11876457],[-122.73493307,49.11880277],[-122.73493022,49.12337656],[-122.73480437,49.1272497],[-122.73476868,49.13334377],[-122.73474085,49.13809387],[-122.73473795,49.13814613],[-122.73473835,49.13814631],[-122.73473508,49.1381978],[-122.73473974,49.13936102],[-122.73474241,49.14002662],[-122.73474919,49.14173649],[-122.73475314,49.14272111],[-122.73477111,49.1471085],[-122.73477446,49.14805455],[-122.73471816,49.16186706],[-122.73471516,49.16260285],[-122.73471711,49.16281149],[-122.73471731,49.16297301],[-122.73472294,49.17000161],[-122.73471977,49.17265939],[-122.73472041,49.17634504],[-122.73472402,49.17641036],[-122.73482385,49.17643002],[-122.73586707,49.17668381],[-122.73671945,49.17689104],[-122.73744551,49.17697986],[-122.73812442,49.17698707],[-122.73837642,49.17698522]]]},"geometry_name":"SHAPE","properties":{"id":330,"slug":"surrey-serpentine-river","name":"Surrey-Serpentine River","abbreviation":"SUR","gazetteDate":"2023-12-07Z","boundarySet":11},"bbox":[-122.82892987,49.10409098,-122.73471516,49.17700944]}
