{"type":"Feature","id":323,"geometry":{"type":"Polygon","coordinates":[[[-122.81719442,49.22022938],[-122.82719091,49.22009391],[-122.83369688,49.22000525],[-122.84299934,49.21987778],[-122.84479583,49.21998317],[-122.85573608,49.22062442],[-122.86148398,49.22073041],[-122.86181781,49.21579104],[-122.8618305,49.21444492],[-122.86184,49.21329204],[-122.86184047,49.21321944],[-122.86184237,49.2131515],[-122.86186697,49.21123744],[-122.86179493,49.21123532],[-122.86015111,49.21120791],[-122.85909714,49.21124743],[-122.85701454,49.21135531],[-122.85630453,49.21134178],[-122.85631274,49.21058153],[-122.8563208,49.20980542],[-122.85632562,49.20950356],[-122.85633132,49.20914708],[-122.85633642,49.20875506],[-122.85634122,49.20839548],[-122.85634972,49.2077339],[-122.85635009,49.20772555],[-122.8563679,49.207328],[-122.85637792,49.20707806],[-122.85638534,49.20686478],[-122.85643345,49.20672556],[-122.8564763,49.20653401],[-122.85644137,49.20643404],[-122.85641147,49.20634847],[-122.85641111,49.20634744],[-122.85636408,49.20622389],[-122.85450713,49.2050012],[-122.85442624,49.2049472],[-122.85450066,49.20489592],[-122.85589018,49.20398147],[-122.85598693,49.20392211],[-122.85626997,49.20366209],[-122.85641576,49.20337333],[-122.85643175,49.20279083],[-122.85645517,49.20218696],[-122.85646311,49.20089271],[-122.85646701,49.19999867],[-122.85647066,49.19912052],[-122.85647138,49.19894511],[-122.85647213,49.19884132],[-122.8564787,49.19792715],[-122.85648296,49.19700996],[-122.85647629,49.19676157],[-122.85646225,49.19623911],[-122.85646063,49.19574417],[-122.85645941,49.19537212],[-122.85645031,49.19491112],[-122.8564417,49.19447523],[-122.8564439,49.19326714],[-122.85642809,49.19224242],[-122.85646941,49.19169481],[-122.85647152,49.19165244],[-122.85647355,49.19161114],[-122.85650226,49.19070107],[-122.85652163,49.18984405],[-122.85647811,49.18769207],[-122.85649772,49.18682233],[-122.85649816,49.18680293],[-122.85651163,49.18620555],[-122.85651756,49.18605104],[-122.85654433,49.18535495],[-122.85654073,49.1843936],[-122.85656877,49.18341054],[-122.85661037,49.18259376],[-122.85662451,49.18227733],[-122.85664938,49.18172108],[-122.85664984,49.18170897],[-122.85667625,49.18121869],[-122.85669458,49.18076508],[-122.85672321,49.17953491],[-122.85672752,49.17935475],[-122.85673114,49.17919273],[-122.85673618,49.17896701],[-122.85683005,49.17724853],[-122.85683842,49.17709524],[-122.8568471,49.17585369],[-122.85687136,49.17234871],[-122.85688654,49.17117267],[-122.85689617,49.16991296],[-122.85690046,49.16869561],[-122.85690084,49.168606],[-122.85690234,49.16825482],[-122.85690279,49.16806264],[-122.85690297,49.16801303],[-122.85690295,49.16799478],[-122.85690314,49.16791301],[-122.85690388,49.16774479],[-122.85690457,49.167589],[-122.85690837,49.16648075],[-122.85690908,49.16627339],[-122.85690925,49.16618084],[-122.85691064,49.16538255],[-122.85691172,49.16476862],[-122.85691192,49.1646733],[-122.85691219,49.1645031],[-122.85691386,49.16399548],[-122.85691654,49.16318143],[-122.85691641,49.16315619],[-122.85691632,49.16313657],[-122.85691685,49.16299237],[-122.85691772,49.16263453],[-122.85680504,49.16263562],[-122.85651046,49.16263858],[-122.85572834,49.1626464],[-122.85533066,49.16265037],[-122.85426083,49.16266104],[-122.85423668,49.16266128],[-122.8527945,49.1626853],[-122.85058775,49.1627017],[-122.84931039,49.16271209],[-122.84900187,49.16271724],[-122.84855397,49.16272462],[-122.847622,49.16274028],[-122.84590899,49.16274598],[-122.84578363,49.16274612],[-122.84568732,49.1627442],[-122.84167739,49.16277482],[-122.84098629,49.16277411],[-122.83893391,49.16279796],[-122.83753277,49.16278692],[-122.83470232,49.16279191],[-122.83464019,49.16279013],[-122.83457845,49.16279048],[-122.83096747,49.16281509],[-122.82771003,49.16283784],[-122.82342775,49.16285635],[-122.8234255,49.16291297],[-122.82340914,49.16512298],[-122.82340611,49.1655595],[-122.82340578,49.16600457],[-122.82340474,49.16692176],[-122.82340378,49.16743483],[-122.82340283,49.16818147],[-122.8234017,49.16867603],[-122.82339665,49.1701184],[-122.81790154,49.17010202],[-122.81645481,49.17010166],[-122.81510127,49.17010024],[-122.81369614,49.17009668],[-122.81231947,49.17009383],[-122.81231718,49.17028603],[-122.81231713,49.17031351],[-122.81231646,49.17033915],[-122.81231645,49.170342],[-122.81231555,49.17037369],[-122.81227027,49.17344856],[-122.81225825,49.17525232],[-122.81225781,49.17533314],[-122.81225737,49.17541396],[-122.81225686,49.17546666],[-122.81225688,49.17547699],[-122.8122557,49.17567495],[-122.81225361,49.17599789],[-122.81228185,49.17682322],[-122.81228296,49.17687876],[-122.81228438,49.17692719],[-122.81222598,49.17867968],[-122.81216652,49.18046528],[-122.81214163,49.18160892],[-122.81210622,49.1830253],[-122.81207755,49.18420205],[-122.82308966,49.18409488],[-122.82337742,49.18409274],[-122.8234321,49.18409238],[-122.82592451,49.18407494],[-122.82637848,49.18407178],[-122.8274592,49.18406426],[-122.83019462,49.18408348],[-122.83140958,49.18416894],[-122.83140821,49.18425902],[-122.83140713,49.18432426],[-122.83140537,49.18442992],[-122.83139521,49.18514167],[-122.83139402,49.18539838],[-122.83138598,49.18602254],[-122.83138496,49.18631847],[-122.83138137,49.18735204],[-122.83137215,49.18823399],[-122.83137113,49.18881969],[-122.83137028,49.18942726],[-122.83137004,49.18959517],[-122.83137034,49.19024956],[-122.83137039,49.19035784],[-122.83137037,49.19049278],[-122.8313697,49.19054672],[-122.8313591,49.19140677],[-122.83135774,49.19144309],[-122.83180426,49.19144635],[-122.83214351,49.19144883],[-122.8321449,49.19148759],[-122.8321268,49.19258993],[-122.83212652,49.19260455],[-122.83210256,49.19385093],[-122.83217729,49.19385101],[-122.83229981,49.19388038],[-122.83226286,49.19398255],[-122.832279,49.19402563],[-122.83251142,49.19414273],[-122.83251591,49.19514024],[-122.83251608,49.19517766],[-122.83197079,49.19517701],[-122.83137894,49.19517629],[-122.82850665,49.19516846],[-122.82723555,49.19517594],[-122.8271065,49.19799658],[-122.82706944,49.19881301],[-122.82569231,49.19880767],[-122.82458708,49.19880233],[-122.82451822,49.19890274],[-122.82449017,49.19897395],[-122.82443567,49.19913631],[-122.82439383,49.19926164],[-122.82437783,49.19947812],[-122.8243654,49.19968463],[-122.82430835,49.19987405],[-122.8242665,49.19999938],[-122.82425373,49.20007059],[-122.82424014,49.20014322],[-122.82418413,49.20034973],[-122.82408748,49.20056621],[-122.82403096,49.200683],[-122.82400291,49.20075421],[-122.82397547,49.20081688],[-122.82389206,49.20098778],[-122.8238088,49.20127547],[-122.82375414,49.20148341],[-122.82349261,49.20179674],[-122.82336691,49.20206733],[-122.82328423,49.20218411],[-122.82318826,49.20228238],[-122.82306397,49.20238066],[-122.82274654,49.20270395],[-122.82265136,49.2028122],[-122.82252706,49.20291046],[-122.82236249,49.20315401],[-122.82227764,49.20327079],[-122.82214186,49.2033776],[-122.82174291,49.20347587],[-122.82154979,49.20353854],[-122.82122043,49.20368239],[-122.82109727,49.20376356],[-122.82087524,49.20399713],[-122.82080724,49.20412246],[-122.82061413,49.20434749],[-122.82051722,49.20464373],[-122.82047561,49.20478757],[-122.82046035,49.20494993],[-122.82039199,49.20510232],[-122.82023993,49.2053544],[-122.82007401,49.20559652],[-122.81992138,49.20585716],[-122.81979729,49.2061363],[-122.81976818,49.20628869],[-122.81968494,49.20657638],[-122.8196572,49.20673019],[-122.81958921,49.20685552],[-122.81947765,49.20714322],[-122.81940734,49.20747648],[-122.8194222,49.20760181],[-122.81961225,49.20789947],[-122.81970834,49.20801625],[-122.81981717,49.20832245],[-122.81984418,49.20848339],[-122.81981587,49.20864576],[-122.81982897,49.20880811],[-122.81986963,49.20896051],[-122.81986716,49.20931228],[-122.81982605,49.20964412],[-122.8197708,49.20979652],[-122.81970199,49.20992327],[-122.8196035,49.2100486],[-122.81948002,49.2103192],[-122.81938335,49.21047159],[-122.81925794,49.21074931],[-122.8191622,49.2108661],[-122.81906506,49.21099285],[-122.81891386,49.21124351],[-122.81876182,49.2114956],[-122.81856794,49.21171066],[-122.81845912,49.21182743],[-122.81834816,49.21210659],[-122.81823663,49.21239427],[-122.81814014,49.21266345],[-122.81797306,49.21293405],[-122.81779426,49.21303232],[-122.81763071,49.21313059],[-122.81752043,49.21319325],[-122.81740931,49.21325735],[-122.81718873,49.21338268],[-122.81669107,49.21363298],[-122.81690931,49.2138281],[-122.81712593,49.21426782],[-122.81712946,49.21457501],[-122.8171305,49.21466611],[-122.81717388,49.21844111],[-122.81719442,49.22022938]]]},"geometry_name":"SHAPE","properties":{"id":323,"slug":"surrey-city-centre","name":"Surrey City Centre","abbreviation":"SRC","gazetteDate":"2023-12-07Z","boundarySet":11},"bbox":[-122.86186697,49.16263453,-122.81207755,49.22073041]}
