{"type":"Feature","id":326,"geometry":{"type":"Polygon","coordinates":[[[-122.80522249,49.22039014],[-122.81227825,49.22029543],[-122.81233535,49.22029472],[-122.81234407,49.22029472],[-122.81239627,49.22029401],[-122.81260615,49.22029116],[-122.8130333,49.22028948],[-122.81317056,49.22028572],[-122.81335768,49.22028342],[-122.81353433,49.22028126],[-122.81367746,49.22027957],[-122.81557177,49.22025128],[-122.81719442,49.22022938],[-122.81717388,49.21844111],[-122.8171305,49.21466611],[-122.81712946,49.21457501],[-122.81712593,49.21426782],[-122.81690931,49.2138281],[-122.81669107,49.21363298],[-122.81718873,49.21338268],[-122.81740931,49.21325735],[-122.81752043,49.21319325],[-122.81763071,49.21313059],[-122.81779426,49.21303232],[-122.81797306,49.21293405],[-122.81814014,49.21266345],[-122.81823663,49.21239427],[-122.81834816,49.21210659],[-122.81845912,49.21182743],[-122.81856794,49.21171066],[-122.81876182,49.2114956],[-122.81891386,49.21124351],[-122.81906506,49.21099285],[-122.8191622,49.2108661],[-122.81925794,49.21074931],[-122.81938335,49.21047159],[-122.81948002,49.2103192],[-122.8196035,49.2100486],[-122.81970199,49.20992327],[-122.8197708,49.20979652],[-122.81982605,49.20964412],[-122.81986716,49.20931228],[-122.81986963,49.20896051],[-122.81982897,49.20880811],[-122.81981587,49.20864576],[-122.81984418,49.20848339],[-122.81981717,49.20832245],[-122.81970834,49.20801625],[-122.81961225,49.20789947],[-122.8194222,49.20760181],[-122.81940734,49.20747648],[-122.81947765,49.20714322],[-122.81958921,49.20685552],[-122.8196572,49.20673019],[-122.81968494,49.20657638],[-122.81976818,49.20628869],[-122.81979729,49.2061363],[-122.81992138,49.20585716],[-122.82007401,49.20559652],[-122.82023993,49.2053544],[-122.82039199,49.20510232],[-122.82046035,49.20494993],[-122.82047561,49.20478757],[-122.82051722,49.20464373],[-122.82061413,49.20434749],[-122.82080724,49.20412246],[-122.82087524,49.20399713],[-122.82109727,49.20376356],[-122.82122043,49.20368239],[-122.82154979,49.20353854],[-122.82174291,49.20347587],[-122.82214186,49.2033776],[-122.82227764,49.20327079],[-122.82236249,49.20315401],[-122.82252706,49.20291046],[-122.82265136,49.2028122],[-122.82274654,49.20270395],[-122.82306397,49.20238066],[-122.82318826,49.20228238],[-122.82328423,49.20218411],[-122.82336691,49.20206733],[-122.82349261,49.20179674],[-122.82375414,49.20148341],[-122.8238088,49.20127547],[-122.82389206,49.20098778],[-122.82397547,49.20081688],[-122.82400291,49.20075421],[-122.82403096,49.200683],[-122.82408748,49.20056621],[-122.82418413,49.20034973],[-122.82424014,49.20014322],[-122.82425373,49.20007059],[-122.8242665,49.19999938],[-122.82430835,49.19987405],[-122.8243654,49.19968463],[-122.82437783,49.19947812],[-122.82439383,49.19926164],[-122.82443567,49.19913631],[-122.82449017,49.19897395],[-122.82451822,49.19890274],[-122.82458708,49.19880233],[-122.82569231,49.19880767],[-122.82706944,49.19881301],[-122.8271065,49.19799658],[-122.82723555,49.19517594],[-122.82850665,49.19516846],[-122.83137894,49.19517629],[-122.83197079,49.19517701],[-122.83251608,49.19517766],[-122.83251591,49.19514024],[-122.83251142,49.19414273],[-122.832279,49.19402563],[-122.83226286,49.19398255],[-122.83229981,49.19388038],[-122.83217729,49.19385101],[-122.83210256,49.19385093],[-122.83212652,49.19260455],[-122.8321268,49.19258993],[-122.8321449,49.19148759],[-122.83214351,49.19144883],[-122.83180426,49.19144635],[-122.83135774,49.19144309],[-122.8313591,49.19140677],[-122.8313697,49.19054672],[-122.83137037,49.19049278],[-122.83137039,49.19035784],[-122.83137034,49.19024956],[-122.83137004,49.18959517],[-122.83137028,49.18942726],[-122.83137113,49.18881969],[-122.83137215,49.18823399],[-122.83138137,49.18735204],[-122.83138496,49.18631847],[-122.83138598,49.18602254],[-122.83139402,49.18539838],[-122.83139521,49.18514167],[-122.83140537,49.18442992],[-122.83140713,49.18432426],[-122.83140821,49.18425902],[-122.83140958,49.18416894],[-122.83019462,49.18408348],[-122.8274592,49.18406426],[-122.82637848,49.18407178],[-122.82592451,49.18407494],[-122.8234321,49.18409238],[-122.82337742,49.18409274],[-122.82308966,49.18409488],[-122.81207755,49.18420205],[-122.81084033,49.18420134],[-122.81045452,49.18420347],[-122.81013394,49.1842049],[-122.80973165,49.18420632],[-122.80935864,49.18420703],[-122.80821304,49.18421273],[-122.8065302,49.18422056],[-122.80391299,49.18418531],[-122.80148822,49.18419315],[-122.80117275,49.18419422],[-122.80103581,49.18419457],[-122.80093755,49.18419493],[-122.80091195,49.18419493],[-122.8008395,49.18419493],[-122.8003352,49.18419849],[-122.80000604,49.18420062],[-122.79817017,49.18421309],[-122.79540935,49.18426792],[-122.79407444,49.18429391],[-122.79258384,49.18432346],[-122.79250097,49.18432453],[-122.78986545,49.18436049],[-122.7898708,49.18387662],[-122.78987614,49.18335322],[-122.78987821,49.18310292],[-122.78988285,49.1824282],[-122.78989018,49.18151065],[-122.78989645,49.18067784],[-122.78991449,49.17999137],[-122.78994556,49.17882958],[-122.7899717,49.17819509],[-122.79001317,49.17690155],[-122.78923787,49.17690013],[-122.78727068,49.17689621],[-122.78572508,49.17689977],[-122.78446692,49.17690262],[-122.78206287,49.17689407],[-122.78028332,49.17688873],[-122.78007247,49.1768898],[-122.77886752,49.17689763],[-122.77804146,49.17690298],[-122.77639513,49.17691401],[-122.7760573,49.17691615],[-122.77495476,49.17692113],[-122.7744628,49.17692327],[-122.77385698,49.17692826],[-122.77302921,49.17693466],[-122.77284157,49.17693609],[-122.77196819,49.17694321],[-122.76770374,49.17694855],[-122.76651588,49.17695603],[-122.76444369,49.17696885],[-122.76437519,49.17696956],[-122.76355206,49.17697454],[-122.76300337,49.17697775],[-122.76194719,49.17698451],[-122.76108246,49.17698985],[-122.76024516,49.17699484],[-122.76012166,49.17699555],[-122.75995792,49.17699519],[-122.75851707,49.17699092],[-122.75765272,49.17698807],[-122.75752929,49.17698772],[-122.75659033,49.17698487],[-122.75411268,49.17699056],[-122.75337201,49.17699234],[-122.75237024,49.17699448],[-122.7508339,49.17699804],[-122.74999662,49.17700018],[-122.74587695,49.17700944],[-122.74540996,49.17700605],[-122.74209314,49.17698237],[-122.74146022,49.17697775],[-122.73837642,49.17698522],[-122.73812442,49.17698707],[-122.73744551,49.17697986],[-122.73671945,49.17689104],[-122.73586707,49.17668381],[-122.73482385,49.17643002],[-122.73472402,49.17641036],[-122.73472041,49.17634504],[-122.73471977,49.17265939],[-122.73472294,49.17000161],[-122.73471731,49.16297301],[-122.73471711,49.16281149],[-122.73471516,49.16260285],[-122.73462784,49.1626032],[-122.73462082,49.16260328],[-122.73399134,49.16261068],[-122.73259206,49.1626251],[-122.73126072,49.16263881],[-122.73051833,49.16264486],[-122.71281242,49.16282805],[-122.71276026,49.16282858],[-122.71059106,49.16283784],[-122.71032581,49.16283891],[-122.70946626,49.16283855],[-122.70838605,49.16283832],[-122.70781991,49.1628382],[-122.70729869,49.16283793],[-122.70643458,49.16283748],[-122.70534852,49.16283713],[-122.70400673,49.16283926],[-122.70360336,49.16283994],[-122.7023057,49.16284211],[-122.70220195,49.16284211],[-122.70216849,49.16284211],[-122.70186513,49.16284263],[-122.70185335,49.16284282],[-122.69989895,49.16284565],[-122.69978921,49.16284581],[-122.69964465,49.16284603],[-122.69941085,49.16284639],[-122.69885545,49.16284923],[-122.69799918,49.16284603],[-122.69710752,49.16284282],[-122.69680874,49.16284166],[-122.69628447,49.16283962],[-122.69582573,49.16283808],[-122.69522804,49.16283606],[-122.69426799,49.1628325],[-122.69324271,49.16282859],[-122.69323941,49.16282858],[-122.69197735,49.16282395],[-122.69058906,49.16281897],[-122.68901398,49.16282716],[-122.68831617,49.16283099],[-122.68758775,49.16283499],[-122.68679193,49.16283926],[-122.68624126,49.16284208],[-122.68588647,49.16284389],[-122.68314352,49.16285849],[-122.68282267,49.16286024],[-122.68177195,49.16286597],[-122.68114065,49.16286917],[-122.67911381,49.16287985],[-122.67911185,49.16298347],[-122.67914018,49.16404023],[-122.67916771,49.16507314],[-122.67920114,49.16633677],[-122.67921062,49.16669246],[-122.67921723,49.16693315],[-122.67922184,49.16711545],[-122.6792253,49.16724256],[-122.67923363,49.16753559],[-122.67925537,49.16830787],[-122.67927537,49.16902318],[-122.67930455,49.1700536],[-122.67930479,49.17005787],[-122.67930673,49.17013513],[-122.67930978,49.17023768],[-122.67935357,49.17188228],[-122.67935721,49.17200726],[-122.6793993,49.17357531],[-122.67940524,49.17379571],[-122.67940591,49.17382455],[-122.6794439,49.17517577],[-122.67944878,49.17534738],[-122.67948861,49.17688873],[-122.67948864,49.17689336],[-122.67949018,49.17698166],[-122.67949009,49.17698558],[-122.67948897,49.17709346],[-122.67948757,49.1784162],[-122.67948693,49.17885806],[-122.67963844,49.18055073],[-122.67961102,49.18090465],[-122.67954577,49.18173923],[-122.67953836,49.18183359],[-122.6795347,49.18188023],[-122.67950484,49.18204439],[-122.67948923,49.18213018],[-122.67948893,49.18222169],[-122.6794887,49.18231212],[-122.67948851,49.18345968],[-122.67948789,49.1846756],[-122.67948762,49.18528587],[-122.67947587,49.18710566],[-122.6792539,49.18721212],[-122.67905132,49.1873321],[-122.67886926,49.1874674],[-122.67869546,49.18760911],[-122.6785212,49.18774975],[-122.67833664,49.18788185],[-122.67813095,49.18799685],[-122.67789594,49.18808729],[-122.67764482,49.1881642],[-122.67739336,49.18824075],[-122.67714928,49.18832335],[-122.67690385,49.18840453],[-122.67665943,49.18848678],[-122.67641907,49.1885733],[-122.67618256,49.18866445],[-122.67594488,49.18875667],[-122.67571045,49.18885174],[-122.67548251,49.1889525],[-122.67526495,49.18906074],[-122.6750631,49.18918037],[-122.67487568,49.18931176],[-122.67469829,49.18945026],[-122.67452402,49.1895909],[-122.67434969,49.18972976],[-122.67418146,49.18987218],[-122.67401622,49.19001603],[-122.67384711,49.19015809],[-122.67366844,49.1902941],[-122.67348386,49.19042905],[-122.67329018,49.19055901],[-122.67308168,49.19067508],[-122.67285275,49.19077193],[-122.67261034,49.19085631],[-122.67235955,49.19093357],[-122.67210638,49.19100834],[-122.67185545,49.1910849],[-122.67161203,49.19116821],[-122.67138094,49.19126221],[-122.67116663,49.19137045],[-122.67096369,49.19149008],[-122.67077083,49.19161862],[-122.67058603,49.19175392],[-122.67040801,49.19189349],[-122.67023474,49.1920352],[-122.67006495,49.19217655],[-122.66989848,49.19231969],[-122.66973602,49.19246531],[-122.66957898,49.19261378],[-122.6694288,49.19276546],[-122.66928765,49.19292035],[-122.66915684,49.19307808],[-122.66903581,49.19323866],[-122.6689226,49.19340173],[-122.66881414,49.19356694],[-122.66871085,49.19373357],[-122.66861021,49.19390127],[-122.66851154,49.19406933],[-122.66841321,49.19423774],[-122.66831434,49.19440615],[-122.66821315,49.19457385],[-122.66810932,49.19474049],[-122.66800086,49.19490569],[-122.66788493,49.19506877],[-122.66776316,49.1952297],[-122.66763656,49.19538957],[-122.66750852,49.19554908],[-122.66731852,49.19578906],[-122.66777463,49.19584995],[-122.66804444,49.19588448],[-122.66831392,49.19591866],[-122.66858415,49.19595249],[-122.66885396,49.19598702],[-122.66912336,49.19602227],[-122.66939215,49.19605859],[-122.66941678,49.19606215],[-122.66966044,49.19609669],[-122.66992749,49.19613692],[-122.67019365,49.19617965],[-122.67045869,49.19622522],[-122.67072172,49.19627614],[-122.67098262,49.19633168],[-122.67124178,49.19639114],[-122.67150046,49.19645239],[-122.67175851,49.1965147],[-122.67201678,49.19657665],[-122.67227574,49.19663646],[-122.67253656,49.19669308],[-122.67279877,49.19674542],[-122.67306362,49.19679135],[-122.67333081,49.19683229],[-122.67359986,49.19687004],[-122.67386899,49.19690671],[-122.67413771,49.19694409],[-122.67440532,49.19698433],[-122.67467078,49.19702919],[-122.67493569,49.1970769],[-122.67519935,49.19712675],[-122.67546294,49.19717766],[-122.67572571,49.19723],[-122.67598793,49.19728234],[-122.67625049,49.19733504],[-122.67650814,49.19739806],[-122.67676512,49.19746037],[-122.67702265,49.19752268],[-122.67728051,49.19758534],[-122.67753804,49.19764765],[-122.67779503,49.19770996],[-122.67805256,49.19777227],[-122.67831009,49.19783458],[-122.67856762,49.19789689],[-122.6788257,49.1979592],[-122.67908343,49.19802115],[-122.67934063,49.1980831],[-122.67959837,49.19814506],[-122.67985666,49.19820701],[-122.68011406,49.19826861],[-122.68037201,49.19833021],[-122.68063071,49.19839145],[-122.68088929,49.19845198],[-122.68114773,49.19851179],[-122.68140692,49.19857125],[-122.68166611,49.19863071],[-122.68192551,49.19868982],[-122.68218471,49.19874928],[-122.68244336,49.19880874],[-122.68270255,49.1988682],[-122.68296134,49.19892837],[-122.68321971,49.19898926],[-122.68347767,49.19905086],[-122.68373542,49.19911281],[-122.68399235,49.19917619],[-122.68424866,49.19924063],[-122.68450435,49.19930614],[-122.68475963,49.19937237],[-122.68501449,49.19943931],[-122.68526895,49.19950696],[-122.68552278,49.19957568],[-122.68577587,49.19964475],[-122.68602908,49.19971454],[-122.68628189,49.19978504],[-122.68653373,49.19985625],[-122.68678538,49.19992781],[-122.68703715,49.20000009],[-122.68727376,49.20006845],[-122.68752437,49.2001418],[-122.68777478,49.2002155],[-122.68802477,49.20028992],[-122.68827298,49.20036647],[-122.68852037,49.20044444],[-122.68876638,49.20052384],[-122.68901233,49.20060431],[-122.68925731,49.20068549],[-122.68950284,49.20076667],[-122.68974804,49.2008475],[-122.68999344,49.20092796],[-122.69024,49.20100736],[-122.6904874,49.20108534],[-122.69073603,49.20116118],[-122.69098679,49.20123524],[-122.69123824,49.20130716],[-122.69149086,49.20137801],[-122.69174443,49.20144816],[-122.69199747,49.2015183],[-122.69225029,49.2015888],[-122.6925025,49.20166036],[-122.69275313,49.20173371],[-122.69300198,49.20180919],[-122.69324864,49.20188752],[-122.69349289,49.20196906],[-122.69373474,49.2020538],[-122.69397384,49.20214139],[-122.69421171,49.20223111],[-122.69444801,49.20232262],[-122.69468348,49.20241555],[-122.69491778,49.20250955],[-122.69515188,49.2026039],[-122.69538578,49.20269861],[-122.69561988,49.20279297],[-122.69585515,49.20288625],[-122.6960905,49.20297847],[-122.69649053,49.20313157],[-122.69672759,49.20322272],[-122.6969641,49.20331387],[-122.69720062,49.20340502],[-122.69743768,49.20349617],[-122.6976744,49.20358696],[-122.69791113,49.20367776],[-122.6981486,49.20376819],[-122.69838608,49.20385863],[-122.69862418,49.203948],[-122.69886283,49.20403737],[-122.69910189,49.20412603],[-122.69934115,49.20421433],[-122.69958008,49.20430227],[-122.69981956,49.20439022],[-122.70005958,49.20447816],[-122.70029947,49.20456539],[-122.70054011,49.20465227],[-122.70078042,49.20473879],[-122.70102147,49.20482496],[-122.70126328,49.20491076],[-122.70150496,49.20499586],[-122.7017476,49.20508025],[-122.70199045,49.20516427],[-122.70223391,49.20524723],[-122.70247759,49.20532984],[-122.70272242,49.20541138],[-122.70296747,49.20549255],[-122.70321293,49.20557302],[-122.70345914,49.20565313],[-122.70370481,49.20573325],[-122.70395089,49.20581265],[-122.70419731,49.2058924],[-122.7044434,49.2059718],[-122.70468982,49.20605156],[-122.7049357,49.20613131],[-122.70518192,49.20621142],[-122.70542739,49.20629189],[-122.70567245,49.20637307],[-122.70591435,49.20645781],[-122.70615029,49.20655003],[-122.7064016,49.20662231],[-122.70665484,49.20669031],[-122.70689352,49.20677968],[-122.70712967,49.20687155],[-122.70736445,49.20696483],[-122.70759827,49.20705883],[-122.70783264,49.20715283],[-122.70806763,49.20724576],[-122.7083042,49.20733691],[-122.7085433,49.20742556],[-122.70878282,49.20751351],[-122.70902275,49.20760074],[-122.70926323,49.20768797],[-122.70950411,49.20777449],[-122.70974563,49.20785995],[-122.70998776,49.20794433],[-122.7102316,49.20802765],[-122.71047572,49.20810954],[-122.71072196,49.20818965],[-122.71096924,49.20826798],[-122.71121775,49.20834418],[-122.7114673,49.20841859],[-122.71171822,49.20849158],[-122.7119703,49.20856351],[-122.71222246,49.20863436],[-122.71247558,49.2087045],[-122.71272857,49.20877393],[-122.7129821,49.20884336],[-122.71323563,49.20891279],[-122.71348862,49.20898222],[-122.71374236,49.2090513],[-122.71399617,49.2091193],[-122.7142517,49.20918624],[-122.71450758,49.20925069],[-122.71476545,49.20931264],[-122.71502517,49.20937139],[-122.71528559,49.209428],[-122.71554718,49.20948355],[-122.71580904,49.20953767],[-122.71607119,49.20959036],[-122.7163345,49.20964199],[-122.71659809,49.20969219],[-122.7168625,49.20974097],[-122.7171272,49.20978833],[-122.71739252,49.20983461],[-122.71765976,49.20987663],[-122.71792847,49.2099133],[-122.71819876,49.20994535],[-122.71846955,49.20997561],[-122.7187402,49.21000516],[-122.71901119,49.21003507],[-122.71928233,49.21006284],[-122.71955375,49.21008919],[-122.71982571,49.21011554],[-122.72009713,49.21014189],[-122.72036827,49.21016966],[-122.72063954,49.21019814],[-122.72091102,49.21022627],[-122.72118216,49.21025404],[-122.72145309,49.21028217],[-122.72172437,49.21031065],[-122.72199564,49.21033914],[-122.72226671,49.21036798],[-122.72253736,49.21039753],[-122.72280836,49.21042744],[-122.72307915,49.2104577],[-122.72334932,49.21048904],[-122.72361962,49.21052108],[-122.72388952,49.21055384],[-122.72415941,49.2105866],[-122.72442943,49.21062006],[-122.72469925,49.21065389],[-122.72496853,49.21068771],[-122.72523814,49.2107219],[-122.7255081,49.21075643],[-122.72577771,49.21079061],[-122.72604678,49.21082479],[-122.7263164,49.21085898],[-122.72658602,49.21089316],[-122.72685605,49.21092663],[-122.72712553,49.21096009],[-122.72739577,49.21099321],[-122.72766566,49.21102596],[-122.72793597,49.21105801],[-122.72820649,49.2110897],[-122.72847667,49.21112103],[-122.72874706,49.21115201],[-122.72901806,49.21118191],[-122.72928872,49.21121147],[-122.72956001,49.21123995],[-122.73112334,49.21156538],[-122.73979944,49.21347774],[-122.75093839,49.21526299],[-122.75641338,49.21478089],[-122.77028466,49.21355821],[-122.77132083,49.2134667],[-122.77885702,49.21423115],[-122.78867617,49.21582982],[-122.79554018,49.21694676],[-122.79999996,49.21884381],[-122.8036842,49.22041079],[-122.80522249,49.22039014]]]},"geometry_name":"SHAPE","properties":{"id":326,"slug":"surrey-guildford","name":"Surrey-Guildford","abbreviation":"SRG","gazetteDate":"2023-12-07Z","boundarySet":11},"bbox":[-122.83251608,49.16260285,-122.66731852,49.22041079]}
