{"type":"Feature","id":335,"geometry":{"type":"Polygon","coordinates":[[[-123.0897904,49.25669235],[-123.08979128,49.25668718],[-123.08979834,49.25664566],[-123.08983458,49.25640377],[-123.08991412,49.25553286],[-123.08995271,49.25463241],[-123.08996117,49.25372554],[-123.089992,49.25279482],[-123.09005926,49.25189686],[-123.09007818,49.25100815],[-123.09011802,49.25009238],[-123.09014006,49.24918587],[-123.09015533,49.24866212],[-123.09079705,49.24866307],[-123.09146057,49.24866407],[-123.09213966,49.24866497],[-123.09305341,49.24867518],[-123.09376562,49.24868313],[-123.09406106,49.24868633],[-123.09466023,49.24869276],[-123.09545541,49.24870129],[-123.09677149,49.24871767],[-123.09680402,49.24738639],[-123.09685711,49.24601979],[-123.09687184,49.24564066],[-123.09687348,49.24548392],[-123.09688084,49.24477617],[-123.09688633,49.24452786],[-123.09689005,49.24435958],[-123.09690496,49.24391772],[-123.09691773,49.24352072],[-123.09691401,49.2431077],[-123.09691073,49.24271783],[-123.09687458,49.24264472],[-123.09684947,49.24259392],[-123.09684944,49.24219835],[-123.09686033,49.24178461],[-123.09686577,49.24158169],[-123.09687624,49.24119107],[-123.09689623,49.24042414],[-123.09691319,49.2400218],[-123.09693047,49.23961998],[-123.09693073,49.23960985],[-123.09696327,49.23884967],[-123.09697774,49.23852816],[-123.09699935,49.2380527],[-123.09699944,49.23805069],[-123.0970217,49.23753649],[-123.09703734,49.23717516],[-123.09704555,49.23698788],[-123.09705007,49.23688466],[-123.09705805,49.23670232],[-123.09707774,49.23624658],[-123.09707975,49.23620067],[-123.0970967,49.23581219],[-123.09711779,49.23534256],[-123.09713629,49.2349128],[-123.0971557,49.23444709],[-123.09716556,49.23399526],[-123.09717574,49.23353524],[-123.09719186,49.23324463],[-123.09720602,49.23298941],[-123.09832094,49.23300401],[-123.09860361,49.23300935],[-123.09889133,49.23301575],[-123.09919151,49.23301953],[-123.09954988,49.2330258],[-123.09959746,49.23302717],[-123.0997712,49.2330322],[-123.10000177,49.23303498],[-123.10079574,49.23304941],[-123.10151798,49.23306204],[-123.10371287,49.23311489],[-123.10440209,49.23313147],[-123.10561117,49.23315497],[-123.10562376,49.23262374],[-123.10564017,49.23220716],[-123.10564027,49.23219648],[-123.10565384,49.23170655],[-123.10566216,49.2312857],[-123.10566356,49.23128356],[-123.10567533,49.23098021],[-123.10570275,49.23036673],[-123.10572065,49.22993804],[-123.1057412,49.22944455],[-123.10579453,49.22901017],[-123.10581541,49.22883902],[-123.10584966,49.22855834],[-123.1058387,49.22811434],[-123.10582721,49.22766749],[-123.10582849,49.22763769],[-123.10586516,49.22678422],[-123.10586683,49.22674532],[-123.10589902,49.22574552],[-123.10534111,49.22573057],[-123.1044354,49.225706],[-123.1038049,49.22568927],[-123.10310314,49.22567609],[-123.10230678,49.2256615],[-123.10164004,49.22564903],[-123.10128954,49.22564512],[-123.10091873,49.22564049],[-123.10021793,49.2256323],[-123.09954692,49.22562447],[-123.09889886,49.22561272],[-123.0982125,49.22560025],[-123.09751489,49.22558744],[-123.09417496,49.22552655],[-123.09408057,49.22552477],[-123.09198582,49.2254792],[-123.09141599,49.22546317],[-123.09071121,49.22544288],[-123.09002726,49.22543861],[-123.08940254,49.22543469],[-123.08862651,49.2254265],[-123.08801976,49.22541974],[-123.08728034,49.22541333],[-123.08662467,49.22540727],[-123.0859061,49.22540158],[-123.08524838,49.22539624],[-123.08456048,49.22539125],[-123.08386515,49.22538591],[-123.08282246,49.22537594],[-123.08143892,49.2253528],[-123.08005,49.22533144],[-123.07868302,49.22530509],[-123.07732449,49.22528016],[-123.07592431,49.22527375],[-123.07454252,49.22526663],[-123.07316107,49.22525702],[-123.07176189,49.22521928],[-123.06993725,49.22520005],[-123.06905233,49.22519257],[-123.06842107,49.22518866],[-123.06709162,49.22517869],[-123.06576339,49.22516943],[-123.06504502,49.22515768],[-123.06301189,49.22512457],[-123.06236541,49.22511389],[-123.06167926,49.22509822],[-123.05979924,49.22505478],[-123.05915794,49.22503983],[-123.059143,49.22578184],[-123.0591343,49.22623937],[-123.05909107,49.22707858],[-123.05908037,49.22757207],[-123.0590634,49.22849033],[-123.0590711,49.22897456],[-123.05907801,49.22940681],[-123.05882763,49.23116535],[-123.05882314,49.23119419],[-123.05886755,49.2328331],[-123.05786547,49.23283097],[-123.05715661,49.23282527],[-123.05659382,49.23282064],[-123.05603007,49.23281672],[-123.0554805,49.23281281],[-123.05458774,49.23280355],[-123.05165679,49.23277329],[-123.05086566,49.23276652],[-123.05017499,49.23276047],[-123.04936766,49.23276011],[-123.04878408,49.2327594],[-123.04794986,49.23277364],[-123.04725953,49.23285375],[-123.046643,49.23292496],[-123.04661492,49.23292639],[-123.04593382,49.23295986],[-123.04548544,49.2329449],[-123.04309049,49.23294989],[-123.04309263,49.23298905],[-123.04309192,49.23343447],[-123.04309181,49.23352161],[-123.04309016,49.23481596],[-123.04304026,49.23510721],[-123.04303724,49.23511152],[-123.04303428,49.23511575],[-123.0429657,49.23522176],[-123.0428742,49.23536321],[-123.04233474,49.2359393],[-123.04373166,49.23606662],[-123.04431147,49.23611947],[-123.04443434,49.23613639],[-123.04484646,49.23619281],[-123.04504555,49.23622029],[-123.04529526,49.23625476],[-123.04549157,49.23631003],[-123.04557096,49.23633238],[-123.0457164,49.23637239],[-123.04589843,49.23642247],[-123.04632019,49.2365711],[-123.04669356,49.23670268],[-123.04762911,49.23706443],[-123.04880928,49.23756682],[-123.04894775,49.23763148],[-123.05031616,49.23827038],[-123.05156411,49.23885466],[-123.05164322,49.23889145],[-123.05201086,49.23905464],[-123.05258201,49.23933106],[-123.05406697,49.24000934],[-123.05453591,49.24023935],[-123.0574626,49.24156885],[-123.05812356,49.24187042],[-123.05916123,49.24235359],[-123.06059765,49.24300928],[-123.06181017,49.24356274],[-123.06376526,49.24450129],[-123.06386026,49.24454459],[-123.06517378,49.24514326],[-123.06653101,49.24578629],[-123.06716518,49.24607967],[-123.06733046,49.24615614],[-123.06783472,49.24638944],[-123.06854673,49.24673659],[-123.06879379,49.24685694],[-123.06898247,49.24694414],[-123.06902336,49.24696304],[-123.06994532,49.24739244],[-123.07073056,49.24775719],[-123.07129285,49.24801838],[-123.07162401,49.24817252],[-123.07163637,49.24817827],[-123.07202796,49.24836054],[-123.07222523,49.24845255],[-123.07230965,49.24849193],[-123.07335212,49.24894447],[-123.07335216,49.24894449],[-123.07515243,49.24972522],[-123.07524778,49.24976657],[-123.07594162,49.25006746],[-123.07603292,49.25010912],[-123.07612314,49.25015078],[-123.07679974,49.25048624],[-123.07735708,49.25079043],[-123.07736261,49.25079345],[-123.07736824,49.2507965],[-123.07790048,49.251085],[-123.0780106,49.25113899],[-123.07989503,49.25206278],[-123.08179792,49.25294828],[-123.08321068,49.25361267],[-123.08371786,49.25384518],[-123.08496664,49.25443152],[-123.08520945,49.25454553],[-123.08563655,49.25474634],[-123.08741757,49.25558876],[-123.08742612,49.25559292],[-123.08899558,49.25635575],[-123.08940263,49.25652942],[-123.0897904,49.25669235]]]},"geometry_name":"SHAPE","properties":{"id":335,"slug":"vancouver-kensington","name":"Vancouver-Kensington","abbreviation":"VKE","gazetteDate":"2023-12-07Z","boundarySet":11},"bbox":[-123.10589902,49.22503983,-123.04233474,49.25669235]}
