{"type":"Feature","id":342,"geometry":{"type":"Polygon","coordinates":[[[-123.1028248,49.29243539],[-123.10285063,49.29089378],[-123.10289398,49.28830605],[-123.10092116,49.28780418],[-123.09968347,49.2874893],[-123.09915015,49.28735361],[-123.09920033,49.28675937],[-123.09930191,49.28570118],[-123.09928832,49.28557264],[-123.0991773,49.28543022],[-123.09892477,49.2852497],[-123.09882465,49.28509197],[-123.09881951,49.28493424],[-123.09917601,49.28485555],[-123.09915887,49.28480301],[-123.09914639,49.28476476],[-123.09915839,49.28469681],[-123.09916626,49.28465225],[-123.09917578,49.28460017],[-123.09917992,49.28457748],[-123.09932301,49.28439909],[-123.09944372,49.28424849],[-123.09946658,49.28417933],[-123.09949127,49.28410464],[-123.09972888,49.28409953],[-123.10025276,49.28408826],[-123.10031594,49.28408681],[-123.10039272,49.28408505],[-123.10045462,49.28408363],[-123.10216179,49.28379167],[-123.1028567,49.28365664],[-123.10378702,49.28347585],[-123.10391157,49.28341376],[-123.10398655,49.28337631],[-123.10400272,49.28336832],[-123.10401371,49.28337357],[-123.10422291,49.28347336],[-123.10422301,49.28347094],[-123.10422951,49.28331705],[-123.10423121,49.28328304],[-123.10424527,49.28296064],[-123.1042485,49.28288386],[-123.10426761,49.28242977],[-123.10428202,49.28219591],[-123.1042933,49.28201283],[-123.10429896,49.2819224],[-123.1043268,49.28147484],[-123.10474605,49.28155175],[-123.10524529,49.28164356],[-123.10719402,49.28200179],[-123.10736585,49.28158895],[-123.10758355,49.28106573],[-123.10621269,49.28082006],[-123.10559495,49.28070968],[-123.10584898,49.28009691],[-123.10611298,49.27945709],[-123.10503932,49.27930683],[-123.10499672,49.27930114],[-123.10491028,49.27928903],[-123.10446494,49.27922672],[-123.10254453,49.27921106],[-123.10215517,49.27928618],[-123.10211913,49.27904478],[-123.10211837,49.27858049],[-123.10211765,49.27773486],[-123.10211753,49.27764407],[-123.10046019,49.27768502],[-123.10037765,49.27768715],[-123.0999016,49.2776989],[-123.09980073,49.27769107],[-123.0998128,49.2775693],[-123.09983086,49.2772809],[-123.09984005,49.27708756],[-123.09985238,49.27676035],[-123.09988563,49.27603151],[-123.09992314,49.27493415],[-123.09993961,49.27456813],[-123.10000956,49.27303249],[-123.10001694,49.27287048],[-123.10002058,49.27282019],[-123.1000248,49.27276188],[-123.10006679,49.27208396],[-123.10006968,49.27201951],[-123.10010058,49.2719337],[-123.10028639,49.27152339],[-123.10056841,49.27090064],[-123.10065589,49.27070746],[-123.10066186,49.27050867],[-123.10066606,49.27036885],[-123.10066307,49.2703425],[-123.10066735,49.27012531],[-123.10070113,49.26912872],[-123.10070368,49.26909169],[-123.10070809,49.26902938],[-123.10073669,49.26822862],[-123.10074538,49.26804775],[-123.1007572,49.26731285],[-123.10077033,49.26695258],[-123.10078283,49.2666093],[-123.10079446,49.26643055],[-123.10085469,49.26550589],[-123.10091599,49.26456662],[-123.10092136,49.2645036],[-123.10083683,49.26440656],[-123.10074731,49.26430378],[-123.10026663,49.26372334],[-123.10021298,49.26366268],[-123.09951199,49.26287003],[-123.09932616,49.26266103],[-123.09899218,49.26231191],[-123.09866879,49.26197385],[-123.09839281,49.26169731],[-123.09825873,49.26156297],[-123.09776328,49.26107126],[-123.09746666,49.26077483],[-123.0966878,49.25999671],[-123.0965718,49.25987813],[-123.09627295,49.25962313],[-123.09569775,49.25924685],[-123.0951811,49.25894009],[-123.09499185,49.25883412],[-123.09365422,49.25808506],[-123.09363676,49.25807528],[-123.0930909,49.2577696],[-123.09306703,49.25776027],[-123.09268146,49.25757886],[-123.09216839,49.25745102],[-123.09181658,49.25739923],[-123.09109389,49.25723971],[-123.0897904,49.25669235],[-123.08940263,49.25652942],[-123.08899558,49.25635575],[-123.08742612,49.25559292],[-123.08741757,49.25558876],[-123.08563655,49.25474634],[-123.08520945,49.25454553],[-123.08496664,49.25443152],[-123.08371786,49.25384518],[-123.08321068,49.25361267],[-123.08179792,49.25294828],[-123.07989503,49.25206278],[-123.0780106,49.25113899],[-123.07790048,49.251085],[-123.07736824,49.2507965],[-123.07736261,49.25079345],[-123.07735708,49.25079043],[-123.07679974,49.25048624],[-123.07612314,49.25015078],[-123.07603292,49.25010912],[-123.07594162,49.25006746],[-123.07524778,49.24976657],[-123.07515243,49.24972522],[-123.07335216,49.24894449],[-123.07335212,49.24894447],[-123.07230965,49.24849193],[-123.07222523,49.24845255],[-123.07202796,49.24836054],[-123.07163637,49.24817827],[-123.07162401,49.24817252],[-123.07129285,49.24801838],[-123.07073056,49.24775719],[-123.06994532,49.24739244],[-123.06902336,49.24696304],[-123.06898247,49.24694414],[-123.06879379,49.24685694],[-123.06854673,49.24673659],[-123.06783472,49.24638944],[-123.06733046,49.24615614],[-123.06716518,49.24607967],[-123.06653101,49.24578629],[-123.06517378,49.24514326],[-123.06514839,49.24580729],[-123.06512251,49.24675867],[-123.06510582,49.24737606],[-123.06509913,49.24762743],[-123.06508838,49.24801482],[-123.06507497,49.24850332],[-123.06505237,49.24938704],[-123.06503094,49.25026685],[-123.0650106,49.25091273],[-123.06504195,49.25141654],[-123.06521831,49.25186802],[-123.06568706,49.25244268],[-123.06627278,49.25295967],[-123.06699214,49.25348627],[-123.06751776,49.25388505],[-123.06799751,49.25424858],[-123.06885827,49.25492223],[-123.06907691,49.25513836],[-123.06962704,49.25600072],[-123.0698208,49.2563646],[-123.06982952,49.25639807],[-123.06987881,49.25660031],[-123.06987698,49.25684527],[-123.06986793,49.25775463],[-123.06986387,49.25820326],[-123.06985947,49.25868784],[-123.06984683,49.2595883],[-123.06983742,49.26002055],[-123.06982813,49.26044781],[-123.06982161,49.26091993],[-123.06981512,49.26139776],[-123.06980208,49.26199415],[-123.06979484,49.26232705],[-123.06978632,49.26281805],[-123.06978435,49.26292665],[-123.06978228,49.26302492],[-123.06977839,49.2632325],[-123.06977774,49.26326326],[-123.06977069,49.26360065],[-123.06976844,49.26372314],[-123.06975792,49.26416891],[-123.06974052,49.26507898],[-123.06972309,49.26578646],[-123.06971879,49.26598905],[-123.06971111,49.26643661],[-123.06969985,49.2668742],[-123.06969295,49.26708997],[-123.06967896,49.26779246],[-123.06967395,49.2687011],[-123.06967563,49.26958661],[-123.06964935,49.27049917],[-123.06962601,49.27137221],[-123.06960797,49.27213843],[-123.06958233,49.27303853],[-123.06955883,49.27395216],[-123.06954565,49.27486401],[-123.06953279,49.27576198],[-123.06947068,49.27665638],[-123.06945988,49.27691452],[-123.06952248,49.27707652],[-123.06954434,49.27710038],[-123.06967932,49.27724743],[-123.07007078,49.2775725],[-123.07028188,49.27777652],[-123.07042025,49.27801045],[-123.07047201,49.27809768],[-123.07047101,49.27848222],[-123.07046092,49.27893725],[-123.07045139,49.27937983],[-123.07043959,49.27984554],[-123.07042883,49.28028455],[-123.0704148,49.28073603],[-123.07039934,49.28124839],[-123.07038786,49.28176146],[-123.07037863,49.28218445],[-123.07036329,49.28264304],[-123.07034794,49.28308348],[-123.07034839,49.28339859],[-123.07034853,49.28386359],[-123.06824986,49.28422534],[-123.06550937,49.28483383],[-123.06551262,49.28509233],[-123.06551405,49.28520947],[-123.0655173,49.28542488],[-123.06551778,49.28548434],[-123.06550493,49.28638373],[-123.06550526,49.28639384],[-123.06536388,49.28789767],[-123.06530666,49.28901959],[-123.06491306,49.29652873],[-123.06484998,49.29738468],[-123.06615887,49.29747156],[-123.07715629,49.2981992],[-123.07886022,49.29831184],[-123.08099281,49.29845284],[-123.08234709,49.29854256],[-123.08570059,49.29876403],[-123.08715082,49.2988598],[-123.08722551,49.29886479],[-123.08926769,49.29899973],[-123.09212776,49.29918844],[-123.09487362,49.29936967],[-123.09512467,49.29938545],[-123.09832788,49.29959755],[-123.0993738,49.29999988],[-123.10067361,49.30050014],[-123.10245616,49.30118612],[-123.10267671,49.30127099],[-123.1028248,49.29243539]]]},"geometry_name":"SHAPE","properties":{"id":342,"slug":"vancouver-strathcona","name":"Vancouver-Strathcona","abbreviation":"VNT","gazetteDate":"2023-12-07Z","boundarySet":11},"bbox":[-123.10758355,49.24514326,-123.06484998,49.30127099]}
