{"type":"Feature","id":344,"geometry":{"type":"Polygon","coordinates":[[[-123.10285063,49.29089378],[-123.10562175,49.2899212],[-123.11275012,49.28741883],[-123.11284535,49.28738353],[-123.11298277,49.28736955],[-123.11302005,49.28736576],[-123.11308348,49.28735931],[-123.11317003,49.28744797],[-123.11550591,49.28809567],[-123.11570826,49.28796888],[-123.11610069,49.28772249],[-123.11619397,49.28766409],[-123.11642056,49.28751918],[-123.11695993,49.28717381],[-123.11788884,49.28655642],[-123.11830939,49.28628938],[-123.11939161,49.28560113],[-123.12001716,49.28515321],[-123.12045558,49.28485093],[-123.12109679,49.28440906],[-123.12166574,49.28401456],[-123.12204036,49.28377351],[-123.1222135,49.28366207],[-123.12224418,49.28364231],[-123.12280381,49.2832818],[-123.12335963,49.28291899],[-123.12344327,49.28286441],[-123.12442245,49.28222539],[-123.12496867,49.28188038],[-123.12543091,49.28158415],[-123.12603794,49.28119462],[-123.12652458,49.28086029],[-123.1270787,49.28047931],[-123.12762473,49.28011543],[-123.12864787,49.27943394],[-123.12918288,49.27907789],[-123.12970348,49.27873959],[-123.13002748,49.27852886],[-123.130288,49.27835974],[-123.13078649,49.27803715],[-123.13134803,49.27766899],[-123.13181655,49.2773609],[-123.13222873,49.27709005],[-123.13243606,49.2769722],[-123.13262635,49.27688141],[-123.13302439,49.27674682],[-123.13322608,49.27667892],[-123.13418352,49.27635658],[-123.13561532,49.27589728],[-123.13614744,49.27572615],[-123.13680699,49.27551337],[-123.13706425,49.27543229],[-123.13715113,49.27540415],[-123.13711067,49.27537615],[-123.13507849,49.27396147],[-123.13314836,49.27262291],[-123.13310499,49.27259277],[-123.13309586,49.27258643],[-123.13305322,49.27255679],[-123.13113427,49.2712445],[-123.13032456,49.27069073],[-123.12991516,49.27041074],[-123.12918187,49.27011406],[-123.12873046,49.27002489],[-123.12868149,49.27001522],[-123.12765034,49.26981153],[-123.1259255,49.26959623],[-123.12577075,49.26957043],[-123.12519442,49.26962374],[-123.12301045,49.26987278],[-123.12282355,49.26993453],[-123.11985357,49.27054307],[-123.11942497,49.27065506],[-123.11674769,49.27135457],[-123.11581735,49.27160608],[-123.11494795,49.27184987],[-123.11483434,49.27188087],[-123.11473999,49.27190876],[-123.11203719,49.27264935],[-123.11113333,49.27289699],[-123.10957953,49.27327137],[-123.10880038,49.27348482],[-123.10794808,49.27352606],[-123.10792482,49.27352719],[-123.10648858,49.27354899],[-123.10540541,49.27351392],[-123.10544284,49.27291414],[-123.10545154,49.27277476],[-123.104628,49.27275268],[-123.1030989,49.27271165],[-123.10308286,49.27296844],[-123.10183606,49.27299504],[-123.10173218,49.27299725],[-123.1016294,49.27299622],[-123.10117492,49.27299166],[-123.10107123,49.27297851],[-123.10096359,49.27296414],[-123.10043931,49.27289218],[-123.10010127,49.27283406],[-123.10002058,49.27282019],[-123.10001694,49.27287048],[-123.10000956,49.27303249],[-123.09993961,49.27456813],[-123.09992314,49.27493415],[-123.09988563,49.27603151],[-123.09985238,49.27676035],[-123.09984005,49.27708756],[-123.09983086,49.2772809],[-123.0998128,49.2775693],[-123.09980073,49.27769107],[-123.0999016,49.2776989],[-123.10037765,49.27768715],[-123.10046019,49.27768502],[-123.10211753,49.27764407],[-123.10211765,49.27773486],[-123.10211837,49.27858049],[-123.10211913,49.27904478],[-123.10215517,49.27928618],[-123.10254453,49.27921106],[-123.10446494,49.27922672],[-123.10491028,49.27928903],[-123.10499672,49.27930114],[-123.10503932,49.27930683],[-123.10611298,49.27945709],[-123.10584898,49.28009691],[-123.10559495,49.28070968],[-123.10621269,49.28082006],[-123.10758355,49.28106573],[-123.10736585,49.28158895],[-123.10719402,49.28200179],[-123.10524529,49.28164356],[-123.10474605,49.28155175],[-123.1043268,49.28147484],[-123.10429896,49.2819224],[-123.1042933,49.28201283],[-123.10428202,49.28219591],[-123.10426761,49.28242977],[-123.1042485,49.28288386],[-123.10424527,49.28296064],[-123.10423121,49.28328304],[-123.10422951,49.28331705],[-123.10422301,49.28347094],[-123.10422291,49.28347336],[-123.10401371,49.28337357],[-123.10400272,49.28336832],[-123.10398655,49.28337631],[-123.10391157,49.28341376],[-123.10378702,49.28347585],[-123.1028567,49.28365664],[-123.10216179,49.28379167],[-123.10045462,49.28408363],[-123.10039272,49.28408505],[-123.10031594,49.28408681],[-123.10025276,49.28408826],[-123.09972888,49.28409953],[-123.09949127,49.28410464],[-123.09946658,49.28417933],[-123.09944372,49.28424849],[-123.09932301,49.28439909],[-123.09917992,49.28457748],[-123.09917578,49.28460017],[-123.09916626,49.28465225],[-123.09915839,49.28469681],[-123.09914639,49.28476476],[-123.09915887,49.28480301],[-123.09917601,49.28485555],[-123.09881951,49.28493424],[-123.09882465,49.28509197],[-123.09892477,49.2852497],[-123.0991773,49.28543022],[-123.09928832,49.28557264],[-123.09930191,49.28570118],[-123.09920033,49.28675937],[-123.09915015,49.28735361],[-123.09968347,49.2874893],[-123.10092116,49.28780418],[-123.10289398,49.28830605],[-123.10285063,49.29089378]]]},"geometry_name":"SHAPE","properties":{"id":344,"slug":"vancouver-yaletown","name":"Vancouver-Yaletown","abbreviation":"VNY","gazetteDate":"2023-12-07Z","boundarySet":11},"bbox":[-123.13715113,49.26957043,-123.09881951,49.29089378]}
