{"type":"Feature","id":343,"geometry":{"type":"Polygon","coordinates":[[[-123.16446777,49.31614259],[-123.16446419,49.31514208],[-123.16446047,49.31401197],[-123.16441398,49.29999988],[-123.16436231,49.28450947],[-123.1643539,49.28199823],[-123.16175483,49.2819904],[-123.15930566,49.28198292],[-123.15693434,49.2819758],[-123.15551439,49.28197153],[-123.15383722,49.28196655],[-123.15251169,49.28196227],[-123.14986535,49.28195408],[-123.14841558,49.28194945],[-123.14632999,49.2819313],[-123.14557242,49.28185546],[-123.14421153,49.28151222],[-123.14306447,49.28081899],[-123.14240276,49.28040098],[-123.14063939,49.27910175],[-123.1405647,49.27903445],[-123.13907115,49.27769677],[-123.1382364,49.27677067],[-123.13718702,49.2754292],[-123.13715113,49.27540415],[-123.13706425,49.27543229],[-123.13680699,49.27551337],[-123.13614744,49.27572615],[-123.13561532,49.27589728],[-123.13418352,49.27635658],[-123.13322608,49.27667892],[-123.13302439,49.27674682],[-123.13262635,49.27688141],[-123.13243606,49.2769722],[-123.13222873,49.27709005],[-123.13181655,49.2773609],[-123.13134803,49.27766899],[-123.13078649,49.27803715],[-123.130288,49.27835974],[-123.13002748,49.27852886],[-123.12970348,49.27873959],[-123.12918288,49.27907789],[-123.12864787,49.27943394],[-123.12762473,49.28011543],[-123.1270787,49.28047931],[-123.12652458,49.28086029],[-123.12603794,49.28119462],[-123.12543091,49.28158415],[-123.12496867,49.28188038],[-123.12442245,49.28222539],[-123.12344327,49.28286441],[-123.12335963,49.28291899],[-123.12280381,49.2832818],[-123.12224418,49.28364231],[-123.1222135,49.28366207],[-123.12204036,49.28377351],[-123.12166574,49.28401456],[-123.12109679,49.28440906],[-123.12045558,49.28485093],[-123.12001716,49.28515321],[-123.11939161,49.28560113],[-123.11830939,49.28628938],[-123.11788884,49.28655642],[-123.11695993,49.28717381],[-123.11642056,49.28751918],[-123.11619397,49.28766409],[-123.11610069,49.28772249],[-123.11570826,49.28796888],[-123.11550591,49.28809567],[-123.11317003,49.28744797],[-123.11308348,49.28735931],[-123.11302005,49.28736576],[-123.11298277,49.28736955],[-123.11284535,49.28738353],[-123.11275012,49.28741883],[-123.10562175,49.2899212],[-123.10285063,49.29089378],[-123.1028248,49.29243539],[-123.10267671,49.30127099],[-123.1046721,49.30203903],[-123.10479135,49.30208493],[-123.10571234,49.3024393],[-123.11074267,49.30437461],[-123.11803465,49.30717932],[-123.12777564,49.31092499],[-123.13491392,49.31366857],[-123.13602989,49.31409742],[-123.13872371,49.31513282],[-123.13878663,49.31515668],[-123.138821,49.31517021],[-123.13888048,49.3151905],[-123.1413345,49.31613582],[-123.14159421,49.31617285],[-123.15876448,49.31614948],[-123.16057702,49.31614686],[-123.16152356,49.31614583],[-123.16446777,49.31614259]]]},"geometry_name":"SHAPE","properties":{"id":343,"slug":"vancouver-west-end","name":"Vancouver-West End","abbreviation":"VNW","gazetteDate":"2023-12-07Z","boundarySet":11},"bbox":[-123.16446777,49.27540415,-123.10267671,49.31617285]}
