{"type":"Feature","id":336,"geometry":{"type":"Polygon","coordinates":[[[-123.13959244,49.23246637],[-123.13966303,49.23063163],[-123.13970192,49.2296913],[-123.13973631,49.22877517],[-123.13977408,49.22789715],[-123.13979103,49.2274649],[-123.13981085,49.22696643],[-123.13990238,49.22474573],[-123.13992931,49.22408098],[-123.13994758,49.22351557],[-123.13998951,49.22261333],[-123.14001516,49.22170433],[-123.14005938,49.22081349],[-123.14010476,49.21989772],[-123.14012986,49.21933195],[-123.14084144,49.21934976],[-123.14380655,49.21942488],[-123.14398351,49.21942404],[-123.14530588,49.21941776],[-123.14680346,49.21943663],[-123.14749967,49.21944411],[-123.14824999,49.2194523],[-123.14896927,49.21946618],[-123.14970326,49.21948007],[-123.1499506,49.21947936],[-123.1502465,49.21948008],[-123.1502789,49.21948007],[-123.15028708,49.21948007],[-123.15051017,49.21948078],[-123.1491163,49.21715042],[-123.14849694,49.21606304],[-123.14847766,49.21600892],[-123.14839413,49.21577214],[-123.14841711,49.2150782],[-123.14843617,49.21459183],[-123.14845373,49.21412433],[-123.1484785,49.21327443],[-123.14853602,49.21195633],[-123.14855749,49.21150023],[-123.14857903,49.21102205],[-123.14859507,49.21066528],[-123.14860156,49.21053639],[-123.14864105,49.20973349],[-123.14871221,49.20947215],[-123.14825953,49.20904667],[-123.14874274,49.20880918],[-123.14887305,49.20874509],[-123.14895865,49.20846132],[-123.14900957,49.20829184],[-123.14905604,49.20813589],[-123.14911396,49.20794362],[-123.14922692,49.20756798],[-123.14934123,49.20748894],[-123.14947874,49.20740171],[-123.14959532,49.20732729],[-123.15206208,49.20574617],[-123.15201009,49.20570832],[-123.15198886,49.20569436],[-123.15181633,49.20558086],[-123.15161428,49.20545837],[-123.15140618,49.20533981],[-123.15119556,49.20522374],[-123.15098319,49.2051098],[-123.15075233,49.2050101],[-123.15050466,49.2049332],[-123.15024321,49.20487089],[-123.14997456,49.20483172],[-123.14970494,49.20483243],[-123.1496775,49.20483564],[-123.1491604,49.20489759],[-123.1483412,49.20492073],[-123.14756059,49.20474734],[-123.14713498,49.20451911],[-123.14668282,49.20431545],[-123.14644486,49.20422536],[-123.14597186,49.204042],[-123.14550213,49.20385578],[-123.14526825,49.20376143],[-123.14480035,49.20357201],[-123.1443631,49.2033566],[-123.14396702,49.20310629],[-123.1437629,49.20298559],[-123.14331228,49.20278122],[-123.14261787,49.20249032],[-123.14216488,49.2022863],[-123.141732,49.20206519],[-123.14130973,49.20183412],[-123.14096893,49.20162832],[-123.1409086,49.20158987],[-123.14077875,49.20147796],[-123.14074169,49.20144602],[-123.14033479,49.20120426],[-123.1401856,49.20106184],[-123.14010095,49.20070329],[-123.14005355,49.2003387],[-123.13997826,49.20016993],[-123.13979955,49.20003819],[-123.13971995,49.20000009],[-123.13933402,49.19983809],[-123.13882115,49.19970564],[-123.13829455,49.19960487],[-123.137763,49.19951372],[-123.13723295,49.19941901],[-123.13670365,49.19932395],[-123.13594542,49.19917939],[-123.13588259,49.19916729],[-123.13581778,49.19915482],[-123.13564918,49.19912278],[-123.13512205,49.19902201],[-123.13432429,49.1988885],[-123.13405778,49.1988447],[-123.13352944,49.19874607],[-123.13326916,49.19868661],[-123.13300996,49.1986243],[-123.13274947,49.1985652],[-123.13248758,49.19851428],[-123.13195043,49.19845304],[-123.13167563,49.19844094],[-123.13112298,49.19844023],[-123.13057405,49.19845589],[-123.13029905,49.19847085],[-123.12949111,49.19856983],[-123.12922978,49.19862288],[-123.12871458,49.19874928],[-123.12820452,49.19888672],[-123.12795044,49.19895472],[-123.12744065,49.19909073],[-123.12693892,49.19923743],[-123.12645475,49.19940584],[-123.12597885,49.19958458],[-123.12560236,49.19972949],[-123.12552684,49.19975869],[-123.12550166,49.19976937],[-123.12527005,49.19985909],[-123.12503442,49.19995202],[-123.12456527,49.20013895],[-123.12409763,49.20032802],[-123.12363135,49.2005185],[-123.12316575,49.2007097],[-123.12293339,49.20080548],[-123.12246902,49.20099739],[-123.12180213,49.20131392],[-123.12158261,49.20142252],[-123.12157504,49.20198615],[-123.12158915,49.20232298],[-123.12119851,49.20245258],[-123.12077118,49.20259108],[-123.12003411,49.20283106],[-123.11954143,49.20298951],[-123.11905005,49.20315044],[-123.1184076,49.20334307],[-123.11805238,49.20345166],[-123.11747822,49.20363539],[-123.11706938,49.20376819],[-123.11658496,49.20393696],[-123.11597884,49.20412033],[-123.1152736,49.20429693],[-123.11456432,49.20447104],[-123.11403768,49.20457252],[-123.11316899,49.20469179],[-123.11259264,49.20472384],[-123.11198541,49.20469357],[-123.11110846,49.20462129],[-123.11016253,49.20453335],[-123.10912448,49.20443116],[-123.10814058,49.20435532],[-123.10756501,49.2043126],[-123.10693821,49.20427272],[-123.1063221,49.20422465],[-123.10553664,49.20418015],[-123.10487139,49.20414846],[-123.10417125,49.20408722],[-123.10354066,49.20405304],[-123.10303849,49.20402206],[-123.10258356,49.20401138],[-123.10211295,49.20401957],[-123.1015307,49.20405597],[-123.10130988,49.20406977],[-123.10075492,49.20410253],[-123.10016208,49.20413101],[-123.09953556,49.20417552],[-123.09862135,49.20427236],[-123.0972772,49.2043806],[-123.09605731,49.20446784],[-123.09418332,49.20460776],[-123.09283594,49.20477689],[-123.0913613,49.20506565],[-123.09129129,49.20507562],[-123.09094449,49.20513793],[-123.09032377,49.20529139],[-123.0897299,49.2054217],[-123.08912635,49.20557943],[-123.08841848,49.20576137],[-123.08778078,49.20591305],[-123.08684985,49.20614484],[-123.08603249,49.20632572],[-123.0847269,49.20660273],[-123.08326209,49.20687795],[-123.08160556,49.2071482],[-123.0808877,49.20726512],[-123.0808827,49.20734468],[-123.08084562,49.20793472],[-123.08080485,49.20880455],[-123.08079955,49.20891101],[-123.08079176,49.20906091],[-123.08078895,49.20911824],[-123.0807693,49.20952236],[-123.08073803,49.21012978],[-123.08069355,49.21105196],[-123.0806936,49.21110714],[-123.08209966,49.21111783],[-123.08323345,49.21111569],[-123.08323321,49.21113136],[-123.08323213,49.21116376],[-123.08319828,49.21195882],[-123.08319661,49.21200368],[-123.08318732,49.21221742],[-123.08317822,49.21242667],[-123.08317064,49.21260822],[-123.08315975,49.21286889],[-123.08315601,49.21314638],[-123.08315323,49.21335312],[-123.08315014,49.21361456],[-123.08314765,49.21382525],[-123.08314958,49.21402779],[-123.08315189,49.21427067],[-123.08315603,49.21467052],[-123.08313842,49.21511701],[-123.08312113,49.21555246],[-123.08311739,49.21578211],[-123.08311357,49.21600714],[-123.0831121,49.21609631],[-123.08310626,49.21645185],[-123.08310217,49.21677435],[-123.08310071,49.21688872],[-123.08309918,49.21701441],[-123.08309556,49.21731634],[-123.08308422,49.21760614],[-123.08307954,49.2177258],[-123.08306924,49.21798478],[-123.08306074,49.21819828],[-123.08159549,49.21816588],[-123.08085273,49.21815918],[-123.08005805,49.218152],[-123.08007645,49.21857178],[-123.08010771,49.21928567],[-123.0801654,49.21960718],[-123.08022953,49.21974675],[-123.08025715,49.22003124],[-123.08025584,49.22004975],[-123.08022865,49.22048449],[-123.08020434,49.22112703],[-123.08020195,49.22119019],[-123.08019147,49.22147098],[-123.08017785,49.22183607],[-123.08088827,49.22184639],[-123.08161375,49.22185708],[-123.08224757,49.22186598],[-123.08296181,49.2218763],[-123.08524061,49.22191048],[-123.08752105,49.22194466],[-123.08929136,49.22197101],[-123.09086976,49.22199451],[-123.09084078,49.22271694],[-123.09084231,49.22357111],[-123.0908299,49.22388739],[-123.09080516,49.22451786],[-123.09076383,49.2249248],[-123.09071121,49.22544288],[-123.09141599,49.22546317],[-123.09198582,49.2254792],[-123.09408057,49.22552477],[-123.09417496,49.22552655],[-123.09751489,49.22558744],[-123.0982125,49.22560025],[-123.09889886,49.22561272],[-123.09954692,49.22562447],[-123.10021793,49.2256323],[-123.10091873,49.22564049],[-123.10128954,49.22564512],[-123.10164004,49.22564903],[-123.10230678,49.2256615],[-123.10310314,49.22567609],[-123.1038049,49.22568927],[-123.1044354,49.225706],[-123.10534111,49.22573057],[-123.10589902,49.22574552],[-123.10655058,49.22576261],[-123.10839313,49.22581068],[-123.11073469,49.22590129],[-123.11073471,49.22590129],[-123.11171958,49.22592391],[-123.11295126,49.22595239],[-123.11458506,49.226009],[-123.11637929,49.22607202],[-123.11653885,49.22607808],[-123.11664947,49.22608199],[-123.11735694,49.22610621],[-123.11811901,49.2261322],[-123.11943879,49.22619166],[-123.12062083,49.22624507],[-123.12090465,49.22625788],[-123.12180168,49.226291],[-123.12247374,49.2263209],[-123.12358134,49.22637004],[-123.12515656,49.22642808],[-123.12664891,49.22648611],[-123.1282965,49.22654344],[-123.12828123,49.22725447],[-123.12827626,49.22747345],[-123.12825728,49.22840417],[-123.12823441,49.2293064],[-123.12821629,49.23021469],[-123.12815093,49.23209109],[-123.12811223,49.23301077],[-123.12807864,49.23388808],[-123.12807604,49.23395574],[-123.13038026,49.23402226],[-123.13067835,49.23403086],[-123.13130593,49.23405352],[-123.13185218,49.23407323],[-123.13255766,49.23409638],[-123.13335661,49.23412486],[-123.13406912,49.23414907],[-123.13482499,49.23417471],[-123.13525399,49.23418944],[-123.13563362,49.23420248],[-123.13623063,49.23422326],[-123.13639072,49.23422883],[-123.13656094,49.23423465],[-123.13720317,49.2342566],[-123.13775114,49.23427436],[-123.13799394,49.23428223],[-123.13860132,49.23430504],[-123.13875255,49.23431072],[-123.13962378,49.23434348],[-123.13959244,49.23246637]]]},"geometry_name":"SHAPE","properties":{"id":336,"slug":"vancouver-langara","name":"Vancouver-Langara","abbreviation":"VLA","gazetteDate":"2023-12-07Z","boundarySet":11},"bbox":[-123.15206208,49.19844023,-123.08005805,49.23434348]}
