{"type":"Feature","id":337,"geometry":{"type":"Polygon","coordinates":[[[-123.10880038,49.27348482],[-123.10957953,49.27327137],[-123.11113333,49.27289699],[-123.11203719,49.27264935],[-123.11473999,49.27190876],[-123.11483434,49.27188087],[-123.11486377,49.27119786],[-123.11488762,49.27056717],[-123.11491449,49.26963134],[-123.11493206,49.26883323],[-123.11495121,49.26813071],[-123.1149488,49.26809759],[-123.11490636,49.26768476],[-123.11484296,49.26669154],[-123.11483987,49.2666328],[-123.11483582,49.26657191],[-123.11483339,49.26644529],[-123.11482849,49.2662516],[-123.11482488,49.26603414],[-123.11481241,49.26557988],[-123.11480739,49.26538959],[-123.11480833,49.26529922],[-123.11479851,49.26494902],[-123.11480405,49.26471999],[-123.11481281,49.26404963],[-123.11484951,49.26320579],[-123.11491239,49.26223947],[-123.11492663,49.26187709],[-123.11499542,49.26039725],[-123.11499632,49.26006123],[-123.11501025,49.25959293],[-123.11501269,49.2594441],[-123.11502208,49.2587384],[-123.11503026,49.25828372],[-123.11503783,49.25782726],[-123.11504635,49.25733947],[-123.1150536,49.25691328],[-123.11538985,49.25691656],[-123.11600355,49.25692254],[-123.11630309,49.25692585],[-123.1181281,49.25694603],[-123.11938512,49.25696882],[-123.12012861,49.25698235],[-123.12040073,49.25698879],[-123.12074602,49.25699695],[-123.12203076,49.25702757],[-123.12217252,49.25703012],[-123.1237134,49.25705784],[-123.12406634,49.25706402],[-123.12438426,49.25706959],[-123.12721043,49.25711694],[-123.12723086,49.25668754],[-123.12725166,49.25623642],[-123.1272573,49.2560762],[-123.12728984,49.25532493],[-123.12733009,49.25441272],[-123.1273484,49.25398902],[-123.12736826,49.25353007],[-123.12738778,49.25309853],[-123.1274098,49.25261857],[-123.12742892,49.25217244],[-123.12744843,49.2517199],[-123.12746662,49.25133572],[-123.12749097,49.25082015],[-123.12750314,49.25001298],[-123.12751363,49.24933898],[-123.12751177,49.24924462],[-123.12750964,49.24913638],[-123.12753895,49.24865429],[-123.1275696,49.24814976],[-123.12760055,49.24722652],[-123.12766299,49.24630648],[-123.12765019,49.2454046],[-123.1276593,49.2444988],[-123.12768514,49.24357805],[-123.12779327,49.242381],[-123.12782434,49.24143782],[-123.12783846,49.24100842],[-123.12785612,49.24049535],[-123.12788927,49.23949698],[-123.12792159,49.23853742],[-123.12795151,49.23764907],[-123.12797958,49.23674968],[-123.12805843,49.23445991],[-123.12807372,49.23400665],[-123.12807604,49.23395574],[-123.12807864,49.23388808],[-123.12811223,49.23301077],[-123.12815093,49.23209109],[-123.12821629,49.23021469],[-123.12823441,49.2293064],[-123.12825728,49.22840417],[-123.12827626,49.22747345],[-123.12828123,49.22725447],[-123.1282965,49.22654344],[-123.12664891,49.22648611],[-123.12515656,49.22642808],[-123.12358134,49.22637004],[-123.12247374,49.2263209],[-123.12180168,49.226291],[-123.12090465,49.22625788],[-123.12062083,49.22624507],[-123.11943879,49.22619166],[-123.11811901,49.2261322],[-123.11735694,49.22610621],[-123.11664947,49.22608199],[-123.11653885,49.22607808],[-123.11637929,49.22607202],[-123.11458506,49.226009],[-123.11295126,49.22595239],[-123.11171958,49.22592391],[-123.11073471,49.22590129],[-123.11073469,49.22590129],[-123.10839313,49.22581068],[-123.10655058,49.22576261],[-123.10589902,49.22574552],[-123.10586683,49.22674532],[-123.10586516,49.22678422],[-123.10582849,49.22763769],[-123.10582721,49.22766749],[-123.1058387,49.22811434],[-123.10584966,49.22855834],[-123.10581541,49.22883902],[-123.10579453,49.22901017],[-123.1057412,49.22944455],[-123.10572065,49.22993804],[-123.10570275,49.23036673],[-123.10567533,49.23098021],[-123.10566356,49.23128356],[-123.10566216,49.2312857],[-123.10565384,49.23170655],[-123.10564027,49.23219648],[-123.10564017,49.23220716],[-123.10562376,49.23262374],[-123.10561117,49.23315497],[-123.10440209,49.23313147],[-123.10371287,49.23311489],[-123.10151798,49.23306204],[-123.10079574,49.23304941],[-123.10000177,49.23303498],[-123.0997712,49.2330322],[-123.09959746,49.23302717],[-123.09954988,49.2330258],[-123.09919151,49.23301953],[-123.09889133,49.23301575],[-123.09860361,49.23300935],[-123.09832094,49.23300401],[-123.09720602,49.23298941],[-123.09719186,49.23324463],[-123.09717574,49.23353524],[-123.09716556,49.23399526],[-123.0971557,49.23444709],[-123.09713629,49.2349128],[-123.09711779,49.23534256],[-123.0970967,49.23581219],[-123.09707975,49.23620067],[-123.09707774,49.23624658],[-123.09705805,49.23670232],[-123.09705007,49.23688466],[-123.09704555,49.23698788],[-123.09703734,49.23717516],[-123.0970217,49.23753649],[-123.09699944,49.23805069],[-123.09699935,49.2380527],[-123.09697774,49.23852816],[-123.09696327,49.23884967],[-123.09693073,49.23960985],[-123.09693047,49.23961998],[-123.09691319,49.2400218],[-123.09689623,49.24042414],[-123.09687624,49.24119107],[-123.09686577,49.24158169],[-123.09686033,49.24178461],[-123.09684944,49.24219835],[-123.09684947,49.24259392],[-123.09687458,49.24264472],[-123.09691073,49.24271783],[-123.09691401,49.2431077],[-123.09691773,49.24352072],[-123.09690496,49.24391772],[-123.09689005,49.24435958],[-123.09688633,49.24452786],[-123.09688084,49.24477617],[-123.09687348,49.24548392],[-123.09687184,49.24564066],[-123.09685711,49.24601979],[-123.09680402,49.24738639],[-123.09677149,49.24871767],[-123.09545541,49.24870129],[-123.09466023,49.24869276],[-123.09406106,49.24868633],[-123.09376562,49.24868313],[-123.09305341,49.24867518],[-123.09213966,49.24866497],[-123.09146057,49.24866407],[-123.09079705,49.24866307],[-123.09015533,49.24866212],[-123.09014006,49.24918587],[-123.09011802,49.25009238],[-123.09007818,49.25100815],[-123.09005926,49.25189686],[-123.089992,49.25279482],[-123.08996117,49.25372554],[-123.08995271,49.25463241],[-123.08991412,49.25553286],[-123.08983458,49.25640377],[-123.08979834,49.25664566],[-123.08979128,49.25668718],[-123.0897904,49.25669235],[-123.09109389,49.25723971],[-123.09181658,49.25739923],[-123.09216839,49.25745102],[-123.09268146,49.25757886],[-123.09306703,49.25776027],[-123.0930909,49.2577696],[-123.09363676,49.25807528],[-123.09365422,49.25808506],[-123.09499185,49.25883412],[-123.0951811,49.25894009],[-123.09569775,49.25924685],[-123.09627295,49.25962313],[-123.0965718,49.25987813],[-123.0966878,49.25999671],[-123.09746666,49.26077483],[-123.09776328,49.26107126],[-123.09825873,49.26156297],[-123.09839281,49.26169731],[-123.09866879,49.26197385],[-123.09899218,49.26231191],[-123.09932616,49.26266103],[-123.09951199,49.26287003],[-123.10021298,49.26366268],[-123.10026663,49.26372334],[-123.10074731,49.26430378],[-123.10083683,49.26440656],[-123.10092136,49.2645036],[-123.10091599,49.26456662],[-123.10085469,49.26550589],[-123.10079446,49.26643055],[-123.10078283,49.2666093],[-123.10077033,49.26695258],[-123.1007572,49.26731285],[-123.10074538,49.26804775],[-123.10073669,49.26822862],[-123.10070809,49.26902938],[-123.10070368,49.26909169],[-123.10070113,49.26912872],[-123.10066735,49.27012531],[-123.10066307,49.2703425],[-123.10066606,49.27036885],[-123.10066186,49.27050867],[-123.10065589,49.27070746],[-123.10056841,49.27090064],[-123.10028639,49.27152339],[-123.10010058,49.2719337],[-123.10006968,49.27201951],[-123.10006679,49.27208396],[-123.1000248,49.27276188],[-123.10002058,49.27282019],[-123.10010127,49.27283406],[-123.10043931,49.27289218],[-123.10096359,49.27296414],[-123.10107123,49.27297851],[-123.10117492,49.27299166],[-123.1016294,49.27299622],[-123.10173218,49.27299725],[-123.10183606,49.27299504],[-123.10308286,49.27296844],[-123.1030989,49.27271165],[-123.104628,49.27275268],[-123.10545154,49.27277476],[-123.10544284,49.27291414],[-123.10540541,49.27351392],[-123.10648858,49.27354899],[-123.10792482,49.27352719],[-123.10794808,49.27352606],[-123.10880038,49.27348482]]]},"geometry_name":"SHAPE","properties":{"id":337,"slug":"vancouver-little-mountain","name":"Vancouver-Little Mountain","abbreviation":"VLM","gazetteDate":"2023-12-07Z","boundarySet":11},"bbox":[-123.1282965,49.22574552,-123.0897904,49.27354899]}
