{"type":"Feature","id":333,"geometry":{"type":"Polygon","coordinates":[[[-123.04548544,49.2329449],[-123.04593382,49.23295986],[-123.04661492,49.23292639],[-123.046643,49.23292496],[-123.04725953,49.23285375],[-123.04794986,49.23277364],[-123.04878408,49.2327594],[-123.04936766,49.23276011],[-123.05017499,49.23276047],[-123.05086566,49.23276652],[-123.05165679,49.23277329],[-123.05458774,49.23280355],[-123.0554805,49.23281281],[-123.05603007,49.23281672],[-123.05659382,49.23282064],[-123.05715661,49.23282527],[-123.05786547,49.23283097],[-123.05886755,49.2328331],[-123.05882314,49.23119419],[-123.05882763,49.23116535],[-123.05907801,49.22940681],[-123.0590711,49.22897456],[-123.0590634,49.22849033],[-123.05908037,49.22757207],[-123.05909107,49.22707858],[-123.0591343,49.22623937],[-123.059143,49.22578184],[-123.05915794,49.22503983],[-123.05979924,49.22505478],[-123.06167926,49.22509822],[-123.06236541,49.22511389],[-123.06301189,49.22512457],[-123.06504502,49.22515768],[-123.06576339,49.22516943],[-123.06709162,49.22517869],[-123.06842107,49.22518866],[-123.06905233,49.22519257],[-123.06993725,49.22520005],[-123.07176189,49.22521928],[-123.07316107,49.22525702],[-123.07454252,49.22526663],[-123.07592431,49.22527375],[-123.07732449,49.22528016],[-123.07868302,49.22530509],[-123.08005,49.22533144],[-123.08143892,49.2253528],[-123.08282246,49.22537594],[-123.08386515,49.22538591],[-123.08456048,49.22539125],[-123.08524838,49.22539624],[-123.0859061,49.22540158],[-123.08662467,49.22540727],[-123.08728034,49.22541333],[-123.08801976,49.22541974],[-123.08862651,49.2254265],[-123.08940254,49.22543469],[-123.09002726,49.22543861],[-123.09071121,49.22544288],[-123.09076383,49.2249248],[-123.09080516,49.22451786],[-123.0908299,49.22388739],[-123.09084231,49.22357111],[-123.09084078,49.22271694],[-123.09086976,49.22199451],[-123.08929136,49.22197101],[-123.08752105,49.22194466],[-123.08524061,49.22191048],[-123.08296181,49.2218763],[-123.08224757,49.22186598],[-123.08161375,49.22185708],[-123.08088827,49.22184639],[-123.08017785,49.22183607],[-123.08019147,49.22147098],[-123.08020195,49.22119019],[-123.08020434,49.22112703],[-123.08022865,49.22048449],[-123.08025584,49.22004975],[-123.08025715,49.22003124],[-123.08022953,49.21974675],[-123.0801654,49.21960718],[-123.08010771,49.21928567],[-123.08007645,49.21857178],[-123.08005805,49.218152],[-123.08085273,49.21815918],[-123.08159549,49.21816588],[-123.08306074,49.21819828],[-123.08306924,49.21798478],[-123.08307954,49.2177258],[-123.08308422,49.21760614],[-123.08309556,49.21731634],[-123.08309918,49.21701441],[-123.08310071,49.21688872],[-123.08310217,49.21677435],[-123.08310626,49.21645185],[-123.0831121,49.21609631],[-123.08311357,49.21600714],[-123.08311739,49.21578211],[-123.08312113,49.21555246],[-123.08313842,49.21511701],[-123.08315603,49.21467052],[-123.08315189,49.21427067],[-123.08314958,49.21402779],[-123.08314765,49.21382525],[-123.08315014,49.21361456],[-123.08315323,49.21335312],[-123.08315601,49.21314638],[-123.08315975,49.21286889],[-123.08317064,49.21260822],[-123.08317822,49.21242667],[-123.08318732,49.21221742],[-123.08319661,49.21200368],[-123.08319828,49.21195882],[-123.08323213,49.21116376],[-123.08323321,49.21113136],[-123.08323345,49.21111569],[-123.08209966,49.21111783],[-123.0806936,49.21110714],[-123.08069355,49.21105196],[-123.08073803,49.21012978],[-123.0807693,49.20952236],[-123.08078895,49.20911824],[-123.08079176,49.20906091],[-123.08079955,49.20891101],[-123.08080485,49.20880455],[-123.08084562,49.20793472],[-123.0808827,49.20734468],[-123.0808877,49.20726512],[-123.08060558,49.20731107],[-123.08042946,49.20733975],[-123.07904924,49.20762139],[-123.07776933,49.20782861],[-123.0774088,49.20788345],[-123.07722669,49.20791122],[-123.07674513,49.20798421],[-123.07564251,49.20821493],[-123.07526287,49.20822312],[-123.07477246,49.20823345],[-123.07369212,49.20811274],[-123.07266212,49.20791834],[-123.07108316,49.20741559],[-123.07036242,49.20715888],[-123.06938382,49.20680995],[-123.06914401,49.20672236],[-123.0684744,49.20646778],[-123.06748885,49.20609678],[-123.06651634,49.20568874],[-123.06628358,49.20561487],[-123.06535965,49.20532165],[-123.06477182,49.20518706],[-123.06461386,49.20515074],[-123.0635833,49.20491468],[-123.06200265,49.20474378],[-123.06174463,49.20471565],[-123.06059091,49.20459388],[-123.05997439,49.20457038],[-123.05944848,49.20455044],[-123.05759539,49.20447567],[-123.0564449,49.20444194],[-123.05607756,49.20443116],[-123.05471314,49.20439093],[-123.05446859,49.20438879],[-123.05212356,49.20436992],[-123.04979834,49.2043393],[-123.04778661,49.20436173],[-123.04594295,49.20440944],[-123.04520486,49.20441717],[-123.0451321,49.20441793],[-123.04407126,49.20442903],[-123.04276748,49.20444469],[-123.04229947,49.204446],[-123.04187777,49.20444719],[-123.04120718,49.20442297],[-123.04066967,49.20431865],[-123.04014725,49.20417943],[-123.03963035,49.204042],[-123.03866115,49.20371051],[-123.03756891,49.20334556],[-123.036584,49.20300731],[-123.03493698,49.20255975],[-123.03339134,49.20216738],[-123.03223565,49.20189144],[-123.03061563,49.20153574],[-123.02893278,49.2011804],[-123.02757302,49.20091835],[-123.02619038,49.20064205],[-123.02501159,49.20042273],[-123.02437184,49.20026784],[-123.02339193,49.20000009],[-123.023391,49.20059007],[-123.02342746,49.20147415],[-123.0233858,49.20223503],[-123.02338302,49.20261142],[-123.02337685,49.20344561],[-123.02340173,49.20393269],[-123.02341468,49.20412211],[-123.02342564,49.20428839],[-123.02343473,49.20442369],[-123.02345084,49.20533019],[-123.0234522,49.20542099],[-123.02345384,49.20550181],[-123.02343994,49.20689433],[-123.02344479,49.2069567],[-123.02349024,49.20754164],[-123.02360314,49.20817292],[-123.02378064,49.20923645],[-123.02408936,49.21017856],[-123.02412555,49.21047302],[-123.02407307,49.21071299],[-123.02396712,49.2111043],[-123.02395762,49.2111399],[-123.02387142,49.21145964],[-123.02371832,49.2122871],[-123.0237193,49.2128105],[-123.02372142,49.21380566],[-123.02372392,49.21480404],[-123.02372121,49.21746339],[-123.02371845,49.22014539],[-123.02371843,49.22016903],[-123.02371791,49.22097798],[-123.02371786,49.22099614],[-123.02370279,49.22194858],[-123.02350991,49.22306018],[-123.0234956,49.22324319],[-123.02349466,49.22325245],[-123.02348433,49.22463749],[-123.02348409,49.22463882],[-123.02348119,49.2250295],[-123.02347974,49.22519863],[-123.02352384,49.22637645],[-123.02351105,49.22794415],[-123.0235098,49.22809298],[-123.02351212,49.22923448],[-123.02411875,49.22923484],[-123.02428375,49.22923519],[-123.02503576,49.22923591],[-123.0264271,49.22922558],[-123.02712683,49.22922807],[-123.02774751,49.22923056],[-123.02915059,49.22923306],[-123.02985979,49.22923234],[-123.03050411,49.22923163],[-123.03214737,49.22923555],[-123.03423911,49.22925798],[-123.03455787,49.22926119],[-123.03643544,49.22926439],[-123.03675528,49.22926474],[-123.03739606,49.22926546],[-123.03861097,49.22926902],[-123.03881967,49.229274],[-123.04028792,49.22928362],[-123.04081658,49.22927828],[-123.04173631,49.22927934],[-123.04235885,49.22929002],[-123.04310481,49.2293032],[-123.0431293,49.22976357],[-123.04315159,49.230183],[-123.04314865,49.23065513],[-123.04314572,49.23110055],[-123.04312281,49.23156378],[-123.04310263,49.23196505],[-123.04309484,49.23248097],[-123.04308828,49.23290609],[-123.04309049,49.23294989],[-123.04548544,49.2329449]]]},"geometry_name":"SHAPE","properties":{"id":333,"slug":"vancouver-fraserview","name":"Vancouver-Fraserview","abbreviation":"VFV","gazetteDate":"2023-12-07Z","boundarySet":11},"bbox":[-123.09086976,49.20000009,-123.02337685,49.23295986]}
