{"type":"Feature","id":345,"geometry":{"type":"Polygon","coordinates":[[[-118.69430935,50.48863538],[-118.69432065,50.4886354],[-118.69510203,50.48863697],[-118.69651897,50.4886398],[-118.70222368,50.48865101],[-118.7076875,50.48866147],[-118.7143467,50.48867385],[-118.71808669,50.48868064],[-118.73333952,50.48870698],[-118.74769193,50.48872977],[-118.76927677,50.48875469],[-118.79016836,50.48877499],[-118.79508414,50.48878033],[-118.79754214,50.48878282],[-118.79877075,50.48878425],[-118.80000014,50.48878531],[-118.8000242,50.48878531],[-118.80004883,50.48878531],[-118.80009752,50.48878531],[-118.80019523,50.48878567],[-118.80039054,50.48878567],[-118.80078093,50.48878603],[-118.80156251,50.48878638],[-118.80312488,50.48878745],[-118.80627944,50.48878854],[-118.81249956,50.48879315],[-118.82499978,50.48880063],[-118.84999999,50.48881593],[-118.85356181,50.48881807],[-118.86800797,50.4888227],[-118.88735091,50.48882079],[-118.89173973,50.48881988],[-118.89229992,50.48881976],[-118.89291687,50.48881961],[-118.89384727,50.48881939],[-118.90000008,50.48881772],[-118.90531294,50.48881771],[-118.90578216,50.48881775],[-118.90827439,50.48881794],[-118.96165297,50.48880846],[-118.96325283,50.48880775],[-118.96700536,50.48880561],[-118.97657601,50.48879956],[-118.97771864,50.4887987],[-118.97846341,50.48879813],[-118.98646911,50.48879244],[-118.98663084,50.48879244],[-118.98992045,50.48878959],[-119.0014734,50.48878247],[-119.00150971,50.47421779],[-119.00154577,50.47421762],[-119.01409569,50.4742137],[-119.01409077,50.45950779],[-119.0588486,50.45951731],[-119.05941824,50.45951732],[-119.05939799,50.45898638],[-119.05938285,50.45858939],[-119.05886726,50.44506529],[-119.05982815,50.44506565],[-119.08178763,50.4450749],[-119.08181333,50.44167461],[-119.13813307,50.44166926],[-119.13865357,50.44166926],[-119.13899203,50.44166891],[-119.13977998,50.44166855],[-119.14062474,50.44166855],[-119.1411175,50.4416682],[-119.14125839,50.4416682],[-119.14175115,50.44166784],[-119.14259591,50.44166784],[-119.14308867,50.44166748],[-119.14322956,50.44166748],[-119.14372232,50.44166713],[-119.14390738,50.44166713],[-119.14469869,50.44166677],[-119.14505985,50.44166677],[-119.14520073,50.44166677],[-119.1456935,50.44166642],[-119.14653792,50.44166606],[-119.14682416,50.44166606],[-119.14703046,50.44166606],[-119.14717157,50.4416657],[-119.14766411,50.4416657],[-119.14850909,50.44166535],[-119.14900185,50.44166499],[-119.14914274,50.44166499],[-119.14955198,50.44166499],[-119.1496355,50.44166463],[-119.1496819,50.44166464],[-119.14967674,50.44140009],[-119.14967223,50.44115512],[-119.14966704,50.44084037],[-119.14966501,50.44075029],[-119.1496596,50.4404359],[-119.14965581,50.44021942],[-119.14964958,50.43989648],[-119.1496444,50.43958173],[-119.14964237,50.43949165],[-119.14964013,50.43935706],[-119.14964011,50.4393535],[-119.14963698,50.43917725],[-119.14963261,50.43895543],[-119.14962698,50.43863783],[-119.14962125,50.43832308],[-119.14961979,50.438233],[-119.14961554,50.43801011],[-119.14961441,50.43791861],[-119.14960619,50.43748316],[-119.14960444,50.43737919],[-119.14959873,50.43706444],[-119.14959761,50.43699715],[-119.14959705,50.43697471],[-119.14959135,50.43665996],[-119.14959095,50.43662471],[-119.14958196,50.43612054],[-119.14957626,50.43580579],[-119.14957459,50.43571607],[-119.1495689,50.43540132],[-119.14955898,50.4348619],[-119.1495533,50.43454715],[-119.14955163,50.43445742],[-119.14955052,50.43436948],[-119.14954639,50.43416439],[-119.14954595,50.43414267],[-119.14953661,50.43360325],[-119.14953095,50.4332885],[-119.14952928,50.43319878],[-119.14952362,50.43288403],[-119.14951375,50.43234461],[-119.1495081,50.43202986],[-119.14950644,50.43194013],[-119.14950079,50.43162538],[-119.14949094,50.43108596],[-119.14948531,50.43077121],[-119.14948466,50.4307292],[-119.14948365,50.43068149],[-119.14947802,50.43036674],[-119.14946876,50.42982732],[-119.14946622,50.42971659],[-119.14946257,50.42951257],[-119.14946092,50.42942284],[-119.1494553,50.42910809],[-119.14944607,50.42856867],[-119.1494399,50.42825392],[-119.14943881,50.4281642],[-119.14943265,50.42784945],[-119.14942344,50.42731003],[-119.14941729,50.42699528],[-119.14941564,50.42690555],[-119.14941005,50.4265908],[-119.14940031,50.42605138],[-119.14939473,50.42573663],[-119.14939309,50.42564691],[-119.14938752,50.42533216],[-119.1493778,50.42479274],[-119.14937223,50.42447799],[-119.1493706,50.42438826],[-119.14936504,50.42407351],[-119.14935536,50.42353765],[-119.1493498,50.42321934],[-119.14934816,50.42312962],[-119.14934206,50.42281487],[-119.14933239,50.42227545],[-119.14932686,50.4219607],[-119.14932523,50.42187097],[-119.1493197,50.42155622],[-119.14931005,50.4210168],[-119.14930454,50.42070205],[-119.14930291,50.42061233],[-119.14929684,50.42029758],[-119.14928722,50.41975816],[-119.14928171,50.41944341],[-119.1492801,50.41935368],[-119.1492746,50.41903893],[-119.14926444,50.41849951],[-119.14925873,50.41818512],[-119.14925734,50.41809504],[-119.14925185,50.41778029],[-119.14924228,50.41724087],[-119.14923658,50.41692647],[-119.14923464,50.41683639],[-119.14922917,50.41652164],[-119.14921962,50.41598222],[-119.14921394,50.41566783],[-119.149212,50.41557775],[-119.14920654,50.415263],[-119.14919702,50.41472358],[-119.14919135,50.41440918],[-119.14918941,50.4143191],[-119.14918397,50.41400435],[-119.14917392,50.41346493],[-119.14916827,50.41315054],[-119.14916689,50.41306046],[-119.14916146,50.41274571],[-119.14915634,50.41247618],[-119.15025446,50.41247582],[-119.15307245,50.4124744],[-119.15711818,50.41247262],[-119.15773524,50.41247226],[-119.16172253,50.41247012],[-119.16228539,50.41246977],[-119.16568803,50.41246799],[-119.16684504,50.41246728],[-119.17199012,50.41246407],[-119.17189694,50.35061457],[-119.17189667,50.35040237],[-119.17189655,50.35015954],[-119.17189599,50.34986295],[-119.1718956,50.3495482],[-119.17189551,50.34945812],[-119.17189513,50.34914337],[-119.17189391,50.34860395],[-119.17189332,50.34828955],[-119.17189323,50.34819947],[-119.17189286,50.34788472],[-119.17189223,50.3473453],[-119.17189187,50.34703055],[-119.17189157,50.34694083],[-119.17189121,50.34662608],[-119.17189005,50.34608666],[-119.17188971,50.34577191],[-119.17188991,50.34576087],[-119.1718894,50.34568218],[-119.17188907,50.34536743],[-119.17188848,50.34482801],[-119.1718876,50.34451326],[-119.17188752,50.34442318],[-119.17188697,50.34410879],[-119.1718868,50.34391972],[-119.17188642,50.34356937],[-119.17188624,50.34337674],[-119.17191969,50.34006296],[-119.18312782,50.34005513],[-119.20628919,50.3400416],[-119.20630983,50.3400416],[-119.21576684,50.34005335],[-119.2167843,50.34005442],[-119.21761431,50.34005549],[-119.23987886,50.34021785],[-119.24209592,50.34023387],[-119.24279685,50.34023885],[-119.24346503,50.34022568],[-119.24413582,50.34022532],[-119.24492075,50.34022354],[-119.24504794,50.34022354],[-119.24603471,50.34022283],[-119.24606283,50.34022247],[-119.24697094,50.34022176],[-119.24764618,50.34021963],[-119.24795771,50.34022283],[-119.24825775,50.34022568],[-119.24942274,50.34023351],[-119.24987618,50.34023458],[-119.24987421,50.34027624],[-119.24987441,50.34033143],[-119.24987478,50.34037202],[-119.24987521,50.34064618],[-119.24987564,50.3407359],[-119.24987644,50.34105065],[-119.2498784,50.34159007],[-119.24987921,50.34190482],[-119.24987909,50.34199455],[-119.24988046,50.3423093],[-119.24988157,50.34273371],[-119.24988188,50.34284872],[-119.24988219,50.34299327],[-119.24988271,50.34316347],[-119.24988315,50.34325319],[-119.24988322,50.34330233],[-119.24988398,50.34356794],[-119.24988402,50.34367084],[-119.25002127,50.34367084],[-119.25016153,50.34367048],[-119.25064826,50.34367013],[-119.25107495,50.34366942],[-119.25115975,50.34366942],[-119.25128327,50.34366906],[-119.25165172,50.3436687],[-119.25179198,50.34366835],[-119.25228373,50.34366799],[-119.2527054,50.34366728],[-119.25270522,50.34356011],[-119.25270437,50.34324536],[-119.25270443,50.34320228],[-119.25270414,50.34315528],[-119.25270364,50.34284088],[-119.25270274,50.34230146],[-119.25270191,50.34198671],[-119.25270169,50.34189663],[-119.25270119,50.34158224],[-119.25269999,50.34104246],[-119.2526995,50.34072807],[-119.25269928,50.34063799],[-119.2526983,50.34036917],[-119.25269847,50.34032324],[-119.25269929,50.34024134],[-119.26262702,50.34026413],[-119.26323362,50.34034175],[-119.26375316,50.34049557],[-119.2642268,50.34075442],[-119.26448871,50.34096449],[-119.26498735,50.34076403],[-119.26516496,50.34061769],[-119.26522564,50.34052832],[-119.26528244,50.34044429],[-119.26536821,50.34015162],[-119.2653996,50.3400448],[-119.26562643,50.34004516],[-119.26884792,50.34004196],[-119.26892435,50.34004196],[-119.26992026,50.34004089],[-119.27393685,50.34004196],[-119.27788092,50.34004302],[-119.27787238,50.3373445],[-119.27785799,50.33289563],[-119.27783193,50.32663908],[-119.27789995,50.32657285],[-119.27796586,50.32650912],[-119.27801802,50.32643613],[-119.27807308,50.32636385],[-119.27812616,50.32630012],[-119.27813701,50.326246],[-119.27817474,50.32616303],[-119.27821291,50.32610892],[-119.27825421,50.32605515],[-119.27833498,50.32599889],[-119.2784178,50.3259519],[-119.27847209,50.32591487],[-119.27856711,50.32585007],[-119.27864822,50.32579417],[-119.27870316,50.32574895],[-119.27878275,50.32567489],[-119.27882307,50.32562896],[-119.27890418,50.32557306],[-119.27907481,50.32562504],[-119.27909422,50.32568699],[-119.27909512,50.32575001],[-119.27910197,50.32588496],[-119.27910518,50.32593801],[-119.27919316,50.32599106],[-119.27925913,50.32594513],[-119.27928514,50.32588994],[-119.27932384,50.32582692],[-119.27939113,50.32574396],[-119.27944214,50.32566207],[-119.27946808,50.32558908],[-119.27953474,50.32551609],[-119.27958708,50.32543384],[-119.27962578,50.32537082],[-119.27966495,50.32531599],[-119.27973117,50.32521594],[-119.27979781,50.32516894],[-119.27989406,50.32510485],[-119.27997292,50.32501405],[-119.27998487,50.32495815],[-119.27998294,50.32488694],[-119.27999215,50.32481395],[-119.27999073,50.32475983],[-119.28000088,50.32469788],[-119.28002626,50.32462489],[-119.28003495,50.32449991],[-119.28010006,50.32439808],[-119.28020706,50.32431584],[-119.28033007,50.32424997],[-119.2804251,50.32415917],[-119.28047884,50.32412214],[-119.28060089,50.32403811],[-119.28072509,50.32396406],[-119.28076501,50.32389997],[-119.28081609,50.32383588],[-119.28085627,50.32378211],[-119.28089504,50.32370912],[-119.28093496,50.32364503],[-119.28097321,50.32358094],[-119.28098406,50.32352682],[-119.28100823,50.32342713],[-119.28103203,50.32334595],[-119.2810708,50.32327296],[-119.28116528,50.32318216],[-119.28124503,50.32308995],[-119.28136808,50.32300699],[-119.28139183,50.3229429],[-119.281413,50.32278089],[-119.28147815,50.32266197],[-119.28151576,50.32260785],[-119.28158295,50.32252596],[-119.28163718,50.32247113],[-119.28170283,50.32239707],[-119.28174176,50.32230592],[-119.28180779,50.32221513],[-119.28189005,50.32216991],[-119.28204312,50.32212113],[-119.28215379,50.32212789],[-119.2822568,50.32220694],[-119.28237116,50.32224895],[-119.28243005,50.32231197],[-119.28254401,50.32233583],[-119.28271312,50.32234188],[-119.28281182,50.3223401],[-119.28289302,50.32231091],[-119.28299188,50.32229097],[-119.28311912,50.32231589],[-119.28316415,50.32236894],[-119.2832258,50.32248395],[-119.28325511,50.32253807],[-119.28328675,50.32259112],[-119.28333185,50.32266197],[-119.28337628,50.3227339],[-119.28345022,50.32279514],[-119.28359314,50.32283786],[-119.28367798,50.32282611],[-119.28379025,50.32281508],[-119.28387184,50.32276914],[-119.28395306,50.32271396],[-119.28399178,50.32265806],[-119.28403107,50.32260394],[-119.28408385,50.32252098],[-119.28410798,50.32244015],[-119.28410386,50.32235007],[-119.28410089,50.32226889],[-119.28409709,50.32220694],[-119.28407788,50.32210796],[-119.28407202,50.32200007],[-119.28406905,50.32191889],[-119.28406527,50.32182917],[-119.28407413,50.32172093],[-119.28406927,50.3216401],[-119.28407922,50.32152296],[-119.28408525,50.32137093],[-119.28413585,50.32127088],[-119.28417414,50.32118792],[-119.28422727,50.32110709],[-119.28426402,50.32099707],[-119.2843012,50.32091589],[-119.28433777,50.32078914],[-119.28437614,50.32069799],[-119.28439825,50.32058191],[-119.28443427,50.32045516],[-119.28445593,50.32033802],[-119.28450611,50.32021091],[-119.28454224,50.32008487],[-119.28458007,50.31996594],[-119.28460317,50.31987693],[-119.28462907,50.31982103],[-119.28466504,50.31971315],[-119.28467385,50.3195871],[-119.28469776,50.31950486],[-119.28469398,50.31941513],[-119.28469086,50.31935211],[-119.28468789,50.31927093],[-119.28467013,50.31920008],[-119.28468098,50.31914596],[-119.28467506,50.31904804],[-119.28468499,50.31895689],[-119.28469684,50.31890206],[-119.28470774,50.31883085],[-119.28471592,50.318713],[-119.28473912,50.31858802],[-119.28476025,50.318478],[-119.28477275,50.31841498],[-119.28478196,50.3183071],[-119.28479015,50.31822592],[-119.28479723,50.31808207],[-119.28484586,50.3179279],[-119.28488514,50.31783711],[-119.28494913,50.31770216],[-119.28495907,50.31761101],[-119.28498074,50.31749387],[-119.28501573,50.31735893],[-119.28504113,50.31728594],[-119.28506423,50.31719514],[-119.28510202,50.31709509],[-119.2851279,50.31703207],[-119.28516503,50.31696798],[-119.28519085,50.31688716],[-119.28522915,50.31680598],[-119.28526591,50.31669596],[-119.28528893,50.31661514],[-119.28533912,50.31648802],[-119.285421,50.31639688],[-119.2855149,50.31633207],[-119.28565206,50.31626585],[-119.28578916,50.31618182],[-119.28587015,50.31612699],[-119.28599688,50.31610705],[-119.28616281,50.31610384],[-119.28626376,50.31611097],[-119.28638991,50.31611702],[-119.28648295,50.3159981],[-119.28650623,50.31592582],[-119.28659809,50.31578909],[-119.28666807,50.3157421],[-119.28672022,50.31569688],[-119.28684279,50.31560395],[-119.28689713,50.31554983],[-119.28694819,50.31544906],[-119.28694611,50.31539601],[-119.28695108,50.3152511],[-119.28693407,50.31517099],[-119.2869019,50.31509016],[-119.28688381,50.31501895],[-119.28686676,50.31495593],[-119.28680514,50.31484093],[-119.28674315,50.31471488],[-119.28669808,50.31464403],[-119.28665102,50.31454683],[-119.28659094,50.3144571],[-119.28655995,50.31439586],[-119.28654173,50.31431504],[-119.28651076,50.31426092],[-119.28643826,50.31419113],[-119.28633273,50.31404907],[-119.28630111,50.31399601],[-119.28627985,50.31384398],[-119.28628815,50.31372684],[-119.28628596,50.31367307],[-119.28628285,50.31361005],[-119.28630405,50.31344805],[-119.2863011,50.31336687],[-119.28630879,50.31326682],[-119.28630498,50.31319596],[-119.28627413,50.31310588],[-119.28621196,50.31299088],[-119.28615302,50.31293783],[-119.2860929,50.31286697],[-119.28604598,50.31274093],[-119.28601321,50.31267898],[-119.28599501,50.31257216],[-119.28597693,50.31250095],[-119.28594291,50.31236494],[-119.28590983,50.31223996],[-119.28589012,50.31211499],[-119.28588377,50.31201601],[-119.28588082,50.31193483],[-119.28586194,50.31185507],[-119.28585572,50.31172903],[-119.28585314,50.31165711],[-119.28584797,50.31157593],[-119.28584481,50.3114951],[-119.28584226,50.31143208],[-119.28582216,50.31132384],[-119.28580613,50.31126189],[-119.28580174,50.31118213],[-119.28579712,50.31110095],[-119.28578008,50.31103793],[-119.28572007,50.31093112],[-119.28560488,50.31086097],[-119.28551782,50.31083605],[-119.28544808,50.31082003],[-119.28536074,50.31077588],[-119.28524485,50.3106979],[-119.28526405,50.3100157],[-119.28531117,50.30465925],[-119.28529391,50.30381755],[-119.2965554,50.30378372],[-119.30783093,50.30378372],[-119.30783075,50.29999995],[-119.30782988,50.29656974],[-119.30782902,50.29327367],[-119.30782802,50.28943321],[-119.30782799,50.28933512],[-119.31831411,50.28933369],[-119.31912049,50.28933369],[-119.31997034,50.28933369],[-119.3304122,50.28933084],[-119.33039376,50.28643934],[-119.33038973,50.28575857],[-119.33037944,50.28415658],[-119.33036621,50.28209657],[-119.33032032,50.27488936],[-119.33107431,50.27488735],[-119.33745942,50.27487013],[-119.34024595,50.2748623],[-119.34083459,50.27486088],[-119.34169075,50.27485838],[-119.34265087,50.27485803],[-119.34868893,50.27485544],[-119.35297924,50.2748534],[-119.35297096,50.26761913],[-119.35296259,50.2603845],[-119.38117539,50.26036777],[-119.38117511,50.26020718],[-119.38116215,50.25290811],[-119.38176621,50.25291133],[-119.38279392,50.2529168],[-119.39887076,50.25300104],[-119.40000018,50.25300176],[-119.40659161,50.25300734],[-119.4102939,50.2530103],[-119.41868059,50.2530459],[-119.41868139,50.25304591],[-119.42411333,50.2530817],[-119.42440969,50.25308365],[-119.42439438,50.25279557],[-119.42411323,50.24750409],[-119.42312068,50.22881352],[-119.42309768,50.22838011],[-119.42289657,50.22459092],[-119.42289656,50.22459088],[-119.4228507,50.22372678],[-119.44180174,50.19723959],[-119.4419068,50.19709266],[-119.45389927,50.18031296],[-119.45390296,50.17905324],[-119.45392236,50.17282233],[-119.45392769,50.17109369],[-119.45398893,50.15151188],[-119.45317772,50.15151151],[-119.45020091,50.1515101],[-119.4498614,50.1515101],[-119.44979083,50.1515101],[-119.4433118,50.15150725],[-119.44278024,50.1515069],[-119.43438503,50.15150263],[-119.43210911,50.15150156],[-119.43044276,50.15150049],[-119.4238716,50.15149657],[-119.4209062,50.15149444],[-119.42091643,50.15405374],[-119.42091679,50.15412175],[-119.42096449,50.16590637],[-119.42095282,50.17309898],[-119.42034349,50.17309909],[-119.40980678,50.17310041],[-119.40989152,50.1789437],[-119.40991096,50.18028412],[-119.40980044,50.180284],[-119.39848823,50.18027094],[-119.39197241,50.18030477],[-119.3918274,50.18030548],[-119.38888767,50.18035056],[-119.38708012,50.18032969],[-119.38711789,50.17310931],[-119.37597152,50.17311572],[-119.3759767,50.17516132],[-119.37598964,50.18026169],[-119.37501197,50.18026606],[-119.35346592,50.18036031],[-119.35344953,50.19724431],[-119.35344908,50.19742768],[-119.35344889,50.1976819],[-119.35341626,50.20661255],[-119.35340672,50.20922334],[-119.33303631,50.20923651],[-119.3313395,50.20923788],[-119.33082818,50.20923829],[-119.33080178,50.21246299],[-119.33080012,50.2126653],[-119.32001198,50.2127568],[-119.31997985,50.20271327],[-119.31997765,50.20202574],[-119.31838386,50.20201791],[-119.31779177,50.20200224],[-119.31761277,50.20199761],[-119.31737035,50.2019912],[-119.31354174,50.20189044],[-119.31213591,50.20228317],[-119.31137811,50.20269726],[-119.31010556,50.20378535],[-119.30979692,50.20393561],[-119.30948727,50.20408657],[-119.30879156,50.20431053],[-119.30829154,50.20447147],[-119.30828799,50.20871917],[-119.30828688,50.20885474],[-119.30805878,50.20923215],[-119.30797223,50.20923153],[-119.29922205,50.20922975],[-119.29873581,50.21000487],[-119.29847161,50.21029577],[-119.29795916,50.21063936],[-119.29697134,50.21108478],[-119.29672497,50.21118875],[-119.29678893,50.21584723],[-119.29746821,50.21583984],[-119.29985075,50.21581387],[-119.30000107,50.21581693],[-119.30152134,50.21523227],[-119.30221136,50.21490781],[-119.30266476,50.21464807],[-119.30308173,50.21435351],[-119.3035478,50.21395598],[-119.30362286,50.21396338],[-119.30436358,50.21403539],[-119.30414387,50.21452318],[-119.30406803,50.21487425],[-119.30406442,50.21524953],[-119.30413593,50.21560522],[-119.30415051,50.21564332],[-119.30421264,50.21580212],[-119.3043418,50.21613325],[-119.30450656,50.21642517],[-119.30800427,50.21643055],[-119.31390335,50.21642223],[-119.31379921,50.22362067],[-119.30791768,50.22362895],[-119.30778012,50.22362914],[-119.30772289,50.22362922],[-119.3021932,50.2236349],[-119.30214131,50.22363495],[-119.30147379,50.22363562],[-119.29686234,50.22364012],[-119.29634456,50.22364061],[-119.29072958,50.2236456],[-119.29009104,50.22364595],[-119.29001282,50.22438369],[-119.29001426,50.2248195],[-119.29001645,50.22559249],[-119.29002502,50.22879376],[-119.28992215,50.22903231],[-119.28958541,50.22929152],[-119.28925173,50.22942468],[-119.28849723,50.22972626],[-119.28829001,50.22984589],[-119.28803047,50.22999579],[-119.28716858,50.23069721],[-119.28567464,50.23208226],[-119.2844062,50.23338078],[-119.28425342,50.23353709],[-119.28369125,50.23487762],[-119.28240017,50.23804578],[-119.28228427,50.23804506],[-119.28072102,50.23807996],[-119.28034414,50.23805859],[-119.27995486,50.23795819],[-119.27977912,50.2378617],[-119.27953173,50.23807675],[-119.27923238,50.23814868],[-119.27599417,50.23817538],[-119.27462953,50.23818642],[-119.27356426,50.23817538],[-119.27317258,50.23817146],[-119.27204596,50.23817039],[-119.27190867,50.23823164],[-119.27185761,50.23825442],[-119.27175642,50.23829964],[-119.27125702,50.2381323],[-119.27086289,50.23813408],[-119.27086302,50.23820244],[-119.27067475,50.23820351],[-119.2702195,50.238206],[-119.26983372,50.23820778],[-119.26934317,50.23821063],[-119.26926557,50.23821099],[-119.269203,50.23821134],[-119.26871268,50.23821383],[-119.26835863,50.23821561],[-119.26817203,50.23821668],[-119.26793032,50.23821775],[-119.26787108,50.23821811],[-119.26719639,50.23822167],[-119.2671533,50.23822202],[-119.26711044,50.23822202],[-119.26706421,50.23822231],[-119.26705343,50.23822238],[-119.26703283,50.23822238],[-119.26698474,50.23822273],[-119.26654084,50.23822487],[-119.2660407,50.23822751],[-119.26478762,50.23823413],[-119.26394659,50.2382384],[-119.26345571,50.23824089],[-119.26331553,50.23824161],[-119.26282499,50.23824445],[-119.26240447,50.23824659],[-119.26236216,50.23824659],[-119.26198362,50.23824659],[-119.26159928,50.23824695],[-119.26149296,50.23824695],[-119.26135323,50.23824695],[-119.26086257,50.2382473],[-119.2600212,50.23824766],[-119.25939026,50.23824801],[-119.25756812,50.23824908],[-119.25742784,50.23824908],[-119.25718464,50.23824926],[-119.25693718,50.23824944],[-119.2556057,50.23825015],[-119.25553779,50.23825015],[-119.25546542,50.23825015],[-119.25497476,50.23825051],[-119.25480497,50.23825051],[-119.25471256,50.23825051],[-119.25413339,50.23825086],[-119.25364273,50.23825122],[-119.25353974,50.23825122],[-119.25350245,50.23825122],[-119.25301179,50.23825157],[-119.25231237,50.23825193],[-119.25217097,50.23825193],[-119.25168053,50.23825193],[-119.25154003,50.23825229],[-119.25103679,50.23825229],[-119.25103888,50.23852217],[-119.25103943,50.23857736],[-119.25104186,50.23883693],[-119.2510423,50.2388825],[-119.25104252,50.23892665],[-119.2510455,50.2392414],[-119.25104904,50.23965763],[-119.25104992,50.23978082],[-119.25105292,50.24009557],[-119.25107286,50.24234039],[-119.25108646,50.24387151],[-119.25109063,50.24433971],[-119.25109492,50.24482216],[-119.25109775,50.24513015],[-119.25108734,50.24553667],[-119.2482559,50.24553896],[-119.24595907,50.24550721],[-119.24433618,50.24550566],[-119.24081042,50.24550222],[-119.2403661,50.24574968],[-119.24026598,50.24614383],[-119.24030328,50.24632008],[-119.23971702,50.24574683],[-119.23937719,50.24552288],[-119.2393371,50.24550151],[-119.2392547,50.24550151],[-119.23915366,50.24550167],[-119.23833459,50.24550294],[-119.23826421,50.24550329],[-119.23811923,50.24550365],[-119.23767638,50.245504],[-119.23722862,50.24550507],[-119.2295606,50.24551789],[-119.22890773,50.24551753],[-119.22836132,50.24551967],[-119.22695748,50.24552181],[-119.2226932,50.24552893],[-119.22216549,50.24552964],[-119.22209089,50.24552964],[-119.21994433,50.24553298],[-119.21840987,50.24553534],[-119.21714244,50.24553747],[-119.21689167,50.24553783],[-119.21686057,50.25120913],[-119.21685128,50.25290277],[-119.21643041,50.25290348],[-119.2163196,50.25290349],[-119.21538887,50.25290562],[-119.21530478,50.25290562],[-119.21446694,50.25290705],[-119.21397624,50.25290811],[-119.21054056,50.25291417],[-119.20941884,50.2529163],[-119.20808695,50.2529188],[-119.20794662,50.25291879],[-119.20745592,50.25291986],[-119.20720567,50.25292022],[-119.20661418,50.25292129],[-119.2061237,50.252922],[-119.20604831,50.25292236],[-119.20598371,50.25292236],[-119.20580808,50.25292271],[-119.20574571,50.25292271],[-119.20253634,50.25292841],[-119.19999974,50.25294372],[-119.19994161,50.25294408],[-119.19910042,50.25294906],[-119.1986095,50.25295226],[-119.19846928,50.25295298],[-119.19797858,50.25295582],[-119.19713739,50.25296081],[-119.19664646,50.25296401],[-119.19650625,50.25296473],[-119.19601555,50.25296757],[-119.19569179,50.25296971],[-119.19517425,50.25297007],[-119.19031639,50.25295476],[-119.18654974,50.25294275],[-119.18461055,50.25293723],[-119.18276389,50.25293054],[-119.17554208,50.25290562],[-119.17505149,50.25290384],[-119.17491106,50.25290313],[-119.17442047,50.25290135],[-119.17357918,50.2528985],[-119.17308804,50.25289672],[-119.17294793,50.25289636],[-119.17245735,50.25289458],[-119.1720367,50.25289316],[-119.17203724,50.25281687],[-119.17203751,50.25277815],[-119.1720399,50.2524634],[-119.17204076,50.2524043],[-119.17204102,50.25237368],[-119.17204342,50.25205893],[-119.17204394,50.25199769],[-119.172048,50.25151951],[-119.17205041,50.25120476],[-119.17205119,50.25111468],[-119.17205394,50.25080028],[-119.17205854,50.25026086],[-119.17206096,50.24994611],[-119.17206175,50.24985603],[-119.17206474,50.24954128],[-119.17206881,50.24900186],[-119.17207158,50.24868747],[-119.17207237,50.24859739],[-119.17207482,50.24828264],[-119.17207947,50.24774322],[-119.17208248,50.24742847],[-119.17208305,50.24733874],[-119.17208551,50.24702399],[-119.17208701,50.24683244],[-119.17209019,50.24648457],[-119.17209265,50.24616982],[-119.17209323,50.2460801],[-119.17209625,50.24576535],[-119.17209844,50.24549546],[-119.13734794,50.24543671],[-119.13734777,50.24545767],[-119.13728806,50.25276427],[-119.13518863,50.2527561],[-119.12588293,50.25271941],[-119.11444264,50.25267383],[-119.11436045,50.25267348],[-119.11387009,50.25267134],[-119.11372943,50.25267098],[-119.11323907,50.25266885],[-119.11239768,50.25266529],[-119.11190654,50.25266351],[-119.11176666,50.25266279],[-119.11127552,50.25266101],[-119.11043413,50.25265745],[-119.10994322,50.25265532],[-119.10980312,50.25265496],[-119.1093122,50.25265282],[-119.10847081,50.25264926],[-119.10798023,50.25264748],[-119.10783979,50.25264677],[-119.10734943,50.25264463],[-119.10650782,50.25264143],[-119.1060169,50.25263929],[-119.10587702,50.25263858],[-119.10538589,50.2526368],[-119.1045445,50.25263324],[-119.10405358,50.25263111],[-119.1039137,50.25263039],[-119.10342256,50.25262861],[-119.10300215,50.25262683],[-119.10300187,50.25235694],[-119.10300194,50.25204219],[-119.10300207,50.25195247],[-119.10300159,50.25163772],[-119.10300121,50.25112429],[-119.10300148,50.25078355],[-119.10300106,50.25069382],[-119.10300115,50.25037907],[-119.10300098,50.24983965],[-119.10300052,50.2495249],[-119.10300088,50.24943482],[-119.10300043,50.24912007],[-119.10300028,50.24858065],[-119.10300039,50.2482659],[-119.10299998,50.24817618],[-119.1030001,50.24786143],[-119.10299998,50.24732201],[-119.10299955,50.24700726],[-119.1029997,50.24691753],[-119.10299927,50.24660278],[-119.10299953,50.24609292],[-119.10299917,50.24606336],[-119.10299932,50.24574861],[-119.10299904,50.24572689],[-119.10299913,50.24565853],[-119.10299872,50.24538366],[-119.10135086,50.2453798],[-119.09174213,50.24535678],[-119.09152319,50.24535624],[-119.09152321,50.24535943],[-119.09156179,50.25257877],[-119.09123102,50.25257876],[-119.0910907,50.25257876],[-119.09059956,50.25257877],[-119.09055334,50.25257877],[-119.0902265,50.25257862],[-119.08975838,50.25257841],[-119.0892678,50.25257841],[-119.08911979,50.25257734],[-119.08863633,50.25257841],[-119.08779493,50.25257841],[-119.08730434,50.25257841],[-119.08716402,50.25257841],[-119.08667343,50.25257841],[-119.0858317,50.25257805],[-119.08534111,50.25257805],[-119.08520079,50.25257805],[-119.0847102,50.25257805],[-119.0838688,50.25257805],[-119.08337766,50.25257805],[-119.08323789,50.25257805],[-119.08274697,50.2525777],[-119.08190557,50.2525777],[-119.08141443,50.2525777],[-119.08127466,50.2525777],[-119.08078352,50.2525777],[-119.08036276,50.25257734],[-119.08036295,50.25230781],[-119.08036317,50.25199306],[-119.08036301,50.25190298],[-119.08036301,50.25158858],[-119.0803633,50.25104881],[-119.08036331,50.25073441],[-119.08036371,50.25064433],[-119.08036395,50.25032958],[-119.08036404,50.24979016],[-119.08036429,50.24947541],[-119.08036409,50.24895949],[-119.07871275,50.24895772],[-119.0764268,50.24895522],[-119.06888799,50.24894668],[-119.06888803,50.24947328],[-119.06888848,50.24978767],[-119.0688886,50.25032745],[-119.06888851,50.25064184],[-119.06888857,50.25068777],[-119.06888864,50.25073192],[-119.06888889,50.25104667],[-119.06888907,50.25115527],[-119.06888926,50.25158609],[-119.06888895,50.25190084],[-119.06888931,50.25199057],[-119.06888902,50.25230532],[-119.0688891,50.2525752],[-119.06844663,50.25257485],[-119.0683063,50.25257485],[-119.06781516,50.25257485],[-119.06755678,50.25257485],[-119.06707544,50.25257456],[-119.06697398,50.25257449],[-119.0664834,50.25257449],[-119.06634307,50.25257449],[-119.06585216,50.25257414],[-119.06501076,50.25257414],[-119.06451984,50.25257378],[-119.06437951,50.25257378],[-119.06388893,50.25257378],[-119.06304719,50.25257342],[-119.06255661,50.25257342],[-119.06241628,50.25257342],[-119.06192536,50.25257307],[-119.06143924,50.25257307],[-119.06108419,50.25257271],[-119.0605936,50.25257271],[-119.06045328,50.25257271],[-119.05996236,50.25257236],[-119.05912096,50.25257236],[-119.05863004,50.252572],[-119.05848972,50.252572],[-119.0583661,50.252572],[-119.05799913,50.252572],[-119.05757838,50.25257164],[-119.05752765,50.24895166],[-119.05743076,50.24204282],[-119.05764119,50.24201896],[-119.05909969,50.24174231],[-119.05971329,50.24169353],[-119.06432137,50.24169959],[-119.06598852,50.24170172],[-119.06625831,50.24170208],[-119.0662612,50.23903359],[-119.06626437,50.23610478],[-119.06626476,50.23574247],[-119.0670728,50.23574283],[-119.06729546,50.23574283],[-119.06778587,50.23574283],[-119.06792615,50.23574283],[-119.06841689,50.23574319],[-119.06883717,50.23574319],[-119.06888671,50.23574319],[-119.06908543,50.23574319],[-119.06908511,50.23571185],[-119.06908777,50.23146629],[-119.06908796,50.2311786],[-119.06903845,50.2311202],[-119.06741218,50.23064345],[-119.06621004,50.23069899],[-119.06715595,50.22943429],[-119.06814369,50.22870499],[-119.06909975,50.22799905],[-119.06909893,50.22679661],[-119.06909809,50.22556755],[-119.06909677,50.22363527],[-119.06882895,50.22348964],[-119.06926825,50.22349285],[-119.07111981,50.22350602],[-119.07337305,50.22352205],[-119.07527397,50.22351358],[-119.07545189,50.22351279],[-119.07665766,50.2235281],[-119.07993712,50.22356976],[-119.07994317,50.22356991],[-119.07995136,50.22357011],[-119.08037511,50.2235662],[-119.08037433,50.22353914],[-119.08037428,50.22336681],[-119.08037427,50.22305206],[-119.08037421,50.22296198],[-119.08037454,50.22264758],[-119.08037483,50.22210781],[-119.08037517,50.22179341],[-119.08037512,50.22170333],[-119.08037513,50.22138858],[-119.08037522,50.22084916],[-119.08037525,50.22053441],[-119.08037552,50.22044468],[-119.08037555,50.22012993],[-119.08037586,50.22003309],[-119.08038303,50.21958589],[-119.08037571,50.21927577],[-119.08037621,50.21918568],[-119.08037625,50.21887093],[-119.0803764,50.21833151],[-119.08037622,50.21801712],[-119.08037673,50.21792704],[-119.08037679,50.21761229],[-119.08037693,50.21715512],[-119.08037696,50.21707287],[-119.08037702,50.21675812],[-119.08037676,50.21666839],[-119.08037683,50.21640135],[-119.0803772,50.21639459],[-119.08037669,50.21625929],[-119.08051775,50.21624647],[-119.08056394,50.21624469],[-119.08205786,50.21618915],[-119.08241558,50.21617597],[-119.0844223,50.21639744],[-119.08472088,50.21639779],[-119.08521143,50.21639815],[-119.08535165,50.21639815],[-119.08584219,50.21639851],[-119.08668273,50.21639886],[-119.08717327,50.21639922],[-119.08731327,50.21639957],[-119.08780381,50.21639993],[-119.08829659,50.21640029],[-119.08864435,50.21640029],[-119.0891349,50.21640064],[-119.08927489,50.216401],[-119.08976566,50.216401],[-119.09007982,50.21640135],[-119.09012489,50.21640135],[-119.0904445,50.216401],[-119.09128504,50.21640135],[-119.09162758,50.21640171],[-119.09167321,50.21640171],[-119.09177559,50.21640171],[-119.09191558,50.21640207],[-119.0924059,50.21640278],[-119.09282667,50.21640349],[-119.09287174,50.21640349],[-119.0935014,50.21640385],[-119.09399194,50.2164042],[-119.09413216,50.2164042],[-119.0946227,50.21640456],[-119.095027,50.21640491],[-119.09546324,50.21640491],[-119.09595379,50.21640527],[-119.09609401,50.21640527],[-119.09658455,50.21640563],[-119.09742487,50.21640634],[-119.09791541,50.2164067],[-119.09805563,50.2164067],[-119.09854618,50.21640705],[-119.09938672,50.21640741],[-119.09987726,50.21640776],[-119.10001748,50.21640776],[-119.10050803,50.21640812],[-119.1013489,50.21640883],[-119.10183911,50.21640883],[-119.10197911,50.21640919],[-119.10246987,50.21640919],[-119.10298657,50.21640954],[-119.10305946,50.21640954],[-119.10331019,50.2164099],[-119.10380096,50.2164099],[-119.10394095,50.21641026],[-119.10443117,50.21641026],[-119.10527204,50.21641097],[-119.10576258,50.21641132],[-119.1059028,50.21641132],[-119.10639335,50.21641168],[-119.10678615,50.21641202],[-119.10723389,50.21641204],[-119.10772466,50.21641204],[-119.10786465,50.21641239],[-119.10835486,50.21641239],[-119.1087753,50.21641275],[-119.10877568,50.21614322],[-119.10877612,50.21582847],[-119.10877603,50.21573839],[-119.10877648,50.21542363],[-119.10877748,50.21488422],[-119.10877739,50.21456947],[-119.10877763,50.21447974],[-119.10877809,50.21416499],[-119.10877912,50.21362557],[-119.10877904,50.21331082],[-119.10877951,50.21322074],[-119.10877976,50.21290634],[-119.10877978,50.21270909],[-119.10931346,50.2127098],[-119.10980407,50.21271087],[-119.10994428,50.21271087],[-119.11043434,50.21271194],[-119.11127492,50.21271301],[-119.11176554,50.21271408],[-119.11189351,50.21271408],[-119.11239581,50.21271514],[-119.11323695,50.21271621],[-119.113727,50.21271728],[-119.11382549,50.21271728],[-119.11386721,50.21271728],[-119.11435783,50.21271835],[-119.11459796,50.21271871],[-119.11459913,50.21244882],[-119.11460069,50.21213407],[-119.11460194,50.21172959],[-119.11460508,50.21087542],[-119.11460555,50.21078534],[-119.1146069,50.21047095],[-119.11460927,50.20993117],[-119.11461221,50.20908626],[-119.11507041,50.2090884],[-119.11518679,50.20908911],[-119.1157004,50.2090916],[-119.11654112,50.20909587],[-119.11700642,50.20909797],[-119.11717189,50.20909872],[-119.11899277,50.20910762],[-119.11913308,50.20910833],[-119.11962331,50.20911083],[-119.12046404,50.2091151],[-119.12095451,50.20911724],[-119.12109426,50.20911795],[-119.12158505,50.20912044],[-119.12242545,50.20912436],[-119.12291569,50.20912685],[-119.123056,50.20912756],[-119.12354623,50.20913005],[-119.12438663,50.20913397],[-119.12487687,50.20913646],[-119.12501718,50.20913717],[-119.12550764,50.20913931],[-119.12592801,50.20914145],[-119.12612561,50.20914394],[-119.12661584,50.20914999],[-119.12675547,50.20915177],[-119.1272457,50.20915783],[-119.12808652,50.20916815],[-119.12857675,50.2091742],[-119.12871694,50.20917598],[-119.12920716,50.20918204],[-119.13004743,50.20919236],[-119.13053766,50.20919842],[-119.13067785,50.2092002],[-119.13116807,50.20920625],[-119.13200834,50.20921657],[-119.13249912,50.20922263],[-119.13263876,50.20922441],[-119.13312899,50.20923046],[-119.13396981,50.20924079],[-119.13446004,50.20924684],[-119.13460023,50.20924862],[-119.13509046,50.20925467],[-119.1358613,50.20926393],[-119.13593095,50.20926464],[-119.13642118,50.20927069],[-119.13644933,50.20927105],[-119.13656137,50.20927247],[-119.1370516,50.20927853],[-119.13747162,50.20928387],[-119.13755574,50.2092828],[-119.13804557,50.2092771],[-119.13818611,50.20927568],[-119.13867593,50.20926998],[-119.13951672,50.20926001],[-119.1400071,50.20925432],[-119.14014708,50.20925289],[-119.14063746,50.2092472],[-119.14147802,50.20923758],[-119.14196784,50.20923188],[-119.14210805,50.2092301],[-119.14259843,50.20922441],[-119.14343899,50.20921479],[-119.14392937,50.2092091],[-119.14406902,50.20920732],[-119.14455973,50.20920198],[-119.14539995,50.20919201],[-119.14589033,50.20918631],[-119.14603031,50.20918489],[-119.14652069,50.20917919],[-119.14688278,50.20917492],[-119.14736092,50.20916922],[-119.14764373,50.20916593],[-119.1478513,50.20916352],[-119.14799128,50.2091621],[-119.14848166,50.2091564],[-119.14890205,50.20915142],[-119.14892539,50.20885483],[-119.14893281,50.2087651],[-119.14895733,50.20845071],[-119.1490004,50.207912],[-119.14902527,50.20759796],[-119.14903235,50.20750788],[-119.14905722,50.20719384],[-119.14910032,50.20665513],[-119.14912486,50.20634074],[-119.14913228,50.20625101],[-119.14915683,50.20593662],[-119.14918228,50.20561902],[-119.14919995,50.20539791],[-119.14922451,50.20508352],[-119.14923193,50.20499379],[-119.14925649,50.2046794],[-119.14929964,50.20414069],[-119.1493242,50.2038263],[-119.14935621,50.20342218],[-119.14939937,50.20288347],[-119.14942429,50.20256943],[-119.14943139,50.20247935],[-119.14945631,50.20216531],[-119.14947809,50.2018908],[-119.14947381,50.20184095],[-119.14944834,50.20152656],[-119.14940476,50.20098785],[-119.1493793,50.20067345],[-119.14937228,50.20058373],[-119.14934683,50.20026934],[-119.14932466,50.20000016],[-119.14928037,50.19945291],[-119.14925493,50.19913851],[-119.14924792,50.19904879],[-119.14922248,50.19873439],[-119.14919108,50.19834808],[-119.14917896,50.19819569],[-119.14917491,50.19814726],[-119.14917091,50.19809842],[-119.14915905,50.19795393],[-119.14915331,50.19788165],[-119.14914631,50.19779192],[-119.14912568,50.19750352],[-119.14908637,50.19694843],[-119.14906313,50.19661909],[-119.14905773,50.19654538],[-119.14901902,50.19622031],[-119.14897556,50.1956816],[-119.14894994,50.19536756],[-119.1489426,50.19527748],[-119.14893619,50.1951989],[-119.14891699,50.19496344],[-119.14889511,50.19469391],[-119.14907394,50.19470139],[-119.14956308,50.19472133],[-119.14970299,50.19472702],[-119.15019213,50.19474696],[-119.15103104,50.19478114],[-119.15152018,50.19480108],[-119.15166009,50.19480678],[-119.15214923,50.19482672],[-119.15216769,50.19482743],[-119.15298759,50.1948609],[-119.15347673,50.19488084],[-119.15361665,50.19488654],[-119.15410601,50.19490612],[-119.15452519,50.19492321],[-119.1546222,50.19730527],[-119.15480339,50.20175407],[-119.17174482,50.20183988],[-119.17776033,50.20185848],[-119.18194653,50.20187123],[-119.18300238,50.20187442],[-119.18302353,50.19561085],[-119.18302691,50.19461166],[-119.19400315,50.19463445],[-119.19400288,50.19523476],[-119.19400276,50.19554951],[-119.19400261,50.19563923],[-119.1940025,50.19595398],[-119.19400209,50.1964934],[-119.19400198,50.19680815],[-119.19400162,50.19689823],[-119.19400152,50.19721298],[-119.19400114,50.1977524],[-119.19400127,50.1980668],[-119.19400091,50.19815688],[-119.19400083,50.19847163],[-119.19400047,50.19901105],[-119.19400039,50.1993258],[-119.19400026,50.19941552],[-119.19400019,50.19973027],[-119.19399991,50.20000016],[-119.19399945,50.2003377],[-119.19399956,50.20054492],[-119.19399912,50.20087712],[-119.19399907,50.20119187],[-119.19399894,50.20128159],[-119.19399889,50.20159634],[-119.19399863,50.20186623],[-119.19453676,50.20186587],[-119.19502727,50.20186516],[-119.19516744,50.20186516],[-119.19565773,50.20186481],[-119.19649813,50.20186409],[-119.19698841,50.20186374],[-119.19712859,50.20186374],[-119.19761854,50.20186303],[-119.19845894,50.20186231],[-119.19894923,50.20186196],[-119.19901097,50.20186196],[-119.1990894,50.20186196],[-119.19957969,50.2018616],[-119.19999989,50.20186125],[-119.2007346,50.20186053],[-119.20122488,50.20186018],[-119.20126872,50.20185947],[-119.20136528,50.20185982],[-119.20185557,50.20185946],[-119.20241539,50.20185911],[-119.20269597,50.20185875],[-119.20318625,50.2018584],[-119.20331253,50.2018584],[-119.20381639,50.20185768],[-119.2041029,50.20185752],[-119.20442293,50.20185733],[-119.20465678,50.20185697],[-119.20514707,50.20185662],[-119.20526689,50.20185626],[-119.20526711,50.20152869],[-119.20526751,50.20122569],[-119.20526785,50.20098927],[-119.20526784,50.20067452],[-119.20526838,50.20063464],[-119.20526817,50.20058444],[-119.20526849,50.20027005],[-119.2052687,50.20000016],[-119.20526817,50.19971639],[-119.20526622,50.19937992],[-119.20526772,50.19931191],[-119.20526717,50.19899716],[-119.2052663,50.19846491],[-119.20526629,50.19845774],[-119.20526612,50.1982612],[-119.20568639,50.19826156],[-119.20617675,50.19826191],[-119.20631692,50.19826191],[-119.20680705,50.19826262],[-119.20764727,50.19826298],[-119.20813763,50.19826334],[-119.20827758,50.19826369],[-119.20876793,50.19826405],[-119.20960849,50.19826476],[-119.21009885,50.19826512],[-119.21023846,50.19826512],[-119.21072882,50.19826547],[-119.21156937,50.19826618],[-119.21205973,50.19826654],[-119.21219989,50.19826654],[-119.2126897,50.1982669],[-119.21353025,50.19826761],[-119.21402061,50.19826797],[-119.21416078,50.19826796],[-119.21465058,50.19826832],[-119.21549135,50.19826868],[-119.21598171,50.19826903],[-119.21612166,50.19826939],[-119.21653693,50.19826975],[-119.21653763,50.19815866],[-119.21653779,50.19803867],[-119.21653812,50.19784391],[-119.21653809,50.19781115],[-119.216538,50.19775276],[-119.21653872,50.19743943],[-119.21653941,50.19689823],[-119.21653954,50.19674727],[-119.21653992,50.19658526],[-119.21654076,50.19617865],[-119.21654233,50.19532662],[-119.21654317,50.19465225],[-119.21759389,50.19465297],[-119.21808366,50.19465332],[-119.21892437,50.19465368],[-119.22459489,50.19465759],[-119.22781334,50.19464134],[-119.22782525,50.18695689],[-119.22217044,50.18695333],[-119.22218119,50.18018692],[-119.20108273,50.18032083],[-119.19568511,50.18033711],[-119.18735352,50.18036161],[-119.18733959,50.18036161],[-119.14889023,50.18036776],[-119.13184626,50.1803662],[-119.13047737,50.18036592],[-119.12857567,50.18036552],[-119.12760431,50.18036529],[-119.11426601,50.18036117],[-119.09398432,50.18035782],[-119.0650773,50.18034588],[-119.04035337,50.1803195],[-119.02374344,50.18029834],[-119.02074431,50.18030942],[-119.01226207,50.18034846],[-119.01167454,50.1803511],[-119.00055202,50.18037542],[-119.0000321,50.18037625],[-118.99796842,50.18037951],[-118.98479985,50.18039937],[-118.98068339,50.18040519],[-118.97821145,50.18039851],[-118.97751467,50.18039662],[-118.96884547,50.18039164],[-118.96361186,50.18038658],[-118.95958136,50.18038252],[-118.95886253,50.18038086],[-118.94314536,50.1803432],[-118.94298497,50.18034321],[-118.94215453,50.18034318],[-118.93911166,50.18035564],[-118.93580721,50.18036906],[-118.93315719,50.18036934],[-118.92846733,50.18036963],[-118.92741194,50.18036967],[-118.92408263,50.18036333],[-118.90027239,50.18046317],[-118.89871502,50.18045831],[-118.84345353,50.18026951],[-118.82086186,50.18018046],[-118.81418373,50.18018089],[-118.81383016,50.18018088],[-118.81219646,50.18018092],[-118.81135658,50.18018089],[-118.79502031,50.18008073],[-118.79131577,50.18005768],[-118.79130254,50.1800576],[-118.78529267,50.18002379],[-118.77115583,50.18004087],[-118.76265364,50.18005017],[-118.7622568,50.18005059],[-118.76160495,50.18005126],[-118.75084434,50.18006186],[-118.75025597,50.18006241],[-118.70950917,50.18001622],[-118.70325207,50.18005547],[-118.69594652,50.18010076],[-118.68973952,50.18013885],[-118.68876151,50.1801448],[-118.6723896,50.18008001],[-118.67239276,50.18352155],[-118.67238862,50.19144662],[-118.67238708,50.19437515],[-118.67238871,50.20399359],[-118.67238886,50.20523202],[-118.67238922,50.20629226],[-118.67238988,50.20884662],[-118.6724216,50.22333836],[-118.68371299,50.22330365],[-118.69497103,50.22331476],[-118.69492303,50.22712532],[-118.69488578,50.23010788],[-118.69487892,50.23065693],[-118.69491995,50.23123595],[-118.69538344,50.23777612],[-118.69548118,50.23915506],[-118.70673527,50.23912439],[-118.71797786,50.2390953],[-118.7227101,50.23907912],[-118.73443051,50.23903783],[-118.73868569,50.23904662],[-118.74063522,50.23905059],[-118.74064684,50.24432162],[-118.74065112,50.24626124],[-118.74565386,50.24499848],[-118.75130486,50.24502778],[-118.76261202,50.24509019],[-118.76261223,50.24509019],[-118.76827574,50.24514177],[-118.78521686,50.24500836],[-118.79080598,50.24496379],[-118.79072545,50.25963552],[-118.7907469,50.26325051],[-118.79076028,50.26777774],[-118.79076728,50.27014817],[-118.79076823,50.27047056],[-118.7849268,50.27052842],[-118.784927,50.27082635],[-118.78492824,50.27132492],[-118.784737,50.27125099],[-118.78456601,50.27120799],[-118.784341,50.27114899],[-118.78419801,50.27110599],[-118.783857,50.270995],[-118.783588,50.27094499],[-118.78342001,50.27093899],[-118.78325099,50.270914],[-118.783054,50.27090799],[-118.782528,50.27075399],[-118.78237199,50.27071099],[-118.782004,50.27059999],[-118.781562,50.27039099],[-118.781349,50.27032299],[-118.781121,50.27024599],[-118.780865,50.27018599],[-118.780681,50.27013499],[-118.780313,50.270024],[-118.78016999,50.26998899],[-118.780058,50.26995499],[-118.77991599,50.26992199],[-118.77976,50.26987999],[-118.779661,50.26985399],[-118.77965098,50.26985203],[-118.779405,50.269804],[-118.779306,50.26977],[-118.778765,50.26956199],[-118.778579,50.26948399],[-118.77841001,50.269424],[-118.777785,50.26925299],[-118.777643,50.26920999],[-118.77757199,50.26918499],[-118.777431,50.26915099],[-118.777175,50.26910099],[-118.777008,50.26906599],[-118.776708,50.268981],[-118.776525,50.268931],[-118.776283,50.26887099],[-118.776086,50.26881999],[-118.77594299,50.26877699],[-118.775632,50.26871],[-118.775391,50.26865099],[-118.775194,50.268618],[-118.775066,50.268584],[-118.774911,50.268551],[-118.774741,50.268517],[-118.77441801,50.26848499],[-118.774162,50.26844599],[-118.77396599,50.268411],[-118.773697,50.26838899],[-118.77351501,50.26835599],[-118.773316,50.268305],[-118.773244,50.26827],[-118.773099,50.26815499],[-118.772859,50.26806999],[-118.77273101,50.268035],[-118.772589,50.267983],[-118.77219,50.26786299],[-118.77192,50.26775899],[-118.771777,50.267699],[-118.771651,50.26765699],[-118.77147899,50.267587],[-118.77123701,50.26747299],[-118.77109399,50.26740299],[-118.771035,50.26735899],[-118.770849,50.267228],[-118.77068801,50.267095],[-118.770487,50.266927],[-118.770371,50.26684799],[-118.77004001,50.266645],[-118.769826,50.26650599],[-118.76962499,50.26639999],[-118.769423,50.26624199],[-118.769246,50.26602899],[-118.76906,50.265905],[-118.768886,50.26576399],[-118.768756,50.265685],[-118.76867,50.265624],[-118.76858199,50.26554399],[-118.768325,50.26543999],[-118.76803999,50.265318],[-118.767885,50.26524],[-118.76768401,50.26518],[-118.76751601,50.26514699],[-118.76738801,50.26512999],[-118.76730501,50.26511399],[-118.767204,50.26509699],[-118.76705,50.26507299],[-118.766976,50.26501],[-118.766851,50.26499499],[-118.76672399,50.264988],[-118.766609,50.264953],[-118.76645399,50.264911],[-118.766327,50.264858],[-118.766169,50.264825],[-118.766057,50.26479099],[-118.765986,50.26477399],[-118.765873,50.264731],[-118.76578499,50.264669],[-118.765715,50.26462599],[-118.76559799,50.26454599],[-118.76555499,50.264492],[-118.76548,50.26439499],[-118.765366,50.264298],[-118.76527799,50.26420899],[-118.765189,50.264103],[-118.765158,50.264022],[-118.765044,50.263942],[-118.764985,50.26389799],[-118.764913,50.26381799],[-118.764882,50.26372999],[-118.76481999,50.263613],[-118.764803,50.26354199],[-118.764774,50.263496],[-118.76474199,50.26341699],[-118.764713,50.263354],[-118.764667,50.26321999],[-118.76462201,50.26314],[-118.76456199,50.263042],[-118.76453,50.26297899],[-118.764471,50.26287299],[-118.764425,50.262756],[-118.764348,50.262603],[-118.764317,50.26253199],[-118.764288,50.26247],[-118.764227,50.26238999],[-118.764183,50.262319],[-118.764124,50.26223],[-118.76409401,50.26216799],[-118.763991,50.26206099],[-118.76394799,50.261998],[-118.76388899,50.26192699],[-118.76382901,50.26183899],[-118.763784,50.26177599],[-118.763697,50.26166099],[-118.763639,50.261598],[-118.763537,50.26151999],[-118.76350699,50.26146499],[-118.763434,50.261394],[-118.763418,50.26133199],[-118.76341499,50.261242],[-118.763384,50.26117099],[-118.76338,50.26108899],[-118.76335,50.26099999],[-118.76333301,50.26092899],[-118.76331399,50.260839],[-118.76330414,50.26080058],[-118.76328399,50.260722],[-118.763237,50.26063399],[-118.76319001,50.26050799],[-118.76313201,50.26042899],[-118.763061,50.26039299],[-118.762916,50.26030499],[-118.76278699,50.26019899],[-118.76265899,50.26017399],[-118.762518,50.26015],[-118.762377,50.26012499],[-118.762251,50.26011799],[-118.76199601,50.26009399],[-118.76132399,50.260104],[-118.761015,50.26010999],[-118.760821,50.26014799],[-118.760694,50.260159],[-118.76051201,50.26016199],[-118.760359,50.260182],[-118.76015001,50.26021199],[-118.760023,50.26024099],[-118.75994,50.260269],[-118.759858,50.26028899],[-118.75966399,50.26034599],[-118.759538,50.26039299],[-118.759414,50.26044899],[-118.759331,50.260477],[-118.759248,50.260531],[-118.75919601,50.26059499],[-118.759154,50.26064099],[-118.75908699,50.260696],[-118.758964,50.26077899],[-118.758823,50.26078999],[-118.758726,50.26079199],[-118.75855499,50.26077599],[-118.758455,50.260723],[-118.75828399,50.26060099],[-118.75798199,50.260416],[-118.757853,50.260346],[-118.757726,50.26029299],[-118.757626,50.26025099],[-118.757523,50.26017099],[-118.757451,50.26011],[-118.75737799,50.26001999],[-118.75731999,50.25994],[-118.757303,50.25986899],[-118.757271,50.259806],[-118.757241,50.25975199],[-118.757226,50.259681],[-118.75718,50.25960999],[-118.757122,50.25955699],[-118.757079,50.25950299],[-118.75700801,50.25945],[-118.756976,50.25939799],[-118.756905,50.25933499],[-118.756847,50.259282],[-118.75669001,50.25923099],[-118.756535,50.259215],[-118.75645,50.25919799],[-118.75627901,50.259155],[-118.756152,50.25912099],[-118.756011,50.259097],[-118.755659,50.259066],[-118.75551899,50.25905899],[-118.755336,50.25903399],[-118.75511,50.25901199],[-118.75495601,50.25898699],[-118.754771,50.25896299],[-118.754503,50.25893899],[-118.754309,50.25893299],[-118.75404101,50.25893799],[-118.75360801,50.258953],[-118.75352299,50.258963],[-118.75331199,50.25896599],[-118.75314501,50.259004],[-118.75300501,50.25900699],[-118.752753,50.25902899],[-118.75265601,50.25903],[-118.752488,50.25905999],[-118.75215201,50.259074],[-118.75167501,50.25908099],[-118.751591,50.259073],[-118.751323,50.25904999],[-118.75088899,50.25903899],[-118.750677,50.259043],[-118.75048001,50.25899199],[-118.750141,50.258933],[-118.74987501,50.258938],[-118.74973301,50.258922],[-118.749579,50.258923],[-118.749411,50.258918],[-118.749271,50.25891],[-118.749172,50.258912],[-118.74906,50.25890499],[-118.74890499,50.25890799],[-118.74872201,50.25888299],[-118.748553,50.25887599],[-118.748456,50.258878],[-118.748332,50.25896],[-118.74824801,50.25897],[-118.74816499,50.25897199],[-118.748095,50.259019],[-118.748001,50.25909999],[-118.74793199,50.25915499],[-118.74780901,50.259265],[-118.747686,50.25933899],[-118.74760501,50.25942199],[-118.747481,50.259504],[-118.74734401,50.25958699],[-118.747334,50.25970399],[-118.747342,50.25988499],[-118.747385,50.259946],[-118.74727801,50.26006499],[-118.74716999,50.26021099],[-118.747052,50.26038299],[-118.746956,50.260501],[-118.746902,50.26056499],[-118.74664501,50.260785],[-118.74652201,50.26085899],[-118.746288,50.26098799],[-118.74615,50.261089],[-118.74596,50.26121799],[-118.745767,50.26135599],[-118.74561801,50.261475],[-118.74542499,50.26155799],[-118.74518901,50.26165199],[-118.74501,50.261728],[-118.744884,50.261746],[-118.744689,50.261759],[-118.744604,50.261787],[-118.744481,50.261851],[-118.74431699,50.26199],[-118.744236,50.26208899],[-118.74414201,50.262199],[-118.74397999,50.26232699],[-118.743884,50.26241799],[-118.74359699,50.262639],[-118.74347499,50.26272199],[-118.743266,50.26280599],[-118.74305899,50.26285399],[-118.74291999,50.26289099],[-118.742668,50.262941],[-118.742276,50.26294699],[-118.741911,50.26295099],[-118.74181299,50.26295399],[-118.74172901,50.262945],[-118.741589,50.26293799],[-118.74150299,50.262922],[-118.741473,50.262868],[-118.741307,50.262888],[-118.741223,50.26290799],[-118.741097,50.26290999],[-118.740858,50.262904],[-118.740561,50.26285599],[-118.740476,50.26283799],[-118.740251,50.26281399],[-118.740083,50.26279899],[-118.73987,50.262757],[-118.73961599,50.26269899],[-118.739373,50.262603],[-118.73925901,50.26254199],[-118.739172,50.26250699],[-118.739001,50.262411],[-118.738887,50.26233099],[-118.738671,50.26222599],[-118.73848599,50.26216599],[-118.738303,50.262142],[-118.738205,50.26213499],[-118.738121,50.262109],[-118.738049,50.26208399],[-118.73796399,50.26204799],[-118.737822,50.26200499],[-118.737737,50.26198799],[-118.737735,50.26195299],[-118.737721,50.26192499],[-118.737151,50.26168299],[-118.737066,50.26165599],[-118.736881,50.26156899],[-118.73676399,50.2615],[-118.73657899,50.26143],[-118.736207,50.26122099],[-118.735923,50.26111699],[-118.735712,50.26108399],[-118.73518601,50.26091999],[-118.735102,50.260904],[-118.734818,50.26080899],[-118.734746,50.26079199],[-118.734435,50.26070599],[-118.73423599,50.26066499],[-118.733955,50.26059699],[-118.733656,50.26053],[-118.733416,50.26043399],[-118.73307401,50.26031299],[-118.733003,50.26026099],[-118.73291601,50.26022599],[-118.73260299,50.260122],[-118.732364,50.26005399],[-118.732293,50.26002799],[-118.731981,50.259962],[-118.73171,50.25983899],[-118.73162501,50.25982199],[-118.731398,50.25972699],[-118.731171,50.259694],[-118.7311,50.25965999],[-118.730987,50.25961499],[-118.73088801,50.25959999],[-118.730761,50.25956599],[-118.730603,50.25948699],[-118.730476,50.25945299],[-118.730362,50.25941899],[-118.730135,50.259359],[-118.72985,50.25924699],[-118.72973801,50.25921199],[-118.729595,50.25917799],[-118.729496,50.259144],[-118.72936701,50.25909099],[-118.729115,50.25904999],[-118.728945,50.25902599],[-118.728832,50.259],[-118.728733,50.25895699],[-118.728616,50.258878],[-118.728571,50.258815],[-118.728527,50.25872699],[-118.728481,50.25865599],[-118.72846501,50.25859299],[-118.72846401,50.258539],[-118.728389,50.25840499],[-118.728358,50.25832399],[-118.72829799,50.258225],[-118.728255,50.25818099],[-118.728209,50.25810999],[-118.728108,50.25804],[-118.727993,50.25796899],[-118.727908,50.25790799],[-118.72783599,50.25785499],[-118.72776401,50.25779399],[-118.727649,50.25774999],[-118.727563,50.257697],[-118.72737899,50.257619],[-118.727235,50.25753999],[-118.72716199,50.257496],[-118.72704901,50.25744399],[-118.726837,50.25735699],[-118.72662099,50.25724399],[-118.726437,50.257183],[-118.726267,50.25713199],[-118.726168,50.25711599],[-118.726068,50.25709],[-118.725927,50.257065],[-118.725743,50.25701299],[-118.72550499,50.25699899],[-118.725391,50.25696499],[-118.725265,50.25693899],[-118.725164,50.256905],[-118.72498001,50.256854],[-118.72491,50.25682799],[-118.72482401,50.25680299],[-118.72469499,50.25675],[-118.72462299,50.25669699],[-118.724552,50.25666299],[-118.724394,50.25660199],[-118.724324,50.256576],[-118.724167,50.256525],[-118.724028,50.256499],[-118.723927,50.25646499],[-118.723814,50.25643899],[-118.723687,50.256397],[-118.723487,50.256337],[-118.723402,50.256284],[-118.723206,50.25630599],[-118.72298501,50.25637999],[-118.722833,50.25643699],[-118.722692,50.25643799],[-118.72252099,50.256378],[-118.722393,50.25634399],[-118.72228,50.25630099],[-118.722167,50.25624899],[-118.72197999,50.25616999],[-118.72185399,50.256128],[-118.721753,50.25608299],[-118.72166699,50.25602199],[-118.721596,50.255969],[-118.72153699,50.255915],[-118.721493,50.25585399],[-118.721362,50.25572],[-118.72104,50.25572599],[-118.72088601,50.25575399],[-118.720566,50.255823],[-118.72044,50.255833],[-118.720328,50.255844],[-118.720147,50.255883],[-118.720021,50.25590299],[-118.719867,50.255931],[-118.7197,50.255969],[-118.719575,50.255981],[-118.719477,50.25600099],[-118.71935099,50.256011],[-118.71922501,50.25602199],[-118.719128,50.256042],[-118.71889199,50.256081],[-118.718709,50.25611899],[-118.71847301,50.25615],[-118.718307,50.256206],[-118.718017,50.256318],[-118.717933,50.256355],[-118.717753,50.256404],[-118.717655,50.256449],[-118.71752999,50.25648799],[-118.717378,50.25651799],[-118.71728001,50.256528],[-118.717196,50.25653799],[-118.716959,50.256559],[-118.716776,50.25656999],[-118.71663599,50.25658999],[-118.716469,50.25662899],[-118.716373,50.25663999],[-118.716246,50.25664999],[-118.715827,50.25669299],[-118.715658,50.256713],[-118.715464,50.25673399],[-118.71524,50.25676399],[-118.715114,50.25676699],[-118.714959,50.256768],[-118.714806,50.256761],[-118.71465001,50.256737],[-118.71448,50.256713],[-118.71426899,50.25668],[-118.714114,50.256637],[-118.714028,50.25659299],[-118.713783,50.25644399],[-118.713656,50.256401],[-118.7134,50.256324],[-118.713189,50.25629099],[-118.713006,50.25623999],[-118.712932,50.256204],[-118.71266901,50.25625399],[-118.712528,50.256256],[-118.71243201,50.256284],[-118.71192599,50.256291],[-118.711703,50.25629599],[-118.711337,50.25629999],[-118.711065,50.25616],[-118.710849,50.25601899],[-118.710748,50.25592199],[-118.710604,50.255807],[-118.710516,50.25572699],[-118.71041601,50.25562199],[-118.710285,50.25550699],[-118.71016801,50.25540999],[-118.71005201,50.25526699],[-118.709874,50.25501799],[-118.70975899,50.25493],[-118.709674,50.25486699],[-118.709559,50.25478899],[-118.709455,50.254682],[-118.709383,50.25462099],[-118.709326,50.254567],[-118.70926699,50.25450499],[-118.70920999,50.25445099],[-118.709108,50.254346],[-118.70904799,50.254275],[-118.70884699,50.254115],[-118.708715,50.25398299],[-118.708628,50.253903],[-118.708542,50.25383199],[-118.70846801,50.25375199],[-118.70831101,50.253655],[-118.708295,50.25359199],[-118.70823699,50.253548],[-118.708192,50.25346899],[-118.70811801,50.25337],[-118.708027,50.253157],[-118.70799601,50.25309399],[-118.707979,50.25303999],[-118.707963,50.25297699],[-118.707917,50.25285999],[-118.70782801,50.25272799],[-118.707784,50.252674],[-118.707697,50.25255799],[-118.707623,50.25247899],[-118.707492,50.252318],[-118.70743399,50.25226499],[-118.707334,50.25221199],[-118.707118,50.25207299],[-118.707004,50.25200999],[-118.706659,50.25179899],[-118.706487,50.251685],[-118.706257,50.25151899],[-118.70612801,50.25144799],[-118.706085,50.25140299],[-118.706012,50.25133199],[-118.705926,50.25128899],[-118.705782,50.251201],[-118.705696,50.25112999],[-118.70564818,50.25104746],[-118.705634,50.251023],[-118.705602,50.250871],[-118.70558501,50.25079999],[-118.705541,50.25072799],[-118.7055133,50.25066275],[-118.705496,50.250622],[-118.70549585,50.25062183],[-118.705392,50.250505],[-118.705262,50.25041799],[-118.70514699,50.25031999],[-118.70513447,50.2503101],[-118.70509,50.25027499],[-118.70490301,50.25017099],[-118.70477401,50.25007299],[-118.70458179,50.24996342],[-118.70455999,50.249951],[-118.70454222,50.24994124],[-118.704416,50.249872],[-118.70433201,50.24983699],[-118.70433161,50.24983687],[-118.704147,50.249777],[-118.70409407,50.24974465],[-118.70407499,50.24973299],[-118.70390499,50.249682],[-118.70385213,50.24967866],[-118.703778,50.24967399],[-118.703218,50.24968299],[-118.70283899,50.24967999],[-118.70258879,50.24968356],[-118.702208,50.249689],[-118.70204415,50.24968433],[-118.701997,50.24968299],[-118.70166825,50.24968762],[-118.70107201,50.249696],[-118.700792,50.249692],[-118.70070713,50.24969285],[-118.700693,50.24969299],[-118.700552,50.24970399],[-118.70039115,50.24971893],[-118.700315,50.249726],[-118.70018586,50.24973231],[-118.70009,50.24973699],[-118.699868,50.249777],[-118.69966774,50.24980235],[-118.69963101,50.24980699],[-118.69960985,50.24980945],[-118.699364,50.24983799],[-118.69929553,50.24987317],[-118.69925501,50.24989399],[-118.69922116,50.24990071],[-118.699114,50.24992199],[-118.698975,50.24992499],[-118.69877701,50.24990899],[-118.69861717,50.24988741],[-118.69854,50.24987699],[-118.69848907,50.24985885],[-118.698467,50.249851],[-118.698368,50.24982499],[-118.69831632,50.24979946],[-118.698283,50.249783],[-118.69816299,50.2497497],[-118.698128,50.24974],[-118.69804892,50.24971581],[-118.69787299,50.24966199],[-118.69783077,50.24963712],[-118.6978,50.24961899],[-118.697489,50.249523],[-118.69736256,50.24948895],[-118.69733299,50.24948099],[-118.69727351,50.24945383],[-118.69716,50.24940199],[-118.69692099,50.249317],[-118.69680567,50.24927218],[-118.696764,50.24925599],[-118.69671198,50.24924116],[-118.696522,50.249187],[-118.69637769,50.24915152],[-118.69628201,50.24912799],[-118.69613066,50.24911076],[-118.696001,50.24909599],[-118.69596271,50.24909689],[-118.695916,50.24909799],[-118.695549,50.24905799],[-118.6954419,50.24903653],[-118.695085,50.248965],[-118.694887,50.248932],[-118.69473099,50.24890799],[-118.694577,50.24889099],[-118.69449099,50.24886499],[-118.694338,50.24886799],[-118.69420798,50.24885809],[-118.694141,50.24885299],[-118.694027,50.24885599],[-118.69393258,50.24883453],[-118.693873,50.24882099],[-118.69382569,50.24880724],[-118.693787,50.24879599],[-118.69372194,50.24878876],[-118.693562,50.24877099],[-118.693421,50.24873699],[-118.69288499,50.24865599],[-118.69267401,50.248659],[-118.69255921,50.24865326],[-118.692534,50.248652],[-118.69247072,50.2486529],[-118.691974,50.24866],[-118.69184214,50.24866156],[-118.691806,50.24866199],[-118.69149755,50.2486143],[-118.69111399,50.248555],[-118.69102537,50.24852657],[-118.69090199,50.248487],[-118.69088217,50.24847993],[-118.690829,50.248461],[-118.69071499,50.24840799],[-118.690574,50.24834699],[-118.690502,50.248303],[-118.690429,50.24825],[-118.690287,50.248172],[-118.69007201,50.24803099],[-118.689971,50.24796099],[-118.68976799,50.24780199],[-118.68956731,50.24767917],[-118.6895672,50.24767911],[-118.68956701,50.24767899],[-118.689482,50.24763499],[-118.689352,50.24752799],[-118.68927269,50.24747174],[-118.689266,50.24746699],[-118.68912099,50.247352],[-118.688991,50.24725499],[-118.68894092,50.24722425],[-118.68888999,50.24719299],[-118.68871899,50.24707099],[-118.68849001,50.24693],[-118.68838899,50.246869],[-118.68827501,50.24678899],[-118.688087,50.24669199],[-118.68793101,50.24662199],[-118.687732,50.246518],[-118.68757776,50.24643881],[-118.687545,50.24642199],[-118.68751488,50.24640976],[-118.687417,50.24636999],[-118.68728052,50.24635451],[-118.687135,50.24633799],[-118.687022,50.24632199],[-118.6869993,50.24631672],[-118.68691001,50.24629599],[-118.68671199,50.246253],[-118.686572,50.24624599],[-118.68652502,50.24623607],[-118.686501,50.24623099],[-118.686417,50.246214],[-118.68621788,50.24618216],[-118.686048,50.246155],[-118.685593,50.245964],[-118.685324,50.24588699],[-118.685239,50.24586999],[-118.68513102,50.24583556],[-118.685054,50.24581099],[-118.68485273,50.24575963],[-118.684717,50.24572499],[-118.68462506,50.24570057],[-118.684589,50.24569099],[-118.68452574,50.245677],[-118.684363,50.24564099],[-118.684136,50.24558099],[-118.68378199,50.24550399],[-118.68364147,50.24547531],[-118.683542,50.245455],[-118.68302,50.24535499],[-118.68294739,50.24534444],[-118.682793,50.24532199],[-118.68270828,50.24530505],[-118.682708,50.24530499],[-118.6826936,50.24529962],[-118.682566,50.24525199],[-118.68249034,50.24523637],[-118.682411,50.24521999],[-118.68227292,50.2452063],[-118.68215899,50.245195],[-118.682059,50.24518799],[-118.681806,50.24513799],[-118.68146922,50.24509239],[-118.681326,50.245073],[-118.681212,50.24503899],[-118.68109709,50.2450244],[-118.681086,50.24502299],[-118.68096,50.24499699],[-118.68079101,50.24498999],[-118.68073432,50.2449824],[-118.680679,50.244975],[-118.680508,50.24495899],[-118.68050174,50.24495831],[-118.680425,50.24494999],[-118.68018017,50.24487681],[-118.67997,50.24481399],[-118.679519,50.244757],[-118.67932967,50.24473064],[-118.67916699,50.24470799],[-118.679069,50.244691],[-118.678545,50.24457299],[-118.67854482,50.24457297],[-118.678123,50.24450699],[-118.677911,50.24446599],[-118.677713,50.24443199],[-118.67771286,50.24443199],[-118.67739,50.24442799],[-118.67723734,50.24442315],[-118.677012,50.24441599],[-118.676632,50.244412],[-118.67641024,50.24444197],[-118.67641,50.24444199],[-118.676269,50.244453],[-118.67592649,50.24455753],[-118.67586599,50.24457599],[-118.675658,50.24463299],[-118.67560748,50.24463344],[-118.675546,50.24463399],[-118.67513101,50.24474799],[-118.67513084,50.24474809],[-118.67494004,50.24486013],[-118.674896,50.244886],[-118.67489597,50.24488603],[-118.67483348,50.24497742],[-118.67479,50.24504099],[-118.67478995,50.2450414],[-118.67478806,50.24505684],[-118.674779,50.245131],[-118.67478246,50.24523223],[-118.67478299,50.245248],[-118.67481501,50.24538299],[-118.67482453,50.24543847],[-118.674832,50.24548199],[-118.674867,50.245661],[-118.67486701,50.24566107],[-118.674859,50.24582299],[-118.67479601,50.246048],[-118.67468999,50.246239],[-118.674572,50.246466],[-118.67452903,50.24651249],[-118.674438,50.24661099],[-118.67433301,50.24679299],[-118.67427184,50.24684939],[-118.674115,50.246994],[-118.67400699,50.24713899],[-118.67391092,50.24723889],[-118.673831,50.247322],[-118.673544,50.24752399],[-118.67351371,50.24753843],[-118.673351,50.24761599],[-118.67304601,50.24770999],[-118.672755,50.247814],[-118.67253201,50.24788799],[-118.672338,50.247982],[-118.67218269,50.24808723],[-118.672093,50.24814799],[-118.671941,50.24822199],[-118.67188609,50.24826088],[-118.67174899,50.24835799],[-118.671541,50.24841499],[-118.671402,50.248462],[-118.67120127,50.24850906],[-118.671193,50.248511],[-118.67101101,50.248514],[-118.670914,50.24853399],[-118.67077401,50.24854399],[-118.670577,50.24853799],[-118.67033901,50.248551],[-118.67025195,50.24855148],[-118.670158,50.24855199],[-118.669906,50.24855599],[-118.66977899,50.248549],[-118.66963674,50.248531],[-118.669526,50.248517],[-118.669299,50.24843999],[-118.669127,50.24836999],[-118.668899,50.24830199],[-118.66854699,50.248225],[-118.66850178,50.24821254],[-118.66841999,50.24818999],[-118.66829157,50.24817757],[-118.668265,50.248175],[-118.66825165,50.24817004],[-118.668079,50.248106],[-118.667657,50.248049],[-118.66727709,50.24799101],[-118.66727699,50.247991],[-118.66720318,50.24795365],[-118.66710501,50.24790399],[-118.66695232,50.24787979],[-118.666695,50.24783899],[-118.666259,50.247782],[-118.6660448,50.24769809],[-118.665945,50.24765899],[-118.66561913,50.24752106],[-118.66561899,50.247521],[-118.665167,50.24741999],[-118.66516693,50.24741997],[-118.66489599,50.24731499],[-118.6646412,50.24723474],[-118.664569,50.247212],[-118.66396599,50.24719299],[-118.66372672,50.24721692],[-118.663646,50.247225],[-118.66351286,50.24725413],[-118.663381,50.24728299],[-118.662811,50.247444],[-118.662491,50.24754799],[-118.66249051,50.24754816],[-118.662283,50.24762199],[-118.662047,50.24768899],[-118.661867,50.247736],[-118.66171714,50.24778149],[-118.66139599,50.24787899],[-118.6611816,50.24796293],[-118.661161,50.247971],[-118.66113078,50.24798445],[-118.660869,50.24810099],[-118.660551,50.248232],[-118.66050349,50.24825681],[-118.66030399,50.24836099],[-118.660059,50.24858099],[-118.65978599,50.24880999],[-118.65963796,50.2488927],[-118.659292,50.24908599],[-118.65924664,50.24911781],[-118.659004,50.24928799],[-118.65881843,50.2494362],[-118.658716,50.24951799],[-118.65863689,50.24956268],[-118.65852301,50.249627],[-118.65825538,50.24976887],[-118.658208,50.24979399],[-118.65816964,50.24980993],[-118.657917,50.24991499],[-118.657684,50.25006299],[-118.657353,50.250247],[-118.657148,50.25036699],[-118.656526,50.25066399],[-118.65652562,50.25066412],[-118.65619299,50.250777],[-118.65579,50.250899],[-118.655513,50.25098499],[-118.65531899,50.25104],[-118.65508201,50.25111599],[-118.65474999,50.251193],[-118.654428,50.25125099],[-118.65423401,50.25129899],[-118.653998,50.25138299],[-118.653624,50.251523],[-118.65321999,50.251601],[-118.6529,50.25166],[-118.652663,50.25172699],[-118.652358,50.25181099],[-118.652065,50.25183399],[-118.65184,50.251836],[-118.65158699,50.25182199],[-118.65143,50.25179799],[-118.651161,50.251675],[-118.651004,50.251597],[-118.65072101,50.25150999],[-118.650381,50.25148],[-118.650214,50.25147299],[-118.649989,50.25146799],[-118.64972301,50.251472],[-118.64941499,50.251493],[-118.64917801,50.25153299],[-118.648928,50.25159],[-118.648664,50.25167499],[-118.64823601,50.251906],[-118.64811199,50.251989],[-118.647951,50.252144],[-118.64781501,50.25228099],[-118.647748,50.25237199],[-118.647613,50.25249999],[-118.647504,50.252645],[-118.64735501,50.252809],[-118.647233,50.25292699],[-118.647044,50.25310099],[-118.646911,50.25329999],[-118.64677601,50.253501],[-118.646629,50.253701],[-118.64652201,50.25386399],[-118.646402,50.25402799],[-118.64628099,50.25418199],[-118.646215,50.2543],[-118.64614801,50.254391],[-118.645941,50.25451999],[-118.645681,50.25464899],[-118.645612,50.254705],[-118.645476,50.25486899],[-118.645315,50.25506799],[-118.64504199,50.25527],[-118.644878,50.25539799],[-118.644741,50.255508],[-118.64461801,50.255609],[-118.644468,50.25569199],[-118.644232,50.25580299],[-118.644039,50.25587799],[-118.643581,50.256065],[-118.64334601,50.25615699],[-118.64307,50.25629699],[-118.642864,50.25638999],[-118.642545,50.25649199],[-118.642365,50.25656799],[-118.642046,50.256697],[-118.64178401,50.25679099],[-118.641645,50.256838],[-118.641327,50.25694199],[-118.641022,50.25705299],[-118.64073,50.257166],[-118.64044,50.257305],[-118.64026715,50.25739768],[-118.64012986,50.25745395],[-118.640108,50.257462],[-118.639638,50.25764],[-118.63907218,50.25781642],[-118.6388342,50.25790232],[-118.638666,50.25795899],[-118.638543,50.258006],[-118.638446,50.25806999],[-118.63832301,50.258144],[-118.6383209,50.25814472],[-118.63797469,50.25823018],[-118.6377028,50.25837892],[-118.63758449,50.25840045],[-118.63739297,50.25844736],[-118.63721834,50.258487],[-118.63696486,50.25855928],[-118.63679586,50.25861724],[-118.63677333,50.25862813],[-118.63655362,50.25871149],[-118.63631141,50.25882405],[-118.63604666,50.25892921],[-118.63588329,50.25900179],[-118.63564106,50.25911068],[-118.63539882,50.25922324],[-118.63504395,50.25938294],[-118.63484676,50.25946638],[-118.63455946,50.25954954],[-118.63434589,50.25960344],[-118.63400904,50.25959918],[-118.63376787,50.25960257],[-118.633728,50.25960299],[-118.633519,50.259651],[-118.63326801,50.25969899],[-118.632977,50.25975799],[-118.632753,50.25981499],[-118.63245,50.25992699],[-118.632337,50.25996399],[-118.63205901,50.26002299],[-118.631808,50.26008799],[-118.631644,50.260154],[-118.63145,50.26026499],[-118.631218,50.26045699],[-118.631012,50.26058499],[-118.63095718,50.26061342],[-118.63126583,50.2607466],[-118.63178533,50.26097075],[-118.63317361,50.26060586],[-118.6390162,50.260609],[-118.6390072,50.26784472],[-118.6615849,50.26785403],[-118.67235586,50.26783292],[-118.67235595,50.26783292],[-118.67456205,50.26783631],[-118.69530002,50.26786699],[-118.69496314,50.32639486],[-118.69471118,50.37006815],[-118.69459709,50.38981402],[-118.69459661,50.39703866],[-118.69478393,50.39703866],[-118.70590415,50.39703839],[-118.70589095,50.4],[-118.70585488,50.40426282],[-118.70019437,50.40424683],[-118.7001437,50.41150024],[-118.69564281,50.41149211],[-118.69448233,50.41148999],[-118.69406021,50.41148877],[-118.6880433,50.41147114],[-118.68549328,50.41146357],[-118.68486677,50.4114617],[-118.68481676,50.41830523],[-118.68479681,50.4210359],[-118.69387989,50.42106263],[-118.69441433,50.42106418],[-118.69438182,50.425952],[-118.69437895,50.43318025],[-118.69436291,50.44507172],[-118.69432787,50.47103481],[-118.6943132,50.48189039],[-118.69430967,50.48862709],[-118.69430935,50.48863538]]]},"geometry_name":"SHAPE","properties":{"id":345,"slug":"vernon-lumby","name":"Vernon-Lumby","abbreviation":"VRL","gazetteDate":"2023-12-07Z","boundarySet":11},"bbox":[-119.45398893,50.15149444,-118.63095718,50.4888227]}
