{"type":"Feature","id":346,"geometry":{"type":"Polygon","coordinates":[[[-123.37125664,48.43594309],[-123.37157509,48.43587224],[-123.37264836,48.43543287],[-123.37452833,48.43506471],[-123.37641135,48.43473892],[-123.37715312,48.43457941],[-123.37752466,48.43450037],[-123.37796229,48.43440721],[-123.37671268,48.43297655],[-123.37391752,48.43221045],[-123.37231474,48.43099741],[-123.37226555,48.43025748],[-123.37224854,48.4300016],[-123.37232016,48.4291862],[-123.37233178,48.42849261],[-123.37234027,48.42835636],[-123.37234149,48.42833669],[-123.37234655,48.42825522],[-123.3723488,48.42821909],[-123.37246701,48.42799062],[-123.37257536,48.42643121],[-123.37295369,48.42400708],[-123.37307201,48.42357901],[-123.37321818,48.42364683],[-123.37335286,48.42370932],[-123.37343263,48.42374633],[-123.37370848,48.42387719],[-123.37550363,48.42473108],[-123.37600642,48.42497022],[-123.37622586,48.42507457],[-123.37648942,48.42505539],[-123.37713747,48.42500822],[-123.37969802,48.42482183],[-123.38216624,48.4246421],[-123.38242653,48.42462281],[-123.38396137,48.42451756],[-123.38516086,48.42446474],[-123.38681795,48.42439173],[-123.38838581,48.42413027],[-123.39012222,48.42384068],[-123.39063016,48.42375596],[-123.39131259,48.42364214],[-123.39128624,48.42321387],[-123.39126319,48.42284678],[-123.39124387,48.42252918],[-123.39175114,48.42133427],[-123.39177094,48.42129225],[-123.39242459,48.41957038],[-123.39317186,48.41829109],[-123.39411746,48.41643285],[-123.39452948,48.41477115],[-123.39461889,48.41344023],[-123.39465344,48.41294131],[-123.39475815,48.4114292],[-123.39478813,48.41099629],[-123.39530374,48.40354981],[-123.39539125,48.40228533],[-123.395738,48.39598477],[-123.39580124,48.39423939],[-123.39590945,48.39125995],[-123.39634807,48.38202013],[-123.39710797,48.36819879],[-123.40342321,48.25300776],[-123.40244564,48.25320635],[-123.40000007,48.25370304],[-123.39724452,48.25426276],[-123.36377402,48.26105552],[-123.34492032,48.2648775],[-123.34033924,48.34663218],[-123.33695496,48.40684044],[-123.33716516,48.41002177],[-123.33711483,48.41016312],[-123.33711235,48.4102139],[-123.3371087,48.41029771],[-123.33707339,48.41220117],[-123.33634859,48.41228626],[-123.33611204,48.41233647],[-123.33529993,48.41250808],[-123.33489502,48.41263484],[-123.33456543,48.41281144],[-123.33428356,48.41300086],[-123.33409469,48.41319633],[-123.33352552,48.41378346],[-123.33330241,48.41401347],[-123.33251642,48.41480071],[-123.3324171,48.41488758],[-123.33216102,48.41499475],[-123.33156448,48.415171],[-123.33045892,48.41547222],[-123.33106215,48.41666428],[-123.33149692,48.41759073],[-123.33193618,48.41852608],[-123.33237351,48.41948671],[-123.33203459,48.42041992],[-123.33193657,48.42060507],[-123.33184596,48.42077669],[-123.3310411,48.42171311],[-123.3306227,48.42219983],[-123.33039055,48.422469],[-123.33011763,48.4227866],[-123.33008271,48.42293009],[-123.33009532,48.42324021],[-123.33013544,48.4241923],[-123.33014827,48.4245569],[-123.33017419,48.42515684],[-123.33022852,48.42643934],[-123.33022505,48.42838695],[-123.33020969,48.42916243],[-123.3301632,48.42955872],[-123.33006541,48.42978374],[-123.32979584,48.4308049],[-123.32959026,48.43157362],[-123.32946851,48.43230103],[-123.32919303,48.43364406],[-123.33021026,48.43371029],[-123.33122501,48.43377616],[-123.33253598,48.43386126],[-123.33333403,48.43391324],[-123.33377131,48.43394172],[-123.33433741,48.43397199],[-123.33503759,48.43400332],[-123.33559457,48.43403358],[-123.33573024,48.43404106],[-123.33626048,48.43407026],[-123.33693498,48.43410052],[-123.33740843,48.43412865],[-123.33830295,48.43417814],[-123.33858316,48.43418989],[-123.33961515,48.43423831],[-123.33981719,48.43424793],[-123.34099791,48.43430169],[-123.34232124,48.43435937],[-123.34292676,48.43439106],[-123.34364886,48.43442987],[-123.34499162,48.43450749],[-123.3463094,48.43458653],[-123.34765092,48.43465988],[-123.34930974,48.43480159],[-123.35098425,48.43490378],[-123.3522782,48.4349878],[-123.35229516,48.43498816],[-123.35339295,48.43504798],[-123.354571,48.43509996],[-123.35515143,48.43513877],[-123.35580006,48.43517295],[-123.35656487,48.43520393],[-123.35754448,48.43526944],[-123.35800662,48.43530042],[-123.35948341,48.43538658],[-123.361034,48.43546313],[-123.36263309,48.43557778],[-123.36272062,48.43558134],[-123.36283511,48.43558562],[-123.36414964,48.43564009],[-123.36545273,48.43571593],[-123.36731412,48.43580886],[-123.36901807,48.4358701],[-123.37012222,48.43595484],[-123.3703579,48.435973],[-123.37078598,48.43598796],[-123.37125664,48.43594309]]]},"geometry_name":"SHAPE","properties":{"id":346,"slug":"victoria-beacon-hill","name":"Victoria-Beacon Hill","abbreviation":"VTB","gazetteDate":"2023-12-07Z","boundarySet":11},"bbox":[-123.40342321,48.25300776,-123.32919303,48.43598796]}
