{"type":"Feature","id":348,"geometry":{"type":"Polygon","coordinates":[[[-119.4716479,50.23486338],[-119.47204603,50.23486765],[-119.47278262,50.23487549],[-119.4728866,50.23487655],[-119.47337725,50.23488154],[-119.4734475,50.23488225],[-119.4735172,50.23488296],[-119.47400785,50.23488795],[-119.47443748,50.23489258],[-119.47450662,50.23489329],[-119.47484897,50.23489685],[-119.47533962,50.23490183],[-119.47540932,50.23490255],[-119.47547957,50.23490326],[-119.47597,50.2349086],[-119.47681079,50.23491714],[-119.4769867,50.23491893],[-119.47722295,50.23492213],[-119.47730155,50.23492284],[-119.47736991,50.23492391],[-119.48139267,50.2349734],[-119.48308151,50.23499405],[-119.4889165,50.23506633],[-119.48905132,50.23506704],[-119.48912179,50.2350674],[-119.48919171,50.23506775],[-119.48920395,50.23506775],[-119.48958783,50.23506989],[-119.48968202,50.2350706],[-119.49010296,50.2350731],[-119.49052302,50.23507523],[-119.49101388,50.23507808],[-119.4910838,50.23507844],[-119.49115371,50.23507879],[-119.49164458,50.23508164],[-119.49169,50.235082],[-119.49248558,50.23508627],[-119.49297589,50.23508912],[-119.4930458,50.23508947],[-119.49311628,50.23508983],[-119.49360658,50.23509268],[-119.4940272,50.23509481],[-119.49404646,50.23509517],[-119.49444769,50.23509624],[-119.49493833,50.23509766],[-119.49500847,50.23509766],[-119.49507838,50.23509802],[-119.49556902,50.23509944],[-119.49641023,50.23510194],[-119.49690031,50.23510336],[-119.4969582,50.23510336],[-119.49699772,50.23510336],[-119.49704092,50.23510372],[-119.49720157,50.23510407],[-119.4973787,50.23510478],[-119.49753156,50.23510514],[-119.49795172,50.23510621],[-119.49837221,50.23510763],[-119.49886285,50.23510906],[-119.49893299,50.23510906],[-119.4990029,50.23510941],[-119.49949354,50.23511084],[-119.49956735,50.23511119],[-119.50032362,50.23511333],[-119.50082483,50.23511475],[-119.50089497,50.23511475],[-119.50091779,50.23511475],[-119.50096544,50.23511511],[-119.50145608,50.23511653],[-119.50187624,50.2351176],[-119.50229696,50.23511867],[-119.50278759,50.23512009],[-119.50285751,50.23512045],[-119.50288479,50.23512045],[-119.50292743,50.23512081],[-119.50341828,50.23512187],[-119.50425894,50.23512437],[-119.50474958,50.23512579],[-119.50481949,50.23512615],[-119.50485679,50.23512615],[-119.50488963,50.23512615],[-119.50538027,50.23512757],[-119.50549694,50.23512793],[-119.50580109,50.23512757],[-119.50622158,50.23512722],[-119.50671221,50.23512686],[-119.50678201,50.2351265],[-119.50683489,50.2351265],[-119.50734277,50.23512615],[-119.50818375,50.23512544],[-119.50867404,50.23512472],[-119.50874418,50.23512472],[-119.50881431,50.23512472],[-119.50930516,50.23512401],[-119.50972565,50.23512366],[-119.51014614,50.2351233],[-119.51063676,50.23512294],[-119.51070657,50.23512259],[-119.5107767,50.23512259],[-119.51126733,50.23512223],[-119.51162826,50.23512187],[-119.51182609,50.23512152],[-119.51199698,50.23512152],[-119.52809942,50.23526287],[-119.52831797,50.23526323],[-119.52838788,50.23526358],[-119.52845836,50.23526394],[-119.52894844,50.23526536],[-119.52935335,50.23526679],[-119.52978977,50.23526857],[-119.53028041,50.23526999],[-119.53035033,50.23527035],[-119.53042024,50.2352707],[-119.53091066,50.23527249],[-119.53175166,50.23527533],[-119.53224263,50.23527711],[-119.53231277,50.23527711],[-119.53238269,50.23527747],[-119.53287311,50.23527925],[-119.53329361,50.23528067],[-119.53371411,50.2352821],[-119.53418582,50.23528352],[-119.53434458,50.23528424],[-119.53483555,50.23528602],[-119.53567655,50.23528886],[-119.53616719,50.23529029],[-119.53623711,50.23529064],[-119.53630702,50.235291],[-119.53679744,50.23529278],[-119.53721794,50.2352942],[-119.53763844,50.23529563],[-119.53809178,50.23529705],[-119.53813687,50.23529705],[-119.53819955,50.23529741],[-119.53826947,50.23529777],[-119.53876011,50.23529919],[-119.53960111,50.23530204],[-119.54009153,50.23530382],[-119.54016144,50.23530417],[-119.54023158,50.23530417],[-119.540722,50.23530595],[-119.5411425,50.23530738],[-119.541563,50.2353088],[-119.54205397,50.23531058],[-119.54212355,50.23531058],[-119.54219403,50.23531094],[-119.54269502,50.23531272],[-119.54352545,50.23531557],[-119.54401608,50.23531699],[-119.544086,50.23531735],[-119.54415592,50.2353177],[-119.54464656,50.23531913],[-119.54506706,50.23532055],[-119.54548756,50.23532198],[-119.54597798,50.23532376],[-119.54604811,50.23532376],[-119.54611859,50.23532411],[-119.54660901,50.23532589],[-119.54664797,50.23532589],[-119.54744967,50.23532839],[-119.54794065,50.23533017],[-119.54801056,50.23533052],[-119.5480807,50.23533052],[-119.54857112,50.2353323],[-119.54899162,50.23533373],[-119.54941212,50.23533515],[-119.54990276,50.23533657],[-119.54997268,50.23533693],[-119.55004315,50.23533729],[-119.55053323,50.23533871],[-119.55060092,50.23533907],[-119.55137424,50.23534156],[-119.55186487,50.23534298],[-119.55193535,50.23534334],[-119.55200527,50.2353437],[-119.55249591,50.23534512],[-119.55291641,50.23534654],[-119.55333691,50.23534797],[-119.55382733,50.23534975],[-119.55389746,50.23534975],[-119.55396738,50.2353501],[-119.55431295,50.23535117],[-119.55438009,50.23535153],[-119.55445802,50.23535153],[-119.55455354,50.23535188],[-119.55529902,50.23535438],[-119.55578944,50.23535616],[-119.55585958,50.23535616],[-119.5559295,50.23535651],[-119.55642013,50.23535794],[-119.55684064,50.23535936],[-119.55726114,50.23536079],[-119.55775178,50.23536221],[-119.55782169,50.23536257],[-119.55789161,50.23536292],[-119.55838225,50.23536435],[-119.55850616,50.2353647],[-119.55922325,50.23536719],[-119.55971389,50.23536862],[-119.55978381,50.23536898],[-119.55985428,50.23536933],[-119.56034492,50.23537076],[-119.56076543,50.23537218],[-119.56118593,50.2353736],[-119.56167601,50.23537503],[-119.56174648,50.23537538],[-119.56181662,50.23537538],[-119.56230704,50.23537716],[-119.56245879,50.23537752],[-119.56314771,50.23537966],[-119.56363868,50.23538144],[-119.56370882,50.23538144],[-119.56377874,50.23538179],[-119.56426938,50.23538322],[-119.56468988,50.23538464],[-119.56511038,50.23538607],[-119.56560102,50.23538749],[-119.56567094,50.23538785],[-119.56574108,50.23538785],[-119.5662315,50.23538963],[-119.56641163,50.23538998],[-119.56707216,50.23539212],[-119.56751215,50.23539354],[-119.5677032,50.23539425],[-119.56819384,50.23539568],[-119.56861434,50.2353971],[-119.56903484,50.23539853],[-119.56952548,50.23539995],[-119.5695954,50.23540031],[-119.56966553,50.23540031],[-119.57015617,50.23540173],[-119.57036448,50.23540244],[-119.57099718,50.23540458],[-119.57148726,50.235406],[-119.57155774,50.23540636],[-119.57162787,50.23540636],[-119.57211829,50.23540814],[-119.57253846,50.23540921],[-119.57295896,50.23541063],[-119.5734496,50.23541206],[-119.57352008,50.23541241],[-119.57359,50.23541277],[-119.57408063,50.23541419],[-119.57431733,50.23541491],[-119.5749213,50.23541669],[-119.57541194,50.23541811],[-119.57548186,50.23541847],[-119.57555234,50.23541882],[-119.57604242,50.23542025],[-119.57646314,50.23542132],[-119.57688364,50.23542274],[-119.57737428,50.23542416],[-119.5774442,50.23542452],[-119.57751412,50.23542488],[-119.57800476,50.2354263],[-119.57826984,50.23542701],[-119.57884599,50.23542879],[-119.57933663,50.23543022],[-119.57940654,50.23543057],[-119.57947668,50.23543057],[-119.5799671,50.23543235],[-119.58038783,50.23543342],[-119.58080833,50.23543484],[-119.58129897,50.23543627],[-119.58136889,50.23543662],[-119.58143902,50.23543663],[-119.58192967,50.23543805],[-119.58222291,50.23543912],[-119.58277033,50.23544054],[-119.58326076,50.23544232],[-119.58333089,50.23544232],[-119.58340137,50.23544268],[-119.58389145,50.2354441],[-119.58431195,50.23544553],[-119.58473268,50.23544659],[-119.58522332,50.23544802],[-119.58529324,50.23544837],[-119.58536337,50.23544838],[-119.58585379,50.23545016],[-119.58617565,50.23545087],[-119.58669502,50.23545265],[-119.58718566,50.23545407],[-119.58725524,50.23545407],[-119.58732572,50.23545443],[-119.58781636,50.23545585],[-119.58823686,50.23545728],[-119.58865703,50.23545834],[-119.58914767,50.23545977],[-119.58921759,50.23546012],[-119.58928773,50.23546012],[-119.58977837,50.23546155],[-119.59012839,50.23546262],[-119.59061959,50.23546404],[-119.59110968,50.23546547],[-119.59118015,50.23546582],[-119.59125007,50.23546618],[-119.59174071,50.2354676],[-119.59216088,50.23546867],[-119.59258138,50.23547009],[-119.59307202,50.23547152],[-119.59314216,50.23547152],[-119.59321208,50.23547187],[-119.59370272,50.2354733],[-119.59408114,50.23547437],[-119.59454395,50.23547579],[-119.59503459,50.23547722],[-119.59510417,50.23547722],[-119.59517464,50.23547757],[-119.59566529,50.23547899],[-119.59608545,50.23548006],[-119.59650596,50.23548149],[-119.5969966,50.23548291],[-119.59706674,50.23548291],[-119.59713665,50.23548327],[-119.5976273,50.23548469],[-119.59803355,50.23548576],[-119.59846852,50.23548718],[-119.59895861,50.23548861],[-119.59902875,50.23548861],[-119.59909922,50.23548897],[-119.59958931,50.23549039],[-119.60000001,50.23549146],[-119.72311554,50.23577985],[-119.76059565,50.23584083],[-119.76041646,50.23561216],[-119.76013003,50.23494456],[-119.75975641,50.23433642],[-119.75961456,50.23373612],[-119.75970358,50.23314329],[-119.7595133,50.23247427],[-119.7589032,50.23202814],[-119.75824883,50.23184228],[-119.75799519,50.23181664],[-119.75775315,50.23179207],[-119.75750519,50.23183053],[-119.75738385,50.23185225],[-119.75700838,50.23191883],[-119.7563183,50.23208154],[-119.75530735,50.23230621],[-119.75531323,50.23169665],[-119.75531443,50.23156349],[-119.75520275,50.23080937],[-119.75467104,50.23004955],[-119.75402461,50.22926909],[-119.75394836,50.2290818],[-119.75376856,50.22863852],[-119.75346902,50.22822593],[-119.75333714,50.22804427],[-119.75446914,50.22774127],[-119.7555146,50.22738984],[-119.75523132,50.22671584],[-119.75508492,50.22601477],[-119.75405981,50.22598486],[-119.75299208,50.22595638],[-119.75244466,50.2253518],[-119.75193872,50.22470699],[-119.75159796,50.22390231],[-119.7513521,50.22341737],[-119.75123431,50.22293954],[-119.75119116,50.22248878],[-119.75109237,50.2220163],[-119.75086224,50.22154204],[-119.75072465,50.22115252],[-119.74978367,50.22112083],[-119.74979976,50.22050877],[-119.75002196,50.21992983],[-119.75028095,50.21936798],[-119.75057672,50.21882322],[-119.75067553,50.21824499],[-119.75048622,50.2177127],[-119.74984415,50.21730217],[-119.74900896,50.21708426],[-119.74804605,50.21699703],[-119.74758456,50.21653096],[-119.74732331,50.21612648],[-119.74710308,50.21576295],[-119.74705892,50.2154361],[-119.74691727,50.21504978],[-119.74694738,50.21463213],[-119.74698126,50.21408274],[-119.74699798,50.21344648],[-119.74686472,50.21270411],[-119.74667768,50.21205182],[-119.74655228,50.21149104],[-119.74627381,50.21106591],[-119.74590058,50.21064292],[-119.74588835,50.21001947],[-119.74584233,50.20938499],[-119.74592694,50.20882207],[-119.74608475,50.20825773],[-119.74630963,50.20767665],[-119.74668861,50.20711907],[-119.74694768,50.20650417],[-119.74705122,50.20604878],[-119.74698667,50.20563148],[-119.74675459,50.20525229],[-119.74722749,50.20516007],[-119.74768673,50.20494822],[-119.74813376,50.20461709],[-119.74845311,50.20451134],[-119.74881913,50.20446078],[-119.74927419,50.20452309],[-119.74979343,50.20460855],[-119.75035214,50.20469044],[-119.75108659,50.20459715],[-119.75191065,50.20446043],[-119.75282332,50.20428098],[-119.7537651,50.20413464],[-119.75444731,50.20391567],[-119.75486963,50.2036237],[-119.75535205,50.20323952],[-119.75592412,50.20287599],[-119.75652715,50.20287955],[-119.75716185,50.20249288],[-119.7575602,50.20194349],[-119.75772121,50.2012321],[-119.75897099,50.20135245],[-119.76015546,50.20139909],[-119.7611058,50.20142757],[-119.76188611,50.20151089],[-119.76274405,50.20107686],[-119.76333516,50.20117656],[-119.76383613,50.20135672],[-119.76424684,50.20161664],[-119.76459076,50.20190824],[-119.76492728,50.20223902],[-119.76533241,50.20203179],[-119.7659814,50.20172844],[-119.76678299,50.20144644],[-119.76757358,50.20122569],[-119.76824973,50.20104446],[-119.7690019,50.20074965],[-119.76969832,50.20040713],[-119.77056286,50.20035087],[-119.77138825,50.200379],[-119.77210015,50.2004171],[-119.77268175,50.20029818],[-119.77313337,50.20002259],[-119.77362388,50.19972992],[-119.77419071,50.19954548],[-119.77480671,50.19950169],[-119.77538036,50.19954299],[-119.77655593,50.19975769],[-119.77737437,50.20001405],[-119.77812403,50.20028999],[-119.77880437,50.20058551],[-119.77975567,50.2008764],[-119.78046596,50.20125346],[-119.78094951,50.20167361],[-119.78135765,50.20207167],[-119.78181764,50.20259436],[-119.78235774,50.20312701],[-119.78306972,50.20337304],[-119.78378482,50.20356068],[-119.78453678,50.20363866],[-119.78526203,50.2035792],[-119.78600142,50.20338551],[-119.78675495,50.20305758],[-119.78718638,50.20293225],[-119.78757882,50.20276811],[-119.78809617,50.20290555],[-119.78871412,50.20301058],[-119.78946129,50.20305473],[-119.79000624,50.20313556],[-119.79022027,50.20331216],[-119.79050671,50.20352116],[-119.79086502,50.20376256],[-119.79139303,50.20400753],[-119.79116781,50.20470575],[-119.79155612,50.20559588],[-119.79242453,50.205509],[-119.79317949,50.2054709],[-119.79406197,50.2054118],[-119.79507273,50.20533133],[-119.79531001,50.204788],[-119.79544497,50.20426994],[-119.79619307,50.20364044],[-119.79679467,50.2039648],[-119.79754867,50.20415351],[-119.79845451,50.20420656],[-119.79912062,50.20438352],[-119.7995998,50.20448179],[-119.79997181,50.20453271],[-119.80034044,50.20452487],[-119.80086837,50.20449318],[-119.80178133,50.2043383],[-119.80267847,50.20412859],[-119.80351405,50.20395839],[-119.80359752,50.2034706],[-119.80370376,50.20289237],[-119.8039975,50.20232767],[-119.80417386,50.20158566],[-119.80424975,50.20094014],[-119.80433465,50.20031527],[-119.80442833,50.1997114],[-119.80482304,50.19919334],[-119.80518143,50.19869274],[-119.80546141,50.19818216],[-119.80556879,50.19765377],[-119.80561735,50.19720479],[-119.80578131,50.19681598],[-119.8061169,50.19653613],[-119.80654195,50.19632606],[-119.80710879,50.19618933],[-119.8077048,50.19584503],[-119.80833413,50.19558404],[-119.8087917,50.19550108],[-119.80908478,50.1954758],[-119.80926911,50.19498872],[-119.80951829,50.19451197],[-119.80999232,50.19455149],[-119.8105075,50.19446889],[-119.81106419,50.19426451],[-119.81165744,50.19394727],[-119.81234468,50.19371868],[-119.81313235,50.19353389],[-119.8132638,50.19314366],[-119.81374153,50.19251131],[-119.81431043,50.19198578],[-119.81496882,50.19156706],[-119.8154453,50.1912986],[-119.81584337,50.19103013],[-119.81643416,50.1905929],[-119.81663897,50.19026426],[-119.81691161,50.18988863],[-119.81743238,50.18961233],[-119.8180814,50.18937164],[-119.8187149,50.18919148],[-119.81937428,50.18911849],[-119.81981841,50.18892159],[-119.82019672,50.18868161],[-119.82050886,50.18839819],[-119.82085813,50.18806885],[-119.82128163,50.18772276],[-119.82133277,50.18716376],[-119.82175057,50.18712638],[-119.82212764,50.18710822],[-119.82338709,50.1870776],[-119.82414294,50.18706834],[-119.82464401,50.18664036],[-119.82522283,50.18629036],[-119.82574555,50.1859927],[-119.82619216,50.18570217],[-119.8264652,50.18534754],[-119.82719391,50.18560674],[-119.82780197,50.18594286],[-119.82829014,50.18635552],[-119.82894073,50.18614474],[-119.82951184,50.18581717],[-119.83000203,50.18537246],[-119.83040291,50.18496086],[-119.83068625,50.18465003],[-119.83091711,50.18433955],[-119.83101076,50.18403157],[-119.83103213,50.18368014],[-119.83097948,50.18334332],[-119.83089463,50.18301183],[-119.83075109,50.18271524],[-119.83091351,50.18238767],[-119.83054892,50.18209251],[-119.83022262,50.18183366],[-119.82987124,50.1816364],[-119.82946091,50.18151428],[-119.8291568,50.18158478],[-119.82838348,50.18177455],[-119.82781004,50.18194759],[-119.82725269,50.18207186],[-119.82653786,50.1820715],[-119.82582389,50.18207969],[-119.8254614,50.18210675],[-119.82489621,50.18218045],[-119.82436173,50.18222318],[-119.82385946,50.18226234],[-119.82325493,50.18222638],[-119.822796,50.18212633],[-119.82248313,50.18196326],[-119.82132036,50.18220039],[-119.82007091,50.18239942],[-119.81920743,50.18248345],[-119.81800701,50.18255751],[-119.81744207,50.18224739],[-119.81680951,50.18205085],[-119.81622139,50.18183722],[-119.81574295,50.18156911],[-119.81536255,50.18119134],[-119.81546491,50.18065512],[-119.81539931,50.18014704],[-119.81476765,50.18009648],[-119.81410787,50.18004734],[-119.81342009,50.18000034],[-119.81269645,50.17992486],[-119.81249963,50.17943493],[-119.8125206,50.1788097],[-119.81281078,50.17826566],[-119.81337027,50.1778035],[-119.81407403,50.17738158],[-119.81353965,50.17729043],[-119.81298579,50.17721922],[-119.81242542,50.17727156],[-119.81187383,50.17728794],[-119.81129001,50.17720035],[-119.81071181,50.17710635],[-119.8102316,50.17696785],[-119.80990548,50.17676774],[-119.80972051,50.17647649],[-119.8095472,50.17599191],[-119.80932354,50.17552049],[-119.80933279,50.17496149],[-119.80946361,50.17440462],[-119.8097741,50.17372563],[-119.81013116,50.17299715],[-119.81034489,50.17228932],[-119.81041473,50.17160214],[-119.81027878,50.17110758],[-119.81020843,50.17071058],[-119.80960353,50.17068815],[-119.80900543,50.17073052],[-119.80910282,50.17037625],[-119.80944526,50.17001129],[-119.81003352,50.1696353],[-119.80907875,50.16941633],[-119.8083906,50.16908841],[-119.80792323,50.16868358],[-119.80743654,50.16826771],[-119.80680818,50.16789599],[-119.80619237,50.16790489],[-119.80550308,50.16785255],[-119.80477314,50.16774253],[-119.80412502,50.16752035],[-119.80356765,50.16711196],[-119.80302388,50.16665621],[-119.80253029,50.1664052],[-119.80209791,50.16614777],[-119.80183741,50.16560123],[-119.80180048,50.16505362],[-119.8019881,50.16450423],[-119.80221474,50.16394203],[-119.80226138,50.16327407],[-119.80196099,50.16252885],[-119.80132775,50.16183954],[-119.80057002,50.16132718],[-119.80022362,50.16051965],[-119.79990776,50.15990083],[-119.79962086,50.15946965],[-119.79941763,50.15886294],[-119.79922496,50.15820211],[-119.79915277,50.15760287],[-119.79903052,50.1570371],[-119.79880207,50.15647596],[-119.7996854,50.15601986],[-119.8005114,50.15561895],[-119.80100708,50.15536544],[-119.80135009,50.15514326],[-119.80154099,50.15495242],[-119.80165969,50.15458105],[-119.80211631,50.15433502],[-119.80248426,50.15399927],[-119.80276244,50.15357378],[-119.80351318,50.15324087],[-119.80402882,50.15293146],[-119.80452569,50.15259571],[-119.80483402,50.15233508],[-119.80519022,50.15206982],[-119.80573828,50.15178355],[-119.80559463,50.15140329],[-119.80572195,50.15105222],[-119.8061198,50.15073106],[-119.80677455,50.15043304],[-119.80737543,50.150098],[-119.80652881,50.15017526],[-119.80563281,50.15030202],[-119.80485695,50.15036361],[-119.80446587,50.15034902],[-119.80418053,50.1502746],[-119.80423137,50.15021372],[-119.80425117,50.15018879],[-119.80427664,50.15015105],[-119.804294,50.15012648],[-119.80432468,50.1499125],[-119.8042228,50.14959347],[-119.80384133,50.1491655],[-119.80315221,50.14888066],[-119.80224738,50.14859154],[-119.80127387,50.14830207],[-119.80020321,50.14786911],[-119.79945247,50.14820202],[-119.79904362,50.14839215],[-119.7986223,50.14852496],[-119.7981524,50.14862928],[-119.79768481,50.14879841],[-119.7972171,50.14899388],[-119.79670336,50.14931184],[-119.79616006,50.14935492],[-119.79547495,50.14936845],[-119.79497122,50.14937165],[-119.7944511,50.14933925],[-119.79412722,50.14962409],[-119.79374556,50.14988188],[-119.79330623,50.15011331],[-119.79268592,50.15028137],[-119.79214701,50.15040207],[-119.79147327,50.15031234],[-119.79071049,50.15003711],[-119.78993756,50.14967287],[-119.78918476,50.14940583],[-119.78848134,50.14942292],[-119.78774815,50.14962623],[-119.78691885,50.14930934],[-119.78602899,50.14903483],[-119.78509178,50.14896967],[-119.78424473,50.14900884],[-119.7834644,50.14915339],[-119.78258328,50.14911351],[-119.78164741,50.14896326],[-119.78052848,50.14898106],[-119.78014695,50.14867521],[-119.77938567,50.14826255],[-119.77850699,50.14791504],[-119.77751025,50.14763198],[-119.77726773,50.14714312],[-119.77708781,50.14679063],[-119.77697216,50.1465745],[-119.77714217,50.14651504],[-119.7772357,50.14648051],[-119.77741299,50.14639933],[-119.77773119,50.14618605],[-119.77823695,50.14585421],[-119.77869965,50.14544261],[-119.77896377,50.14501428],[-119.77898409,50.14455604],[-119.77893186,50.14394969],[-119.77893528,50.14330986],[-119.7788815,50.14289435],[-119.77877645,50.14258992],[-119.77874478,50.14233677],[-119.77885542,50.1420943],[-119.77900435,50.1417411],[-119.77911234,50.14138041],[-119.77914202,50.14100798],[-119.77912074,50.14063982],[-119.77912899,50.14029766],[-119.77918457,50.14004451],[-119.77926094,50.13967385],[-119.77928502,50.13936729],[-119.77938509,50.13892401],[-119.77971524,50.13858327],[-119.77996443,50.13829273],[-119.78018729,50.1378206],[-119.78022093,50.13726979],[-119.78006492,50.136641],[-119.78037397,50.13631557],[-119.78048792,50.13597411],[-119.78027904,50.13551125],[-119.77999117,50.13504767],[-119.77957501,50.13452285],[-119.77911345,50.1339699],[-119.77883902,50.13339096],[-119.77893903,50.13283266],[-119.77919817,50.13231176],[-119.77936339,50.13178195],[-119.7799473,50.13172321],[-119.78099546,50.13169793],[-119.78087834,50.13133404],[-119.78063113,50.13093526],[-119.78025459,50.13050123],[-119.78044987,50.13001095],[-119.7805289,50.12941741],[-119.78053444,50.12881248],[-119.77990986,50.12860953],[-119.77951956,50.12835994],[-119.77939778,50.12803522],[-119.77920691,50.12769376],[-119.77909797,50.12726365],[-119.7788101,50.12676981],[-119.77852762,50.12621864],[-119.77814192,50.12567637],[-119.77805345,50.12539046],[-119.7779959,50.12509494],[-119.77807492,50.12479229],[-119.77813193,50.12451813],[-119.77811657,50.12425145],[-119.77799953,50.12394346],[-119.77798696,50.12372805],[-119.7780712,50.12338909],[-119.77818704,50.12307541],[-119.77820525,50.12282724],[-119.77835255,50.12254987],[-119.77798742,50.12212653],[-119.77762302,50.12179647],[-119.77737396,50.12152159],[-119.77728996,50.12119972],[-119.77740475,50.12084011],[-119.77760283,50.1204805],[-119.77678991,50.12053889],[-119.77583252,50.12075395],[-119.77497682,50.12106335],[-119.7742228,50.12146712],[-119.77364027,50.12185486],[-119.77294763,50.12223833],[-119.77206279,50.12266417],[-119.77130413,50.12304123],[-119.77057078,50.12326661],[-119.76986276,50.12334031],[-119.76895048,50.12331218],[-119.76813585,50.12342363],[-119.76741942,50.12367464],[-119.76653419,50.12398049],[-119.76565817,50.12440633],[-119.76479292,50.12495145],[-119.76442854,50.12437856],[-119.76409117,50.12394275],[-119.76357532,50.12324738],[-119.76289245,50.12256803],[-119.76178376,50.12251356],[-119.760833,50.12252709],[-119.75970218,50.12248507],[-119.7590562,50.12235938],[-119.75847374,50.12221447],[-119.75777282,50.1220222],[-119.75696995,50.12184845],[-119.75598903,50.1217427],[-119.75495322,50.12174021],[-119.75397643,50.12178151],[-119.75389076,50.12175659],[-119.75344661,50.1220279],[-119.75319389,50.12234265],[-119.75313368,50.12270084],[-119.75301099,50.12302983],[-119.75283969,50.12334672],[-119.75255225,50.12370419],[-119.7523036,50.12408517],[-119.75203561,50.12453522],[-119.7516869,50.12509529],[-119.75144405,50.12569168],[-119.75058923,50.1258519],[-119.74970608,50.12585297],[-119.74880833,50.12564931],[-119.74789951,50.12529005],[-119.74703395,50.12486172],[-119.74614257,50.12449499],[-119.74540394,50.12422261],[-119.74471084,50.12392602],[-119.74501869,50.12340796],[-119.74522201,50.12292159],[-119.74518075,50.12247154],[-119.74495996,50.1220101],[-119.74461409,50.12150842],[-119.74547818,50.1209512],[-119.74616274,50.12049937],[-119.74667654,50.12011448],[-119.74685,50.11955156],[-119.74683877,50.11882023],[-119.74606151,50.11865644],[-119.74527143,50.11848554],[-119.74446866,50.11830644],[-119.74357263,50.11813269],[-119.74260296,50.11814551],[-119.7417213,50.11818752],[-119.74094186,50.11818004],[-119.74039747,50.11787491],[-119.74017562,50.11739744],[-119.74026141,50.11682562],[-119.74099763,50.11646458],[-119.74140479,50.11602415],[-119.74136917,50.11554098],[-119.74108748,50.11504002],[-119.74075977,50.11452908],[-119.74035955,50.11397471],[-119.74005039,50.11351825],[-119.7399217,50.11314261],[-119.73987832,50.11278977],[-119.73996851,50.11243371],[-119.73954383,50.11240487],[-119.73912739,50.11239953],[-119.73897223,50.11213321],[-119.73884901,50.11171556],[-119.73879408,50.11129791],[-119.73890125,50.11089379],[-119.73896302,50.11047329],[-119.73880421,50.11006027],[-119.73842503,50.10965437],[-119.73809416,50.10932929],[-119.73760232,50.10904908],[-119.73692144,50.10871546],[-119.7361521,50.10838576],[-119.73569479,50.10805961],[-119.7353063,50.10770392],[-119.73483175,50.10698647],[-119.73357016,50.10701923],[-119.73246161,50.10712319],[-119.73116755,50.10699573],[-119.729927,50.10682304],[-119.72969357,50.10616292],[-119.73040774,50.10560427],[-119.73118446,50.10507554],[-119.73180371,50.1045411],[-119.73235467,50.1040704],[-119.73283811,50.10366308],[-119.73322882,50.10299014],[-119.73356376,50.10223958],[-119.73394107,50.10150219],[-119.73432233,50.1009083],[-119.73474842,50.10053266],[-119.73487409,50.10022361],[-119.73490583,50.09979813],[-119.73500399,50.09926619],[-119.73529295,50.09863669],[-119.7364236,50.09859182],[-119.7371522,50.09861995],[-119.73769709,50.09860678],[-119.73864377,50.0985345],[-119.73955586,50.09844905],[-119.74039802,50.0984551],[-119.74117278,50.09850103],[-119.74169773,50.09862956],[-119.74267725,50.09864238],[-119.74303897,50.09860678],[-119.74310419,50.09802926],[-119.74311105,50.09749946],[-119.74329182,50.09704834],[-119.74373908,50.09672006],[-119.74440452,50.09653526],[-119.74519512,50.09645052],[-119.74586591,50.09644376],[-119.74495145,50.09585378],[-119.74424444,50.09523176],[-119.7433269,50.09458766],[-119.74239073,50.09387235],[-119.74281719,50.09328344],[-119.74302182,50.09270592],[-119.74287703,50.09215048],[-119.74253175,50.09160786],[-119.74200985,50.09116956],[-119.7413594,50.09074799],[-119.74246932,50.09069779],[-119.74358256,50.09057851],[-119.74448963,50.09033319],[-119.74528618,50.09004942],[-119.74577868,50.08977988],[-119.7451284,50.08929886],[-119.74464625,50.08885735],[-119.74433257,50.08845573],[-119.74384607,50.08795583],[-119.7433121,50.08748157],[-119.74395694,50.08701336],[-119.74462835,50.08669683],[-119.74536565,50.08646753],[-119.74616828,50.08632546],[-119.74710467,50.08623716],[-119.74791608,50.0860773],[-119.74836692,50.08624642],[-119.74884799,50.08639988],[-119.74945124,50.08655049],[-119.75014826,50.0866509],[-119.75085459,50.08658823],[-119.75153586,50.08646112],[-119.75219386,50.08632048],[-119.75288932,50.08625924],[-119.75367373,50.08627847],[-119.75442753,50.08625568],[-119.75487755,50.08557028],[-119.75556305,50.08574581],[-119.75645941,50.08585049],[-119.75756551,50.08588432],[-119.75845724,50.08614993],[-119.75924729,50.08629912],[-119.7598812,50.08635893],[-119.76036704,50.08635039],[-119.76081224,50.08633757],[-119.76136087,50.08623467],[-119.76115212,50.08555105],[-119.76119146,50.08493828],[-119.76147864,50.08439673],[-119.76155589,50.08392816],[-119.76171938,50.08339551],[-119.76181834,50.08298427],[-119.76172035,50.08259902],[-119.76137465,50.08225721],[-119.76086097,50.08191967],[-119.76025894,50.0815743],[-119.75952023,50.08121398],[-119.75909457,50.08142583],[-119.75858045,50.08163803],[-119.75782341,50.08182496],[-119.75700402,50.08194851],[-119.75695732,50.08234516],[-119.75603801,50.08248402],[-119.75507586,50.08269302],[-119.75409802,50.08289419],[-119.75326644,50.08319078],[-119.75258225,50.08358279],[-119.75183351,50.08295258],[-119.75105563,50.08239643],[-119.75020773,50.08190863],[-119.74922873,50.08152339],[-119.74835991,50.08110716],[-119.74767203,50.08065141],[-119.74717056,50.08018677],[-119.74672704,50.07979618],[-119.74616047,50.07950671],[-119.74549484,50.07927064],[-119.74473507,50.07909974],[-119.74450381,50.07824165],[-119.7449625,50.07772822],[-119.74556308,50.07730915],[-119.74630533,50.07698479],[-119.74722327,50.07690005],[-119.74802377,50.07672807],[-119.74877872,50.07634638],[-119.74952834,50.07598677],[-119.75027316,50.07564923],[-119.75101275,50.07546088],[-119.75102476,50.07493855],[-119.75102458,50.074444],[-119.75142392,50.07434466],[-119.75181441,50.07410183],[-119.75232779,50.0739473],[-119.75296482,50.07388072],[-119.75302571,50.07387645],[-119.75306663,50.07387218],[-119.75310845,50.07387004],[-119.75319152,50.07386221],[-119.75326094,50.07385402],[-119.7533165,50.07384583],[-119.75346272,50.07384262],[-119.75375523,50.07380025],[-119.75419325,50.07371907],[-119.75489015,50.07346877],[-119.75556471,50.07318464],[-119.75621999,50.07290834],[-119.75597417,50.07251847],[-119.75544277,50.07202711],[-119.75550987,50.07141399],[-119.75551495,50.07077203],[-119.75527159,50.07001613],[-119.75627751,50.07001043],[-119.75657488,50.0703259],[-119.75710826,50.07044019],[-119.75787618,50.07035296],[-119.75875146,50.07025718],[-119.75955178,50.07002254],[-119.76025877,50.06972986],[-119.76092526,50.06943897],[-119.76164959,50.06920789],[-119.76261439,50.06878811],[-119.76355674,50.06826293],[-119.76395282,50.06786664],[-119.7646631,50.06752376],[-119.76528803,50.06710006],[-119.76567545,50.06660123],[-119.76586387,50.06620886],[-119.76585363,50.06592331],[-119.76641362,50.06559111],[-119.76713072,50.06534294],[-119.76800472,50.06517916],[-119.76756509,50.06490179],[-119.76697975,50.06466181],[-119.76644484,50.06440759],[-119.76586323,50.06420464],[-119.7653855,50.06390912],[-119.76472911,50.06362001],[-119.76403567,50.06322586],[-119.76325722,50.06281853],[-119.76291298,50.06233786],[-119.7626665,50.06177993],[-119.76205747,50.06134091],[-119.76142167,50.06105002],[-119.76075809,50.06090796],[-119.76043674,50.06025602],[-119.76022132,50.05959519],[-119.7599606,50.05891798],[-119.75957447,50.0582194],[-119.75930441,50.05755109],[-119.75919105,50.05690023],[-119.75919473,50.05642312],[-119.75912003,50.05598126],[-119.75960154,50.05544718],[-119.75997039,50.05500639],[-119.76033345,50.05470303],[-119.76050276,50.05443314],[-119.76072071,50.0540892],[-119.76082049,50.05356081],[-119.7609553,50.05290603],[-119.76090727,50.05258416],[-119.76083712,50.05230609],[-119.76072744,50.05210171],[-119.76048416,50.0517567],[-119.76036185,50.05149571],[-119.76028692,50.05123971],[-119.76024227,50.05095273],[-119.76053092,50.05037913],[-119.7609516,50.04976067],[-119.76130898,50.04917639],[-119.76160339,50.04862664],[-119.76159795,50.04795584],[-119.76177158,50.04733702],[-119.7621256,50.04676983],[-119.76251974,50.04622293],[-119.76304449,50.04579638],[-119.76368364,50.04557634],[-119.76447993,50.04557349],[-119.76530417,50.04578784],[-119.76610994,50.04619409],[-119.76678898,50.04672176],[-119.7675249,50.04616454],[-119.76803233,50.04556352],[-119.76843328,50.04495539],[-119.76930616,50.04515656],[-119.77016922,50.04528224],[-119.77032987,50.04530574],[-119.7714838,50.04534135],[-119.77261665,50.04531429],[-119.77302001,50.04518397],[-119.77363956,50.04498387],[-119.77448983,50.0446887],[-119.7750851,50.04437466],[-119.77556662,50.04406525],[-119.77591242,50.04376012],[-119.77654661,50.04347813],[-119.77733032,50.04324028],[-119.778176,50.04320325],[-119.77907611,50.04330758],[-119.78003044,50.04355361],[-119.78098758,50.04383631],[-119.78206408,50.04398443],[-119.78327233,50.04405137],[-119.78352077,50.04384165],[-119.78353961,50.04361414],[-119.78345833,50.04327339],[-119.78330846,50.04274608],[-119.78317569,50.04222162],[-119.78321498,50.04177299],[-119.78329748,50.04134323],[-119.78381066,50.04117874],[-119.7841907,50.040906],[-119.78443715,50.04052396],[-119.78544356,50.04046094],[-119.78638234,50.04034237],[-119.78677015,50.04050402],[-119.78731474,50.04057808],[-119.78801521,50.04056419],[-119.78824213,50.03990194],[-119.78904662,50.04020636],[-119.78982167,50.0402968],[-119.7905095,50.04011521],[-119.79112476,50.03975168],[-119.7918283,50.04031958],[-119.79250548,50.04011129],[-119.79321935,50.03990194],[-119.79392815,50.03981007],[-119.79467541,50.03980117],[-119.7950408,50.03951348],[-119.79535464,50.03922401],[-119.7956169,50.03893276],[-119.79586339,50.03863296],[-119.79616396,50.03835596],[-119.79651829,50.03810138],[-119.79686889,50.03788597],[-119.79732707,50.03759614],[-119.79801136,50.03759756],[-119.79851612,50.03722976],[-119.79915329,50.03695525],[-119.79986122,50.03682529],[-119.80056126,50.03677437],[-119.80117304,50.03674874],[-119.80164073,50.03662447],[-119.80194917,50.03634996],[-119.80217057,50.03596791],[-119.80241755,50.03554813],[-119.80272163,50.03501903],[-119.8030085,50.03442727],[-119.80347312,50.0340114],[-119.80405501,50.03347946],[-119.80437163,50.03292295],[-119.80442331,50.03234223],[-119.80543507,50.0319666],[-119.80557887,50.03166431],[-119.8060151,50.03124595],[-119.8067443,50.03071151],[-119.80661363,50.02995704],[-119.8062726,50.02937774],[-119.80575527,50.02892128],[-119.80537855,50.02844987],[-119.80515935,50.02788339],[-119.80497918,50.02726101],[-119.80480499,50.02651259],[-119.80459739,50.02574387],[-119.80430356,50.0251781],[-119.80422236,50.02471025],[-119.80414734,50.02417154],[-119.80401411,50.02356305],[-119.8037509,50.02295776],[-119.80316415,50.02286981],[-119.80271296,50.02269179],[-119.8023979,50.02242368],[-119.80205459,50.02212602],[-119.80169152,50.02172689],[-119.80139404,50.02140715],[-119.80116134,50.02116717],[-119.80043864,50.02127648],[-119.79978116,50.02136727],[-119.79921395,50.02153782],[-119.7986823,50.02170374],[-119.79810149,50.02201173],[-119.79743983,50.0222453],[-119.79673831,50.02242511],[-119.79602993,50.02205837],[-119.79523427,50.02177175],[-119.79421431,50.02152073],[-119.79321792,50.02118782],[-119.79249135,50.02069932],[-119.79171759,50.02027633],[-119.79098165,50.0200303],[-119.7903269,50.01973015],[-119.78967809,50.01937481],[-119.78860932,50.01876168],[-119.78833393,50.01826784],[-119.78784392,50.01778681],[-119.78710129,50.01739159],[-119.78610616,50.0170829],[-119.78516987,50.01695294],[-119.78457639,50.01687069],[-119.78377784,50.01673397],[-119.78297087,50.01659831],[-119.78222573,50.0163772],[-119.78154273,50.016071],[-119.78100558,50.0160329],[-119.78040574,50.01596632],[-119.77963187,50.01588371],[-119.77881754,50.01575731],[-119.77802381,50.0155476],[-119.77725634,50.01533397],[-119.77650383,50.01511499],[-119.77563238,50.01496189],[-119.77468793,50.01485864],[-119.7736805,50.014739],[-119.77304955,50.01463504],[-119.77250249,50.01448514],[-119.77203011,50.01428361],[-119.77211543,50.01398773],[-119.77223437,50.01370289],[-119.77242292,50.01342553],[-119.77256608,50.01316418],[-119.77268968,50.01288255],[-119.77286696,50.01257242],[-119.77336417,50.01239867],[-119.77392421,50.01226836],[-119.77478216,50.01164491],[-119.77563209,50.01113896],[-119.77606447,50.01062375],[-119.77646361,50.01006653],[-119.77668003,50.00972543],[-119.77696764,50.00936155],[-119.77763691,50.00862594],[-119.77840691,50.00802279],[-119.77950544,50.00738474],[-119.7794759,50.00673886],[-119.77974444,50.00614746],[-119.7804506,50.00567676],[-119.78149477,50.00533103],[-119.78127294,50.00487742],[-119.78173637,50.00419772],[-119.78208297,50.00367076],[-119.78231239,50.00329619],[-119.78269518,50.00316125],[-119.7830637,50.0028554],[-119.78350219,50.00257519],[-119.78401233,50.00228394],[-119.78457115,50.00237259],[-119.7851161,50.00254528],[-119.78564753,50.00280235],[-119.78618949,50.00265637],[-119.78679057,50.00254101],[-119.78716799,50.00279274],[-119.78775153,50.00322854],[-119.78894719,50.00314594],[-119.79025129,50.00300637],[-119.79171334,50.00294441],[-119.79254698,50.00287926],[-119.79363179,50.0028173],[-119.79478963,50.00280733],[-119.79578052,50.00280128],[-119.79669768,50.00289635],[-119.79745686,50.00291379],[-119.79819958,50.00290596],[-119.7989339,50.00286608],[-119.79989749,50.00288175],[-119.80086291,50.0029964],[-119.80188131,50.00323567],[-119.80296173,50.00338378],[-119.80407859,50.00341049],[-119.80512991,50.00322819],[-119.80618462,50.00299391],[-119.80728052,50.00271547],[-119.80817667,50.0023669],[-119.80896266,50.00249579],[-119.80987921,50.00260438],[-119.81095584,50.00263251],[-119.81148621,50.0026375],[-119.81244514,50.00272509],[-119.81351088,50.00288531],[-119.81358856,50.00260154],[-119.81369581,50.00231385],[-119.81392012,50.00201156],[-119.81424796,50.00165301],[-119.81452204,50.00132224],[-119.81486724,50.00098933],[-119.81540729,50.00065215],[-119.81614231,50.00031141],[-119.81710052,50.00006644],[-119.81756692,49.99984996],[-119.81782267,49.99961497],[-119.81786854,49.9993611],[-119.8178808,49.99909086],[-119.81804694,49.99867677],[-119.81827737,49.99823847],[-119.81860171,49.99782296],[-119.81916733,49.99818684],[-119.81997299,49.99875617],[-119.8206959,49.99917204],[-119.82125249,49.99935825],[-119.82166192,49.99942341],[-119.82207565,49.9993725],[-119.82264611,49.99920978],[-119.82335415,49.99890358],[-119.82372794,49.99826767],[-119.82403325,49.99762784],[-119.82519653,49.99745053],[-119.82612548,49.99715607],[-119.82677405,49.99672133],[-119.82708205,49.99612993],[-119.82722765,49.99546269],[-119.82724291,49.99476981],[-119.82738131,49.99409366],[-119.82764582,49.99347057],[-119.82803345,49.99286422],[-119.82841876,49.99222225],[-119.82794076,49.99168212],[-119.82722123,49.99122887],[-119.82626017,49.99086249],[-119.82517121,49.99061325],[-119.82407135,49.99042098],[-119.82408262,49.98966509],[-119.82409447,49.98890919],[-119.82411228,49.98826082],[-119.82412872,49.987595],[-119.82512824,49.98745471],[-119.8258741,49.98718839],[-119.82624423,49.9868626],[-119.82635589,49.9865482],[-119.82637669,49.98637872],[-119.82642,49.98621672],[-119.8265304,49.98600985],[-119.82659729,49.98580441],[-119.82659216,49.98558473],[-119.82653648,49.98535009],[-119.82647999,49.98509978],[-119.82636744,49.98484164],[-119.82628304,49.9845917],[-119.8262864,49.98435563],[-119.82633785,49.98412954],[-119.82651191,49.98395045],[-119.82679318,49.98385574],[-119.82715483,49.98383864],[-119.82773078,49.98381977],[-119.82825703,49.98373005],[-119.82859872,49.9835798],[-119.82880834,49.98340853],[-119.82888301,49.98316998],[-119.82895747,49.98285309],[-119.82918081,49.98258997],[-119.82932388,49.98233753],[-119.82938703,49.98209612],[-119.82937438,49.9818743],[-119.82940186,49.98162792],[-119.82937912,49.9814036],[-119.8293194,49.98118],[-119.83004932,49.98093753],[-119.83097202,49.98072888],[-119.83185374,49.98056937],[-119.83261809,49.98049389],[-119.83302755,49.98060071],[-119.83359624,49.98070076],[-119.83441996,49.98071357],[-119.83546269,49.98055335],[-119.83572731,49.98078051],[-119.83656532,49.98079618],[-119.83766763,49.98079903],[-119.83877168,49.98083214],[-119.83988341,49.98083499],[-119.84099269,49.98087665],[-119.8421071,49.98084923],[-119.84198464,49.98027349],[-119.84182782,49.97995447],[-119.84169799,49.97970096],[-119.84162535,49.97954465],[-119.84163604,49.97940935],[-119.84169419,49.97929399],[-119.84179602,49.9791206],[-119.84197939,49.97891836],[-119.84208335,49.97878982],[-119.84218312,49.97858937],[-119.84225986,49.9784708],[-119.84245986,49.97831592],[-119.84255927,49.97818845],[-119.84263939,49.97804745],[-119.8427258,49.97786231],[-119.84283986,49.9776647],[-119.84291625,49.97753687],[-119.8429908,49.9773852],[-119.84303916,49.97725524],[-119.84305778,49.97710178],[-119.84308117,49.97702914],[-119.84319558,49.97683723],[-119.84325733,49.97670086],[-119.84334077,49.97655987],[-119.84347124,49.97640997],[-119.84364919,49.97625046],[-119.8437157,49.97619491],[-119.84381965,49.97606638],[-119.8438571,49.97599339],[-119.84388083,49.97592111],[-119.84459311,49.97582854],[-119.84524232,49.97567152],[-119.84587288,49.97537742],[-119.84637861,49.97498718],[-119.84663713,49.97440789],[-119.84702131,49.97382681],[-119.84753084,49.9732436],[-119.84795221,49.97305235],[-119.84829941,49.97289466],[-119.84894008,49.97261908],[-119.84957278,49.97247167],[-119.85019474,49.97236842],[-119.85107769,49.97222991],[-119.85148761,49.97215977],[-119.85177297,49.97209319],[-119.85178319,49.97210708],[-119.8517912,49.97211918],[-119.85182804,49.97218932],[-119.8518588,49.97226303],[-119.85189067,49.97233495],[-119.85194316,49.97242005],[-119.85220915,49.9730321],[-119.85241373,49.97365306],[-119.85273009,49.97417218],[-119.85315694,49.9745236],[-119.85347801,49.97474364],[-119.85365232,49.97490921],[-119.85367986,49.97508652],[-119.85370462,49.97526562],[-119.85371034,49.9753646],[-119.85370676,49.97554476],[-119.85406822,49.97559853],[-119.85450655,49.97562381],[-119.8555176,49.97554583],[-119.85627434,49.97521862],[-119.85677833,49.97464146],[-119.85780695,49.97437406],[-119.85858178,49.97395321],[-119.85897587,49.9733586],[-119.85911634,49.9726675],[-119.85914012,49.97189309],[-119.85921101,49.97152279],[-119.85925805,49.97132162],[-119.85934701,49.97114752],[-119.85947769,49.97100616],[-119.85970332,49.97080891],[-119.85982247,49.97069782],[-119.8598878,49.97062447],[-119.86001765,49.97046211],[-119.86009417,49.97034925],[-119.86014333,49.97015627],[-119.86021133,49.96996863],[-119.86021527,49.96979772],[-119.86022307,49.96969838],[-119.86035649,49.96962326],[-119.86050249,49.96949472],[-119.86078733,49.9693288],[-119.86105432,49.96907636],[-119.8616789,49.96889904],[-119.86253351,49.96882677],[-119.86363437,49.96900052],[-119.86473905,49.96922626],[-119.86584961,49.96937544],[-119.86697384,49.96927895],[-119.86810521,49.96901797],[-119.86837149,49.96891151],[-119.86853122,49.9687876],[-119.86858493,49.96864625],[-119.86859828,49.96855581],[-119.8686376,49.96848602],[-119.86869697,49.96841873],[-119.86881819,49.9683436],[-119.86910321,49.96821044],[-119.86934964,49.96813246],[-119.86954517,49.96806161],[-119.86971675,49.96797936],[-119.86987844,49.96788536],[-119.87038928,49.96755815],[-119.87049699,49.96744137],[-119.8705842,49.96731924],[-119.87075878,49.96713196],[-119.87091638,49.96696319],[-119.87104229,49.96679015],[-119.87133499,49.96644691],[-119.87187145,49.96606487],[-119.8727438,49.96579747],[-119.8737654,49.96591497],[-119.87460884,49.96612896],[-119.87518053,49.96627672],[-119.8754243,49.96623791],[-119.87559225,49.96616955],[-119.87584911,49.96602819],[-119.87606554,49.96591817],[-119.87649404,49.9658313],[-119.87721228,49.96579142],[-119.87825114,49.96590073],[-119.87934421,49.9661756],[-119.8804522,49.9665078],[-119.88156386,49.96691192],[-119.88267073,49.96722631],[-119.88315652,49.96750403],[-119.88377104,49.96766675],[-119.8848766,49.9672612],[-119.88599463,49.96691868],[-119.88711864,49.96651278],[-119.88825591,49.96616955],[-119.88936447,49.96581812],[-119.89051194,49.96542077],[-119.89153644,49.96503338],[-119.89241972,49.9645933],[-119.89303068,49.96415856],[-119.89350976,49.96378044],[-119.8939199,49.96364442],[-119.89393561,49.96296935],[-119.89396215,49.96224906],[-119.89398061,49.96162774],[-119.89399819,49.9607636],[-119.89401015,49.96003477],[-119.89403792,49.95933227],[-119.89477638,49.95885516],[-119.89552952,49.95847241],[-119.89640289,49.95820572],[-119.89739649,49.95805511],[-119.89851081,49.9578543],[-119.89963595,49.95758228],[-119.90077059,49.95720272],[-119.90189629,49.95690471],[-119.90301524,49.95701758],[-119.90413766,49.9569745],[-119.90526301,49.95677546],[-119.90628105,49.95639912],[-119.90716618,49.95596295],[-119.90790813,49.95547373],[-119.90864135,49.95499057],[-119.90974989,49.95464769],[-119.91087281,49.95430482],[-119.91196458,49.95391743],[-119.9120983,49.95325553],[-119.91235144,49.95262425],[-119.91272875,49.95202394],[-119.91311104,49.95142364],[-119.91418787,49.95125273],[-119.91525506,49.95114485],[-119.91535529,49.95072863],[-119.91536987,49.95004465],[-119.91649088,49.95005818],[-119.91756837,49.94989511],[-119.91860288,49.94955543],[-119.91947567,49.94900569],[-119.91936564,49.94893127],[-119.919244,49.94885864],[-119.91907225,49.94879099],[-119.91891302,49.94869592],[-119.91872354,49.94855671],[-119.91864737,49.94847766],[-119.91861053,49.94837975],[-119.91865467,49.94803367],[-119.91872822,49.94747716],[-119.91874403,49.94681988],[-119.91929044,49.94594257],[-119.91961289,49.94548647],[-119.9198733,49.94497411],[-119.91988414,49.94423637],[-119.92049042,49.94370514],[-119.9207945,49.94317498],[-119.9207329,49.9427235],[-119.92042793,49.94239629],[-119.92059611,49.94217625],[-119.92069158,49.94206302],[-119.9208032,49.94191028],[-119.92111291,49.94173154],[-119.92125951,49.94161974],[-119.92139868,49.94164609],[-119.92160254,49.94165997],[-119.92187054,49.9416614],[-119.92252037,49.94137193],[-119.92321347,49.94097671],[-119.92244328,49.94091511],[-119.92252889,49.94068902],[-119.9226673,49.94046791],[-119.92281435,49.94021404],[-119.92288448,49.9399146],[-119.92322738,49.93959095],[-119.92357202,49.93922244],[-119.92387404,49.93898994],[-119.92414634,49.93888419],[-119.92439019,49.9387699],[-119.92480806,49.93876242],[-119.92556238,49.93863851],[-119.92628285,49.93840921],[-119.92696847,49.93807524],[-119.92736417,49.93780037],[-119.92787625,49.93748846],[-119.92885644,49.9370288],[-119.92771603,49.93660795],[-119.92823485,49.93607315],[-119.92898687,49.93560139],[-119.92997151,49.93519264],[-119.93058371,49.93466426],[-119.93107586,49.93409386],[-119.93182124,49.93451293],[-119.93246849,49.9348519],[-119.93302089,49.93503384],[-119.93336771,49.93517163],[-119.93358917,49.93523216],[-119.93372766,49.93529625],[-119.93389791,49.93532865],[-119.9341445,49.93535927],[-119.93428952,49.93535108],[-119.93440177,49.93530017],[-119.93458784,49.9352229],[-119.93491322,49.93508226],[-119.93529519,49.9349498],[-119.93545299,49.93487085],[-119.93562045,49.93479763],[-119.93574515,49.93478548],[-119.93609305,49.93477666],[-119.936343,49.93476134],[-119.93646715,49.9347402],[-119.93703799,49.93513756],[-119.93771314,49.93551827],[-119.93717431,49.93600374],[-119.93650028,49.93643064],[-119.93660863,49.93660782],[-119.93770317,49.93695791],[-119.93859826,49.93731305],[-119.93914879,49.93765595],[-119.93935478,49.93798658],[-119.94023757,49.93806314],[-119.94075051,49.93753434],[-119.94150535,49.93718833],[-119.94235638,49.93709976],[-119.9430726,49.93728948],[-119.94343598,49.93761011],[-119.94359214,49.93798698],[-119.94359311,49.93868866],[-119.94358236,49.93942662],[-119.94358278,49.94011932],[-119.94468757,49.94055905],[-119.94548927,49.94090452],[-119.94580121,49.94104152],[-119.94598838,49.94116471],[-119.9469776,49.94161337],[-119.94792755,49.94220495],[-119.94877616,49.94283608],[-119.9495093,49.9433512],[-119.95022829,49.94371074],[-119.95097421,49.94405459],[-119.95172208,49.94450634],[-119.95247194,49.945066],[-119.9530896,49.94571798],[-119.95358439,49.94638708],[-119.95456799,49.94585522],[-119.95542883,49.94531749],[-119.95616859,49.94480084],[-119.95702132,49.94435927],[-119.95787775,49.94395257],[-119.95861351,49.94352296],[-119.95910698,49.94300758],[-119.95962889,49.94232454],[-119.9603989,49.9417471],[-119.9615508,49.94133583],[-119.9629546,49.941168],[-119.96448433,49.9410839],[-119.96587078,49.94093647],[-119.96711664,49.94064369],[-119.96822739,49.94072321],[-119.96934887,49.94090139],[-119.97045323,49.94117896],[-119.97158868,49.94140774],[-119.97271235,49.94157084],[-119.97381625,49.94171445],[-119.97492144,49.94190399],[-119.97603193,49.94192845],[-119.97714854,49.94175084],[-119.97827128,49.94137114],[-119.97939133,49.94077259],[-119.98038003,49.9401794],[-119.98123796,49.93960056],[-119.98186312,49.93916565],[-119.98236745,49.93870487],[-119.9827457,49.93820934],[-119.98324717,49.93760268],[-119.98387091,49.93701986],[-119.98386769,49.93629124],[-119.98486049,49.93629266],[-119.98572494,49.93642233],[-119.98646103,49.93668024],[-119.98732443,49.93684292],[-119.98830847,49.93687752],[-119.98941311,49.93678406],[-119.9905123,49.93667773],[-119.99063719,49.93601878],[-119.99101422,49.93550526],[-119.9916434,49.93513717],[-119.99215278,49.93478104],[-119.9929163,49.9345845],[-119.99392275,49.93448552],[-119.99492275,49.93432885],[-119.99566625,49.93395856],[-119.99604265,49.93337819],[-119.99628996,49.93274798],[-119.99641277,49.93215907],[-119.99665386,49.93172718],[-119.9966567,49.93132733],[-119.99665964,49.93092642],[-119.99642502,49.93040765],[-119.99630783,49.92979275],[-119.99630084,49.92918034],[-119.99662921,49.92871284],[-119.99717695,49.92840877],[-119.9972736,49.92816345],[-119.99728067,49.92743782],[-119.9970452,49.92723238],[-119.99705604,49.92696213],[-119.99743115,49.92661605],[-119.99793486,49.92615033],[-119.99831283,49.92555501],[-119.99844542,49.92484113],[-119.9984458,49.92436117],[-119.99844767,49.92389047],[-119.99857097,49.92338701],[-119.9989318,49.92289744],[-119.99952938,49.92242211],[-119.99990631,49.92250044],[-120.00065265,49.92266031],[-120.0010214,49.92260227],[-120.00139072,49.92246626],[-120.00171985,49.92223767],[-120.00209005,49.9218834],[-120.0025001,49.92148249],[-120.00267634,49.92143798],[-120.00308361,49.92139098],[-120.00374542,49.92129983],[-120.00450113,49.92112643],[-120.00515894,49.92094948],[-120.00585607,49.92084052],[-120.00669428,49.9205863],[-120.00743303,49.92035344],[-120.00807343,49.92014195],[-120.00806945,49.91997994],[-120.00913617,49.91992262],[-120.01020572,49.91990909],[-120.01131052,49.91991372],[-120.0120401,49.91998066],[-120.01272716,49.92011738],[-120.01332428,49.92022064],[-120.01383234,49.92029078],[-120.01447988,49.9204154],[-120.01472407,49.92009673],[-120.01487865,49.91969297],[-120.01494494,49.91920375],[-120.01491548,49.91877115],[-120.01488202,49.91841047],[-120.01501765,49.91807507],[-120.01535815,49.917724],[-120.01599316,49.91737151],[-120.01680578,49.9170475],[-120.01726173,49.91687944],[-120.01739478,49.91642904],[-120.01748223,49.91594053],[-120.01728349,49.9153477],[-120.01683519,49.91489231],[-120.0161362,49.91457436],[-120.01611296,49.91405203],[-120.01743798,49.91379816],[-120.01814792,49.91363153],[-120.01887027,49.91349766],[-120.01939618,49.91340615],[-120.01977631,49.91328474],[-120.02013118,49.91314873],[-120.02036844,49.91294613],[-120.0209505,49.91271612],[-120.02175708,49.91244303],[-120.02274962,49.91216246],[-120.02406735,49.91190147],[-120.02534001,49.91181745],[-120.02656807,49.91190966],[-120.02787092,49.91224898],[-120.02895304,49.91239674],[-120.03001659,49.91246617],[-120.03015287,49.91203464],[-120.03042397,49.91165793],[-120.03095761,49.91133962],[-120.0314903,49.9109825],[-120.03174319,49.91085041],[-120.03193749,49.91074786],[-120.03213477,49.91064497],[-120.03269663,49.91043952],[-120.03336872,49.91049186],[-120.03403713,49.91074288],[-120.03464011,49.91027538],[-120.03542854,49.90978866],[-120.03612302,49.90936282],[-120.036423,49.90891953],[-120.03670056,49.90850901],[-120.03695757,49.90807356],[-120.03742718,49.90776486],[-120.03801432,49.90745296],[-120.03873941,49.90721048],[-120.03868804,49.90698724],[-120.038678,49.90662442],[-120.0381161,49.90639085],[-120.03766477,49.90610352],[-120.03701102,49.90571506],[-120.0364563,49.90534085],[-120.03601259,49.90496059],[-120.03568009,49.90463124],[-120.03528299,49.90426237],[-120.03467015,49.90388389],[-120.03405167,49.90347336],[-120.03353204,49.90311588],[-120.03332803,49.90283282],[-120.03311913,49.90267865],[-120.03290447,49.90252306],[-120.0325741,49.90235073],[-120.03223112,49.90212],[-120.031813,49.9018964],[-120.0314418,49.9017141],[-120.0310056,49.90158699],[-120.03050383,49.90151507],[-120.02999308,49.90146309],[-120.02943558,49.90144564],[-120.02886237,49.90151187],[-120.02836038,49.90164005],[-120.02790057,49.90187005],[-120.02750306,49.902146],[-120.0270458,49.90165714],[-120.02713148,49.9014225],[-120.02720208,49.90114869],[-120.02719674,49.90078837],[-120.02719449,49.90036573],[-120.02718738,49.90003247],[-120.02729636,49.89967143],[-120.02760178,49.8993047],[-120.02810461,49.89893156],[-120.02812083,49.8987432],[-120.02812415,49.89853634],[-120.02811492,49.89831131],[-120.02765257,49.89812545],[-120.02727782,49.89785592],[-120.02688165,49.89750379],[-120.02636565,49.89708792],[-120.02595954,49.89682444],[-120.02544858,49.89660547],[-120.0254664,49.8960842],[-120.02504067,49.89573527],[-120.02450485,49.89542052],[-120.02549699,49.89514031],[-120.02646155,49.89485013],[-120.02686189,49.89468065],[-120.02733107,49.8945984],[-120.02774918,49.89451829],[-120.02820597,49.89446417],[-120.028719,49.89437444],[-120.02942719,49.89433029],[-120.0302424,49.8942605],[-120.03113456,49.89419321],[-120.03203906,49.89405755],[-120.03242464,49.89372571],[-120.03273646,49.89335578],[-120.03294153,49.89308802],[-120.03329147,49.8928363],[-120.03378561,49.89259988],[-120.0345039,49.89224026],[-120.03523518,49.89189632],[-120.03576931,49.89153421],[-120.03611582,49.89113223],[-120.03627472,49.89069037],[-120.03614752,49.89041834],[-120.03611572,49.89014846],[-120.03595135,49.88992948],[-120.03591613,49.88972155],[-120.03568488,49.8895599],[-120.03547452,49.88930354],[-120.03504578,49.88895782],[-120.03449536,49.8885156],[-120.0340348,49.88810507],[-120.033857,49.88772979],[-120.03396106,49.88738941],[-120.03424966,49.88707323],[-120.03444499,49.88669511],[-120.03455017,49.88625894],[-120.03446884,49.88587333],[-120.0342933,49.88553295],[-120.0340232,49.88524099],[-120.03375334,49.88495223],[-120.03287975,49.88497181],[-120.03210574,49.885027],[-120.03165369,49.88468163],[-120.03108655,49.88438931],[-120.03072269,49.88417497],[-120.03043268,49.88393143],[-120.02942613,49.88377085],[-120.0284139,49.88369999],[-120.02842627,49.88327736],[-120.02844432,49.88267841],[-120.02845309,49.88238758],[-120.02847106,49.88209099],[-120.02849525,49.88169577],[-120.02851716,49.88134542],[-120.02844188,49.88097975],[-120.02836368,49.88066892],[-120.02818453,49.88041149],[-120.02819791,49.88019572],[-120.02811307,49.87998779],[-120.02822128,49.87981261],[-120.02823329,49.87961785],[-120.02844276,49.8793825],[-120.02856119,49.87903962],[-120.02858345,49.87865117],[-120.02831436,49.87827554],[-120.02784841,49.87795473],[-120.02815945,49.87734481],[-120.02876891,49.87656577],[-120.0297566,49.87695422],[-120.03064003,49.8772056],[-120.03141644,49.87743347],[-120.03208603,49.87763749],[-120.03231988,49.87775534],[-120.03246905,49.87782335],[-120.03257285,49.87787177],[-120.03275173,49.87790061],[-120.03312189,49.87799995],[-120.03396183,49.87814558],[-120.03464176,49.87818082],[-120.03516145,49.87810605],[-120.03566722,49.87813703],[-120.03607904,49.87812955],[-120.0370208,49.87775783],[-120.03798153,49.87744664],[-120.03887205,49.87722945],[-120.03967067,49.87699197],[-120.0403268,49.87681074],[-120.04109312,49.87666938],[-120.04202292,49.87654512],[-120.04269183,49.87607655],[-120.04315692,49.87611252],[-120.04371276,49.87605163],[-120.04435967,49.87589426],[-120.04534548,49.87570341],[-120.04624585,49.87568134],[-120.04702855,49.87572549],[-120.0476051,49.87588607],[-120.04818706,49.8761086],[-120.04877421,49.87639344],[-120.04952597,49.87670072],[-120.05028396,49.87698093],[-120.05102735,49.87719171],[-120.0517998,49.8773644],[-120.05267084,49.8774794],[-120.05368736,49.87748225],[-120.05471131,49.8774292],[-120.05564884,49.87727716],[-120.05646342,49.87707813],[-120.05693777,49.87691114],[-120.05730092,49.87673632],[-120.05748308,49.87659426],[-120.05759229,49.87644685],[-120.05762568,49.87635784],[-120.05768964,49.87622467],[-120.05783023,49.87604522],[-120.05800317,49.87592167],[-120.05827284,49.87581236],[-120.05863882,49.87571801],[-120.05847164,49.87534166],[-120.0584141,49.8750643],[-120.05884593,49.87506644],[-120.05869457,49.87472356],[-120.05864436,49.87448536],[-120.05905479,49.874276],[-120.05941841,49.87401537],[-120.05964693,49.87366928],[-120.05976265,49.87326339],[-120.05968928,49.87284075],[-120.05952204,49.87233658],[-120.05935068,49.87181853],[-120.05936492,49.87135423],[-120.05956496,49.87094335],[-120.0597607,49.8705994],[-120.05985998,49.87028821],[-120.05986404,49.87008186],[-120.05986658,49.8699464],[-120.05977304,49.8695583],[-120.05968212,49.86919193],[-120.05950074,49.86886471],[-120.05950481,49.86862189],[-120.05941658,49.86839971],[-120.05951558,49.8681964],[-120.05942691,49.86797316],[-120.05943035,49.8677403],[-120.05913565,49.86744905],[-120.05882648,49.86708908],[-120.05840943,49.86667392],[-120.05808873,49.86622174],[-120.05741846,49.86565312],[-120.05675104,49.86517744],[-120.05619859,49.86493425],[-120.05558911,49.8647548],[-120.05535391,49.86460882],[-120.05505119,49.86445323],[-120.05395983,49.86408364],[-120.05346091,49.86370018],[-120.05306147,49.86329606],[-120.05206184,49.86326188],[-120.05151288,49.86267688],[-120.05118865,49.86213497],[-120.05108936,49.86163578],[-120.0511027,49.86096142],[-120.05211435,49.86077129],[-120.05300132,49.86047897],[-120.05365351,49.86005349],[-120.05397857,49.85961305],[-120.05408989,49.85921107],[-120.05409235,49.85870725],[-120.05410876,49.85821305],[-120.05412485,49.8577185],[-120.05425332,49.85736209],[-120.05462059,49.85703844],[-120.05522752,49.8567479],[-120.05525624,49.85642781],[-120.05529129,49.85623696],[-120.05531181,49.85614653],[-120.05532568,49.85604897],[-120.05533446,49.85590512],[-120.05531476,49.85576982],[-120.05509852,49.85583382],[-120.05412735,49.85612124],[-120.05407732,49.85615184],[-120.05390287,49.85625854],[-120.0535959,49.85642466],[-120.05331651,49.85656501],[-120.0532531,49.85659687],[-120.05323227,49.85660733],[-120.05290881,49.85663808],[-120.05268803,49.85668344],[-120.05266228,49.85669809],[-120.05259887,49.85673415],[-120.05242947,49.8568305],[-120.05202864,49.85697811],[-120.05195157,49.85700649],[-120.05190825,49.85702245],[-120.05108247,49.85715631],[-120.05108218,49.85715636],[-120.05020725,49.8570771],[-120.04950091,49.85681921],[-120.04903938,49.85646519],[-120.04903859,49.85646458],[-120.04797531,49.85648247],[-120.04768366,49.85651782],[-120.04693325,49.85660884],[-120.04644608,49.85669022],[-120.04622018,49.85674059],[-120.04590809,49.85687714],[-120.0458924,49.85688382],[-120.04586631,49.85689493],[-120.04563896,49.85699166],[-120.04535523,49.85708238],[-120.04532266,49.85709279],[-120.04530308,49.85709905],[-120.04475285,49.85718257],[-120.04475062,49.85718291],[-120.04466318,49.85716334],[-120.04406055,49.85702847],[-120.04372305,49.85687994],[-120.04369379,49.85686707],[-120.04361028,49.8568365],[-120.04319169,49.85668332],[-120.04268261,49.85651365],[-120.04268255,49.85651364],[-120.04258156,49.85647998],[-120.04258104,49.8564798],[-120.04197566,49.85644948],[-120.04197064,49.85644923],[-120.04195667,49.85644516],[-120.04141312,49.85628705],[-120.04084333,49.85606491],[-120.0408287,49.8560592],[-120.04080225,49.85604651],[-120.04021736,49.8557657],[-120.03942561,49.85548152],[-120.03938981,49.85546867],[-120.03936105,49.85546037],[-120.0384433,49.85519557],[-120.03771368,49.85504123],[-120.03769082,49.85503639],[-120.0376845,49.85503429],[-120.03716956,49.85486311],[-120.03679954,49.8546453],[-120.03679499,49.85464262],[-120.03670958,49.85460024],[-120.0362173,49.85435596],[-120.03555194,49.85405528],[-120.0354365,49.85400311],[-120.03538558,49.85398708],[-120.03452035,49.85371477],[-120.03365987,49.8534841],[-120.03360923,49.85347052],[-120.03356415,49.85344183],[-120.03296875,49.85306275],[-120.03198432,49.85241447],[-120.03191226,49.85236701],[-120.03190986,49.85236543],[-120.0310762,49.85267393],[-120.03107351,49.8526742],[-120.03106943,49.8526746],[-120.03016623,49.85276456],[-120.02918728,49.85263825],[-120.02917994,49.8526373],[-120.02857381,49.85223591],[-120.02805378,49.8518927],[-120.02803971,49.85188587],[-120.02751484,49.85163097],[-120.02709345,49.85138263],[-120.02708216,49.85137597],[-120.02708071,49.85137507],[-120.02665775,49.85111218],[-120.02646588,49.85077453],[-120.02646522,49.85077337],[-120.02626663,49.85043241],[-120.02606199,49.8500893],[-120.02600169,49.85003626],[-120.02567919,49.8497526],[-120.02523267,49.84939627],[-120.02520376,49.84938819],[-120.02519633,49.84938612],[-120.02519613,49.84938606],[-120.02517886,49.84938124],[-120.02465362,49.84923446],[-120.02432918,49.84910906],[-120.02431839,49.84910489],[-120.02398542,49.84893841],[-120.02396335,49.84892294],[-120.02384999,49.84884351],[-120.0238499,49.84884345],[-120.02365792,49.84870909],[-120.02365746,49.84870877],[-120.02358081,49.84865512],[-120.02327122,49.84838527],[-120.02293669,49.84814377],[-120.02280327,49.84795041],[-120.02254803,49.84772695],[-120.02240945,49.84744149],[-120.02236092,49.84736343],[-120.02233735,49.84733052],[-120.0221609,49.84708425],[-120.02184496,49.84676662],[-120.02180275,49.84672418],[-120.02110777,49.84641243],[-120.02107242,49.84640091],[-120.02029853,49.84614872],[-120.01973552,49.84600796],[-120.01968305,49.84599484],[-120.01965495,49.84598782],[-120.01949623,49.84594814],[-120.01903712,49.84574741],[-120.01869623,49.84553471],[-120.01868131,49.84548946],[-120.01858291,49.84519093],[-120.01842667,49.84489173],[-120.01835751,49.84475931],[-120.01827667,49.84458535],[-120.0181323,49.84427471],[-120.01810189,49.84424518],[-120.01806552,49.84420987],[-120.01767063,49.84388997],[-120.0169963,49.84352236],[-120.01696624,49.84350598],[-120.01601914,49.84312273],[-120.01601902,49.84267291],[-120.01530576,49.84220771],[-120.01530348,49.84220551],[-120.01477471,49.84169523],[-120.01436386,49.84116385],[-120.01431708,49.84099116],[-120.01431624,49.84098836],[-120.01431588,49.84098717],[-120.01431526,49.8409851],[-120.01418899,49.84056558],[-120.01399728,49.84003985],[-120.01370124,49.83965085],[-120.01368869,49.83963436],[-120.01368845,49.83963404],[-120.01305125,49.83959062],[-120.01271854,49.83961512],[-120.01271839,49.83961513],[-120.01267641,49.83961822],[-120.01228781,49.83963817],[-120.0122178,49.83964176],[-120.01221346,49.83964199],[-120.01218033,49.8396212],[-120.01175812,49.83935635],[-120.01130812,49.83914263],[-120.01129345,49.83913566],[-120.01119502,49.83908892],[-120.0106394,49.8387757],[-120.01024296,49.83840208],[-120.01024292,49.83840204],[-120.01020561,49.83836666],[-120.00992447,49.83796356],[-120.00988502,49.83777487],[-120.00982781,49.83750125],[-120.00982053,49.83704325],[-120.00998625,49.83661068],[-120.00999004,49.8366008],[-120.01007699,49.83611825],[-120.01014274,49.83573603],[-120.01016858,49.83558583],[-120.01006383,49.83500436],[-120.00987329,49.83443567],[-120.00950137,49.83395126],[-120.0091175,49.83348553],[-120.00861179,49.83304064],[-120.00848728,49.83293829],[-120.00845935,49.83291533],[-120.00839289,49.8328607],[-120.0083424,49.83281874],[-120.00833526,49.83281281],[-120.00808543,49.83260522],[-120.0073324,49.83206197],[-120.00726085,49.83201056],[-120.00724917,49.83200216],[-120.00657925,49.83152072],[-120.0059319,49.83101818],[-120.00550122,49.83053524],[-120.0050322,49.83009827],[-120.00437598,49.82981691],[-120.00349749,49.82978568],[-120.00251789,49.82999473],[-120.00265931,49.82950569],[-120.00279619,49.82910989],[-120.00292854,49.82880735],[-120.00262469,49.82836269],[-120.00215531,49.82805702],[-120.00215498,49.82805681],[-120.00199976,49.82795568],[-120.00170542,49.82785593],[-120.00129918,49.82771827],[-120.00048782,49.82754862],[-119.99983615,49.82746479],[-119.99959074,49.82751632],[-119.99939554,49.82755517],[-119.99939304,49.82755572],[-119.99924596,49.82758852],[-119.99910599,49.82761973],[-119.9984669,49.82773177],[-119.99843337,49.82773765],[-119.99834507,49.82775313],[-119.99832666,49.82775597],[-119.99762962,49.82786328],[-119.9970432,49.82802539],[-119.99655717,49.82828687],[-119.99691308,49.82882164],[-119.99713934,49.82912191],[-119.9972127,49.82941872],[-119.9970548,49.82975658],[-119.99630501,49.8302816],[-119.99554222,49.83076614],[-119.99478461,49.83115959],[-119.99393787,49.83143637],[-119.99299084,49.83164079],[-119.99191635,49.83190845],[-119.99081111,49.83230385],[-119.98973021,49.83236775],[-119.98943816,49.83218161],[-119.98943763,49.83218127],[-119.98937068,49.83213852],[-119.98936206,49.83213301],[-119.98886312,49.83181436],[-119.98801129,49.83133255],[-119.98784797,49.83139073],[-119.98725375,49.83097624],[-119.98683783,49.8303962],[-119.98660027,49.82965063],[-119.98636452,49.8289217],[-119.98624218,49.82839046],[-119.98622725,49.82807435],[-119.98623238,49.82782109],[-119.98626357,49.82761325],[-119.98635898,49.82727956],[-119.98649256,49.82677458],[-119.9856911,49.82670728],[-119.98495208,49.82670033],[-119.98428229,49.82668861],[-119.98350267,49.82642382],[-119.98263123,49.82594747],[-119.98251118,49.82589419],[-119.98251036,49.82589383],[-119.98164774,49.82550798],[-119.98162178,49.82549834],[-119.98159548,49.82548858],[-119.98155304,49.82547283],[-119.9806579,49.82514062],[-119.97964427,49.82486383],[-119.97865311,49.82442451],[-119.97816383,49.824204],[-119.97816382,49.82420057],[-119.97814521,49.81209252],[-119.97814459,49.81179558],[-119.97812579,49.80354478],[-119.97812587,49.80348924],[-119.97812861,49.80149748],[-119.97812632,49.79999992],[-119.97813175,49.77319737],[-119.9781288,49.77142031],[-119.97812455,49.76851507],[-119.97812423,49.76829844],[-119.97812038,49.76596452],[-119.97253664,49.76596844],[-119.97250854,49.76596826],[-119.95825435,49.76587657],[-119.91358299,49.76566686],[-119.91289676,49.76566351],[-119.86061518,49.76539542],[-119.8585853,49.76538451],[-119.84741713,49.76544219],[-119.83849911,49.76548749],[-119.83848572,49.76548755],[-119.83698941,49.76549508],[-119.83625401,49.76549877],[-119.8362485,49.7654988],[-119.83614119,49.75653305],[-119.83609916,49.75303943],[-119.83607526,49.75103204],[-119.83606566,49.75021739],[-119.83602234,49.74654438],[-119.8360041,49.74499802],[-119.83599001,49.74379848],[-119.8359047,49.73656457],[-119.83586262,49.732861],[-119.83582352,49.72941966],[-119.83574297,49.72229612],[-119.83563408,49.71262438],[-119.83563266,49.71249846],[-119.83563067,49.7123214],[-119.83563067,49.71232096],[-119.79999937,49.71235692],[-119.79729035,49.71235941],[-119.7945331,49.71236155],[-119.79408632,49.71236191],[-119.77169672,49.71235194],[-119.76971881,49.71232408],[-119.76820955,49.7123028],[-119.76793228,49.71229889],[-119.75942693,49.71229675],[-119.75538545,49.71229212],[-119.75534085,49.71229212],[-119.75462822,49.71229141],[-119.7545442,49.71229105],[-119.75229809,49.71228856],[-119.75224303,49.71228856],[-119.72894742,49.7122996],[-119.72894737,49.7122996],[-119.72894716,49.7122996],[-119.73079062,49.71384177],[-119.73113941,49.71413355],[-119.73252798,49.71529507],[-119.73592991,49.71812727],[-119.7371921,49.71917797],[-119.7381967,49.72001418],[-119.73866039,49.72058748],[-119.73878443,49.72074084],[-119.73937801,49.72147471],[-119.74063814,49.7230328],[-119.74157484,49.72482054],[-119.74190198,49.7303877],[-119.74194278,49.73108186],[-119.74194306,49.7310865],[-119.74196728,49.73149865],[-119.74165073,49.73256121],[-119.74164302,49.73258707],[-119.74163945,49.73259907],[-119.74145068,49.73323268],[-119.74046037,49.73655638],[-119.74041525,49.73663839],[-119.74041514,49.73663859],[-119.74041368,49.73664124],[-119.74029094,49.73686436],[-119.73694956,49.74336303],[-119.73527662,49.74561566],[-119.73515349,49.74578145],[-119.73297651,49.74871236],[-119.72720526,49.75627028],[-119.72535126,49.75844561],[-119.72457432,49.75935713],[-119.71955161,49.76524885],[-119.71631141,49.76750421],[-119.71618472,49.76759239],[-119.7030638,49.77293424],[-119.69868959,49.77464009],[-119.69538959,49.77598218],[-119.6945665,49.77631168],[-119.69007578,49.77809221],[-119.68237811,49.78048733],[-119.66924768,49.78388108],[-119.66607011,49.78442797],[-119.65256751,49.78701245],[-119.64829234,49.78782835],[-119.63605268,49.79016749],[-119.62558887,49.79245193],[-119.61762463,49.79444502],[-119.61079854,49.79615268],[-119.6082803,49.79681308],[-119.60635155,49.79731883],[-119.60353197,49.79801124],[-119.59869854,49.79919729],[-119.59435932,49.80026044],[-119.59223626,49.8008205],[-119.58872986,49.80174538],[-119.5846716,49.80281562],[-119.58290202,49.8033119],[-119.5739384,49.80593336],[-119.56797092,49.80852289],[-119.56454951,49.81000732],[-119.55648983,49.81486328],[-119.54963329,49.81888064],[-119.54502914,49.82142157],[-119.54297921,49.82255275],[-119.54084447,49.82365178],[-119.53935539,49.82441835],[-119.53631178,49.82626475],[-119.53521827,49.82696097],[-119.53234352,49.82854146],[-119.52900092,49.83084016],[-119.52741243,49.83203205],[-119.52507453,49.83403195],[-119.52369657,49.83521059],[-119.52218398,49.83686624],[-119.51796943,49.84384291],[-119.51705507,49.84535622],[-119.51664556,49.84678259],[-119.51545301,49.85093591],[-119.51539677,49.85132149],[-119.51474205,49.85580943],[-119.51371361,49.86285722],[-119.51368722,49.86303803],[-119.51334038,49.86552963],[-119.51294464,49.86837222],[-119.51229825,49.87301436],[-119.51185321,49.87617833],[-119.51162455,49.87785142],[-119.51161699,49.87785753],[-119.51154049,49.87843858],[-119.51150101,49.8787384],[-119.51159837,49.87925304],[-119.5116263,49.87940066],[-119.51163649,49.87945478],[-119.51163668,49.87945578],[-119.51164541,49.87950213],[-119.51240169,49.88350154],[-119.51296326,49.88647083],[-119.51359916,49.88983264],[-119.51416615,49.89282882],[-119.51606591,49.89522861],[-119.51759817,49.89716411],[-119.51776578,49.89771603],[-119.51862503,49.90054518],[-119.5185178,49.9015952],[-119.51827454,49.90397709],[-119.51623135,49.90759751],[-119.51489815,49.90995427],[-119.50696995,49.91796453],[-119.50451936,49.92043922],[-119.50242287,49.92255644],[-119.50222841,49.92275611],[-119.49995696,49.92508827],[-119.48451283,49.94093747],[-119.48167902,49.94767518],[-119.48156905,49.94849581],[-119.48100238,49.95272381],[-119.47978784,49.96178303],[-119.47929992,49.96429667],[-119.4789525,49.96696021],[-119.47595229,49.97416619],[-119.47565276,49.9748855],[-119.47536332,49.97569641],[-119.47533914,49.97576417],[-119.47529953,49.97586213],[-119.47492505,49.97678826],[-119.47390442,49.97905673],[-119.47228218,49.98271004],[-119.47205263,49.98322486],[-119.47112022,49.98531578],[-119.46878801,49.99054489],[-119.46878282,49.99151272],[-119.46881422,49.99203421],[-119.46885504,49.99323043],[-119.46902947,49.99793764],[-119.46918654,50.00078389],[-119.46751595,50.00250361],[-119.46694969,50.00308649],[-119.46661632,50.00581056],[-119.46614524,50.00965921],[-119.46610808,50.01768564],[-119.46717155,50.02152976],[-119.46888128,50.02770857],[-119.47026955,50.03339155],[-119.47067735,50.03442401],[-119.47080267,50.03474131],[-119.47114808,50.03561578],[-119.47212062,50.0381409],[-119.4736895,50.04044906],[-119.47520304,50.04267558],[-119.47776136,50.04580922],[-119.47509775,50.05059018],[-119.47403997,50.0524885],[-119.47328855,50.05448076],[-119.47198634,50.05868691],[-119.47068842,50.06448092],[-119.47078281,50.06706271],[-119.47159459,50.07145453],[-119.47159857,50.07150175],[-119.47164813,50.07209068],[-119.47225526,50.07930459],[-119.47225197,50.07939729],[-119.47228198,50.07962198],[-119.47255749,50.08289468],[-119.47265677,50.08349967],[-119.47297757,50.08450726],[-119.47331548,50.08539604],[-119.47347083,50.08557496],[-119.4742999,50.08652984],[-119.479668,50.09244457],[-119.48182541,50.09490045],[-119.48479169,50.09823026],[-119.4858418,50.10189677],[-119.48556705,50.10961764],[-119.48550375,50.11130962],[-119.48537052,50.11300834],[-119.48533865,50.11326914],[-119.48473879,50.11817824],[-119.48471453,50.11830782],[-119.48445775,50.11967888],[-119.48290665,50.12249933],[-119.48248816,50.12281857],[-119.47642104,50.12744629],[-119.47513768,50.12886165],[-119.47367074,50.13157808],[-119.47348974,50.13283608],[-119.47322722,50.13434875],[-119.47282454,50.13760768],[-119.47468689,50.14332553],[-119.47690592,50.15013651],[-119.4770501,50.15150966],[-119.47712182,50.15293944],[-119.47631359,50.16517947],[-119.47615521,50.1669591],[-119.47607297,50.16820969],[-119.47582932,50.17238678],[-119.47576498,50.17385401],[-119.47459094,50.17686009],[-119.47401644,50.17830429],[-119.47174821,50.18217816],[-119.46528481,50.18835511],[-119.46022983,50.19025065],[-119.4604444,50.20000016],[-119.46044158,50.20021664],[-119.46044093,50.2002615],[-119.46044061,50.20030672],[-119.46043697,50.20062111],[-119.46043375,50.200891],[-119.4604302,50.20116053],[-119.46042635,50.20147528],[-119.46042626,50.20152015],[-119.46042579,50.20155219],[-119.46042176,50.20187976],[-119.46041557,50.20241918],[-119.46041173,50.20273393],[-119.46041109,50.20277879],[-119.4604104,50.20280763],[-119.46040661,50.2031384],[-119.46040341,50.20340829],[-119.46040045,50.20367782],[-119.46039662,50.20399257],[-119.46039598,50.20403744],[-119.46039572,50.20406378],[-119.46039151,50.20439705],[-119.46038538,50.20493647],[-119.46038156,50.20525122],[-119.46038092,50.20529608],[-119.46038066,50.20532065],[-119.46038028,50.20534094],[-119.46037647,50.20565569],[-119.46037353,50.20592523],[-119.46037036,50.20619511],[-119.46036656,50.20650986],[-119.46036592,50.20655473],[-119.46036565,50.20657573],[-119.46036528,50.20659959],[-119.46036149,50.20691434],[-119.46035485,50.20745376],[-119.46035128,50.20776815],[-119.46035098,50.20781337],[-119.46035034,50.20785823],[-119.46034656,50.20817299],[-119.46034309,50.20844252],[-119.46033995,50.2087124],[-119.4603364,50.2090268],[-119.46033554,50.20907202],[-119.46033491,50.20911688],[-119.46033114,50.20943163],[-119.46032673,50.20982258],[-119.46032603,50.20988097],[-119.4603251,50.20997105],[-119.46032101,50.21028544],[-119.46032038,50.21033031],[-119.46032008,50.21037552],[-119.46031655,50.21068992],[-119.46031435,50.21086616],[-119.46031349,50.21091138],[-119.46031287,50.21095981],[-119.46029873,50.21122507],[-119.46030894,50.21155406],[-119.46030561,50.21158895],[-119.46030531,50.21163417],[-119.46030441,50.21166515],[-119.46030285,50.21182964],[-119.46030124,50.21194856],[-119.46029469,50.21248798],[-119.46029096,50.21280273],[-119.46029034,50.2128476],[-119.46029004,50.21289282],[-119.46028598,50.21320721],[-119.46028289,50.2134771],[-119.46028002,50.21374663],[-119.46027575,50.21406138],[-119.46027568,50.21410624],[-119.46027505,50.2141511],[-119.46027134,50.21446585],[-119.46026485,50.21500527],[-119.46025033,50.2152157],[-119.4601932,50.21536489],[-119.46017862,50.2154304],[-119.46007517,50.2158922],[-119.46006057,50.21706504],[-119.45999899,50.21737267],[-119.46015131,50.21748838],[-119.46014534,50.21753111],[-119.46009174,50.21791992],[-119.4600828,50.22200348],[-119.46017411,50.22255679],[-119.4601705,50.22287154],[-119.46016988,50.2229164],[-119.46016961,50.22296162],[-119.46016566,50.22327601],[-119.46016267,50.2235459],[-119.46015934,50.22381543],[-119.46015574,50.22413018],[-119.46015513,50.22417505],[-119.4601543,50.22422026],[-119.46015092,50.22453466],[-119.46014976,50.22463863],[-119.46014406,50.22507408],[-119.46014048,50.22538883],[-119.46013987,50.22543369],[-119.46013926,50.22547855],[-119.46013568,50.2257933],[-119.46013271,50.22606319],[-119.46013196,50.22610022],[-119.46013076,50.22622306],[-119.46012996,50.22633272],[-119.46012694,50.22664747],[-119.46012634,50.22669234],[-119.46012653,50.22671441],[-119.46012629,50.2267372],[-119.46012327,50.22705195],[-119.46011814,50.22759137],[-119.46011513,50.22790612],[-119.46011509,50.22795098],[-119.46011457,50.22796166],[-119.46011448,50.22799584],[-119.46011149,50.22831059],[-119.46010932,50.22858013],[-119.46010692,50.22881868],[-119.46010637,50.22885001],[-119.46010394,50.22916476],[-119.46010334,50.22920963],[-119.46010274,50.22925449],[-119.46009975,50.22956924],[-119.46009522,50.23010866],[-119.46009232,50.23038567],[-119.46009225,50.23042341],[-119.46009165,50.23046827],[-119.46009138,50.23048572],[-119.46009105,50.23051313],[-119.46008864,50.23082788],[-119.4600859,50.23111629],[-119.46024198,50.23111949],[-119.46066591,50.23112519],[-119.46108617,50.23113053],[-119.46157644,50.23113694],[-119.46164647,50.23113801],[-119.46171671,50.23113872],[-119.46220699,50.23114513],[-119.46304784,50.23115616],[-119.46353812,50.23116257],[-119.46360814,50.23116364],[-119.46367839,50.23116435],[-119.46416867,50.23117076],[-119.46440601,50.23117397],[-119.46456833,50.2311761],[-119.46458926,50.23117646],[-119.46460484,50.23117646],[-119.46500963,50.23118251],[-119.46549991,50.23118892],[-119.46557015,50.23118963],[-119.46561647,50.23119035],[-119.46564018,50.2311907],[-119.46613046,50.23119711],[-119.4669713,50.23120815],[-119.46746159,50.23121456],[-119.46753161,50.23121562],[-119.46755477,50.23121598],[-119.46760163,50.23121669],[-119.46809247,50.2312231],[-119.46851273,50.23122844],[-119.46869541,50.23123094],[-119.46893276,50.23123414],[-119.4694236,50.23124055],[-119.46949663,50.23124126],[-119.46956331,50.23124233],[-119.47005415,50.23124874],[-119.47032857,50.2312523],[-119.470895,50.23125978],[-119.47114459,50.23126298],[-119.47138528,50.23126618],[-119.47145531,50.23126725],[-119.47152555,50.23126796],[-119.47183794,50.23127224],[-119.47183675,50.23138617],[-119.47183301,50.23165571],[-119.47183309,50.23167351],[-119.4718314,50.23177391],[-119.47183,50.2319142],[-119.47182905,50.23192559],[-119.47180268,50.23223963],[-119.47179931,50.23228449],[-119.47179539,50.23232936],[-119.47176936,50.23264375],[-119.47172483,50.23318246],[-119.47171035,50.23336084],[-119.47169903,50.2334965],[-119.4716951,50.23354136],[-119.47169174,50.23358622],[-119.47166572,50.23390062],[-119.4716433,50.23416979],[-119.47163887,50.23422533],[-119.47162121,50.23443932],[-119.47159487,50.23475336],[-119.47159151,50.23479822],[-119.47158854,50.23483169],[-119.471586,50.23486267],[-119.4716479,50.23486338]]]},"geometry_name":"SHAPE","properties":{"id":348,"slug":"west-kelowna-peachland","name":"West Kelowna-Peachland","abbreviation":"WKP","gazetteDate":"2023-12-07Z","boundarySet":11},"bbox":[-120.05986658,49.71228856,-119.45999899,50.23584083]}
